{"type":"FeatureCollection","metadata":{"code":"001018","referenceDate":"2026-01-01","sourceDbfExportDate":"2026-02-18","upstreamArchiveUrl":"https://www.istat.it/storage/cartografia/confini_amministrativi/non_generalizzati/2026/Limiti01012026.zip","sourceManifestSha256":"70ac8256c4785dc6ed2814c32b6965ae76f9161b51abaa1660059e1c6cbd8ca6","license":"https://creativecommons.org/licenses/by/4.0/","attribution":"Istat, Confini delle unità amministrative a fini statistici al 1° gennaio 2026, versione non generalizzata.","modifications":["Converted from WGS 84 / UTM zone 32N (EPSG:32632) to RFC 7946 WGS 84 geographic coordinates.","Converted from shapefile to per-municipality GeoJSON without geometry simplification."]},"features":[{"type":"Feature","id":"001018","properties":{"code":"001018","name":"Baldissero Torinese","alternativeName":null,"regionCode":"01","regionName":"Piemonte","territorialUnitCode":"201","territorialUnitName":"Torino"},"geometry":{"type":"Polygon","coordinates":[[[7.787592761973249,45.09177441349951],[7.787500069035228,45.09178242839536],[7.787431658664763,45.091797300277385],[7.787251480561253,45.091838301981504],[7.787134380686338,45.09187306272343],[7.787041738140445,45.092065616172015],[7.787024671374974,45.092105634154805],[7.7869745729725155,45.09221793395195],[7.7867106614039745,45.092228596852465],[7.786517040961257,45.0922400844461],[7.7864311918205384,45.09226921827271],[7.78613360279404,45.09236944075057],[7.786092621534401,45.092384109201845],[7.785975877617895,45.09255144361083],[7.785724287413115,45.092912059842],[7.7856531380509395,45.0930140414932],[7.785522070558119,45.09320168775171],[7.785153300883687,45.09373786847584],[7.78469454083264,45.094246084910644],[7.784144743344005,45.09427173758741],[7.783385494512498,45.094276937571784],[7.783244561698401,45.094280902743776],[7.782977207947868,45.09432683161967],[7.782770541731845,45.094482593892344],[7.782729988493789,45.09451265423858],[7.782675604059056,45.09455342777385],[7.782629303951214,45.094588683859996],[7.782225742841482,45.09479591010876],[7.782012528176192,45.094876931393294],[7.781664399285421,45.09501046689546],[7.7814883816706315,45.09497708255278],[7.7811539888796695,45.09477098186752],[7.78100960127799,45.094751075190224],[7.7809398255569056,45.094741471661656],[7.780835200358937,45.09472705634657],[7.7803463011351095,45.09469032932758],[7.780072916130067,45.09452989676837],[7.779859197195685,45.094383575867866],[7.77984996249112,45.09425745225525],[7.779802410795813,45.092816669745886],[7.779797386482503,45.09247454467012],[7.779676308837855,45.09223021524313],[7.7795832038189,45.09212569699909],[7.779358740413473,45.0918667352576],[7.779199586679848,45.091642466540605],[7.779136663128968,45.09155379596305],[7.779116903818665,45.091503849841374],[7.779045462255789,45.09132328162726],[7.779089072587731,45.09125171831883],[7.779482724391151,45.09085536050688],[7.779527024242782,45.09081110321365],[7.780097864834243,45.09024082299555],[7.780356425201201,45.089978022259736],[7.780352538428581,45.08985656372946],[7.780215704556513,45.08976047176063],[7.779946221874148,45.08957674781289],[7.779613957045712,45.0891669051695],[7.779542026422545,45.08907814571892],[7.779522689968432,45.08903605102588],[7.779457738387069,45.088833892253625],[7.779437292422677,45.08877480830989],[7.7794249786193745,45.08871671146486],[7.779368200517698,45.08851368850666],[7.779335114087924,45.08833329542249],[7.779189907642585,45.08787186143574],[7.779155384957502,45.08769158525142],[7.7791188284890485,45.087619183680694],[7.779111698071065,45.08756570071623],[7.779074419928682,45.0874663427501],[7.778962987083663,45.08736057024396],[7.778872522360414,45.08735076581587],[7.778823407077402,45.0873453084982],[7.778629878669465,45.08732670782068],[7.778486851764807,45.087333365066435],[7.778446796577637,45.08733763371995],[7.778370196437474,45.08734990197299],[7.778235020894284,45.087348946365736],[7.77817120453348,45.087375440866744],[7.778055691731659,45.08741877900909],[7.777555997921425,45.08761146116633],[7.777466411143101,45.08764620858777],[7.777321450390459,45.08762768006135],[7.7772886710905,45.08759079710801],[7.777227616101601,45.08751792286565],[7.777043543957996,45.08734857953335],[7.7769916923195295,45.08729046044473],[7.776927846946026,45.0872183276063],[7.77651476571996,45.08679532449838],[7.776244956610516,45.08653508018375],[7.776096122355182,45.08635357792833],[7.775773034788217,45.08602967145295],[7.775651750216431,45.0859080783378],[7.775586041552319,45.08584402636874],[7.775384689798629,45.08575184474997],[7.775017017478958,45.08568457351285],[7.7746322316941034,45.08568728373696],[7.774496484093596,45.08568860581987],[7.774411182830165,45.085699427769214],[7.77430822664031,45.0857126256647],[7.774114302146819,45.08573823168946],[7.773897645230619,45.085771780433866],[7.773732799231566,45.085770345179284],[7.773516437003371,45.085721473235346],[7.772847886855455,45.08557153835851],[7.772725239627444,45.08553740602165],[7.7725242810293595,45.085481416194206],[7.772239155155345,45.08540213632738],[7.772038788897637,45.0853468334486],[7.771821964760075,45.08524548275906],[7.771724088500665,45.08520842642993],[7.771297266354928,45.08500236000149],[7.771172575899962,45.08492862221258],[7.7711157913271185,45.08489198594331],[7.771073462988127,45.08484653043488],[7.771022122661313,45.08478776598354],[7.770923600157864,45.08467265553922],[7.7708805034910835,45.08462476570373],[7.77056484424956,45.08416075467297],[7.770523967279608,45.0841021224481],[7.770472309550899,45.08402326501447],[7.770421294430255,45.083943896872526],[7.7703977220171,45.08390803733961],[7.770304834967371,45.08376710865951],[7.770071700044602,45.08341789360641],[7.769994225752721,45.08331096302692],[7.769758125457346,45.082986769170674],[7.769725574453796,45.08293255441322],[7.769706210024571,45.08289959003704],[7.7696028066186225,45.08272013858217],[7.769386750795283,45.082348552985174],[7.7693336606265495,45.082271163072384],[7.769082553978438,45.0819085510832],[7.769006569554233,45.08178620588027],[7.768959217310488,45.08167325481658],[7.7689760079518795,45.081641914223226],[7.76906999395444,45.0815200357119],[7.769112662241224,45.08129157535318],[7.769179784861013,45.080916800422116],[7.769191729234536,45.08085853447809],[7.769038766471468,45.08065669278708],[7.767893109224295,45.08037848315874],[7.7677170653181875,45.080332170430026],[7.767450314177384,45.0802060595057],[7.7673889315836995,45.0801773635236],[7.76740014364686,45.0801018252972],[7.767421938275421,45.07993434525897],[7.767504536254291,45.07972095877003],[7.767738944503591,45.07938968998994],[7.767768613695781,45.07934834530466],[7.767801319214945,45.07931469481103],[7.767879605294301,45.07923488698354],[7.767927413600514,45.07918628178179],[7.767988464401425,45.079124447254465],[7.768014685308604,45.079101178730326],[7.768247703393898,45.07897151719588],[7.768300921991618,45.07894190999227],[7.768478731595811,45.078843236203745],[7.7685809991989245,45.078789187735325],[7.7687342156186965,45.07875935699038],[7.768823834045397,45.078743256748965],[7.768871914129337,45.07872607127752],[7.7689655503839266,45.07869214025829],[7.769003094500638,45.07867859400015],[7.76911337025868,45.07863912248844],[7.769421841386721,45.07857937330627],[7.769515231270634,45.07856281176423],[7.769596245721709,45.078502173588454],[7.769711777554631,45.07838192641989],[7.769801711690579,45.078336925814064],[7.769942745038226,45.07828320912898],[7.770000410067986,45.07826574655307],[7.7706789375623835,45.078134240026344],[7.770721816145605,45.07811339075342],[7.770936879862036,45.07813036248352],[7.771150508333461,45.07815040148168],[7.77134303184564,45.07821794507384],[7.771405430517535,45.07830302637966],[7.771586917261246,45.07840433000694],[7.771656724765005,45.078420700877274],[7.772308622087145,45.07841730085868],[7.772708023949563,45.07833677471529],[7.772963823654084,45.078263274805074],[7.773084667176702,45.0781818088639],[7.773365632268017,45.077886658712806],[7.773342390597124,45.07783798203164],[7.773280711139048,45.07778715957727],[7.77318662964119,45.07768072869097],[7.773107656492149,45.077589830638985],[7.7730484260164525,45.077521782406784],[7.773027972670119,45.07749831277197],[7.772943016111779,45.07740046302922],[7.772916081541036,45.07736941892197],[7.772724816780648,45.077147760758216],[7.771998194054874,45.0763158721819],[7.771713289482132,45.0759883242689],[7.7701237533458,45.07415446371659],[7.770099052799058,45.07412590048363],[7.769920453082835,45.073928266519594],[7.769904127540359,45.07389910302107],[7.769729572489179,45.07369965434709],[7.7694314466962675,45.07335619777624],[7.769405126071402,45.073325904785726],[7.769385972156326,45.073303824862556],[7.768202113245029,45.07194058307268],[7.767502438020606,45.07113504580033],[7.767353709830206,45.07096382279722],[7.767250751188743,45.07084528984808],[7.767220302839173,45.07081305059604],[7.768010353271659,45.070818077210596],[7.768677103529103,45.07083651384502],[7.76956650501827,45.07082810803109],[7.770908592927002,45.070851557034686],[7.771344404966957,45.07085624707719],[7.771649958882935,45.07084360652466],[7.7722483298013065,45.07082022043266],[7.772426500424466,45.07080404679574],[7.774292508311803,45.07027515803893],[7.774739303614228,45.07017182227844],[7.776123476446883,45.06971662798247],[7.776223326621984,45.06968379006747],[7.776503935109319,45.069623890486895],[7.7766686533805895,45.06963420067074],[7.77700823374572,45.06980913641962],[7.777234750707125,45.06991058131466],[7.777348465086995,45.06993880527912],[7.777499518544273,45.07000343615323],[7.777727163858301,45.07005089204194],[7.777878240925819,45.07011552176622],[7.7781062723700485,45.070144953089915],[7.778270425062306,45.07019172847518],[7.778445549367572,45.070319627450615],[7.778479037161179,45.070351756696546],[7.77853182464617,45.070405625625725],[7.778581343769234,45.07045507478536],[7.778618540318681,45.07054652152689],[7.778705144311172,45.070655464214596],[7.778741906924359,45.07071886921257],[7.7789166491147,45.07086477510249],[7.779029754421016,45.07092948423957],[7.779133893964493,45.070938878463345],[7.779525435978977,45.07090737264961],[7.779783267900398,45.070921869146645],[7.779905779332769,45.070929060898884],[7.780665701335721,45.07105449409139],[7.781006902882225,45.0711391424958],[7.781347318366909,45.0712598058586],[7.781625201748327,45.071334779342585],[7.782833386481657,45.07186977996578],[7.783073571980064,45.07192633815438],[7.783631052367384,45.07201354622575],[7.783863128690456,45.07201981504999],[7.784125869096091,45.07202856134354],[7.784303514885341,45.07205663181004],[7.784416837731875,45.072048380902956],[7.784422229482426,45.071852070003025],[7.784423038834697,45.071800832184216],[7.784425959024212,45.07175782829112],[7.7844676109966295,45.071500392160345],[7.785059290904487,45.0717404516599],[7.7856112542105365,45.07207038472142],[7.785774660203927,45.07215314681858],[7.786087798774817,45.07236350972038],[7.786303249306775,45.07241079634539],[7.7864430556562505,45.07237605171202],[7.786520582276949,45.07231405643261],[7.786652036635469,45.07213548361033],[7.786794989557716,45.07195715522149],[7.786887650144485,45.071805114185416],[7.787053343064157,45.071752922831585],[7.787522637254928,45.07180238832605],[7.787611817117396,45.07177640357054],[7.7877280500277415,45.0716968615894],[7.788092462322235,45.071508431990736],[7.788310775864359,45.071398588817296],[7.788443390380448,45.07133127786085],[7.7884854411185644,45.071311361900165],[7.788541334364732,45.071284682086585],[7.788767908087419,45.07117672873111],[7.78891729357657,45.07110120451839],[7.789012189190322,45.07105394678102],[7.789087442759978,45.071029286778526],[7.789135476643234,45.071012910525745],[7.789306084295802,45.07095751835457],[7.7894203387309915,45.070940506387046],[7.789698027223222,45.07108760951711],[7.789998738745132,45.071190464452464],[7.790253498948034,45.07115715821819],[7.790636810555749,45.071053205608045],[7.790879255137086,45.07100175581002],[7.7910709931857465,45.070908057865005],[7.791123156447448,45.07088257774683],[7.791418412333695,45.07073741164641],[7.791471107904088,45.07064796738998],[7.791561340421594,45.070585909601284],[7.791730247333317,45.070407654304816],[7.791950120887776,45.07022094333482],[7.792015344024865,45.070140626867015],[7.792157512459481,45.07002510079192],[7.7922733451978665,45.069954316797556],[7.792926931758402,45.069682168434014],[7.793246712566985,45.06957753455528],[7.793938775360432,45.069287773445865],[7.795169728571994,45.068742668566436],[7.795824610751617,45.068407504485066],[7.79648064252247,45.06801834952057],[7.796667833982993,45.06791793376205],[7.796904648577315,45.0677887603012],[7.797135150542904,45.06764266754035],[7.797239360329028,45.06757625695545],[7.797690633324502,45.06727860926227],[7.797896948842239,45.06714258358078],[7.798191875703344,45.066960637464625],[7.798256632383887,45.06692083238258],[7.798531498667131,45.06673243690046],[7.798546714913455,45.066703528311244],[7.798593418552072,45.06660931240995],[7.798625403138068,45.066294585996644],[7.798707455836245,45.06601640618524],[7.79870934111579,45.06592640597664],[7.798600337218514,45.06567320631949],[7.798404740800295,45.06530798226798],[7.798203193729758,45.064928310314244],[7.798185086688836,45.06489400192658],[7.79814910973623,45.06477728097994],[7.798032674557843,45.06427195497597],[7.797982268282695,45.064083316816514],[7.797832468248344,45.063522705679176],[7.797656111190777,45.06284571808441],[7.797559246474507,45.06261965690652],[7.797537257610128,45.06245739423201],[7.797552779423151,45.0623225158336],[7.797592198916151,45.06225993611537],[7.7977398735499,45.06209499315842],[7.7977636325573085,45.06207248217555],[7.797969669527531,45.061876105040966],[7.798060335081377,45.06177510466393],[7.7982287176941325,45.061582481451545],[7.79833334176968,45.06143956399872],[7.798386583878107,45.061323094163946],[7.798543104879828,45.06112670441395],[7.798554826174028,45.06104821924473],[7.798572663206404,45.06092898231294],[7.798784872098774,45.060499120568586],[7.7988794150123395,45.06023006998307],[7.798880451708631,45.06018056270516],[7.798881972267582,45.06008671928729],[7.798886953571991,45.059870064250894],[7.7989329693461125,45.05949249014685],[7.798937447695368,45.05942716323127],[7.798975145622204,45.058691776777756],[7.7989648808430685,45.058574638656026],[7.798897189547379,45.05844572433385],[7.798830479124134,45.058321173574235],[7.798777946628614,45.05826626068918],[7.798741320326242,45.058231257035835],[7.798723612418294,45.05809421493959],[7.798710090747267,45.05800484199156],[7.798712352249161,45.05789685094867],[7.7987517579051024,45.0577672780705],[7.798950175439331,45.05745826440209],[7.799124836074505,45.05700101752985],[7.799102471808011,45.056856744829574],[7.799092204083463,45.05673962555605],[7.799189943279268,45.05631755529634],[7.799268961653688,45.056183364029835],[7.799382775671004,45.0555994501825],[7.799431609590987,45.05508686232589],[7.799429914669051,45.05497881251561],[7.7994258873805435,45.05475372685063],[7.799737402361556,45.05443293892813],[7.799917797815879,45.05430881004264],[7.800423494630948,45.05381003835644],[7.80077271866907,45.05350763837007],[7.800825692774339,45.05345922376311],[7.80112352659435,45.0531865733035],[7.801204824175247,45.05312071144528],[7.801485115450446,45.05289327125976],[7.801633576198076,45.05273682449731],[7.801874815658035,45.05248328494389],[7.801918293126633,45.05244481263747],[7.801944000571043,45.052422315789826],[7.802136110105065,45.05225129502234],[7.80218525868031,45.052207474694306],[7.802582460592021,45.05190374317322],[7.802632627196263,45.05186532993154],[7.802663162467577,45.05184355958122],[7.802853144691283,45.051792131810245],[7.803145551454856,45.05177718425735],[7.80364146539554,45.05174637625767],[7.8038217165355075,45.05173117637194],[7.804328382208256,45.05169055798055],[7.804417071900483,45.05170048214355],[7.805345584903078,45.05162919412053],[7.805929997961939,45.05161729400248],[7.80638737314894,45.05159233996111],[7.806476570779532,45.0515882951684],[7.806763155866493,45.05158999932947],[7.8068751982052165,45.051591085441665],[7.8070480381905645,45.05159297674723],[7.807378886275382,45.05156042705035],[7.807474421791202,45.051555170309285],[7.807518655160599,45.05155313062798],[7.807632827064341,45.051563079848414],[7.807683513306856,45.05149159972925],[7.80777678477631,45.05135755218691],[7.807898731171933,45.0509897433069],[7.808064760349984,45.050638156656866],[7.80810181213252,45.05057447095127],[7.80812411062712,45.05053301163887],[7.808136189520513,45.05049720773822],[7.808353382682708,45.04988726149323],[7.808343123612913,45.049770145705445],[7.808307645671832,45.049643746881635],[7.8082221386929795,45.049480826622066],[7.808049067393598,45.04925397486502],[7.807987510835607,45.049088276194134],[7.807973531821528,45.04905063216448],[7.807718384897839,45.0487471374059],[7.80767981858677,45.04870126277757],[7.807596909707996,45.04840307403747],[7.807611657507481,45.04830421217788],[7.807588148808826,45.048213944586124],[7.807604576910005,45.04803409441166],[7.807602309167844,45.04770438782119],[7.807601622285715,45.047602693029496],[7.807601430373091,45.047574956319636],[7.807605079979846,45.04753620724938],[7.807635411053819,45.047161228640945],[7.807626273441481,45.04699010612666],[7.8076496459118605,45.046877836918135],[7.807662720999659,45.046820219354906],[7.807683947531371,45.046719919097825],[7.80774101562818,45.046597812493026],[7.807910250107847,45.04621841653972],[7.808121153165601,45.04584233313173],[7.808238985452324,45.04567254302021],[7.808285310642779,45.04561926290832],[7.808463446089118,45.045415268297276],[7.808641013395364,45.04520934197695],[7.808890054752936,45.0448338602192],[7.808917298379944,45.044744142932046],[7.809059507280508,45.04423405785922],[7.809109407575391,45.04405300091621],[7.8091747633634006,45.04396366211519],[7.809381601410667,45.043785775458936],[7.810054927952834,45.04328426548657],[7.810324650056474,45.04308382468549],[7.810643438838206,45.042997125989125],[7.811522434070226,45.04285331189753],[7.81203437022013,45.042867475108096],[7.81628529181943,45.04299292626851],[7.816687170968387,45.0430060267205],[7.81825596661813,45.04306987451997],[7.818753942662358,45.04309096469137],[7.819019836328223,45.043107209595114],[7.819096313278395,45.04311249693272],[7.8193841668575415,45.04312506127664],[7.819438403425732,45.04312742958569],[7.819672230711246,45.04313740922321],[7.820544941130452,45.04317621193704],[7.820585617915588,45.043178409037964],[7.82297513893974,45.04328799473398],[7.823193752005752,45.04329884735097],[7.823827746947959,45.04334138220258],[7.824058015941345,45.0433496049527],[7.824691482916533,45.04337457684654],[7.8247568756271795,45.04337714657059],[7.825403134739781,45.0434024865194],[7.827431344363309,45.04225244128166],[7.827608161516924,45.04172360611204],[7.828217806546239,45.04169327468753],[7.828416380733839,45.0416250184648],[7.8285544360388934,45.04157780675125],[7.829815315327295,45.04114273902796],[7.829882208574131,45.04140517522997],[7.829932509028793,45.04160374689591],[7.829953793657446,45.04168849336241],[7.830061711594629,45.04211817135756],[7.830067780398858,45.04215307703514],[7.830074000230728,45.04218973062038],[7.830141968185044,45.04261366109403],[7.830112115321043,45.042821856322206],[7.830123492101828,45.042927820336395],[7.830133433526305,45.04301637084984],[7.830303578638516,45.04338919203836],[7.830462227929018,45.04358656242463],[7.830514077617791,45.043652397430826],[7.831060214347661,45.04419918372749],[7.831310902054581,45.04445245317212],[7.831369748631056,45.04451180423726],[7.831432117828792,45.04457364252544],[7.831458532419327,45.044600110036306],[7.831937215450403,45.0450790875296],[7.83209021551947,45.04523053155723],[7.83213240593051,45.04527219335613],[7.8322580535594195,45.04539859240596],[7.832404324206174,45.04560713976951],[7.83269766382385,45.0461682411341],[7.832819702203256,45.046403889658045],[7.832767725434191,45.046456679058984],[7.832640643151134,45.046473802284815],[7.8325926095068485,45.04648705076494],[7.832423795801492,45.04652564592077],[7.832258067838703,45.04659162091313],[7.832052496832475,45.04667479218229],[7.831539280584373,45.04693051099481],[7.830912599063925,45.0471760658417],[7.83096198504743,45.04722170943135],[7.831074764437004,45.047294873374874],[7.8311746977877705,45.04737692287465],[7.831261735186488,45.04746781424428],[7.831422546536083,45.04767651071438],[7.831482055028334,45.047875511486616],[7.831429455178391,45.04796463256291],[7.831288722086673,45.04831071415868],[7.831268894833592,45.04835908251834],[7.8310582279592795,45.0487349760002],[7.830928249453189,45.04904451076508],[7.830907730408727,45.04908996977729],[7.830649084915736,45.04950492716844],[7.830635550893722,45.04953575313607],[7.830568985111113,45.04968416278001],[7.830420538267744,45.05011470956687],[7.830307610563918,45.05062644575355],[7.830266543056084,45.05143643163599],[7.830317135792882,45.051831121800554],[7.83033227136872,45.05195020561654],[7.830392627187088,45.052103856995586],[7.8304335278979424,45.052590370127575],[7.8304679293632,45.05277074494828],[7.830472857973393,45.05282937492627],[7.830492479183277,45.053083923877615],[7.830517754129147,45.053410386129706],[7.8304615954544365,45.05367973933392],[7.83039421259371,45.053868209405],[7.830371429264188,45.053892748215084],[7.830278226879189,45.053993024652954],[7.830236976300841,45.05414564241325],[7.83023173020921,45.05418238100143],[7.830216206184757,45.05428912514719],[7.830193772256891,45.05445883029733],[7.830169013114308,45.05463886013441],[7.830147065287513,45.054801901681394],[7.830105831422513,45.05494549339897],[7.830002037437226,45.05506140440118],[7.829434178912328,45.05552340499863],[7.8294500364431,45.055642161389706],[7.829456230786275,45.05568583429857],[7.829491887451729,45.0557943496995],[7.829921067851741,45.05654590888611],[7.830079157548979,45.05690784343361],[7.830069800030854,45.05702522334585],[7.830061316886232,45.05714145187648],[7.830084335307461,45.057258717893774],[7.830133656164373,45.05733123248109],[7.830246296962671,45.057413411038226],[7.830560989484903,45.057551657294155],[7.831136657755551,45.057971635746036],[7.831286089460895,45.058117184701295],[7.831482828326026,45.05843426413728],[7.832260687028618,45.05911749391259],[7.832076097660416,45.05924156519818],[7.8315987945740755,45.059605772967906],[7.831494717756267,45.05971259769194],[7.831392355297238,45.05976574032637],[7.831315016772707,45.059827903161185],[7.831208781787485,45.060033865225876],[7.831144892324994,45.06010479925544],[7.830823279148514,45.06087566979046],[7.830886596905468,45.060912859200414],[7.831203771412634,45.060906938574746],[7.83149522995948,45.060927613589485],[7.831774302743711,45.06097602001831],[7.832128710192757,45.06100609887165],[7.832257492977122,45.061025704016345],[7.832509285581991,45.061064873751256],[7.8325640622855826,45.06117997577498],[7.832601810597187,45.061261055902705],[7.832923022750892,45.061942439046014],[7.8329354086185,45.061999216850225],[7.832944876035333,45.06205060873684],[7.8336446082632545,45.06199474512853],[7.833931519260335,45.061967521843584],[7.833989262152449,45.06196213965506],[7.8339863697443315,45.06201450977366],[7.833963243240981,45.06266412290383],[7.833504504434202,45.0627179558998],[7.8333585624977315,45.06294600351127],[7.833023264282266,45.06319463134413],[7.832662924485631,45.06342500484035],[7.832256507436114,45.0637539081056],[7.832032228494971,45.06383261912013],[7.831801078646542,45.06395628024098],[7.831646128095874,45.064080720549114],[7.8314918848374,45.064169165976],[7.831412427161674,45.06418648705054],[7.831185627501944,45.06423803819449],[7.830948469635512,45.06432563147969],[7.830674182245888,45.06444271483099],[7.830327833568557,45.064612276413136],[7.83007440212293,45.06473526019788],[7.829681938286041,45.0649427878372],[7.829336701287443,45.06507427286853],[7.8290448253864175,45.0658004244794],[7.8288770427208485,45.06590013102113],[7.82873324717418,45.06599919937396],[7.828296761374881,45.06629782911374],[7.8280911008602585,45.06634120939699],[7.827680751141826,45.0664300582439],[7.8270359383539025,45.066747497763636],[7.826400105612216,45.06720906047443],[7.826357691081791,45.06749668105649],[7.826357514394669,45.067555898624796],[7.826346547190217,45.06804117221118],[7.826251256714162,45.06822999257537],[7.826146700609762,45.06842703708929],[7.826041955274462,45.06855113600693],[7.825976263324696,45.0686854348272],[7.825923956579515,45.06872994574943],[7.825836579661041,45.06886010033426],[7.8257536806251515,45.06898024676378],[7.825635520895076,45.06916807166162],[7.825621146333985,45.06921996964879],[7.825594467431777,45.06931168666241],[7.825551385264621,45.069554278281274],[7.825467615622253,45.06992249754461],[7.825414234434634,45.07004797302607],[7.825348897267404,45.07013732362391],[7.825197209491578,45.070224883861165],[7.825066722832323,45.07026944161177],[7.824788565561171,45.07030150453329],[7.824631543552698,45.07038156731646],[7.8245536722656315,45.070439401804485],[7.824348837780302,45.07058611387755],[7.824283683189903,45.07066644861734],[7.8242424382410904,45.070819056639685],[7.8242276908312745,45.070917922977216],[7.824336474093688,45.07118910560038],[7.824332414364775,45.07138709925458],[7.824355428710339,45.07150436610366],[7.824478355576328,45.07170366615182],[7.8248972126862775,45.07203203805199],[7.824978484115543,45.07209588705804],[7.825032849671729,45.07216546697443],[7.8250898300069505,45.07224105097222],[7.8252111277735485,45.072521359674596],[7.825244439786413,45.07275574053948],[7.825329660963822,45.072936660699014],[7.825351804523704,45.072959395717554],[7.825404192943253,45.07301845179304],[7.826032436700218,45.07335796855683],[7.826345389809305,45.07358622900473],[7.826418999323137,45.07371301000618],[7.826404646514522,45.07385238338563],[7.8256898067451015,45.07473621109725],[7.825545833582018,45.0747693424],[7.82486646814945,45.07492577473973],[7.824783210840332,45.07503744865207],[7.824890421687681,45.07508844900567],[7.825170048445634,45.07522145727065],[7.8252875715573005,45.075413855751265],[7.825336070908638,45.0754932384203],[7.825538729530372,45.07563934108726],[7.825740378910088,45.07583495196468],[7.825895633304556,45.0760661089015],[7.826780754617624,45.07609769716362],[7.826788272231885,45.07615628975698],[7.826863036070141,45.07620339826798],[7.826976822932181,45.07623993979169],[7.82725641775745,45.07625111841891],[7.827348959336216,45.07624185802447],[7.827408706015895,45.076233968445614],[7.827573967473159,45.07625437918682],[7.827675021854818,45.07628242480708],[7.827825072427208,45.076400994074675],[7.828523308739336,45.07704726513587],[7.828785825872826,45.07725700761455],[7.828998122155106,45.0775076022976],[7.829032020623493,45.07754758756447],[7.828607256827538,45.077903531087536],[7.828220130845041,45.07820539291042],[7.828102613818369,45.07830664910231],[7.828013224607202,45.07838329126478],[7.827845691104124,45.07849860146607],[7.827741130536265,45.0786415642106],[7.827752539739257,45.07870469396665],[7.827979159266126,45.07880603817059],[7.8282792439529265,45.07904315563262],[7.828302609292511,45.07914241342618],[7.8278005810061595,45.079461322474415],[7.827287510132709,45.079699108668336],[7.8271535476798615,45.07974601581565],[7.8267116411903555,45.079900224819326],[7.8265550478623105,45.07996612478599],[7.825097079817305,45.080567766684176],[7.8250625780164755,45.0805854044977],[7.824326958922231,45.08094691251843],[7.823494436918866,45.08127139493479],[7.822867916102116,45.081462970673556],[7.822791687867644,45.08146218486091],[7.821920546480113,45.08119215590481],[7.82168086030896,45.081108676587846],[7.821364770267456,45.08103338658478],[7.820961419816263,45.08087620826399],[7.820127641467671,45.08064255317478],[7.819979706359657,45.080596005649674],[7.819521148012013,45.080621298858894],[7.819223663699525,45.080637707577736],[7.8193191914956905,45.08103026558705],[7.819380681928564,45.08112991845923],[7.81941527574078,45.081301303132854],[7.819458297861485,45.0816798253366],[7.819467843483909,45.08183295552367],[7.819388278012599,45.08199416353579],[7.819322362575493,45.08211051172586],[7.818984298499581,45.08248507251234],[7.818931237456975,45.08259255611312],[7.818916684400017,45.082682427181304],[7.818825163408038,45.08280750572812],[7.818603820289911,45.08306626454577],[7.818321750564107,45.0831893702624],[7.818076310866369,45.08338486429889],[7.817873598340953,45.08335575788636],[7.8172632852072415,45.08337644633057],[7.817009762505956,45.083346812109475],[7.816746144087319,45.08319104844381],[7.816559126217965,45.083018082554126],[7.81636914219226,45.08298910628093],[7.816126483963661,45.08304960249209],[7.815768178791359,45.08317191241132],[7.815434360987451,45.08333110804103],[7.815306394382269,45.08338316927515],[7.815168519050279,45.083291717214685],[7.815042778005679,45.08322739989769],[7.814953854224118,45.083226477110756],[7.814813190839357,45.083270018154],[7.814660916013027,45.08325944211047],[7.814258314011102,45.083066224538165],[7.814028163128776,45.083135842558036],[7.813986654983156,45.083184928546814],[7.81395677611926,45.08309460833762],[7.81385243242691,45.08312953082657],[7.8138121884823075,45.08317413168515],[7.813690159538886,45.08335738377694],[7.813610101848027,45.08351858260748],[7.813564710619414,45.08363963707454],[7.813523798635893,45.08377423535603],[7.813490413034209,45.083814410958034],[7.813337789578936,45.08382012368105],[7.813150392627721,45.08381987296986],[7.812964623109953,45.08383595372536],[7.812580849048388,45.08428654544463],[7.812028846302428,45.08496244352127],[7.81198455700767,45.08501534900163],[7.811892722052411,45.08505229920315],[7.811855824611592,45.0850711620368],[7.811510585010881,45.08504056127876],[7.811180684672614,45.085037127256484],[7.810779746640083,45.08505094348808],[7.810566891550538,45.085095449485664],[7.810509902001125,45.08510248578454],[7.810501542603935,45.08515132256393],[7.810458629378759,45.085232194158365],[7.810435860251012,45.08527571469413],[7.810347781620662,45.08533450062783],[7.810245298572287,45.085355941899984],[7.810157243770911,45.08535052623417],[7.809822453198144,45.08531553195073],[7.809665338083089,45.085327387982844],[7.809596584524078,45.085331169472575],[7.8093764262694725,45.08539640386399],[7.8093290839995495,45.085434596351725],[7.8092682026390525,45.08552128253746],[7.809241628888479,45.085539017128],[7.809177310620041,45.08561485356908],[7.808998140919922,45.08575252361255],[7.808940510235877,45.08578816644322],[7.8089017374410155,45.085812514256446],[7.80884690410868,45.08584451708653],[7.80871282787286,45.08591607527684],[7.808614706525975,45.085955556972046],[7.80846618860416,45.08599452713398],[7.8081311396006505,45.08608553050619],[7.8078328251188776,45.08618595150962],[7.80770166718905,45.0862295830059],[7.8075505443355855,45.086277343833174],[7.807486587180036,45.08629934515802],[7.807193418243288,45.08639981822224],[7.806944499579331,45.08647372407562],[7.806821696790593,45.086503546683865],[7.8066304568728935,45.08654694972062],[7.806396866012134,45.086589527190135],[7.806200852202085,45.08665948890639],[7.805587561582081,45.08689612951516],[7.805157778454736,45.08703565207603],[7.804920691854551,45.08713218899435],[7.804628540778394,45.0872596525824],[7.804138689593157,45.08746157572918],[7.803843250988218,45.08757548938297],[7.803604775070455,45.08768102250026],[7.80343894061487,45.08778730011287],[7.803238930373573,45.0879337381773],[7.803036079779376,45.088044124549455],[7.802804404018275,45.08810920660589],[7.802668196519732,45.08816629195287],[7.802450480500552,45.088285537604385],[7.801988751753164,45.08856424992576],[7.801663497698136,45.088754361225654],[7.801447145852711,45.08888260215344],[7.80099296603785,45.089143389675314],[7.800893313495776,45.08920086841648],[7.800831036227132,45.08925422967146],[7.800497390224227,45.08954709583398],[7.800126736778237,45.08987244038448],[7.799708908564327,45.09028842915752],[7.799236497266332,45.09075875422502],[7.798968653764559,45.091040183256325],[7.798663940007743,45.09136034822549],[7.798618790690303,45.0914093776503],[7.797922538717082,45.09218970933344],[7.797333027912107,45.09282260538521],[7.797265680119343,45.092891471742846],[7.79697140369403,45.09319237379081],[7.796741154721215,45.09341499061639],[7.796577767015102,45.09349878938816],[7.79650647454023,45.09348904256073],[7.796383773330747,45.09346973855093],[7.796302274870813,45.09345538493028],[7.795442941748142,45.09335630021393],[7.795376439718684,45.09334660321272],[7.794400853626218,45.09322377706437],[7.793986545800784,45.09314987240949],[7.793833477855701,45.09312326765865],[7.793690626629846,45.09309924792209],[7.79349634182839,45.09306568820912],[7.793369266417012,45.09304635184498],[7.792741855167584,45.09294616580748],[7.792488369439844,45.09289974685444],[7.792289375946701,45.09286276592677],[7.792205023369287,45.092848010120676],[7.792145323605273,45.09283767024188],[7.792035852017982,45.09281524014521],[7.791029467740641,45.092625517287864],[7.790324976443472,45.092474037869074],[7.7901524868830085,45.09244167463748],[7.789910790363042,45.092397641510985],[7.789797614078945,45.092378431353836],[7.7897465971706445,45.0923688924812],[7.789674209347153,45.09236058536451],[7.789572662129876,45.09234903723549],[7.789377791047035,45.09230646971132],[7.789336365334336,45.0922925359464],[7.78921165884631,45.09225518139121],[7.789143321725361,45.09223645501396],[7.788932601334368,45.092153195332465],[7.788889225540376,45.09213924162333],[7.788669990719406,45.092064907339164],[7.788558868589633,45.09200521421247],[7.788493098541711,45.091966437998174],[7.788426688468251,45.0919272831813],[7.7883986266015315,45.09191091545443],[7.788365027439056,45.09189107819059],[7.788305671896521,45.091856729493344],[7.788201296067604,45.09182449553297],[7.788083716409338,45.091789503626046],[7.7880280145878436,45.0917797342275],[7.787988077370127,45.09177038237582],[7.787948630899424,45.09176871064108],[7.787886564545298,45.091767125555286],[7.787752654511374,45.091762617342766],[7.787592761973249,45.09177441349951]]]}}]}
