{"type":"FeatureCollection","metadata":{"code":"001043","referenceDate":"2026-01-01","sourceDbfExportDate":"2026-02-18","upstreamArchiveUrl":"https://www.istat.it/storage/cartografia/confini_amministrativi/non_generalizzati/2026/Limiti01012026.zip","sourceManifestSha256":"70ac8256c4785dc6ed2814c32b6965ae76f9161b51abaa1660059e1c6cbd8ca6","license":"https://creativecommons.org/licenses/by/4.0/","attribution":"Istat, Confini delle unità amministrative a fini statistici al 1° gennaio 2026, versione non generalizzata.","modifications":["Converted from WGS 84 / UTM zone 32N (EPSG:32632) to RFC 7946 WGS 84 geographic coordinates.","Converted from shapefile to per-municipality GeoJSON without geometry simplification."]},"features":[{"type":"Feature","id":"001043","properties":{"code":"001043","name":"Busano","alternativeName":null,"regionCode":"01","regionName":"Piemonte","territorialUnitCode":"201","territorialUnitName":"Torino"},"geometry":{"type":"Polygon","coordinates":[[[7.665033842419998,45.33986685816567],[7.66466162861335,45.33998852622824],[7.663890489027146,45.340317065015036],[7.663556848609144,45.340511185772975],[7.663229423742181,45.34061086526786],[7.663162910637413,45.340623599589556],[7.661474562566756,45.340756824392656],[7.661400913193575,45.34004036762857],[7.661111935495349,45.3398974661319],[7.660184870166837,45.33985057048188],[7.659710709795936,45.339813520433985],[7.659593372802607,45.339681606530256],[7.6595477563999586,45.33929851275095],[7.659530852762301,45.33893376689868],[7.65858927904705,45.338877711765505],[7.658472478662217,45.338250738572754],[7.6584318582557005,45.33780918832787],[7.656921748278236,45.33784545280226],[7.656926677517191,45.33856562865423],[7.656881463450124,45.33939772157332],[7.656795284156825,45.33940431055672],[7.65616767517538,45.33945315510891],[7.656004100599987,45.33947159762378],[7.655503625612519,45.3395271105046],[7.654901646444068,45.33952742616552],[7.653936759155192,45.33952957176138],[7.653499169521649,45.3381021865163],[7.653289611753774,45.33708257858032],[7.652970680728928,45.33697528543267],[7.652606441485059,45.3369124783194],[7.652055960012331,45.336865481010605],[7.651238092819257,45.33684232849518],[7.650531370715607,45.336757457428156],[7.650121874112119,45.3367526168001],[7.649804736727541,45.33672188047467],[7.649623847343695,45.33664771496162],[7.6495000988495425,45.336484230524334],[7.6493134345193186,45.336031956363996],[7.649179631089045,45.33567032317017],[7.649071070639289,45.335507118711384],[7.649421673133767,45.335167199859875],[7.649382523305652,45.33510957691078],[7.649154779812096,45.335030670818405],[7.648940538402053,45.33495192581306],[7.64882082316625,45.334874298870496],[7.648768397944784,45.33480699242795],[7.648783485120876,45.3347404848045],[7.648882540675866,45.334551129095196],[7.6491193394436205,45.334249083808366],[7.64943994723998,45.33390042428429],[7.649525560660018,45.33386965003171],[7.650513781746042,45.333485262352326],[7.650213996882965,45.3328426226923],[7.650172988345873,45.33277490272671],[7.650010674230014,45.332520670476754],[7.649987175707333,45.332459603355545],[7.650042142062622,45.33246129460447],[7.6503445189597565,45.332385100737135],[7.650624552275967,45.33223569089563],[7.650707629519136,45.33219136563836],[7.6508795144276345,45.331923346399684],[7.6509344935364645,45.33174518795843],[7.650954237972992,45.33168120232437],[7.650947433702803,45.331397575179075],[7.6507161869484985,45.33125982803747],[7.650403420143436,45.33108059621322],[7.65062340317536,45.33081765994539],[7.650664424908989,45.33077302139626],[7.650804837081045,45.33061726160711],[7.651206964630457,45.33014672110293],[7.651641567134251,45.32969100898685],[7.651902645309901,45.32941942075737],[7.652041269859595,45.32916465677696],[7.6520185803149126,45.32907617672932],[7.651979962871527,45.32892538708188],[7.651967737023056,45.32870299922101],[7.651965777572178,45.32866445896473],[7.651961610141023,45.328582954914445],[7.651593447859667,45.32847525212475],[7.650900556313104,45.328467067680684],[7.649558561786015,45.328524323538446],[7.649260744715872,45.32853680585895],[7.649163682838699,45.32849155344231],[7.6491047162880506,45.32825179857685],[7.649037120499942,45.32797697372102],[7.64907469216599,45.327686128216456],[7.6491271505189875,45.32728635780745],[7.649159510392456,45.32724031030107],[7.6491833829761084,45.32720908046756],[7.649242100956863,45.32718983773952],[7.650600899754222,45.32674427595701],[7.650914238292605,45.326630954003775],[7.651621128593592,45.32640075573612],[7.6526962514118395,45.326006840395564],[7.652763546579845,45.325982183667215],[7.652844146697837,45.325929121399135],[7.6523731557436125,45.32558665222157],[7.652314128648574,45.32553612998495],[7.652259433052011,45.32548789929473],[7.652077575774001,45.32533049881775],[7.652000547727659,45.32527063648495],[7.65193384576024,45.32522076787225],[7.651724637744145,45.325037532081545],[7.651465581958781,45.324811384310436],[7.651481293634686,45.32412625886662],[7.652020830904749,45.32402461875742],[7.652127934731704,45.32395484990365],[7.652218710091086,45.323895646757165],[7.652702204307724,45.323641103339185],[7.652804189602367,45.323493779166895],[7.6528257304160725,45.323359015292155],[7.652946682156611,45.3233182910442],[7.653308126568646,45.32319368670659],[7.654154521122417,45.32294735963633],[7.654237560748965,45.32291163127823],[7.654325212318378,45.322873773456365],[7.654652443380878,45.32273245197668],[7.654996168107722,45.3226644758255],[7.6550384760144325,45.322106897377864],[7.6550002372283465,45.32208843602856],[7.654968180082275,45.321748119014096],[7.654959934442229,45.32166931328661],[7.6547833127633815,45.321532302141414],[7.654603897082505,45.321228651001675],[7.654567320006538,45.320817702958045],[7.6546047264054655,45.32080574237342],[7.654817372191552,45.32070007438306],[7.654934765592803,45.32037291166096],[7.655007477774273,45.319928198381696],[7.654997176765217,45.31969588838907],[7.654987149689188,45.31946974400237],[7.654985911854589,45.319441877150915],[7.654841336796736,45.3192331293027],[7.654887340105677,45.319098308337715],[7.654896924956805,45.31907241515873],[7.654907693643132,45.31904038343457],[7.65500009311305,45.3189864945114],[7.655237528063917,45.318850739588875],[7.655340521549176,45.31870846841956],[7.65535915900746,45.31868525170643],[7.655182872648178,45.31868357370635],[7.654500587611006,45.31865302696027],[7.654183995241567,45.31864934135113],[7.654209543057265,45.31853323392169],[7.654262342089004,45.318295396105285],[7.65426830262744,45.318215653214544],[7.654305600357956,45.31779561351778],[7.654344588541696,45.317596570254366],[7.654472130340217,45.31692442627606],[7.654400451776196,45.316913712509766],[7.654348581382163,45.31690442660427],[7.65452664050389,45.31647500325701],[7.65468608262623,45.31607183084826],[7.654494176150401,45.31599304677061],[7.654272576075076,45.315787910147215],[7.6539323941320605,45.31533833080371],[7.654116748221578,45.31530079108202],[7.654475634398184,45.31522771035861],[7.654891218305825,45.31512009797851],[7.6548707744802815,45.314737295455714],[7.655368566706482,45.314698109222114],[7.655210563801024,45.31442276384163],[7.655194657415583,45.31439309496714],[7.654731854283504,45.31429008981162],[7.654635795701365,45.31401890647461],[7.655037597192379,45.31387063092841],[7.65512400492048,45.31345308545975],[7.654887359516953,45.31326126773483],[7.654514604074504,45.31312635717782],[7.654107523889772,45.312892008653485],[7.653723299452495,45.31277047601741],[7.653336635067548,45.31273440823672],[7.653439452739312,45.312096521796775],[7.653959257836961,45.31204863761107],[7.654080335476996,45.31168957255561],[7.654090841727313,45.311659798942344],[7.654112288238186,45.31159587401813],[7.653617622063197,45.311504760445494],[7.653627130569256,45.311426947834626],[7.6535726459004305,45.31095041367906],[7.653453100363273,45.310259535595335],[7.653760466572758,45.310129636343525],[7.6540652782036664,45.31000520154411],[7.654221218724337,45.30994089754902],[7.65465801006083,45.30969400152469],[7.655226325565102,45.31035780644478],[7.656016776702954,45.31014207735464],[7.656540176830044,45.30994119530479],[7.656473810060704,45.309814394081634],[7.656045678854808,45.309543821331495],[7.655594941952629,45.30913344559133],[7.655328847224658,45.3086532558792],[7.655165445011664,45.308082145846534],[7.655111313946892,45.30789274048864],[7.6551027697931815,45.30786296474196],[7.654752182066718,45.30741469232233],[7.654705794741212,45.30735420601918],[7.654805964543798,45.3072875203956],[7.655117683003346,45.30708000856841],[7.655325427384872,45.306942939481004],[7.6555645724433745,45.30672521931767],[7.656027341519218,45.30660914409929],[7.656336777354335,45.30648676491565],[7.6567007982821265,45.306230010418446],[7.656776735104674,45.30613453305731],[7.656941953942227,45.30592680787626],[7.657224236176697,45.30557005890422],[7.657271706769266,45.305264579825284],[7.657250014543126,45.30516980936528],[7.657198757666842,45.30494417269165],[7.657329342042756,45.304817816177376],[7.657534872380518,45.304619578121844],[7.657778001013219,45.304383890834735],[7.658471564910598,45.303946600281726],[7.658611930151688,45.30385809853899],[7.658696609995173,45.303912029022136],[7.658849530255695,45.30400941975434],[7.660043703281464,45.30509461461653],[7.660941775847657,45.30572173941208],[7.661686798521248,45.30570925570414],[7.66204072618568,45.30570247429444],[7.662287612679028,45.30569779278937],[7.662326339777644,45.30569746420981],[7.661598147541311,45.30484554590415],[7.661470523727993,45.30469900851944],[7.661359910459581,45.30456996581126],[7.661102772668391,45.30393568464149],[7.661150340458554,45.30392193000647],[7.661284885612265,45.30387804993327],[7.6616637202537685,45.30375439135717],[7.661674608179619,45.30359699415611],[7.661454046971115,45.30273926676897],[7.6615714485800135,45.30242975364271],[7.661590013738013,45.30238081240128],[7.662170559643824,45.3017800202768],[7.662313653218468,45.30143501926973],[7.662596068520526,45.30075434661948],[7.662855211488543,45.30029381798879],[7.663158155949559,45.30013983812874],[7.663801652649808,45.299809808750496],[7.664073235119571,45.2992454945058],[7.664169965186564,45.29904449883337],[7.664374405818903,45.29871633163537],[7.664687708653662,45.29821342577325],[7.664742548422541,45.29812544927018],[7.6648492391117,45.29795427882703],[7.665282652317623,45.296757648934474],[7.665449374849161,45.29665373646265],[7.665501691899365,45.29662125841583],[7.665599529578711,45.29658499606104],[7.666458517994344,45.29627631757519],[7.666550142419232,45.29621076934532],[7.666638869632397,45.29614698840932],[7.666836134748137,45.29600578452599],[7.666868086682048,45.295982767193394],[7.667119659048367,45.29580246065517],[7.667410023851495,45.29557179738782],[7.668224804091474,45.29585585566403],[7.6680995636190925,45.29642149184726],[7.668071521798509,45.29652917533492],[7.667931819934299,45.29704961900505],[7.6678044072064155,45.29758822318128],[7.66767680826162,45.29813581296957],[7.667478692847012,45.29897065128192],[7.667143566153463,45.29911974647839],[7.667101207494209,45.299839377264206],[7.667078106124612,45.30028018074744],[7.667039752907707,45.300828817540875],[7.667017307546424,45.30124261967945],[7.666989348750996,45.301890389382734],[7.666911471116015,45.302492577035395],[7.666932344359346,45.30269084854365],[7.666897969861928,45.30306850899877],[7.666854650150433,45.30328404215067],[7.66683937207845,45.30339187421899],[7.666913360252801,45.3035007447782],[7.666876875353829,45.30396840152312],[7.6668723900985984,45.30404035370583],[7.666844352340948,45.30447210494086],[7.666818222359733,45.30487235167317],[7.666784363332076,45.305398548466925],[7.666779629158079,45.3056505342389],[7.666778263834503,45.305723188030605],[7.666770294516277,45.30579443700472],[7.666767766695621,45.30590241877545],[7.666727814609732,45.30597397755607],[7.6667505631047135,45.30609124779098],[7.666785240277353,45.30624468204582],[7.6668458514127575,45.3063804053166],[7.666905806872103,45.306543129791514],[7.666952172147692,45.30674171764806],[7.666972204276506,45.30697598144395],[7.666969039986024,45.30711096195889],[7.667002845278193,45.30730038639553],[7.667027787850089,45.3074446919498],[7.667059029307746,45.30762509037079],[7.6671285959719695,45.30792294251267],[7.6672004524458055,45.30812182774547],[7.667269808308425,45.30842867427682],[7.667302586367805,45.30866308669888],[7.667336632401809,45.30884351863703],[7.667383421609948,45.30902410016659],[7.667429580069476,45.30923166158918],[7.66746235917545,45.30946607394601],[7.667483844446147,45.309637363187754],[7.667505777279589,45.30979064842313],[7.66752916146912,45.30988091876715],[7.667563838998527,45.310034352691936],[7.667662909064027,45.31016152901224],[7.667661924480171,45.31020425375098],[7.667660834446064,45.31025153289737],[7.6676325999606405,45.310368228743926],[7.667641338052886,45.31053934940127],[7.667688130757796,45.31071993169542],[7.667691415772929,45.31112502121435],[7.667708681246395,45.31147627677231],[7.667750415227544,45.31187283584849],[7.6677451421674,45.312097808933494],[7.667766444287524,45.31227807396184],[7.6678123979280155,45.31249464588418],[7.667845812797113,45.3127020601544],[7.667828217595469,45.31290889646097],[7.667823578599865,45.313106869843885],[7.667845697473223,45.313251159241645],[7.667906319514089,45.31338688191617],[7.667978607516002,45.31356774159822],[7.668086239799932,45.31387505271486],[7.66815684462824,45.314127916863114],[7.6681898397700605,45.31435333618688],[7.668236217003987,45.314551904497904],[7.6682585740629445,45.31468718070399],[7.668293468198787,45.314831618958145],[7.668328365476268,45.314976039231894],[7.668349219189547,45.315174309839485],[7.66836946820895,45.31539959844173],[7.668416479307248,45.31557116608339],[7.668448634343409,45.31583257948287],[7.668457166778877,45.316012713375855],[7.668442521484685,45.31609354575853],[7.668261003002667,45.3162174484779],[7.668323288598854,45.316281185867574],[7.668498065928567,45.31644524723766],[7.6686222433857925,45.31659072632751],[7.668682845158945,45.316726448276775],[7.668729437789658,45.316916021871386],[7.668725644244833,45.31707800192114],[7.668709733066778,45.317212833656946],[7.668682133146552,45.31730252908106],[7.668692560948838,45.3174016638762],[7.668754427046372,45.31748338822109],[7.668815688682205,45.3175921296314],[7.668913930201431,45.317755299033735],[7.6689338285388935,45.317813763130616],[7.6689734799446985,45.317936028377375],[7.668995208937798,45.318098304983195],[7.668989729083952,45.31833227062701],[7.668970235681497,45.31862008790502],[7.669006190216771,45.318719521074165],[7.66906616408991,45.31888224429079],[7.669100640191266,45.31904466851342],[7.66912213250936,45.31921593925117],[7.6691204464996945,45.31928794556567],[7.6691685161652225,45.3194145250989],[7.66925401251932,45.3195775465283],[7.669338666788865,45.31977655755345],[7.669348278934814,45.319911686719735],[7.669295155817291,45.32000108394749],[7.669266893863603,45.32011777968922],[7.669251404574571,45.32023460355955],[7.66926183757614,45.32033374011484],[7.6693477554212715,45.32047877157503],[7.669424899624042,45.320612609162815],[7.669445791418897,45.3206509358875],[7.669556392103488,45.32083225783906],[7.669642945086185,45.320950272333405],[7.66978094007031,45.32105091190817],[7.669932103087555,45.32113367479528],[7.670058405160897,45.32118915892972],[7.670298019820822,45.321308955369076],[7.670347355278598,45.32138155575226],[7.670395034027001,45.321526124054294],[7.670428227903279,45.321742546023565],[7.670436788717156,45.32192268172052],[7.670426473539269,45.322363613319226],[7.6704354352468425,45.322525741783316],[7.670426382240494,45.322912712700614],[7.670387383873646,45.32348834625417],[7.670380225760101,45.323794299219735],[7.670359688180925,45.32412710250255],[7.6703234492065135,45.32458576286738],[7.670314395251011,45.3249727138292],[7.670350959560591,45.32504514745872],[7.670411387388859,45.32518988210968],[7.670483937325006,45.3253617459593],[7.6706760331546056,45.32587705954555],[7.670760702498679,45.326076073080344],[7.670866917288328,45.326355722822676],[7.670904934170023,45.32645581116796],[7.671002381419336,45.32665497411932],[7.671029815288001,45.32673502718399],[7.671049950283275,45.32679330274715],[7.671085996785821,45.32689898768991],[7.671171509484759,45.327062005866274],[7.671193432434026,45.32721528892979],[7.6711872904667935,45.3272458016311],[7.671178984222545,45.32728712057256],[7.6710331856419725,45.32751945580395],[7.6709921734614115,45.32763600164645],[7.670989858300107,45.32773498775976],[7.67104921280552,45.32792470857554],[7.671084125680239,45.328069126970156],[7.671087461690314,45.32811418375201],[7.671093927752117,45.32819526198102],[7.671128835346324,45.32833969919694],[7.671147415784316,45.32863695543771],[7.671169970626976,45.32876323792536],[7.671211815292678,45.328843465804894],[7.671257397647566,45.32891278691733],[7.671277919670606,45.32900754071851],[7.671287024128104,45.329047622903396],[7.671351402345312,45.329329521706626],[7.671360315228285,45.32936852328331],[7.671413545445221,45.32982819118326],[7.671432456157177,45.329947726933376],[7.671457997869033,45.33010775443615],[7.671455316866511,45.33019894462528],[7.6714539706446665,45.33026077507944],[7.671502921361503,45.330351360631866],[7.671616535405947,45.33042477741764],[7.671638628985617,45.33046529510224],[7.671662330833924,45.33051513446554],[7.6716746748125955,45.33055575567052],[7.671687887647092,45.330612707469314],[7.671698933505553,45.330700176805934],[7.671705378070992,45.33073074590325],[7.6717031269014795,45.330825290519506],[7.671703285536507,45.33086675924163],[7.671640409692399,45.331097516694456],[7.671629731968552,45.331135945603215],[7.671612322909026,45.3311807412319],[7.671593677590903,45.331279556243395],[7.6715854403199675,45.331324459457164],[7.671588933178451,45.33139650700262],[7.671590225283439,45.33148653900156],[7.671575730515181,45.33160339523786],[7.6714667279676245,45.3318991652691],[7.671468482158338,45.33201046850647],[7.670650243799811,45.33202830098768],[7.6701159148188305,45.332040756821264],[7.670046007796275,45.33204185370723],[7.6694099895358825,45.332036327956175],[7.669217787219488,45.33202204982548],[7.669036518762306,45.33197887010526],[7.668740206074079,45.3319824940599],[7.668656075967326,45.33198413810198],[7.668261181232669,45.33199023815704],[7.668210874207049,45.33199093958714],[7.6676543476035794,45.33199896546734],[7.667660316741672,45.33204384330782],[7.667706070735233,45.3322694100531],[7.667739918300713,45.332458834868],[7.667785039743761,45.33271140296234],[7.6678073776374704,45.33284667862309],[7.6678291079980925,45.33300895596385],[7.667855934218274,45.33312154906888],[7.6678754976978505,45.3332075239473],[7.667453627813571,45.33323860684404],[7.667477235727555,45.33340921536454],[7.667497296478138,45.33355417073478],[7.6675879589594835,45.3340412964423],[7.667632025268967,45.33433887103479],[7.667664446406412,45.334536911528275],[7.667699709140616,45.33471267513312],[7.6677112088882735,45.334771849621895],[7.667740985865506,45.33507835966665],[7.667744466290446,45.33514219064333],[7.667776252680349,45.33580775746766],[7.667816944774635,45.33624930355339],[7.667852802385986,45.336705998393995],[7.667855950460597,45.33676283857161],[7.667876216628449,45.33695555501741],[7.66785966586159,45.337149942915914],[7.667839080896297,45.33748276516075],[7.667832116511405,45.33777972260091],[7.667641149219536,45.337759483800376],[7.667449552063013,45.33776626318651],[7.667142469672695,45.33779868158331],[7.667115698556011,45.33785238392888],[7.667098275472155,45.338050207249736],[7.667107252131158,45.338212333927814],[7.667051572482313,45.338409710703466],[7.6669716260085785,45.33855279028523],[7.666866806705212,45.33866859140354],[7.666749427204188,45.33877522906732],[7.666713157649201,45.338803499433666],[7.666567404901222,45.33891713549501],[7.666386442207185,45.339014036123636],[7.666166562533823,45.33913748706876],[7.666049623592518,45.33922613712194],[7.665983933303964,45.3393063726124],[7.66593033378276,45.33941377515797],[7.665914412374139,45.339548604086346],[7.665897851563449,45.3397104342845],[7.6658808375358936,45.33980173219887],[7.665817885984525,45.339853524507106],[7.665400365031623,45.33981714629487],[7.665033842419998,45.33986685816567]]]}}]}
