{"type":"FeatureCollection","metadata":{"code":"001126","referenceDate":"2026-01-01","sourceDbfExportDate":"2026-02-18","upstreamArchiveUrl":"https://www.istat.it/storage/cartografia/confini_amministrativi/non_generalizzati/2026/Limiti01012026.zip","sourceManifestSha256":"70ac8256c4785dc6ed2814c32b6965ae76f9161b51abaa1660059e1c6cbd8ca6","license":"https://creativecommons.org/licenses/by/4.0/","attribution":"Istat, Confini delle unità amministrative a fini statistici al 1° gennaio 2026, versione non generalizzata.","modifications":["Converted from WGS 84 / UTM zone 32N (EPSG:32632) to RFC 7946 WGS 84 geographic coordinates.","Converted from shapefile to per-municipality GeoJSON without geometry simplification."]},"features":[{"type":"Feature","id":"001126","properties":{"code":"001126","name":"La Cassa","alternativeName":null,"regionCode":"01","regionName":"Piemonte","territorialUnitCode":"201","territorialUnitName":"Torino"},"geometry":{"type":"Polygon","coordinates":[[[7.530571155667833,45.19883638244834],[7.530502785251064,45.19906142006149],[7.5299751546417655,45.199437244641345],[7.529464875291275,45.19986642411997],[7.529163812081696,45.20015397420472],[7.529112138200518,45.20020346834806],[7.528976914072193,45.20033315913916],[7.528888930482567,45.2004177436353],[7.528823620485493,45.200481878642805],[7.528765430691616,45.20059064989841],[7.528327073685844,45.20154478496326],[7.528211224833866,45.20176843594101],[7.527764280841963,45.202631217532605],[7.527173391773236,45.202484816830584],[7.526866792899671,45.20240809897051],[7.526822449100698,45.20239701838478],[7.526747040831893,45.20237825197504],[7.526285737697318,45.202262701792876],[7.525718212375459,45.20212086725172],[7.524336387037432,45.20177492497254],[7.524144354774504,45.20172664106817],[7.523904246559958,45.201666651671374],[7.523283064056547,45.20151117423105],[7.522743461503773,45.20141378584604],[7.521786667406737,45.20123971461744],[7.521680330665745,45.20122037523454],[7.5217098520834105,45.20094299517608],[7.521716069750094,45.20088512230549],[7.521769745395834,45.200379891599084],[7.521439214593969,45.19966899254491],[7.520737199702226,45.19895327875828],[7.520469479527466,45.1986302604674],[7.520181046216384,45.19890557602953],[7.520127668456121,45.198932434644206],[7.5200325864955975,45.19897958428391],[7.519928466918707,45.19895986962472],[7.519839344081807,45.198941987565306],[7.519791736738992,45.19893190972651],[7.519727573288432,45.19889775212398],[7.519634957771964,45.19884714421395],[7.519553086979471,45.19880291726527],[7.519364035486416,45.198716783283885],[7.519285844769046,45.198682955734625],[7.519221452953625,45.198673867122025],[7.518960565448422,45.1986377068866],[7.518859313931346,45.1986663762001],[7.518744927200817,45.19869792118256],[7.518480640594244,45.19890151914864],[7.517907153322122,45.1988760863118],[7.517791883774582,45.19855053686189],[7.517611045224805,45.19835915421123],[7.517395464732717,45.19820332309992],[7.5170776437251545,45.19807767224614],[7.516670186218932,45.19794185809458],[7.516346698430777,45.197890476950114],[7.516215606424358,45.19787010688245],[7.516144664189567,45.197857787144194],[7.51595257361974,45.19782901860272],[7.5156497790259875,45.19778458183282],[7.515388685740907,45.19765064764335],[7.515326698416601,45.197606111767534],[7.515139889741982,45.19747189161674],[7.514894730869061,45.1971536462608],[7.514534091145069,45.196946423910646],[7.514327963815398,45.196844240848634],[7.513871812928966,45.19664975589923],[7.513687478991255,45.196593343261014],[7.513393519840396,45.196652528871],[7.513301157289119,45.196666521108135],[7.513229362163349,45.19667739825869],[7.5128881013004865,45.196596447664774],[7.512528550225478,45.196348691582536],[7.512489476562795,45.19632732219104],[7.51236182197629,45.196256925389584],[7.51176356193607,45.19590216344142],[7.51166568975317,45.19588477036593],[7.511544957520522,45.19586331203681],[7.511207991759441,45.195831909677175],[7.51109815621025,45.19584848892508],[7.510931211375218,45.1958733213685],[7.510857275570497,45.19588585061736],[7.51069539037226,45.19583874013446],[7.5106431325781156,45.19567603093321],[7.510510676390747,45.19558428326148],[7.510294654716822,45.195446446077575],[7.510165826941636,45.19540108125062],[7.510096402893523,45.19537558836157],[7.510061792237294,45.19535293512521],[7.510045951573447,45.195326173609224],[7.510051112249947,45.19526493171778],[7.510060183837439,45.19515081934793],[7.5100528220094205,45.19512157779608],[7.510015628135232,45.19497987122563],[7.509863350130053,45.19471618495927],[7.509686601364588,45.19458335632877],[7.509390047890563,45.194468273835554],[7.509296234876317,45.19443343163341],[7.5089902162032525,45.1943215650363],[7.508835334140719,45.19423989065006],[7.508755559036782,45.1941978841883],[7.5086759012178135,45.194156753261105],[7.50837925866032,45.193990184812236],[7.508210565775514,45.19395267932237],[7.507939689768039,45.19379090936215],[7.50748365682011,45.19358242077711],[7.507107052974473,45.19354599276518],[7.506720721596414,45.19346650659112],[7.506593031154877,45.19344023515959],[7.50653250842422,45.19342594292774],[7.505985011526578,45.19329811201266],[7.505622898519212,45.19326551166211],[7.505598916516253,45.19324220671971],[7.505430451399189,45.193078475535295],[7.505264472771952,45.19301712436763],[7.5051185647981455,45.192957365259616],[7.504617978239817,45.19294631253769],[7.504527740150068,45.192911427708346],[7.504316689321325,45.192829837873624],[7.503985478339809,45.19280750829279],[7.503604965266624,45.19272117453212],[7.503452818730132,45.192621174326966],[7.503383283504783,45.192574572444],[7.502999371208172,45.19240750321988],[7.502741996765592,45.19234561354111],[7.502632286329502,45.192236144445225],[7.502451281019166,45.19205375052149],[7.5021737389115755,45.19189708144406],[7.501933579344978,45.19183091853174],[7.50075092921872,45.191207790352415],[7.499269894310288,45.19079676888688],[7.499108605768942,45.19079077466621],[7.498707538455056,45.19077586414699],[7.498257837001715,45.190798066386414],[7.497805651000288,45.19082251428359],[7.496620188292583,45.19073040664338],[7.496201349281192,45.190607866450726],[7.495324822745916,45.1903262773629],[7.494857591319408,45.19033361653774],[7.494103366709973,45.19007612252453],[7.493377628108625,45.189643477246626],[7.492960024470022,45.189489455488165],[7.491628577417132,45.18897677742242],[7.490356303878862,45.18860440332061],[7.489381641482427,45.18815492885548],[7.487211120190233,45.187635622395824],[7.487208972488586,45.18708650521422],[7.487250255554577,45.18701504527594],[7.487655844410856,45.18572867782838],[7.487370307355091,45.185538302240964],[7.487248305472438,45.1854569610874],[7.486986645792617,45.18528324965831],[7.485160277188399,45.18389528639088],[7.483181868189182,45.18240629719827],[7.4830346332193445,45.182295590467284],[7.480934477313167,45.18093551883805],[7.481548636467184,45.180836630120005],[7.482151694430937,45.18073846909051],[7.482294760488087,45.180715254347945],[7.482336069136989,45.18070237113053],[7.48309806068145,45.180456284115905],[7.483638135482881,45.180368959050206],[7.484362443248728,45.18020303598867],[7.484562448276615,45.180167280523975],[7.484831224361761,45.18011923725445],[7.48534946943519,45.18009010808424],[7.486181689022133,45.18006963947958],[7.486582415467708,45.18006145617545],[7.487066107332303,45.18000035723274],[7.487269481964378,45.179980540397246],[7.487542555349556,45.18000215118709],[7.488570833156347,45.17986275485209],[7.489049691512562,45.17978806933324],[7.489362318000678,45.179652689045355],[7.489770359219923,45.17938352973904],[7.490137266531995,45.1793163722714],[7.490356441072371,45.17926975387946],[7.490777575311852,45.179257327527665],[7.491098670122825,45.1792075575537],[7.49138994363982,45.17911239068998],[7.491770612562387,45.17891488933702],[7.492046000635534,45.1788645111608],[7.492438184133033,45.178788666731265],[7.493221609085336,45.178506458040935],[7.493459800153888,45.178523112441944],[7.49366829056367,45.178489861810554],[7.493755812438212,45.17824796616182],[7.494177333636426,45.17823551346531],[7.4946009551023645,45.17812858837761],[7.495077809808941,45.1779323458255],[7.495421022808676,45.17779733041672],[7.495813728669131,45.17771700383345],[7.496318571926073,45.177228555499276],[7.4964960662544025,45.177116595060376],[7.496594574585038,45.17710330041093],[7.496743234069051,45.17708111697041],[7.496837718250735,45.177106501481006],[7.497060365572029,45.17716631555307],[7.497631157077839,45.17725483121896],[7.497905584086514,45.17724044819449],[7.498412641971861,45.17704458899955],[7.498535827256591,45.17697635688638],[7.498793633339302,45.17683355600652],[7.498918999336881,45.17649763912036],[7.499472159002846,45.17628886524645],[7.499667924276405,45.17617892678947],[7.499856088760679,45.1759653582124],[7.499954439634703,45.17588564432273],[7.500157768938028,45.175865805715276],[7.500341088870966,45.17583670769035],[7.500542827348143,45.1756818279561],[7.500599264295815,45.175471023669154],[7.500709368714441,45.175314707174635],[7.500973455619665,45.17512489249741],[7.501383701133176,45.17495023879818],[7.501940433893197,45.17480001422727],[7.502388645408782,45.174724871511096],[7.502943486445143,45.17464664675311],[7.503270517970834,45.17455191741389],[7.50361032015956,45.174474946449955],[7.503991125503434,45.17452907813951],[7.504057866726296,45.174524691064555],[7.504240003343483,45.17451060404949],[7.504531505783652,45.174419905611316],[7.504736502706891,45.17433706812706],[7.504969519303083,45.1741556022245],[7.505336024519125,45.174101887678454],[7.5058992790817936,45.17408224969884],[7.506204593791898,45.17404124407558],[7.506486398136702,45.17394139679655],[7.506551694538761,45.173573197833605],[7.506538626739527,45.17348013332023],[7.506534600459989,45.17345144725836],[7.506615459743874,45.17345598395936],[7.50684831127524,45.17346904435383],[7.507185409279964,45.17338345238459],[7.507561281678916,45.173199328981646],[7.507769057727715,45.173161524392675],[7.508175661554859,45.17313984858046],[7.508504201914584,45.17298661220017],[7.508821667514799,45.1728602361447],[7.509464536213844,45.17271559960134],[7.509760669850059,45.172629443669905],[7.509884897979726,45.17253204926805],[7.510023951063868,45.17246185588204],[7.510150777460105,45.17245082108819],[7.510338826920495,45.1724344592513],[7.510589650424712,45.17234771004007],[7.510738276092551,45.17229113504507],[7.510873366718066,45.17215787906351],[7.511138520270428,45.17191828445823],[7.511356004696906,45.17173658311995],[7.511523256651341,45.171545229392606],[7.511693671930695,45.171430443438155],[7.511827704926376,45.171337673735245],[7.512003304819964,45.17122293418167],[7.512230894311444,45.17105037711144],[7.512364284792734,45.17099809871509],[7.512424152324416,45.17083685130772],[7.5125333759756,45.17073476128554],[7.512713390692153,45.17063357254369],[7.512745462635584,45.17056198231922],[7.51272298500529,45.17047673267948],[7.512708550287393,45.170421979236586],[7.51282565439076,45.17021645885259],[7.51299298716502,45.170020607642655],[7.5130243035875015,45.16997391241834],[7.51308276166065,45.16988675614698],[7.513066121313034,45.16974702164509],[7.512860673546143,45.16945177824951],[7.512773626056842,45.169297638589846],[7.512824940954946,45.16906875168309],[7.512853903383055,45.168758166096445],[7.512948668702048,45.16858987626439],[7.513143452218155,45.16851930660236],[7.513474626195316,45.16846060677139],[7.513525457527089,45.16841999673617],[7.513748661629912,45.16824443862552],[7.513795747303131,45.16820824094413],[7.513920998079008,45.16803360212202],[7.51403007343613,45.16792642904662],[7.514109698677397,45.16781739546016],[7.514294221753295,45.1675576209267],[7.514477210861677,45.16737851624538],[7.514502512156233,45.16735335176186],[7.514549813129372,45.167279700593674],[7.514586929006022,45.16721936001181],[7.514587149394773,45.167176274558294],[7.51458224945121,45.16689112414179],[7.514624698881143,45.16685047838132],[7.514694389247064,45.16678987647265],[7.514730968745881,45.16675764289728],[7.514983451388398,45.1666201738866],[7.51508594910481,45.16656463156544],[7.515199585243619,45.166356375617944],[7.515213153354998,45.166331559793775],[7.515184543615875,45.16607492892666],[7.515253676012269,45.165972076341895],[7.515437629242099,45.16570014920949],[7.515516727152713,45.16556039312088],[7.515560322563684,45.165483944225244],[7.515602651889003,45.165409743675234],[7.515689322069363,45.165399728970314],[7.515917722597271,45.1653733387825],[7.516175395789176,45.16540369434525],[7.516334956524215,45.165332692985345],[7.516418872811525,45.16526097414559],[7.516495318544666,45.16519630461798],[7.516574618753572,45.16506681322722],[7.516495185317684,45.16490847511033],[7.5164623925398,45.16484404352044],[7.5164354374123805,45.16478972373902],[7.516372599992641,45.16465461304712],[7.516420586632389,45.164551721723726],[7.516487545266415,45.16448416451419],[7.516444741362859,45.16440350334396],[7.516513761872735,45.16428739174064],[7.516597518350698,45.164184947047296],[7.516599971001061,45.16409046126949],[7.516491136637722,45.16399452878806],[7.5165611190957575,45.16389898138272],[7.516720783144583,45.16374096786359],[7.516809353753087,45.163454066385505],[7.51682324761826,45.16330123447987],[7.516861026512158,45.163225200999044],[7.516803118218665,45.16311193770252],[7.516821614353399,45.16298165537094],[7.516910902973535,45.162865786962634],[7.517241415367419,45.16281606293953],[7.517387183287722,45.16266944327381],[7.517393963341307,45.162479604811686],[7.51759854105369,45.16233911795679],[7.517668726514501,45.162177999723234],[7.517560914897535,45.16204157843553],[7.517532758766059,45.16194669611381],[7.517601077971123,45.16185756444913],[7.517842785062812,45.16172118234326],[7.518200298490197,45.161626808396775],[7.518319798428613,45.161511330914564],[7.5183644406723955,45.16135437981851],[7.518327496912589,45.16121438063538],[7.518441528576315,45.16112584161557],[7.518698572125802,45.16098064238496],[7.5187840708030285,45.16081072850115],[7.518809607634706,45.16060852905045],[7.518764489157955,45.160400897806554],[7.51883556065803,45.160190292728934],[7.518910430036133,45.16004722880401],[7.518889527331792,45.1598714355952],[7.518835406251558,45.1598122172078],[7.518878357735975,45.159520226735694],[7.5190689338198915,45.15900960691404],[7.519146042977079,45.15876316406629],[7.519207130220487,45.1585703146702],[7.519191529417581,45.15839007408386],[7.5192747768196595,45.15810759865254],[7.519374944667335,45.157771345920615],[7.519399056614058,45.157623127097224],[7.519428495560392,45.15759200290517],[7.519506228544463,45.15750809335757],[7.519539738430032,45.15747191886094],[7.519722402137238,45.15736517034746],[7.5203685114349765,45.15698758001085],[7.520433408399209,45.15683089225313],[7.520522677272553,45.15671502154848],[7.520661084551949,45.15666658985118],[7.5207364030735935,45.156669616210564],[7.520974949342176,45.15667587941751],[7.521022575413918,45.156586477591325],[7.521094956927182,45.15633986497524],[7.521437697753519,45.15623179233915],[7.521765079345036,45.15609117405374],[7.522230945686409,45.15593599829007],[7.522612748697899,45.15586893166441],[7.52299485186119,45.15580636398868],[7.523225253199188,45.15570583087997],[7.52390344751477,45.15535451975836],[7.524399021767386,45.155023374193306],[7.524943020682337,45.15475584587848],[7.525231788687904,45.15470448188684],[7.525391164425986,45.15467613248576],[7.52591676244467,45.15473691471188],[7.526485177506995,45.154910797937966],[7.52681016900123,45.15507249759398],[7.527326619038803,45.15531770710848],[7.527520894911095,45.15543260590124],[7.527847860372245,45.15562597349323],[7.52801841414419,45.15565374516699],[7.528388274049051,45.1557139647212],[7.528484383919304,45.15576315355269],[7.528594316156339,45.15581854885368],[7.528645370305103,45.155843301561866],[7.52909395852056,45.15617763649603],[7.529862935422472,45.156453081466815],[7.530499291707982,45.15664581195317],[7.5309013908213185,45.15675137828953],[7.5316264256787155,45.156939365273566],[7.5323729091292275,45.15717850267956],[7.532689359556118,45.1572819320376],[7.532968501625514,45.15741941437463],[7.533110415266575,45.157489525281854],[7.533391334898381,45.15768216926355],[7.533630412589691,45.15784726835372],[7.533857950222985,45.15807523058612],[7.534159053950983,45.1582494650198],[7.534618068268897,45.15834153429344],[7.534731359804681,45.15839872569963],[7.5348547684498905,45.158460154278856],[7.5349251773074135,45.15849481582265],[7.535034594032277,45.1585494250351],[7.53455787895682,45.15961899155344],[7.534223541313488,45.16072425969262],[7.53419104809428,45.16082903176632],[7.5341227564953845,45.16105828854651],[7.5336616725302195,45.16281207768089],[7.533714101478715,45.16282592490693],[7.534486355516969,45.16302508854746],[7.535371896273902,45.163255528078835],[7.535471178228323,45.16328086389054],[7.535528518367947,45.1632978356439],[7.536086646762732,45.16346092858446],[7.536185047883578,45.163490774025774],[7.536666521665994,45.16363106764654],[7.536740260845619,45.163652932523],[7.536793817659244,45.16367223610171],[7.536969328825251,45.163735454292826],[7.537205837919474,45.16382053738778],[7.537174712472981,45.16389433409466],[7.537069463449997,45.16414278052588],[7.53683867673889,45.16469694732351],[7.53681394140204,45.16475634750312],[7.537651570232528,45.164996616171166],[7.537956379382938,45.16508154258081],[7.537721452597741,45.165389076911886],[7.5376515509582855,45.165433200912666],[7.53718021669168,45.16573320812198],[7.536699804998673,45.16584407982864],[7.536459928880645,45.165916647540364],[7.536028956422698,45.16604702659727],[7.53580580921627,45.166204657216106],[7.535766127684615,45.16623269089312],[7.535579826058555,45.16677031770698],[7.535539518785753,45.16690655782233],[7.535451325964688,45.167210661805775],[7.535438217060956,45.1672563725079],[7.535126069877879,45.16832486663161],[7.535467513055025,45.168659241484974],[7.535598896615686,45.16878699674577],[7.535678996136137,45.16915259981103],[7.535715689361618,45.16932894322962],[7.535726793160924,45.16940791146187],[7.535752361433803,45.169616356186786],[7.5357615805092335,45.16969801244702],[7.535785812823529,45.16989215617127],[7.5357941413552245,45.16995851166728],[7.535821384313039,45.170180629766186],[7.535778180348345,45.17096773991011],[7.535744027504109,45.171236739027684],[7.535704300596123,45.171564814808],[7.535677392990978,45.17175919474302],[7.535666008481872,45.172135690245774],[7.535653337638089,45.172464850163024],[7.535658636792479,45.17280107997921],[7.53566228229815,45.17303207259123],[7.53570212544706,45.17319910896615],[7.535764551781269,45.173461426794944],[7.535782530022574,45.17353770610647],[7.535929269862454,45.17364031900818],[7.53596562189754,45.17366667569121],[7.536149248706592,45.173715103134114],[7.5365957411243825,45.17383285555878],[7.536731370358418,45.17386849486734],[7.536924990315017,45.17391959389054],[7.537557031488735,45.17408831803652],[7.537693568451701,45.17412478697732],[7.538808291798554,45.174344554251235],[7.539329421712163,45.17444728839598],[7.539386717841775,45.17447467434146],[7.539639029843821,45.17459526520848],[7.539752278731475,45.17475424534568],[7.539775017762163,45.17507710805475],[7.539507429740446,45.175448740098545],[7.539497142976042,45.175495668319286],[7.539455004505709,45.17566411035138],[7.539500342518671,45.17577258238246],[7.5395363294562605,45.1758586844832],[7.539649270114734,45.17591127190242],[7.539776099098831,45.175969764572834],[7.5400329924377765,45.17605370884807],[7.540225643273173,45.17615105300259],[7.5403526786143535,45.17627931144646],[7.540393541970515,45.17631972465986],[7.540482100558443,45.17651322934692],[7.5405103699552365,45.17657424567365],[7.540534427298959,45.17662756934713],[7.540583439445623,45.17685775253938],[7.540514455087887,45.177113415456695],[7.540225787414497,45.177375266332135],[7.539732045018501,45.1776930093505],[7.540022877065511,45.17795327286419],[7.54013517329655,45.17816625300612],[7.540241761189344,45.1785861900967],[7.540313442049509,45.17906257401136],[7.5403175960605635,45.179189233625216],[7.540324613099877,45.1796059722239],[7.540331258164929,45.17998706578136],[7.540316884892635,45.18011290522929],[7.540311042075103,45.18016413007567],[7.540305087626087,45.1802162860658],[7.5402603764970255,45.180611771136846],[7.540275167107547,45.18078808480008],[7.540326526658153,45.18140026245251],[7.5402391920508425,45.18204725515873],[7.540076382225062,45.18229556006088],[7.539953792350536,45.18248522824157],[7.539965560944573,45.18265396166539],[7.540010581139627,45.18276659346876],[7.540078918464292,45.18293196699705],[7.540158443209716,45.18312368371521],[7.540192905051046,45.18320676665598],[7.540148984277333,45.18344586150898],[7.539922596181267,45.184023564427825],[7.539756119776853,45.18416289564439],[7.539409782588818,45.18445271021284],[7.539276315264447,45.184564399400415],[7.539012812038602,45.18489857749505],[7.538915436511566,45.185111379966436],[7.538795242749025,45.18537738894916],[7.538763108982941,45.185538186456434],[7.538603521567994,45.18637411467476],[7.538548918788305,45.18646237281183],[7.538070681372612,45.18723536592493],[7.538036873996977,45.18727719941125],[7.537797964783273,45.18756105608287],[7.537198308191828,45.18802867153242],[7.53703322094556,45.188158867212934],[7.536727544970358,45.18839800115508],[7.536059370605122,45.18892051658391],[7.535741514708866,45.189371035702756],[7.5356456672235135,45.18952873056936],[7.535624797843476,45.18956307334806],[7.5351807397060355,45.19029550421786],[7.535020537252994,45.190585996009624],[7.5339799659441615,45.19247196804727],[7.532160458010138,45.19526608367963],[7.531329302714956,45.19654272980037],[7.531210230768719,45.196725620066296],[7.5311569192672,45.196905196477154],[7.531145702126635,45.196941090215866],[7.53110980570058,45.19705838239136],[7.5310615414955135,45.197218967223264],[7.531041754043163,45.19728273316775],[7.531015731499695,45.19737090153059],[7.530978684290093,45.19749528924001],[7.530913143328727,45.19771099105187],[7.530902066392652,45.19774721242475],[7.530890714249416,45.197783391548555],[7.530883376994425,45.19780921014081],[7.530741317213235,45.19827151445355],[7.5307252149543515,45.198325039788],[7.530597631497439,45.1987476250333],[7.530571155667833,45.19883638244834]]]}}]}
