{"type":"FeatureCollection","metadata":{"code":"001257","referenceDate":"2026-01-01","sourceDbfExportDate":"2026-02-18","upstreamArchiveUrl":"https://www.istat.it/storage/cartografia/confini_amministrativi/non_generalizzati/2026/Limiti01012026.zip","sourceManifestSha256":"70ac8256c4785dc6ed2814c32b6965ae76f9161b51abaa1660059e1c6cbd8ca6","license":"https://creativecommons.org/licenses/by/4.0/","attribution":"Istat, Confini delle unità amministrative a fini statistici al 1° gennaio 2026, versione non generalizzata.","modifications":["Converted from WGS 84 / UTM zone 32N (EPSG:32632) to RFC 7946 WGS 84 geographic coordinates.","Converted from shapefile to per-municipality GeoJSON without geometry simplification."]},"features":[{"type":"Feature","id":"001257","properties":{"code":"001257","name":"Santena","alternativeName":null,"regionCode":"01","regionName":"Piemonte","territorialUnitCode":"201","territorialUnitName":"Torino"},"geometry":{"type":"Polygon","coordinates":[[[7.796985444710283,44.965924979941626],[7.796422537724685,44.965931647353074],[7.795966417021845,44.96593704618724],[7.7958522322389365,44.96594028462057],[7.795592148374406,44.96594897330271],[7.795390284019765,44.965955715415895],[7.795046042219096,44.96596722113522],[7.7944425038222604,44.96597021021236],[7.7931404330391425,44.96598822051128],[7.7918937184153725,44.96601102805943],[7.790809885498935,44.96603043289674],[7.7905944938189755,44.96603399141759],[7.790536773371274,44.96594152301493],[7.790430948032019,44.96588716530839],[7.790304535016038,44.96584982188583],[7.7901772362165875,44.96583495767388],[7.790000261203893,44.96582858511893],[7.789842488672991,44.96583141056979],[7.789734703576706,44.96581227688309],[7.78964433084127,44.96577531380562],[7.789515413111982,44.9657064333438],[7.789359346262055,44.96562825212405],[7.789172101892893,44.965563252963534],[7.789030595385725,44.965584261825036],[7.788962796167361,44.96564205924318],[7.788857763291362,44.96577596950182],[7.788773697118318,44.965815581316726],[7.788571138249993,44.9658509635945],[7.788437571363873,44.965857029853034],[7.7881936455544984,44.96586793636969],[7.788005462913707,44.965865939170364],[7.78761495060761,44.96587528759961],[7.787304479873683,44.965885504571226],[7.787066275826969,44.96588747286981],[7.786890931675659,44.965882123739604],[7.7867565706073805,44.96586167147672],[7.786640758794844,44.965828934019726],[7.7864816356062745,44.96576423015717],[7.786308550057146,44.96570387505726],[7.786188043951444,44.96563058555556],[7.78610541273715,44.96557648118624],[7.78601336583371,44.96551622012589],[7.785797463162996,44.96538318528063],[7.785706462894941,44.965316138607875],[7.785656649425402,44.965279621676785],[7.785612354399797,44.96524665257792],[7.7855547375926974,44.96520773460516],[7.785522794581821,44.965185816236506],[7.785482770235411,44.96515880320615],[7.7853992897524655,44.965077590638145],[7.785340685367966,44.964982443806086],[7.785309018051724,44.96490559914623],[7.785286631085656,44.964783832510726],[7.785290323994929,44.964721030792205],[7.785299593712098,44.964563421957855],[7.78528962411225,44.96437877086168],[7.785263605988102,44.96429748708721],[7.785168079414027,44.964224461319404],[7.785008197371588,44.96419574982382],[7.784819894149789,44.964191140017235],[7.784761859154223,44.96417912770058],[7.784647576125083,44.96415917288804],[7.784599837242598,44.96415106800801],[7.78452264205941,44.96410955559403],[7.784427375066497,44.96402303800177],[7.784280886987912,44.96388643442448],[7.784161337757709,44.963768150256925],[7.784006395897772,44.96367752303562],[7.783887477138557,44.96363920356877],[7.783708453918952,44.96357878306956],[7.783405716731574,44.96348553555417],[7.783171559908456,44.9634290223816],[7.7830302063390215,44.96340564478475],[7.78291676311843,44.96342078870278],[7.782826785082464,44.963486597316525],[7.782783557484723,44.96351439284538],[7.782753850699508,44.96353293982443],[7.782634731381301,44.96355397146267],[7.782594362215248,44.963555246056146],[7.7825293096124675,44.96355721977752],[7.782392261383574,44.96354466266311],[7.782306955042445,44.963537177956724],[7.782023293477092,44.963520317542454],[7.781832436604258,44.96351378335341],[7.781602194164424,44.963533819241555],[7.781401782274979,44.96356768408402],[7.781200903933809,44.963642066003764],[7.781036345541252,44.963703326919735],[7.780836323199817,44.96373719492683],[7.780703595988703,44.96371776569943],[7.780624306636897,44.96366292156003],[7.780526871793272,44.963567360274595],[7.780476292804986,44.96346780103965],[7.7804295127265695,44.96331876156575],[7.780408091304147,44.963152002457896],[7.780420527830343,44.96295859452087],[7.780439906000369,44.96282827547573],[7.7804667864269215,44.962738538258016],[7.780499391951829,44.962639869196565],[7.780504718504606,44.96251839574508],[7.780446023982369,44.962409752328405],[7.780327930190338,44.9623724677829],[7.780223348764432,44.96238312617378],[7.780166716475372,44.962388757780865],[7.780043848380772,44.962483289254266],[7.780015786311888,44.962504683318215],[7.779840394336538,44.96264182419586],[7.7797272466511505,44.962708128158624],[7.779577257455741,44.962774034660846],[7.779502905561767,44.962804746912816],[7.779459738156343,44.96282229847638],[7.77936855361411,44.962843814335706],[7.779331227305131,44.96284793162055],[7.779291509237959,44.96285200622098],[7.779240813615597,44.96285581671811],[7.779182058611201,44.96285533080242],[7.779008512602349,44.96285654042784],[7.77892725669984,44.96285710736728],[7.778664919760797,44.96285879917014],[7.778661089329029,44.962936950299046],[7.778608959100455,44.96400144746934],[7.778454680232362,44.96401832683498],[7.778373004241573,44.964027257124755],[7.777861437053071,44.96408354565352],[7.777851260998541,44.96394831704708],[7.777849137633427,44.96379095233959],[7.777840445423098,44.96326406439574],[7.777821427010057,44.96315915251593],[7.777762171937913,44.962826637794734],[7.777418145182172,44.96277602851273],[7.777364445377319,44.96276839330139],[7.777279832023496,44.96272246479988],[7.777151231881036,44.962670505566216],[7.777004236993842,44.96261994792741],[7.776910833814895,44.962587780857675],[7.77677523346754,44.96255135295272],[7.776674309428813,44.962540402008685],[7.776489534091554,44.962506951404045],[7.776286095794435,44.96249115592707],[7.776218562748184,44.96248603471633],[7.776124747608561,44.96246253869659],[7.775901750011016,44.9623431865571],[7.775850121935527,44.96231555423677],[7.775716869185827,44.96224661258018],[7.775600622636567,44.96220734991014],[7.7755520196488055,44.96219082772894],[7.775423224952787,44.962247963066545],[7.77533842288942,44.96234157530516],[7.775268696311563,44.9624893655569],[7.775156927565676,44.96265919625381],[7.775081453283409,44.96276738623349],[7.775058530095191,44.962798347495564],[7.775031949507468,44.962824568684],[7.774968703733605,44.96288679782995],[7.774935979322309,44.96290237575739],[7.774870186196364,44.96293147633871],[7.774798696641522,44.962938568034595],[7.774739848075941,44.962943070426455],[7.774674959614818,44.962950516437544],[7.774558649946713,44.9629363387513],[7.774445608375979,44.96290361953633],[7.774338723581959,44.962843956753225],[7.774274010989468,44.96277574998343],[7.774248461883085,44.96267195565955],[7.774239373081745,44.96250519363054],[7.774236567679533,44.96247432543114],[7.774213965915517,44.9622079779564],[7.774181571685035,44.962036601569416],[7.7741111064153126,44.961959336362725],[7.774056868238745,44.96192708869899],[7.773981651725843,44.961883718873196],[7.773874832279226,44.961871274440966],[7.773708959973726,44.96186499674319],[7.773509607439149,44.961867352180946],[7.77331521268985,44.96189677097555],[7.773211750390385,44.961936163889355],[7.773091842963576,44.96172547870668],[7.773059747325164,44.96166897948652],[7.772760785070301,44.96113914453364],[7.772636647629296,44.96090376685384],[7.772390631288723,44.96043753273347],[7.772298865099108,44.96026030260652],[7.772141621113016,44.95996751382727],[7.772115048236769,44.959917829699755],[7.77195937159721,44.95962719637822],[7.771727275173581,44.959215130444576],[7.771654571955518,44.95906189436085],[7.771499386185632,44.958740394239555],[7.7714171669451915,44.95855914405467],[7.771346855829777,44.95847354021543],[7.771264764970562,44.95840897054565],[7.771204301233805,44.9583805307724],[7.770752642730553,44.95817390530414],[7.770368776322097,44.958003243654495],[7.769959163717989,44.957800162677536],[7.769777109920501,44.95769531142899],[7.7696246157847035,44.95758113456602],[7.769519956728801,44.95741797643955],[7.769472055491855,44.95730904930824],[7.769349969766569,44.95702382979909],[7.769012556443484,44.9568003787143],[7.768684849447695,44.956580792320565],[7.768458180601481,44.956560211578356],[7.768391951958779,44.95643812074721],[7.76828002374401,44.95622536040243],[7.768230724002679,44.956067292882885],[7.768214002269072,44.95594110624255],[7.768218703870304,44.955851135255116],[7.768259650708197,44.9557614724272],[7.768378239027686,44.955524269024],[7.7684955682783645,44.955336513350666],[7.768718351941835,44.95507924257031],[7.768816456307276,44.954966386471156],[7.769127605368669,44.954533140640464],[7.768919203817126,44.95457139759359],[7.768479790552136,44.95462519303603],[7.768228062396517,44.95463597546541],[7.768059238457331,44.95463864980227],[7.767755125720245,44.95461285894837],[7.767655656591457,44.954581102210966],[7.7675134640654635,44.95452022641942],[7.767341010245694,44.95443286309436],[7.767157765977471,44.95433186471582],[7.7670508780693295,44.95427219139016],[7.766985793156653,44.95420397997245],[7.766928171323326,44.95406381245782],[7.7669087017004195,44.953937574306025],[7.766885943902219,44.95383381282504],[7.7668270657135405,44.95373415775899],[7.766713876879342,44.953710422239865],[7.76655058681557,44.953713157715065],[7.766434554583741,44.95371190429101],[7.76627183949271,44.95366964461206],[7.766142497135305,44.953641235700985],[7.7659981364577435,44.953648693925764],[7.765712263275298,44.953677111197635],[7.765362379920452,44.953736342653535],[7.76442478636558,44.95399272690205],[7.764297049745057,44.954027198696444],[7.763255311599923,44.954244730617106],[7.763092835168276,44.954267700136626],[7.76300332773445,44.954280722340144],[7.762933791523721,44.95429068050836],[7.762795245963406,44.954266667299855],[7.762692079226386,44.95429255724458],[7.7624411963152635,44.954370844716465],[7.762232645275296,44.95443008679118],[7.762091219603073,44.954470561490695],[7.76170855661223,44.954578954434446],[7.761558252507241,44.9546223469592],[7.761435961111013,44.95463451275581],[7.761289622312659,44.95462393148219],[7.761168199669804,44.954595603752125],[7.7610411530768495,44.9545897288552],[7.760906415745303,44.95459323685768],[7.760808453455711,44.95459619858691],[7.760423444125901,44.95459201975034],[7.7601602714517375,44.954598156454885],[7.759958361880115,44.954591468377544],[7.759837038015735,44.954576656795645],[7.759729411004111,44.9545529765599],[7.759607893534903,44.95454715742234],[7.7594889582577995,44.954532350712284],[7.759392412628805,44.95450881394842],[7.759296352393257,44.95448075887562],[7.759145013439298,44.95442509885827],[7.759032316444816,44.954396862774296],[7.7588998082612255,44.95436843466016],[7.758700970682766,44.9543482594553],[7.758468952432384,44.95432322485071],[7.758372698985015,44.95428617570872],[7.758205887597547,44.954194336431925],[7.758105659417311,44.95410324628391],[7.758018392410728,44.9540347632953],[7.757868026660732,44.95393410670077],[7.757725703122075,44.953865049777654],[7.7576321988852825,44.95382802631681],[7.757500211035583,44.953795083235924],[7.757349168582553,44.953743940358],[7.757162191984247,44.95366987238356],[7.757050274553245,44.95360564025036],[7.75689102028794,44.95353189789233],[7.756762462887772,44.953467484323454],[7.756606671143903,44.95338026277145],[7.7564422779822015,44.95328846974087],[7.756362932081905,44.95323808653256],[7.756248725615424,44.953151315590894],[7.756188554106581,44.95312596590865],[7.756106209995729,44.953091269145],[7.7557836972440555,44.95302022157641],[7.755409177747104,44.952948907828464],[7.75523211729191,44.95291519088195],[7.754733108450113,44.952815229138224],[7.7541456986332875,44.95270080765292],[7.7538287180643595,44.95264784861259],[7.753701276783616,44.952641933331584],[7.753710543300925,44.952471010061494],[7.753710202548185,44.95235849130016],[7.753676387161661,44.95225458486807],[7.753583941488429,44.95206003830675],[7.753496239727863,44.95188355194373],[7.7534417228300505,44.95171190717595],[7.753435169571186,44.95163082756788],[7.753431952896884,44.95152275768798],[7.753353563169704,44.95131936506477],[7.753098683908513,44.95068644050292],[7.752875845847914,44.94998187446537],[7.752659638250769,44.949227842330735],[7.752677459160074,44.94915890343443],[7.752691188076973,44.94910944877661],[7.752707429784082,44.94904382786541],[7.752603202349984,44.94890765661521],[7.752408263012401,44.94865347089204],[7.752533299642515,44.948479209698306],[7.752624470804407,44.94830925406522],[7.752666493663217,44.94812518917508],[7.752679574702763,44.947904783011694],[7.752672806525836,44.94777867834531],[7.752667520257932,44.94767510387227],[7.752648817304186,44.94738683817665],[7.752571169062302,44.946728839182065],[7.752475280702717,44.94601664135911],[7.75246216001259,44.945918853261375],[7.752416814223936,44.94558194028456],[7.752414465846339,44.94551638452497],[7.752413882370078,44.945489369431584],[7.7524125669115795,44.945439853928335],[7.75240945032012,44.945309293488556],[7.752337384553766,44.945151253644354],[7.752238185099131,44.94493384698871],[7.752126133771375,44.9447030767431],[7.75208958724518,44.94462614948433],[7.7520454542389325,44.9444501379233],[7.751922529449605,44.94423724183666],[7.75186409787871,44.94417358910802],[7.751818428918104,44.94412358877101],[7.751731470008427,44.94407309294385],[7.751680448679995,44.94405255162503],[7.751605029379959,44.94402219151687],[7.751799676467436,44.94343019132002],[7.752157296276082,44.94228185166499],[7.752247126385093,44.94229624628605],[7.752297086021856,44.9423044159959],[7.752447268275915,44.94232961246121],[7.752538463561787,44.94234927804207],[7.752674104499763,44.94237807098827],[7.753095267409001,44.941846533482966],[7.753699775155673,44.94105646028644],[7.75396923840204,44.94074545671189],[7.754100219714131,44.94059411545031],[7.754143793628635,44.940543696191284],[7.754161977853564,44.940520620784326],[7.754597469992881,44.93996802245955],[7.755356829804822,44.93906711284572],[7.753450763144685,44.93821364071366],[7.753396237637033,44.938190075918975],[7.753229304356092,44.93811795841651],[7.752710561269884,44.93789436346569],[7.752639150348909,44.937861910715],[7.752459673802979,44.93777517441757],[7.752202046778542,44.93765811396264],[7.752012167683276,44.937590257541416],[7.751955639066428,44.93755086262028],[7.751916779207722,44.9375245264772],[7.751857619205417,44.937485031629876],[7.751783901043497,44.93730419806195],[7.751717929836737,44.93716845292094],[7.751629772031861,44.93699643730445],[7.751470798022023,44.93671113649797],[7.751437312986103,44.936611749956555],[7.751431836755315,44.93648116529661],[7.7514623291036715,44.93617087140991],[7.751751752979594,44.93615609549415],[7.751831606441226,44.936146815007554],[7.752752685264891,44.936041005435946],[7.753410869427316,44.935963162337806],[7.753393942908382,44.93570842021304],[7.753357018774494,44.93527820840352],[7.753329363551165,44.935079146340634],[7.753298969834501,44.934867898935366],[7.753234596248694,44.93444523709399],[7.753344732814484,44.934433789027956],[7.7536204803145905,44.934403787869115],[7.753818777572374,44.934382816042714],[7.753696631348273,44.93409398263684],[7.7549830820648715,44.93392147280532],[7.7554089358876785,44.933864518840565],[7.757138177354149,44.933635167787514],[7.757263944036076,44.93414127826466],[7.757888966669614,44.934031066921676],[7.758167837522507,44.93398513806555],[7.75835128006017,44.93414162653749],[7.758486464461584,44.934258009038295],[7.758928801362817,44.934132408791854],[7.759773739849844,44.933903047087604],[7.76021594539476,44.933781820803645],[7.760151569264673,44.93368210136824],[7.759966012369214,44.93339652269291],[7.759704004727785,44.93296609083536],[7.759551553098106,44.932689867656485],[7.759437993181532,44.932445572984896],[7.759330151389989,44.93213834503986],[7.759259483097773,44.93192602597699],[7.761376487749539,44.931287377313296],[7.761291087021405,44.93109740834093],[7.762128674115684,44.930912949575216],[7.763156847871864,44.93068552913302],[7.763860328696396,44.9305311129826],[7.76447003999382,44.93038185422672],[7.764539822739389,44.93056288119024],[7.764831615527702,44.93140581185695],[7.765409555038816,44.93119600966886],[7.766173747551065,44.93094321605834],[7.766078050446413,44.93064062214616],[7.76643007444921,44.930549905181785],[7.7665384873115135,44.93044304206001],[7.766323365151018,44.9299533347446],[7.766310019975775,44.92992296264898],[7.767023453089604,44.92971011951312],[7.7676065165200265,44.92953638849233],[7.767917450666652,44.929422711170886],[7.76805145881387,44.929410643179736],[7.768223959520685,44.929398970461065],[7.769498285966715,44.929066131609034],[7.769649777733783,44.92900025146073],[7.769611806893098,44.92885993996158],[7.769497080269889,44.92843599531846],[7.769453169257862,44.928299550928934],[7.769411315458233,44.92816949942791],[7.769425433752929,44.92798962263058],[7.769458453760369,44.92790895207661],[7.769668427144795,44.927830209850526],[7.769825766173819,44.927786882235175],[7.769883816307611,44.92770200179531],[7.770179785042747,44.92760165290499],[7.770635063324606,44.92745803353822],[7.770713427762086,44.92740486138923],[7.77078666882287,44.92735056009147],[7.770826158053675,44.927306604251314],[7.770853983846849,44.92727584676048],[7.771077925119206,44.92722407474502],[7.771347787688646,44.92714958826211],[7.771474066317781,44.927097577474015],[7.771766250614882,44.9269973385788],[7.772211517122126,44.926844853442525],[7.772928206206707,44.926568990453106],[7.773547986223562,44.92632359285583],[7.773714702992174,44.92624887417199],[7.774170912245252,44.92604221931385],[7.774858286728046,44.925766051073076],[7.775615374641634,44.92545008372988],[7.776478379031591,44.92514428162774],[7.77717600900015,44.92486819036921],[7.777884224076005,44.924596704640415],[7.778023223279411,44.9245216838884],[7.777530697286321,44.92407081392188],[7.777212443452047,44.923747834869246],[7.777388964651366,44.923677695190804],[7.777321264209687,44.92341591476367],[7.778187246008869,44.92306061219261],[7.778449530002138,44.922959901154165],[7.778427895452997,44.92293611857538],[7.77806917415694,44.92254174043868],[7.778166619776914,44.92250225957299],[7.778326869966492,44.92243196413056],[7.778561098678567,44.92227243489613],[7.7787021566242895,44.922171702973586],[7.779188290078099,44.921824545227715],[7.779269336178159,44.92176211201762],[7.779458682223261,44.921616249607595],[7.779611860731887,44.92150029221951],[7.779901614582053,44.921278630084466],[7.77993515363578,44.921252226268535],[7.780018915963185,44.92118165038751],[7.780284683754056,44.92095975800693],[7.7804471886475675,44.92082526937577],[7.780533552407071,44.92076798000575],[7.780624388416405,44.92077766222081],[7.780765918798283,44.92077015613172],[7.780841462404791,44.920716963053295],[7.781025539230204,44.92058840310209],[7.781168942684318,44.920490914071976],[7.781427508750632,44.92034063441562],[7.781767225939313,44.92016953043995],[7.781956532093314,44.92007621015689],[7.7824235910071025,44.91982772430631],[7.7824965598848195,44.9197903624732],[7.782726247473813,44.91967489522566],[7.7827837527917305,44.919645236150245],[7.782936329330281,44.91956730148739],[7.783258298738917,44.91940594574734],[7.783646207226234,44.91922984849504],[7.783669624016588,44.91920829587587],[7.783756666699489,44.91912822890468],[7.783767213699967,44.91904227717865],[7.783781857834226,44.91892991837564],[7.783828991691014,44.91885472757738],[7.783952011899097,44.918747185892336],[7.7841000628088315,44.91865332095546],[7.784203217122546,44.91858781766689],[7.78430935682585,44.91852360815479],[7.784570176927044,44.91836668471119],[7.785325780566525,44.91788945779384],[7.785887437382984,44.91750429468534],[7.7859347976193485,44.91747200917064],[7.786044455997469,44.91739664499672],[7.786782251490729,44.916936395847635],[7.78704701198316,44.91677265710694],[7.787723082817209,44.916365762954584],[7.788099966610579,44.916132455928874],[7.788480445038122,44.915896695820415],[7.788644305312266,44.91608747549464],[7.788839254882373,44.91630557553288],[7.789003510060746,44.916496363368225],[7.78915706846818,44.91666904063646],[7.7891770153595346,44.916702157341824],[7.789197991780165,44.91673698814797],[7.789220641089325,44.91677324370858],[7.789266220029472,44.916845743384606],[7.789414218852251,44.91700034914831],[7.789675607776781,44.917318193513644],[7.78978882431616,44.91744992138339],[7.789915743048535,44.91760051050298],[7.790163915340901,44.91789498477353],[7.790378679896475,44.918131305153956],[7.7905258115008715,44.91829040218111],[7.790709024552949,44.91852188850797],[7.790969606778564,44.91885771277777],[7.7911628384823635,44.9191028201037],[7.791352670586834,44.9193208831708],[7.791510026495402,44.91950257422831],[7.791630564138721,44.91965300203661],[7.791719774018851,44.91975235459725],[7.791779037865661,44.919834008185944],[7.791951948071554,44.920047373053926],[7.7920930307759875,44.920210900538365],[7.792229483537049,44.92036987965168],[7.792433106515809,44.92062858873745],[7.792622476971536,44.9208691543662],[7.79285902282181,44.92116421714855],[7.792959303461966,44.92129552057395],[7.793052991729901,44.92144698902096],[7.793097599407215,44.92151707870089],[7.793124187825118,44.921556632931186],[7.793245997688281,44.92174443450556],[7.793413256165254,44.92194219353877],[7.793441894003966,44.921976050350295],[7.793515331041139,44.92206235828695],[7.793686473931721,44.922266703335254],[7.793770583317158,44.92235311844637],[7.79383645864584,44.92240331472245],[7.793916206914701,44.922489680957746],[7.793969234747892,44.92254875790253],[7.794019738282643,44.922618268534094],[7.7940971982169795,44.92266668937464],[7.794140601974771,44.9226940746399],[7.794169697015608,44.92271374707589],[7.794235828542902,44.922774687959325],[7.794297892689521,44.92283127568005],[7.794397496904937,44.92285933796231],[7.794488775800973,44.92288730956562],[7.7946190918367195,44.92296069527969],[7.794780785035958,44.923124436025944],[7.794885095140691,44.92322907569425],[7.7949571146887475,44.92328833189899],[7.7950416035752585,44.92335675588628],[7.795137827279678,44.923452273741674],[7.7952218362273635,44.923525190848956],[7.795335820160507,44.9236071948124],[7.795375348798165,44.923633625915635],[7.795405248567255,44.923653153488424],[7.795537845967876,44.92371306815375],[7.795670419971303,44.923772963513436],[7.795767656234335,44.923819011802],[7.795860568145332,44.92388300498197],[7.795920677726183,44.924000650934076],[7.795937774132804,44.92407286282256],[7.795976906510738,44.924208299725606],[7.796044507843483,44.924384541450536],[7.7961465021053025,44.92459444156549],[7.79618080592488,44.92466504611537],[7.79628800136239,44.92493622648497],[7.7963911216895685,44.92528839112418],[7.796505598728142,44.925627179490654],[7.796542666947491,44.925767094527345],[7.796583034687846,44.92592055727818],[7.7966143219696304,44.9260154092827],[7.796660229681324,44.92611500278738],[7.796732387693614,44.92622960561873],[7.796757857038927,44.92626884201054],[7.79684055105237,44.92635423166032],[7.796907430722241,44.92641007738875],[7.797172952011818,44.92649390191998],[7.797585278219451,44.926587449233836],[7.797675715884289,44.92660769016872],[7.797782987890918,44.926631701882265],[7.798009912979166,44.92668225167593],[7.798148879690608,44.92671544386877],[7.798202198821262,44.92673688076335],[7.798249325869157,44.926756407049254],[7.79834357038507,44.926812270761666],[7.798406250225677,44.92686203194633],[7.798464242873284,44.92693057333193],[7.798506884458805,44.92699403715431],[7.798544507488287,44.9270889534768],[7.798583461618366,44.92723338597621],[7.798595586656234,44.927355042806454],[7.7985941793113085,44.92751706370834],[7.798593055823876,44.92766558994332],[7.798614144842226,44.92775583485768],[7.798690262034259,44.92781501744835],[7.798783909116366,44.92785630021054],[7.798882405720666,44.92789880777127],[7.799120261494253,44.92796369803627],[7.79954657393992,44.92806720114706],[7.7995848349192825,44.92807606798356],[7.799772774932616,44.92812031079309],[7.799831584173477,44.92813365778766],[7.800039925895707,44.92816691875591],[7.8001859256667165,44.92819096248594],[7.800357165311127,44.92820175914433],[7.800549291220851,44.92819927909072],[7.800794059326399,44.92819735066916],[7.800898479809319,44.92820294645159],[7.801017260960699,44.928226781610206],[7.801147987407464,44.92827757621613],[7.80126972648572,44.92834636770996],[7.801476039769663,44.92847906011591],[7.801706653446357,44.928643534071604],[7.801976697646963,44.92883539133825],[7.8024011064786105,44.92914591862797],[7.802543509193471,44.929242117904025],[7.8028603827845755,44.92947480313237],[7.803035528569723,44.929602668522556],[7.803107243124742,44.92965743871632],[7.8031712629837875,44.929797633101465],[7.803226860313247,44.92994225549308],[7.803241810964745,44.93002342055195],[7.803267495087508,44.93014071521895],[7.803284109102847,44.93021739578698],[7.803297108164346,44.93048760190403],[7.803282608247814,44.9307845079009],[7.803266011794892,44.93087885616921],[7.80321659252917,44.930950349960156],[7.803156786633179,44.93100823722336],[7.80305322832273,44.93107123990114],[7.80281575755543,44.931220715497645],[7.802658611948343,44.93133158329275],[7.802515261466171,44.93148311546485],[7.8024300531187825,44.93156324911903],[7.802291807309825,44.931678812927295],[7.8020425333711705,44.93189674864299],[7.801963466778321,44.93198594030117],[7.801807837908993,44.932137345447245],[7.801734686683304,44.93222658190939],[7.801647196186756,44.93232018505857],[7.8015254170410335,44.93244493626017],[7.801357032133521,44.93260070250989],[7.801204601636915,44.932702628348416],[7.801081073743455,44.93278684799231],[7.800949154550376,44.93290249367963],[7.800839758377309,44.93304087000113],[7.800730134671487,44.93317024269988],[7.80061732702967,44.933281592201496],[7.800525771070043,44.93337965098487],[7.800500659905469,44.93340639688335],[7.800315409612317,44.93361148744088],[7.800126816622761,44.933843568443415],[7.799962179482957,44.93400837130224],[7.799808381625864,44.93407920949667],[7.799740396860244,44.93408443175454],[7.7995818291270655,44.93409513369818],[7.799499011462416,44.93410607099998],[7.799460348642549,44.93411143211815],[7.79934659812721,44.93413269078334],[7.799223865740445,44.934171834626994],[7.7990775553992195,44.93421986562643],[7.799026979084243,44.934242207848904],[7.7989197946079045,44.93429025765238],[7.798781969908224,44.93435153578394],[7.798599941815327,44.93445763876668],[7.798402806566088,44.93458608934579],[7.798188475471826,44.93474137187129],[7.797946186892542,44.934927864067525],[7.797663520083199,44.935149935983134],[7.797249251671645,44.93545997517993],[7.797216818185211,44.93548232945182],[7.796939791122403,44.93566893698274],[7.796910289050263,44.93568648616522],[7.79682936629781,44.93573344777645],[7.796897359533193,44.93589803246774],[7.797121793753931,44.93626496793198],[7.797428731735838,44.93668229195247],[7.797528655593768,44.93680937252149],[7.798259988115214,44.936533507857476],[7.798631146144666,44.93708203374749],[7.79894248503699,44.93759392113753],[7.799207855834819,44.93799279002863],[7.799525791176651,44.9384912501931],[7.79954560271448,44.93851781367579],[7.799671368232983,44.93870883346156],[7.799794848182038,44.9388938274355],[7.7998425432649094,44.93888865746177],[7.80000735676672,44.93887439838985],[7.800232109093217,44.93932235804612],[7.800289492049683,44.93940887618318],[7.8003373281283865,44.939480998791176],[7.800415235426817,44.939562825489034],[7.800575026947311,44.93982105785786],[7.800840007440328,44.94004889033142],[7.801172394145549,44.94034943788447],[7.801581002108104,44.94071831663045],[7.801971935424479,44.941118499300224],[7.802436806980052,44.941505959339324],[7.8029773171142685,44.94196190101682],[7.803466132749323,44.94238994041958],[7.803861789371941,44.94270368188237],[7.804081029031699,44.94287798503224],[7.804209952518661,44.94298351635609],[7.8045478084529725,44.94326007314157],[7.804592848283946,44.94329693978162],[7.8047104304399415,44.943393185957916],[7.80485209489851,44.94353421250833],[7.805191692366192,44.94387083079145],[7.805557652794109,44.944263976460476],[7.805610558389923,44.94432081040635],[7.806019480774695,44.94481118901264],[7.80677102205631,44.94566523610518],[7.807426746317201,44.946423739317915],[7.807568814212803,44.94664127377908],[7.807618045806556,44.94673181692194],[7.807649600971507,44.94678983486725],[7.807667282603342,44.94682236099673],[7.8078353775470815,44.94710316470099],[7.8078796863731945,44.947158197435186],[7.808022716821876,44.947334663410054],[7.808124175500075,44.94746626770666],[7.808305872927271,44.9477022080507],[7.808441754684118,44.94765815602601],[7.80869527819363,44.94796071647478],[7.808791148774246,44.94807512025239],[7.80882167087882,44.948111287325425],[7.809046497405529,44.948374131446045],[7.809311792445745,44.948652284606894],[7.80955885268346,44.94890803100048],[7.8096909516628745,44.94905344819491],[7.809810110403788,44.949252862991294],[7.810008852276165,44.94969174106416],[7.810081899837721,44.949843750288096],[7.810121161414139,44.9499274189058],[7.810192820808151,44.95008062435677],[7.810328080717815,44.95029334296199],[7.810537900401136,44.95037655484585],[7.810585395006931,44.95039617251247],[7.810806182314156,44.95048736228785],[7.810956667177315,44.95054744506118],[7.811668075458823,44.950838415410416],[7.811822881965591,44.95090589484448],[7.812789420327004,44.95132718614089],[7.813282735495018,44.951552853023415],[7.813360301542515,44.95201724214978],[7.813418851068705,44.95275150966206],[7.813370238348913,44.953322627598695],[7.813173255130146,44.95392305780819],[7.813134779682505,44.95404032567045],[7.8131073133514395,44.95408706210179],[7.813083406536437,44.95412926521252],[7.812847459164154,44.95452939961783],[7.81252502965576,44.95507821760645],[7.811877338561602,44.956169710680015],[7.811608815626817,44.956702533944195],[7.811450826831997,44.9570622708839],[7.811437543602461,44.95709248553092],[7.811203425273153,44.95762550292284],[7.810934820009342,44.95818081777937],[7.810811133089687,44.95863161314468],[7.810776284336959,44.9587586463343],[7.810691652095252,44.95892292614995],[7.810028379740166,44.96021032246411],[7.809358494601633,44.96049140131767],[7.8090613978247285,44.960641337767086],[7.80829186836152,44.96106539288758],[7.808188971100869,44.96113634835049],[7.808138861311908,44.961221332472526],[7.80769259305206,44.96149573691307],[7.806756056366125,44.96206207660449],[7.8059029450784045,44.96259777404641],[7.805701233978988,44.962712695696766],[7.805503072406298,44.962791630894],[7.8051716127444015,44.962878185636896],[7.8050012935332616,44.962924130066355],[7.804962806752686,44.96293451436723],[7.804856529534538,44.962996415948034],[7.80478492077488,44.96310821460159],[7.804661161470069,44.963263891177014],[7.804630442366338,44.96328207407424],[7.804244898299015,44.96350312113321],[7.803696263005149,44.963780939734626],[7.8034124599611925,44.9639333006737],[7.8030098763208935,44.96414739729144],[7.802760053901004,44.96433922909022],[7.802697587223444,44.96440998412145],[7.80264234585817,44.964472858932325],[7.802558577430194,44.964565685718334],[7.802336286493246,44.964851415041295],[7.802308734446425,44.96490079987208],[7.802221454719902,44.96505724525495],[7.802174180475809,44.96519627190637],[7.802159975187587,44.965344661810114],[7.802172413200282,44.965489598975395],[7.802136450779372,44.965582437194165],[7.802126090900845,44.96561028145345],[7.80210865687743,44.965654015605764],[7.8020762284572065,44.965703653485434],[7.8020345394814985,44.96576206565038],[7.801961312411408,44.9658642466958],[7.798846093304534,44.96590246763651],[7.798761038493845,44.965903439027024],[7.79863992742144,44.965904757480125],[7.796985444710283,44.965924979941626]]]}}]}
