{"type":"FeatureCollection","metadata":{"code":"002134","referenceDate":"2026-01-01","sourceDbfExportDate":"2026-02-18","upstreamArchiveUrl":"https://www.istat.it/storage/cartografia/confini_amministrativi/non_generalizzati/2026/Limiti01012026.zip","sourceManifestSha256":"70ac8256c4785dc6ed2814c32b6965ae76f9161b51abaa1660059e1c6cbd8ca6","license":"https://creativecommons.org/licenses/by/4.0/","attribution":"Istat, Confini delle unità amministrative a fini statistici al 1° gennaio 2026, versione non generalizzata.","modifications":["Converted from WGS 84 / UTM zone 32N (EPSG:32632) to RFC 7946 WGS 84 geographic coordinates.","Converted from shapefile to per-municipality GeoJSON without geometry simplification."]},"features":[{"type":"Feature","id":"002134","properties":{"code":"002134","name":"Scopa","alternativeName":null,"regionCode":"01","regionName":"Piemonte","territorialUnitCode":"002","territorialUnitName":"Vercelli"},"geometry":{"type":"Polygon","coordinates":[[[8.113130116103957,45.81222645492001],[8.113059781647983,45.81232491451992],[8.11296708622116,45.812387198693095],[8.112828272669582,45.81246711433741],[8.112758765031579,45.81251159054919],[8.112275180292443,45.81262033182746],[8.111745970538637,45.812715222557244],[8.111658255096017,45.8127534045848],[8.111577661503773,45.81278848988878],[8.111492027377968,45.812825764503536],[8.11114664767353,45.81291758784105],[8.110823799111635,45.813009581882234],[8.110432537315775,45.81310553910975],[8.109787163218016,45.81329402508965],[8.108866289879648,45.81350736548639],[8.107580565779909,45.813596333030276],[8.10702919893824,45.81364151795514],[8.106073858762652,45.81371955732194],[8.106019607903898,45.81366512433778],[8.105401436211725,45.81321025503943],[8.104919046701063,45.812589941869405],[8.103943524774749,45.81187125043329],[8.103235861310836,45.811555173292355],[8.102571481818861,45.81122593342822],[8.10236916184967,45.81112534208965],[8.101711729372777,45.81081414592193],[8.100993908141474,45.810331466091036],[8.100758321361683,45.81010010213678],[8.10073096698525,45.81005039212932],[8.100469933979493,45.809575800050844],[8.100183162250188,45.809177522978345],[8.099824542308939,45.80891818059235],[8.099226088916009,45.808481006640555],[8.099089131197937,45.80838133966677],[8.098499818715691,45.80802325899567],[8.098464963144949,45.80800184587545],[8.098211720253085,45.807847872692115],[8.0978509446669,45.80752552028006],[8.097643676328873,45.807285358300696],[8.09709516022856,45.80628645694947],[8.096346637886446,45.80499795282522],[8.095550997073381,45.804087101057824],[8.094903678032205,45.803357417088066],[8.094333951414429,45.8028724412573],[8.094172592944036,45.80273508700113],[8.094060366384092,45.802662175489786],[8.09369257358259,45.80242419483809],[8.093511162359507,45.80230681060278],[8.093172434963291,45.802155803888546],[8.09311030358,45.802128107955056],[8.092688943538738,45.802048264855145],[8.092205992691254,45.8020175300359],[8.091833168993418,45.80199226165307],[8.091156635489842,45.801883070812174],[8.090526897308406,45.80178355158242],[8.089953129641785,45.80158097399397],[8.08949687388931,45.80144683071892],[8.08903990641014,45.80133067141991],[8.088516154613961,45.80111948828179],[8.087447045552816,45.80056641690159],[8.086078372057745,45.80013694925886],[8.085361341267518,45.79997426541575],[8.084417325208994,45.799760074481675],[8.084083986005025,45.79968443950733],[8.084021889757851,45.79967043165009],[8.083932919847209,45.79961636582814],[8.083136372438414,45.79913230333755],[8.08286608143086,45.79884211358032],[8.08217584628378,45.798572892764575],[8.082136077805623,45.798557227101576],[8.082094279810248,45.79845788637138],[8.081970918487432,45.798281391582755],[8.08185369168437,45.79812293654126],[8.081713125353376,45.79801378680759],[8.081238087743305,45.79758244555201],[8.081081814723891,45.79737359222905],[8.081051685431389,45.797322771388814],[8.081007315697716,45.79724807056001],[8.080924530611885,45.79711188386484],[8.080852194790085,45.79701229789475],[8.080677507694588,45.796875885571815],[8.080347991084825,45.796666228433665],[8.080186057499466,45.796571994464664],[8.079998615446485,45.79646544172451],[8.079862879765493,45.79642781031465],[8.079810100627581,45.79641331625077],[8.079495107295543,45.796326325298836],[8.079619696760245,45.79589533604494],[8.079631866322726,45.79585940518525],[8.07976294170463,45.79559043285882],[8.080017632490078,45.79538547781213],[8.080316653615895,45.794978351611704],[8.08067157237608,45.79452216424789],[8.080857087969045,45.79423053105274],[8.081269710105623,45.79411746266024],[8.081417810212486,45.79401091779609],[8.081656707085974,45.79383905904837],[8.081845057710197,45.79370355966855],[8.082050786000451,45.793523740632615],[8.082173061020264,45.79341686577635],[8.08222206048255,45.79337358079353],[8.082337908493875,45.79326032123638],[8.082464818319327,45.79313705610879],[8.08292252383544,45.79258261900395],[8.083188411023428,45.79235524130576],[8.083287831522984,45.792273409909065],[8.08340113995491,45.79218144434319],[8.083539159420722,45.79193279552027],[8.083569377193557,45.79187676460653],[8.083841072146289,45.79166292310471],[8.084056068963928,45.79152224588015],[8.084093837489787,45.79149730168593],[8.084329602688525,45.7913428195394],[8.084430861283867,45.791188596596896],[8.084481972025337,45.791112478575975],[8.084515454938252,45.791060859612465],[8.084524674859328,45.7910340636857],[8.08453952469294,45.79098937086343],[8.084593293541403,45.79082388178363],[8.08461905443174,45.79057772266968],[8.08462872468803,45.79048560861764],[8.084624635172089,45.79042552854281],[8.084580998592331,45.789886740459195],[8.084641208756418,45.78978856882006],[8.084703521838172,45.78968696582382],[8.084784254754668,45.78955533547556],[8.085048863793327,45.78935494432221],[8.085537532559004,45.78898373236171],[8.08597054505999,45.7886557732829],[8.086220019897732,45.78847480065082],[8.086271216947047,45.78843766005657],[8.086664926615903,45.78823378368857],[8.087332742175125,45.78781265321826],[8.087706909528535,45.78757607776176],[8.088282803436435,45.78761838240315],[8.088748561667577,45.78765189413955],[8.08885310839302,45.78759079585901],[8.08944303739503,45.787247896071726],[8.09001032407716,45.787320214584106],[8.090233815367545,45.78734870314745],[8.090278540266098,45.78746607481259],[8.090398264919838,45.78762002392735],[8.091277756797087,45.787483021111065],[8.092373965502713,45.787244212589606],[8.092473132718633,45.787227010626445],[8.092602179059233,45.787178522697474],[8.092738371661188,45.787035602810526],[8.092851573119939,45.78689698076504],[8.092927067189665,45.786836810961134],[8.092965033288907,45.78680955580284],[8.093012576330056,45.78679950681276],[8.093064014698086,45.78678979024833],[8.09320308830624,45.786764764182124],[8.093361541998894,45.7867024388799],[8.09353622818634,45.78669990516145],[8.093681379770125,45.78674245637078],[8.093720568575614,45.78675380300956],[8.093829966932343,45.78678562149071],[8.093891890504041,45.786780735590604],[8.094048872614495,45.78676369824342],[8.09416496328629,45.786745265396185],[8.094247255070812,45.78669764070125],[8.094299127084266,45.786667405396976],[8.094370863880446,45.78662551049873],[8.09441452783317,45.78662387194372],[8.094667747554654,45.78661436954845],[8.09527436551061,45.786592170893734],[8.095487581223969,45.78673336202276],[8.095552064585991,45.787071404566404],[8.095915289095387,45.78730829336284],[8.096675114589583,45.7873001066319],[8.097127636412797,45.78729539034622],[8.099146107661788,45.78777934515853],[8.099346009202199,45.78752440456469],[8.099447825803347,45.78726868872455],[8.09962264319265,45.787049549144555],[8.099650877883063,45.786793254102584],[8.099629815710887,45.786604070494185],[8.09841754289697,45.78596447876791],[8.098082914577944,45.7854982955501],[8.097818407570315,45.78514463752285],[8.097724010247871,45.7850184266296],[8.097171314046484,45.7844155282821],[8.097003819752707,45.78420718005112],[8.096811405738498,45.783998653472054],[8.096235135045456,45.78336404360687],[8.096092041564168,45.783137896383955],[8.095919425937108,45.78312301870481],[8.095718016439207,45.78311647254878],[8.095133834218855,45.782616050906064],[8.095122672746541,45.782549684823366],[8.095111411968363,45.782351584348184],[8.095068022207538,45.78217571768249],[8.095094699062791,45.78201841730825],[8.095061772589174,45.781941658507726],[8.094968967051646,45.781787905772006],[8.094976884125181,45.781667906098946],[8.094980192037907,45.78161699003344],[8.095248291249277,45.78166860658973],[8.095369879974466,45.78170556866601],[8.09570977286991,45.78184328460499],[8.09578867512076,45.7814883662949],[8.09584213181135,45.78121428001793],[8.095527561843957,45.781004765473064],[8.09543541764948,45.78066202480386],[8.095538330493703,45.78033881811875],[8.095755554272776,45.78015705966968],[8.095885497495924,45.78004902810726],[8.096012134895792,45.77974523334576],[8.095467135233323,45.779546190987276],[8.095677887050401,45.77948935195106],[8.095938095353485,45.77940589901954],[8.096054065147621,45.779343812475915],[8.096500232041723,45.77922133156583],[8.096813678664446,45.77917881349142],[8.097107467656095,45.77913162444595],[8.097217749834462,45.77907400743318],[8.097336755846468,45.77901200118088],[8.097370845696727,45.778982317906795],[8.097539506813597,45.77883802128934],[8.097607798504736,45.778749197926],[8.097646672856838,45.778699362835894],[8.097836048375017,45.77847134623303],[8.097962187623425,45.77837783461257],[8.09804856622808,45.77834478545345],[8.098146625832273,45.77830727046918],[8.098383930819828,45.77827314324107],[8.0986360723081,45.7782661383441],[8.098725781309561,45.77826234749839],[8.098938401989637,45.77826402458574],[8.099084727668945,45.77828768663843],[8.099324919795402,45.77837507199138],[8.099488509588737,45.77844301097308],[8.099756219424046,45.7785764844927],[8.100056735629066,45.77873636380158],[8.100139184650937,45.77875787509627],[8.100268092113062,45.778792039993625],[8.10044605188777,45.77882115363554],[8.100814309840732,45.778827972358826],[8.100858915520151,45.778828175800065],[8.101183918057803,45.77880824298469],[8.101262743520813,45.77878631087429],[8.101436286536098,45.778738228632015],[8.101792069582139,45.77872475386711],[8.10182965347029,45.778723330199114],[8.102178937254376,45.77872607554252],[8.102386922406776,45.77869168888908],[8.102593725961567,45.77872933436231],[8.103392389915944,45.77910912317113],[8.10385359344569,45.77930175592199],[8.103850096404217,45.779227773159676],[8.10383958120924,45.77900901633384],[8.103835124184876,45.77892357711831],[8.104164108409428,45.778829286884964],[8.104522860227679,45.77872646051745],[8.105111798582168,45.778573564174025],[8.105747455302023,45.77856504834271],[8.105917296434512,45.77851707252893],[8.106336582744333,45.778398630776536],[8.106558782191295,45.77827885704024],[8.10700588369517,45.77781882785533],[8.107687094008199,45.77762613883213],[8.107843942955745,45.77772187404788],[8.108027750630159,45.77784030333022],[8.108144224321869,45.777872716037926],[8.108302950681598,45.77782446089339],[8.108504111938705,45.77771351358683],[8.10884126074697,45.77751813423905],[8.10904068187142,45.77743869384676],[8.109203460526276,45.777439963133325],[8.109384984157009,45.7774008597511],[8.109562559787884,45.77733024527619],[8.109795598430127,45.777161056518096],[8.110178973775612,45.77688951461673],[8.11043639938251,45.77662600505342],[8.11064138124024,45.77642509265368],[8.111058802345227,45.77618531442931],[8.1114582574927,45.77596340630209],[8.111741637929013,45.77582210316567],[8.11206167427661,45.77566207738021],[8.112266949898169,45.775560160616045],[8.112527645397627,45.775494682296596],[8.112847127933401,45.77527214714897],[8.113171399626445,45.77501777759719],[8.113250465877691,45.77495575523116],[8.113346018508276,45.774938487266404],[8.113549813924775,45.77488607960541],[8.113622881220854,45.77484162936061],[8.113771308491296,45.774833785471294],[8.113883379212426,45.77483492116421],[8.113950636425836,45.77483049508859],[8.11401140429388,45.774826651400886],[8.114109175996186,45.77484540111878],[8.114197319487834,45.77491358730892],[8.114270098029396,45.775040162645034],[8.114359576862428,45.77513656104006],[8.114454624591845,45.77519011136049],[8.114555639756015,45.77521796126831],[8.114632111614446,45.77520048134442],[8.114721562441062,45.77511118342477],[8.114800633833227,45.775066782552216],[8.114946516507723,45.77501841954584],[8.1150493950181,45.774942698575586],[8.115130351128427,45.77483082731325],[8.115202053249044,45.774669372218526],[8.11523792053076,45.77448513054902],[8.11530348558939,45.77435513220635],[8.115450473166476,45.774185244763544],[8.115534812905349,45.77403740008064],[8.11559078308025,45.77390282601938],[8.115643076883247,45.77384922013695],[8.115732520341375,45.77375990334793],[8.115872368748285,45.77371147354433],[8.116071973824823,45.77364551435207],[8.116238715474275,45.77359731106562],[8.116372916891745,45.77349934465207],[8.116498559985164,45.773356297445126],[8.116660745726636,45.773191041612485],[8.116752587559708,45.7731017425591],[8.116793977282892,45.7729760495982],[8.116981434730002,45.7727614981399],[8.117110813765033,45.77258697565697],[8.117194329084372,45.772439101738215],[8.117256183179693,45.7723135694227],[8.117297610861334,45.77221038828727],[8.117347857119162,45.77205775863629],[8.117425761297152,45.77188285698938],[8.1174937539614,45.771802367516734],[8.117516089241354,45.7716855422158],[8.117582140957195,45.77155104859883],[8.117650236324257,45.77141205325582],[8.117796144475077,45.77130967518044],[8.117906821260632,45.77119801157464],[8.118005042338794,45.771086271504956],[8.11808512381491,45.770978888993575],[8.11817953267681,45.7709301064793],[8.118231030306278,45.770876493241644],[8.118253374628264,45.77080916468603],[8.118305934364093,45.770688055903555],[8.118345144089082,45.77049484449783],[8.118435603239252,45.77031554313555],[8.118556301286286,45.77015446206545],[8.118703128071651,45.76996657751224],[8.118879387113752,45.7696979068354],[8.118967379518178,45.769469072954806],[8.119085786671576,45.76924946614953],[8.119139726296444,45.76909236914526],[8.119177586032118,45.76898466029593],[8.11925513258553,45.76883224379773],[8.119322112799011,45.768765257298874],[8.119499382691531,45.76860910982483],[8.119634885433573,45.768452638435654],[8.119678520232698,45.768335980372264],[8.119751090941628,45.7681430263595],[8.119770998808356,45.76802616384279],[8.119900777264503,45.76782465422822],[8.120035855118326,45.76766818267074],[8.120144136944832,45.76760600965076],[8.120234132740915,45.76755719052693],[8.120435338691689,45.76738773107739],[8.12052420480852,45.76730740043845],[8.120676449369315,45.7672095686647],[8.120797298069546,45.767165504022486],[8.121070714686851,45.767055090425885],[8.121253680082791,45.76692149035386],[8.1214633467874,45.7668015910233],[8.121568188169654,45.766676384107356],[8.121669073436005,45.76654665350895],[8.121737898124877,45.76641217509441],[8.12195553942615,45.766193330703004],[8.122084135899163,45.7660413018415],[8.122132079221695,45.76587965869425],[8.122141823414722,45.765668230537614],[8.122119664020163,45.76550104970046],[8.122077452999026,45.7653391971252],[8.122103578397594,45.76518640145669],[8.122239181078639,45.765020916116434],[8.122355541292515,45.76490481478334],[8.122577163227941,45.76478950107989],[8.122698356514759,45.76474993202832],[8.122811308093826,45.76469679125377],[8.123218979199905,45.76454775041127],[8.123305648525182,45.76451606593422],[8.12340040656554,45.76446033676246],[8.123457742032212,45.764427242597094],[8.123662673550685,45.76424879261821],[8.123721078289591,45.7641637272245],[8.123798012808841,45.76407430893919],[8.123974518791185,45.76404415896748],[8.124367669635985,45.764011172581206],[8.124585381404023,45.76401733864738],[8.124903389127853,45.76406029354583],[8.125174767540926,45.76405335582258],[8.125381742948944,45.76407744864887],[8.125527928487228,45.764110071167316],[8.12561794289474,45.76411076011218],[8.125775215181042,45.76407596248347],[8.125947459034522,45.76405926986554],[8.126206494620398,45.76407026735329],[8.126466999158186,45.76411725505924],[8.126717347924078,45.764195685148465],[8.12684409495831,45.76423715094101],[8.127062921366864,45.76427482430651],[8.127330968437434,45.76432636534128],[8.127575268793647,45.76432823112578],[8.128058611027937,45.764309431737075],[8.128393254212568,45.76426697161007],[8.128897390247992,45.7642033127876],[8.12921184225104,45.76416521288369],[8.129521825792825,45.76410457080833],[8.129689598982443,45.76406535192711],[8.12990633492979,45.76405798670147],[8.130072801073233,45.76407726483864],[8.130388766460374,45.7640976798532],[8.130642634863667,45.76410411047722],[8.130799628590312,45.76408729449918],[8.131015481221395,45.76400794060032],[8.13111442753273,45.76395018381443],[8.131222972026412,45.76386999446929],[8.131325437266254,45.763767272238084],[8.131557444459109,45.76362953170042],[8.131749565463114,45.76352297127918],[8.13190108326053,45.76339361636338],[8.13204803930453,45.76334973456507],[8.132189289539303,45.763310310509965],[8.132419687464255,45.763276041153915],[8.132604570077952,45.76322345489478],[8.132859901098492,45.76316238521002],[8.133249959077945,45.762989823326265],[8.133382200986446,45.76293683643465],[8.133844780356824,45.76277833271168],[8.134198141684596,45.76261448291144],[8.13439477365654,45.76250347433983],[8.13449597823185,45.76248173470627],[8.134654172977763,45.762437937389784],[8.134998902926643,45.76239103572999],[8.135251944088324,45.76232094890942],[8.1355342722802,45.762201573627074],[8.135737048849643,45.76210859992396],[8.13594940804854,45.76196620412634],[8.13608068128706,45.76184568317419],[8.136173800228633,45.76177438760291],[8.13635119271276,45.761658712705],[8.136560253604092,45.76157478038545],[8.136655137869955,45.76152369183732],[8.136830488474965,45.761432820322206],[8.137116988085914,45.76125046739435],[8.137454217021105,45.76103699142838],[8.137612239824142,45.76095269164243],[8.13796618247461,45.76077534240924],[8.138104672829806,45.76068187941009],[8.138218154673629,45.76059272617832],[8.138391796463996,45.7604860331492],[8.138545106413677,45.76039268137342],[8.138778298399233,45.760281921981885],[8.138870995925345,45.760237624166216],[8.139140076766024,45.76009113423682],[8.139449216449984,45.75989994886372],[8.139640677240472,45.759757388741974],[8.139766817143796,45.75965483715683],[8.139920360979682,45.759547973358416],[8.140061377287473,45.759445530735334],[8.140509102649919,45.7591518831814],[8.140640759335245,45.75903135892126],[8.140807651484483,45.75888886404118],[8.141056372883407,45.758994115980215],[8.141228967717005,45.759058332304384],[8.141416134285828,45.75913648572885],[8.141517921263647,45.75918385110611],[8.141780501399532,45.75930591909189],[8.142029426185227,45.759432789333395],[8.14224390972637,45.759551748918376],[8.142446069809674,45.75968827146919],[8.142557483723772,45.75978834725966],[8.142622794257779,45.75984134507436],[8.142726200098338,45.759929083578285],[8.142807476004558,45.75994770300996],[8.142883934219144,45.75996628714058],[8.142932164979785,45.75993964401892],[8.143031093162726,45.75988187764187],[8.143290662955435,45.7597490489339],[8.14346446050921,45.759660111430826],[8.143856878874548,45.759577662652745],[8.14395932355882,45.75955244333039],[8.144226179542517,45.759494794545596],[8.14478358946084,45.75949467688494],[8.145001789716776,45.75953242824186],[8.145181119657556,45.759616442935325],[8.14533348612029,45.75968807762719],[8.145608122089119,45.75981603426994],[8.145975295351159,45.760020953465244],[8.146266962610936,45.760216766461184],[8.146577942590602,45.76030470228571],[8.146757010057721,45.76035529995272],[8.147346325374166,45.76047219907055],[8.147902324284736,45.760561859723644],[8.148108980686397,45.76060839647632],[8.148714369706745,45.76080642321269],[8.149122737882728,45.76101199472182],[8.149792052475703,45.761525517943795],[8.150213347483085,45.76172666244774],[8.150530782341871,45.76191354289284],[8.151169021938609,45.7623053141431],[8.151541482452993,45.762573593770824],[8.151764113389733,45.762786771601284],[8.15186300792543,45.762891008056606],[8.152037905825889,45.76296430774555],[8.152261059737395,45.7631414863977],[8.152659680950023,45.76335594838698],[8.152933748702178,45.763515493720774],[8.153156934636744,45.76369267174173],[8.153303870039512,45.763941264996404],[8.153351163192843,45.76413512873838],[8.153296177313267,45.76444974902496],[8.153469664732093,45.764590556010646],[8.1537178892596,45.76478590910327],[8.154142656167222,45.76494656857229],[8.154669571609745,45.76496845821356],[8.155198001140718,45.764918356992375],[8.155648305678634,45.765011697733016],[8.155973699824592,45.76509961270914],[8.15629808844526,45.76522801996339],[8.156546593284684,45.76540535847219],[8.156879406848034,45.76526831072933],[8.157094219368682,45.765121379049184],[8.15724823274414,45.76522152066618],[8.157395959067728,45.765312622166284],[8.157761732218674,45.76560334108579],[8.157804763062709,45.7657611703428],[8.157958277837452,45.76602781469164],[8.158144046924136,45.7661551949425],[8.158296527101086,45.76619675062099],[8.158433425977899,45.76623384306729],[8.158509631835395,45.76625147877853],[8.158694300812098,45.76629450770452],[8.15872921923575,45.76632730070007],[8.158907302575992,45.766498350495745],[8.15892717136951,45.76656600050324],[8.158977069707186,45.76664006587416],[8.159061242467047,45.76676500005586],[8.15918658712872,45.76700894611134],[8.159242135459762,45.767189356150126],[8.159232083453942,45.767297301825046],[8.159316770411952,45.76749143905313],[8.159432888900739,45.76805482415131],[8.159516666371747,45.76828497365769],[8.15966419500743,45.76841656772678],[8.159903544138293,45.768535323105034],[8.160077005770159,45.76857259960303],[8.160487406530185,45.768744547174656],[8.160601806928868,45.76879247867996],[8.160891221569647,45.76889810680066],[8.161153165416872,45.76893153201774],[8.161342746206442,45.769018437979376],[8.161573203579946,45.76916864424491],[8.16166744117276,45.769263847078825],[8.161888976153438,45.7694454717965],[8.162052986348586,45.76960418765516],[8.162232687045474,45.76978566237372],[8.162359767504396,45.76989465695293],[8.162652134116234,45.77012161860692],[8.1627329015049,45.77023023101938],[8.16281057936298,45.77036681571087],[8.16287936928678,45.77048782336243],[8.163123683395597,45.770786629257884],[8.163283429911985,45.770963302740974],[8.163613088426656,45.77114573835549],[8.163742654471895,45.77121410676496],[8.163802899477638,45.77124613307812],[8.16401301798011,45.771387192866534],[8.164254444623506,45.77163646214948],[8.164467702650905,45.77180904841155],[8.164693160705864,45.77205370500144],[8.164835277391232,45.772252753699604],[8.16495336560826,45.77242014474504],[8.165207751649112,45.77266501082028],[8.16535043057618,45.7728280609508],[8.165617544843004,45.77313604397551],[8.165854040548641,45.77336728493262],[8.165883574965553,45.77346897385943],[8.165924774797467,45.77361082727685],[8.165995444274808,45.773939861594855],[8.166056140592808,45.7744607509307],[8.166055716814002,45.77450203776612],[8.166162607680329,45.77491710242101],[8.166219342096513,45.77499007851597],[8.16641049767162,45.77524347476086],[8.16662985734244,45.77552589672258],[8.166772952947069,45.77570966139674],[8.166996734878994,45.77601754732474],[8.167039270915975,45.77607610202643],[8.166822925499444,45.77629506474195],[8.16682158508807,45.776385064894114],[8.166812598259895,45.77661001561817],[8.166849703039667,45.77684429597629],[8.16659851496211,45.77727450400363],[8.166522146269399,45.77770596981233],[8.166126889419722,45.778036120428936],[8.16608865044332,45.77825636077031],[8.165581658628053,45.778558669211755],[8.165509993646795,45.77862115352893],[8.165472451514699,45.77865895145751],[8.165223530786376,45.778907082056165],[8.165155719723597,45.77893442759804],[8.165015266360014,45.778991069711175],[8.164727016693588,45.77926567811595],[8.164429278780498,45.77954931611583],[8.164303788716449,45.779624289634526],[8.164064631979235,45.779767166293404],[8.163752057834696,45.780025914079324],[8.163550267133218,45.78024043702716],[8.163416213891857,45.780360969703274],[8.163122745851338,45.78081784709517],[8.163077855847904,45.78105076912245],[8.162984157700624,45.781536892704985],[8.162967919282595,45.7817347849633],[8.162945473950916,45.78178413345226],[8.162872118334619,45.781959099124],[8.162751577673605,45.782061717764236],[8.162656381495665,45.7822455392523],[8.16224928441307,45.782611589590495],[8.16218616385749,45.78268094707369],[8.162039314924066,45.782842503111375],[8.16198381305235,45.78290140802577],[8.161913415395956,45.78298409693843],[8.16186864215615,45.78303638936453],[8.161858217443045,45.78308682848934],[8.161839819946884,45.783177489112305],[8.161819742254705,45.783276994105435],[8.16179650487806,45.78339341615267],[8.16176356987422,45.783557581525805],[8.161796087654716,45.78374683504093],[8.161531450336199,45.78402391888366],[8.161360982569994,45.78423868929458],[8.161189710064539,45.78448043676528],[8.161022055732671,45.78477624180103],[8.160956485332502,45.784873913025066],[8.160886770985531,45.784977755264094],[8.16078561581537,45.78496801788472],[8.160574434541209,45.78497730695465],[8.160529340942778,45.78497961464449],[8.16035606792234,45.78508635529799],[8.160269076253773,45.78512395007192],[8.160222943395635,45.78514388329235],[8.160107506119362,45.78517453722728],[8.159818560149947,45.785318760685705],[8.159689882855668,45.78538298938615],[8.159634855888209,45.78545952541693],[8.159582541569376,45.785490202960595],[8.159452754446203,45.785619753973386],[8.159313442544072,45.785794249995],[8.159125229679557,45.7859863792655],[8.15900815238078,45.786152026136264],[8.159030755083549,45.78641320853369],[8.1590572803537,45.786702124863226],[8.159080323475827,45.786940121046854],[8.159320751270961,45.78766193158488],[8.159199973138145,45.788098071167816],[8.159110860522205,45.78841195036562],[8.15872798049536,45.78866115147288],[8.15864219405029,45.78880452113387],[8.15854600775102,45.78902432911525],[8.158531330348023,45.78911872840352],[8.158444870348404,45.79018915899771],[8.158140726008659,45.79051797764472],[8.158118724339332,45.79054254765217],[8.157876345230656,45.79104905527849],[8.157729587092996,45.79133167284261],[8.157689848617999,45.79141219446833],[8.157542089445172,45.7915589991393],[8.157507664259864,45.791593842623406],[8.1572420720021,45.791858922004295],[8.157283077188735,45.79202777245337],[8.15730452505488,45.79211590167962],[8.157286204489072,45.792345279866154],[8.157282640857082,45.792394765523234],[8.157265086225719,45.79267814003187],[8.15713168828461,45.792991788893374],[8.15712159768419,45.79301751675175],[8.157109835652452,45.7930460638977],[8.156848174535709,45.79342212739273],[8.156820437933883,45.79347330137911],[8.156707544064655,45.793682105197796],[8.156489248521321,45.793872536222096],[8.156463527172429,45.793896704906615],[8.156310854363271,45.794096129319286],[8.15615582294204,45.79429906797431],[8.155900125471383,45.794338381653525],[8.155660719026297,45.79437450829803],[8.155622372587255,45.79438219682403],[8.155448677486886,45.79439736448291],[8.154375252860905,45.794343290781356],[8.15324972436251,45.79428658147905],[8.152427781917451,45.79439748429112],[8.152168058870746,45.794634083799245],[8.1517593248588,45.79483355753191],[8.151663777654138,45.79485901044705],[8.151481050118562,45.79490841205477],[8.151401051885054,45.79493026293898],[8.151347569077965,45.794943450438545],[8.150737026294323,45.79508247937533],[8.150343060713956,45.79515604718159],[8.150005030151457,45.795519388594265],[8.149939611192568,45.795589586135314],[8.149754371680526,45.79589873530582],[8.14941092866488,45.796139182380195],[8.149266309889807,45.79636763770386],[8.149180488459807,45.796510999822665],[8.149112042431534,45.79664999273039],[8.148938586561275,45.796738712227366],[8.148743274027304,45.79683626030753],[8.148572049680421,45.79706901414121],[8.14846854084425,45.79721224389897],[8.148400030369663,45.79730174108253],[8.148269992499063,45.797337049941895],[8.14804390802392,45.797398091030246],[8.147303626271281,45.797581582157946],[8.145914216731473,45.79806173468622],[8.145005230363283,45.798338456895415],[8.14434848113313,45.79858106110583],[8.143813922103712,45.79880029520185],[8.143766583239232,45.79881970956016],[8.143236357457763,45.79899125626752],[8.142654654970876,45.79921640667736],[8.14209682540146,45.799563244469816],[8.141638520191144,45.7999468273198],[8.140952771820581,45.800400698533736],[8.140244114198737,45.80074639217393],[8.139460282502073,45.8010375255106],[8.138276786302937,45.80150009469381],[8.137867485622795,45.80166006424779],[8.136930528831243,45.80212550738925],[8.136975595095794,45.80246337887298],[8.136768343733635,45.80286233192103],[8.136444326184737,45.803015338683004],[8.136196343373351,45.80313253503993],[8.135413807616812,45.80341463612786],[8.134884241905302,45.80364463719006],[8.134433280740879,45.80386174018933],[8.134286197701776,45.804009140671255],[8.134046739648106,45.80415132702617],[8.133943523937928,45.80424505184246],[8.133669164731993,45.804458991791925],[8.13346241250264,45.80466894530816],[8.133324672479926,45.80481190155219],[8.133152866503988,45.80497260953418],[8.132742617352037,45.80520802145324],[8.132500953843588,45.80548970913884],[8.132159385276813,45.80565362326155],[8.131442454384636,45.80598118883644],[8.13103805948825,45.80627964565317],[8.130920039743513,45.806472259874894],[8.13082280611869,45.806647023542595],[8.13080504872107,45.8068584106828],[8.13077577827152,45.807033691313286],[8.130675068005777,45.807302952599635],[8.13066164060161,45.80734275763525],[8.130621195084078,45.80745553798965],[8.130469571868863,45.80768841435431],[8.130217405193987,45.80805101154556],[8.130041454946644,45.80827018850836],[8.129719609427056,45.808636771433115],[8.12949686103638,45.80896808869449],[8.1294771873687,45.808995109135175],[8.12927205516117,45.80927690253983],[8.12916960176377,45.809385081158744],[8.12912402024632,45.809433284268394],[8.128895400519605,45.80959804850347],[8.128444508633383,45.8098061140216],[8.127847839997463,45.80999958836334],[8.127593193134812,45.81013264984494],[8.127277742317261,45.810346259580314],[8.127144098616084,45.81042148877303],[8.127082790978541,45.81032605699681],[8.126794122871287,45.809874916509756],[8.126462907538563,45.80951982828333],[8.126443327677352,45.80949719129925],[8.126372827645628,45.80954729724515],[8.126268759717687,45.80959149582698],[8.126082955338228,45.80961707950433],[8.125934319431739,45.809632379539956],[8.12587949687909,45.80963802207816],[8.125680900342603,45.809658989794244],[8.125386665900118,45.80972425996992],[8.125234180702686,45.80972759113479],[8.124839795341128,45.8097401492843],[8.124793615215532,45.809740773019456],[8.124320752069053,45.8097565957869],[8.1232039072939,45.80982902665233],[8.123162904909696,45.80983227355596],[8.122374740254143,45.80989468123933],[8.12172123133575,45.80988965954786],[8.121263885851176,45.809917644448696],[8.121035141163741,45.809911367492276],[8.120715915914024,45.80987740886852],[8.120370658966449,45.809888263109606],[8.120207005883364,45.80989842040142],[8.119790123122414,45.80992429068968],[8.119492755919284,45.80990850648714],[8.118987797828545,45.80986861388394],[8.118453758850974,45.809864494668716],[8.117980131218339,45.80987882988363],[8.117643014701308,45.80993473309173],[8.11740417409038,45.810031894844606],[8.117340003686397,45.81007346736832],[8.117111645682012,45.8102186479762],[8.116420375333284,45.81074434836479],[8.115365102254362,45.81132121547892],[8.114930111758836,45.811511358396196],[8.114415746002493,45.81173688622736],[8.113997794708993,45.811967654371564],[8.113711358120456,45.812122944535325],[8.113610980879137,45.812162683268156],[8.113351974919379,45.81216067359757],[8.113130116103957,45.81222645492001]]]}}]}
