{"type":"FeatureCollection","metadata":{"code":"003021","referenceDate":"2026-01-01","sourceDbfExportDate":"2026-02-18","upstreamArchiveUrl":"https://www.istat.it/storage/cartografia/confini_amministrativi/non_generalizzati/2026/Limiti01012026.zip","sourceManifestSha256":"70ac8256c4785dc6ed2814c32b6965ae76f9161b51abaa1660059e1c6cbd8ca6","license":"https://creativecommons.org/licenses/by/4.0/","attribution":"Istat, Confini delle unità amministrative a fini statistici al 1° gennaio 2026, versione non generalizzata.","modifications":["Converted from WGS 84 / UTM zone 32N (EPSG:32632) to RFC 7946 WGS 84 geographic coordinates.","Converted from shapefile to per-municipality GeoJSON without geometry simplification."]},"features":[{"type":"Feature","id":"003021","properties":{"code":"003021","name":"Bogogno","alternativeName":null,"regionCode":"01","regionName":"Piemonte","territorialUnitCode":"003","territorialUnitName":"Novara"},"geometry":{"type":"Polygon","coordinates":[[[8.535973837378979,45.68030022170142],[8.535882635358064,45.68030307894093],[8.53389762038529,45.68035999104746],[8.532877523880318,45.680319824844155],[8.532628111710574,45.67962575585973],[8.532464591325965,45.679215547733804],[8.532511736237039,45.67893604076857],[8.532698747530803,45.67856393535759],[8.53180207886092,45.67853718506113],[8.530763936742412,45.67850651012583],[8.53023009846782,45.678428025872435],[8.529920255680645,45.67844003396567],[8.529921658655962,45.67827279475668],[8.529922708914663,45.67814752330371],[8.529871846463728,45.67814164617018],[8.529889833067408,45.6780622254851],[8.530175268446165,45.676801613895556],[8.530178343456729,45.67643416811611],[8.529726571991826,45.676491846465495],[8.529267661533188,45.67652567912949],[8.52892695229151,45.67664334898762],[8.528552268290682,45.67676087763107],[8.528296483232621,45.67687889602413],[8.528075269853918,45.67692561141148],[8.527870340595582,45.677055747052385],[8.527966347870603,45.677758680826486],[8.528054644421882,45.67814161820017],[8.528102021208737,45.67847583042614],[8.528112496997744,45.67859459683866],[8.528002498579598,45.678573074127094],[8.527492267723925,45.67847966567651],[8.527169630519293,45.678478189509725],[8.52696218827431,45.678467375822365],[8.526799516840608,45.678458657189005],[8.526246907762852,45.678375350219284],[8.52612776226412,45.678379931668545],[8.526064244342736,45.67838214342448],[8.525918569276863,45.67838750208182],[8.52570248607202,45.67845860398082],[8.525517820026561,45.67851634636726],[8.525188106733964,45.67862261061225],[8.525131850895225,45.67864927586435],[8.525087638535872,45.6786708696643],[8.525036685754584,45.67869570543696],[8.524887220441743,45.67876904851612],[8.524800278685255,45.67881037979916],[8.524316534767955,45.67897937488466],[8.524290777673942,45.67895017955976],[8.524251554594937,45.67890676980185],[8.524168032316526,45.67886681637997],[8.524082183799404,45.67882409804309],[8.524067936202893,45.6787668319269],[8.524059823529791,45.67873079829186],[8.524062557274787,45.678609481690906],[8.524063074234666,45.67855986480403],[8.524064104591492,45.67848755528696],[8.524065231242348,45.678392982542384],[8.524066033767868,45.67833027959238],[8.523722858313468,45.67834951811792],[8.52347050713046,45.67836227763153],[8.523289412880665,45.67837280650203],[8.523123567484433,45.6783715743073],[8.5230617273354,45.67837140886939],[8.522988385496829,45.678374942433344],[8.52293063033626,45.67837774176234],[8.52281341356747,45.678383032576384],[8.52262700296199,45.67839178122307],[8.52238330611794,45.678372800560034],[8.522083611440799,45.678350210715124],[8.522005114418358,45.678344065059186],[8.521852565718158,45.67833162567471],[8.521774499922572,45.678325208939036],[8.521566813254145,45.67830635026278],[8.521428632823325,45.678323760630036],[8.521046316963881,45.67831316391455],[8.520530049605282,45.678342741717785],[8.520401420222823,45.678350135165225],[8.520098131832318,45.67836757255324],[8.519257084061568,45.67824226568289],[8.519165307987057,45.67822878410063],[8.518784480485275,45.67820496111493],[8.51792551744031,45.67815151735507],[8.5164610778959,45.67804182404399],[8.516475214596056,45.677798874125564],[8.516477749911479,45.6776908637173],[8.516396969333684,45.67751951172759],[8.51638350807919,45.67745195278122],[8.516523441278343,45.677277020143215],[8.51664303158544,45.67718301442415],[8.516813554713783,45.6770892276049],[8.517018440787572,45.676968598521036],[8.51723983823296,45.6768390046739],[8.517478875925818,45.67670950470299],[8.517751230887624,45.67658014397227],[8.517921891885413,45.67647286197697],[8.518127211382222,45.676298203237124],[8.518298377590648,45.676082920538875],[8.518401916325123,45.67589433710464],[8.51839745429437,45.67585873877826],[8.518370447168024,45.675633185671934],[8.518287767078256,45.675358305300755],[8.518138142100089,45.675024652190494],[8.517954902167398,45.674690596009114],[8.517855656498767,45.67448759650857],[8.51772145079548,45.67416700602567],[8.517587947187026,45.673870227426356],[8.517555702122872,45.67365406683818],[8.517626147956992,45.6733933454295],[8.517747892649707,45.67304732416746],[8.517886346172427,45.67271486827119],[8.517949755542645,45.67243162645326],[8.517992334676403,45.67242728946993],[8.518309815820459,45.67175808707591],[8.518502075996162,45.67109283486486],[8.518533449451503,45.6705709056958],[8.518514658120134,45.67042232380089],[8.518497005644113,45.67028272687006],[8.518440210648503,45.67015564537748],[8.518215797985112,45.66964649188486],[8.518180984448419,45.66959560083748],[8.518010899813412,45.669347165822295],[8.517878243632385,45.66915363902303],[8.517487807239602,45.66895394802054],[8.517419430202722,45.66891910124778],[8.516978271725684,45.668485153454846],[8.516692660102011,45.668155422554314],[8.516623921245966,45.66779960160173],[8.516555805625854,45.667322268673104],[8.516523427553377,45.666890101203435],[8.51645206383355,45.6663861720941],[8.516441292482407,45.66630826619599],[8.516458129110507,45.66583797488289],[8.516461530242175,45.66574457814309],[8.516474054676408,45.66540085331933],[8.516478983267865,45.66526571965075],[8.516508188398449,45.66446431293845],[8.516619522700704,45.664113752342374],[8.517286367027644,45.66377453654854],[8.51768341812208,45.66383022332025],[8.517767726103049,45.66382158374012],[8.517793042583834,45.663677668365025],[8.51780082744897,45.6632366561137],[8.517823355533409,45.66294872559609],[8.517844805578289,45.66278680109999],[8.517663184711074,45.66244851654614],[8.517649467283045,45.66217842125891],[8.517775163351617,45.66202143638992],[8.517776360977923,45.66188193580921],[8.51775006311133,45.661674815213594],[8.517742149793408,45.66154454527816],[8.517704744465204,45.66087804987735],[8.517707487845547,45.660558530828645],[8.518141486027233,45.66051534604035],[8.51833013614266,45.660502649246965],[8.518396793227966,45.66043904285889],[8.518417841741522,45.66038293364066],[8.51843387370706,45.660340913065234],[8.518469278142899,45.660250961601776],[8.518489353235763,45.660199828457486],[8.518509699144042,45.6601480951912],[8.518536773785751,45.66007928138834],[8.51855214754815,45.66004199878855],[8.518636160377858,45.659827302658435],[8.518735610249372,45.659572776845856],[8.519215568125952,45.6588457255932],[8.51965831902626,45.65824453009072],[8.520270297722817,45.65755403012815],[8.520723618177668,45.65716775938769],[8.520812116620037,45.6570927706429],[8.52084145730121,45.656944373557636],[8.520822437630962,45.65682279791461],[8.520389995518514,45.65669045320152],[8.520026836462232,45.65657136013924],[8.519789602734898,45.6564944145435],[8.519395860054985,45.65633131964866],[8.519361543300711,45.65631710687856],[8.519029864341327,45.65612669306907],[8.51893881917022,45.65598680394717],[8.518903744019745,45.65586514055296],[8.518919713504147,45.65540617200042],[8.518876920255947,45.65525297474579],[8.51864744243462,45.655172850602554],[8.518585786549215,45.655008715972436],[8.51859523490735,45.65493675311007],[8.51860959773268,45.654837677749356],[8.518621673817863,45.6547463344216],[8.518679824594965,45.65465693769435],[8.518762381943116,45.65457743672625],[8.518799574788572,45.65433542333157],[8.518876955428581,45.65387279342406],[8.518980493175828,45.653600687593276],[8.51844574518651,45.65356799823716],[8.518458758450555,45.653533230410176],[8.518482438541602,45.65347135812807],[8.518705797115327,45.652876211134576],[8.51881735949495,45.652664616264154],[8.51896089780792,45.65239846644676],[8.519210537884751,45.65193306720875],[8.519370816230529,45.65172465247301],[8.51974715331691,45.65123809909049],[8.519810743105406,45.651167295261594],[8.519872502280329,45.65109908136357],[8.520350309559118,45.650592469890576],[8.520399718053342,45.650546274962444],[8.521036622518396,45.64995605379443],[8.521336964370482,45.64967828362976],[8.521952250093166,45.649104806484],[8.522090017348933,45.64893886972152],[8.522192047832597,45.64878632339182],[8.522238518354918,45.64845344817652],[8.522354067768243,45.64810851791794],[8.522369396783574,45.6480623704463],[8.522453207233191,45.647868225593726],[8.522489239565298,45.64778393238663],[8.522614307263757,45.64770169172565],[8.522836758695153,45.647555221293224],[8.523298487318169,45.647931316661264],[8.5233451118342,45.64789444276353],[8.523609790504931,45.64768510644645],[8.523976348933509,45.64754261177297],[8.524574325442824,45.647522915518664],[8.52589840618315,45.647635594617554],[8.526680603299969,45.64767536192678],[8.527464277339828,45.647684147961996],[8.527952573370326,45.64768961939135],[8.528900437349524,45.647719358335465],[8.528943685800964,45.64772071488976],[8.528985333007924,45.64801341161849],[8.529135499164916,45.648329063313426],[8.529161492443317,45.64857669629173],[8.5292079927848,45.648688901514745],[8.529252802176412,45.648644341757816],[8.529828217254057,45.6480569116192],[8.530143887232494,45.64773465290725],[8.530293479064689,45.64759090518395],[8.53075476533554,45.64714761858457],[8.530819534115155,45.647162872915814],[8.531251516168052,45.64726654279756],[8.53143233784373,45.64730019821105],[8.531856888240176,45.64737716112627],[8.532030296253875,45.64738530724018],[8.532312336295561,45.64739855673422],[8.532486680919703,45.647406744693534],[8.5333339994939,45.647365194594194],[8.533984254533756,45.64734536109325],[8.535095320499748,45.64741739026228],[8.53605340992931,45.647481082697894],[8.536242770323307,45.6474943961156],[8.536451750239115,45.64750211645668],[8.536503440305225,45.647504110162515],[8.536567028297366,45.647347032249],[8.536663498187067,45.64710873024506],[8.536743731326297,45.64704939939675],[8.536783763215544,45.647018400573245],[8.536894939869867,45.64700214741903],[8.537106174552187,45.646971018778956],[8.537244601577063,45.64699505035438],[8.537663217294499,45.64706778403209],[8.537799306070346,45.647099836983095],[8.538063067590175,45.64722707854691],[8.538281590521086,45.64751131143656],[8.538639584344034,45.64791780129819],[8.538890007704893,45.64811945877551],[8.539039996504401,45.6482398166407],[8.53911845309747,45.64821031497577],[8.539211860504727,45.648175496418894],[8.539347111001204,45.64808793288058],[8.539487994439598,45.648046785265194],[8.539605858600634,45.648043213508785],[8.539599925686497,45.647981185947344],[8.539595632557058,45.64793517670805],[8.539608002019602,45.647860216592605],[8.539679896093686,45.647818494563474],[8.539774206781008,45.647792978922226],[8.53986096120962,45.64779221676844],[8.53997045415684,45.647822914278265],[8.540005957210711,45.647796149922314],[8.540038366955915,45.647769439707666],[8.54007837000995,45.64768958718946],[8.540053326151316,45.64758480130192],[8.540007411325893,45.64743740928099],[8.539969424979672,45.64733189078841],[8.539952170861767,45.64728656563957],[8.539929822636514,45.647220939125475],[8.539883326137634,45.64709764463657],[8.539849681732019,45.647009049992796],[8.539787334629285,45.646851371147825],[8.539843539202119,45.646843454425834],[8.540012998771607,45.64682108553888],[8.540177908641315,45.64679890150869],[8.541213059735872,45.6467716078051],[8.541206353507304,45.64673918209952],[8.541174532085739,45.64658959869702],[8.541139187241171,45.64642032424036],[8.540986431218283,45.64563651704661],[8.540967331892222,45.64551571738244],[8.540908071060677,45.64514026994619],[8.540891314422066,45.64502492072452],[8.54088129352214,45.644957666140314],[8.540835369726866,45.64466779350139],[8.540946358322532,45.64462828808511],[8.541122841492252,45.64462449754828],[8.541519448748053,45.64472060220354],[8.541727643758403,45.6448114484778],[8.541745303637244,45.64517648380668],[8.541775819124505,45.64578822444337],[8.54203504449712,45.64579136921479],[8.542329594034658,45.64579494204642],[8.543308389141986,45.64585736767468],[8.543347763132152,45.64594753597652],[8.543036144314184,45.646236186761435],[8.542830135794011,45.64642700992706],[8.542978517887752,45.64642760362119],[8.543056252982504,45.6464288218632],[8.54413453364678,45.64644571563974],[8.544242648324111,45.646451058800295],[8.544652062365987,45.64647028816249],[8.544957776110733,45.646849544473106],[8.545064607732536,45.64711939235803],[8.545127164610808,45.64727775321728],[8.545212481817572,45.64763812111926],[8.545242877166151,45.647942497100665],[8.545256993574755,45.64808384233576],[8.54580126047546,45.64827502835234],[8.546393769350198,45.64844827640094],[8.546510770057465,45.64841737093982],[8.546532473172915,45.64838630495085],[8.54657974580386,45.64831863654631],[8.54658446694359,45.64822864441438],[8.546757157024055,45.64819782649813],[8.547276557742824,45.6483733811606],[8.547309505216326,45.648384518030106],[8.547473847756528,45.64844367772105],[8.547994294995798,45.64860775260121],[8.548324925973944,45.64870581732429],[8.548378788289627,45.64872179265177],[8.548482561045587,45.64882488607483],[8.548556615907607,45.64889852621897],[8.548777077923804,45.649114899576055],[8.548892439232045,45.649307571295665],[8.548947239747884,45.64939909915562],[8.549058875697598,45.64957620782586],[8.549097713624592,45.64963820723841],[8.549204764274265,45.64984116355984],[8.54942634583502,45.64980984146011],[8.549638406538053,45.64977986393709],[8.550397881055794,45.649692844534535],[8.550811968036864,45.64961797473832],[8.551178381040557,45.64953467582621],[8.551242260108348,45.64952063603195],[8.551375150960993,45.649535723229874],[8.551438594558785,45.64954391565093],[8.55146551994307,45.64962010151511],[8.551485290598809,45.64967425567138],[8.551552765111696,45.64986389328519],[8.551618177729836,45.6498494173569],[8.55242091288285,45.64967827701929],[8.553550863425224,45.649449610922204],[8.553599090269667,45.6494398758805],[8.553804970666835,45.64977370464194],[8.554490769059804,45.64937133588324],[8.555436802083698,45.649528041077645],[8.555367977683504,45.649307249262705],[8.555605383102764,45.64905614675056],[8.555788331021372,45.64895376008552],[8.555863607522879,45.648911896118435],[8.555885857964313,45.64883221749171],[8.555983419797995,45.648666086259276],[8.556048635382803,45.64865397426397],[8.557191406458635,45.64845926616107],[8.557682523644486,45.64841650620015],[8.557887296596308,45.64839895409807],[8.559253165849428,45.648264706031036],[8.55916744119037,45.64843450410755],[8.559144315242435,45.64848031228963],[8.558971539766391,45.64872717484568],[8.558943947891095,45.6489205823985],[8.558913568476537,45.64901047686432],[8.558891145742955,45.64911820133327],[8.55868577690041,45.64916509048163],[8.557212195484777,45.6495013347712],[8.556327917051082,45.64973301753873],[8.556265351689762,45.64974968544198],[8.556531479487308,45.65007474775936],[8.55711768664322,45.65116162431361],[8.55734240208392,45.65160353943009],[8.557547185381106,45.65249092144517],[8.557519206264976,45.6529363549152],[8.557507115672884,45.653453853473586],[8.55747439285645,45.65377076536472],[8.557454158455672,45.653966695936575],[8.55732740219208,45.65406611301092],[8.557232984635988,45.65414134565762],[8.55693329978158,45.654236938033925],[8.556839497811847,45.65426575241346],[8.556464173168703,45.654304793610144],[8.556302514805068,45.654281549320395],[8.55630792517766,45.65448870977798],[8.556330132135626,45.65477232426838],[8.556166754422236,45.654843735539345],[8.555783985629159,45.654937732052694],[8.555732159746743,45.65494952871885],[8.555616984522624,45.654960159971],[8.55526912238705,45.65499321855213],[8.554893864367736,45.6550232602495],[8.554713060288211,45.655018271243],[8.554323422385284,45.655008557464605],[8.554226444696923,45.65500359764499],[8.553984955767941,45.65499374781885],[8.553300858505034,45.654966883284416],[8.553807371822435,45.65551857527781],[8.553791571335552,45.655995541198486],[8.55392287872773,45.65634737688862],[8.553614539950367,45.65672852599113],[8.553635052145966,45.656841611453466],[8.553687383592713,45.657142740965455],[8.553685524366152,45.65737676951178],[8.553684201562277,45.657543274551266],[8.553649420995587,45.657831165410926],[8.553541429301324,45.658096262533974],[8.553195739452507,45.658540454271964],[8.553103709137105,45.658814626864],[8.553048023517592,45.65966497597955],[8.55297068745859,45.66020922354391],[8.55278107178963,45.660447013058295],[8.552167995712717,45.66071462818284],[8.551701507800551,45.660964822547236],[8.551626685357869,45.66114003540525],[8.551507785566015,45.66171562090834],[8.551430084983476,45.66225087122241],[8.55123344399508,45.662313105150034],[8.551110843060943,45.662443134516764],[8.55105008304399,45.662568907243255],[8.550970516269567,45.662685610533615],[8.55089600400113,45.662824825045014],[8.550879500086976,45.66298227563233],[8.550885612823006,45.6631218052578],[8.550911540448908,45.66333793288138],[8.550927622048192,45.66363501713179],[8.550934562027098,45.6637102782888],[8.550937178494427,45.663752468509166],[8.550938529787121,45.66379025502488],[8.550749050000267,45.66380751994038],[8.550413993113887,45.66381969509948],[8.550064785882775,45.66384532837232],[8.549841940055241,45.663844450504826],[8.549745476910536,45.663844070368015],[8.549743898802106,45.663896328671825],[8.549739211562793,45.66402609031853],[8.549739227353776,45.6640689570816],[8.54977064775424,45.664150094250274],[8.549806728136298,45.66420448205016],[8.549835420211169,45.66424949871045],[8.549895003366618,45.6643123166056],[8.549990331731639,45.664402997990855],[8.55008154004341,45.66455645231732],[8.550150121855427,45.66465094451155],[8.550209296562759,45.66473248156228],[8.550183185291607,45.66494843769946],[8.550183710118503,45.66498372771831],[8.550187387131395,45.665416449612344],[8.550181998350949,45.66601554673163],[8.550181028789279,45.66608242574502],[8.550171736474832,45.66612031706074],[8.550147720810147,45.666218467089415],[8.550106666242614,45.666379216829384],[8.550062909889075,45.6665398704012],[8.549943810760515,45.666977135570704],[8.549890884945132,45.66708602669592],[8.54986957599935,45.66712986071951],[8.550038209225796,45.66731054796366],[8.550172709084059,45.66731107762477],[8.550269698103415,45.66731145946975],[8.550341952905583,45.66740623508786],[8.550822431731415,45.66747197022922],[8.550919430078427,45.66748502749374],[8.55095120915819,45.66807469719635],[8.550789545613117,45.668524100914404],[8.550788177558637,45.66869512475876],[8.550737954402173,45.668856942111766],[8.55074754815528,45.66916299426085],[8.550747492285625,45.669419517143965],[8.550751739740601,45.66981566317943],[8.55083022372471,45.66995989303466],[8.551021097745284,45.670122656331806],[8.551233075717262,45.67030354085408],[8.551079067838094,45.67029841465022],[8.550632040234623,45.67000863107551],[8.550555931172383,45.669945322874604],[8.550386186262768,45.669800632896234],[8.550081463712765,45.669677919655435],[8.549782610649451,45.6695778137212],[8.549696040880866,45.6695488065507],[8.549605706802968,45.669518545053954],[8.549543672232794,45.669500290626026],[8.549473801520417,45.66947511689409],[8.54897557246329,45.66930003542449],[8.548567272168196,45.66918590374609],[8.548080469951161,45.6690579668903],[8.547923452212897,45.668976347695796],[8.547748070461667,45.668935155924025],[8.547621807969497,45.66894748317331],[8.547570984051635,45.668952446614284],[8.547313673930958,45.66897393311528],[8.547161565399511,45.668977828030485],[8.547112224782854,45.668928120435055],[8.54707417948568,45.66881996721578],[8.546954177993399,45.66876135475323],[8.546877467412921,45.6687564510782],[8.546803173472826,45.66875244082417],[8.546645044578861,45.66874518518804],[8.546573801313397,45.668743203986786],[8.546291936439562,45.66861435172606],[8.546067483052935,45.668487445164025],[8.545944878550253,45.66841945588415],[8.545778971235862,45.66844580170429],[8.545572589841015,45.66846747055857],[8.54544348376056,45.6684811324214],[8.545482453649202,45.66854442590747],[8.545588238792645,45.66861605084362],[8.54543338889316,45.66876395555283],[8.545225902212433,45.668970139111224],[8.545124513286904,45.669052490405235],[8.545099094586313,45.66907313891085],[8.545042681000874,45.669062045712366],[8.544813496760591,45.66901778458761],[8.544749280795386,45.66900361426076],[8.544245517309578,45.66949728834417],[8.543816261012115,45.66994109493527],[8.543706033819891,45.670026172032976],[8.54364473323783,45.670066423008016],[8.543571429438625,45.67010215256167],[8.543242223753326,45.66992980946264],[8.542785801110277,45.66976596982369],[8.54258538232132,45.669703624086814],[8.542243545120083,45.66959728673336],[8.542072435186721,45.66957409521494],[8.541865084714868,45.66961377953311],[8.54165694186199,45.669801942302804],[8.54174115353572,45.669905806367595],[8.541829999722136,45.66998266293381],[8.541864624099896,45.67001564867291],[8.542109868526428,45.670249299030814],[8.542321090275545,45.67047067218164],[8.542464183107969,45.67068276943325],[8.542504223142515,45.67088993632869],[8.542502243114436,45.67113296092577],[8.542397774301854,45.67154658078424],[8.542381707849762,45.671843537946685],[8.542369997957667,45.67209443439106],[8.54236322952248,45.67223948959366],[8.542392142464818,45.672393440164846],[8.542407071009922,45.67247370130403],[8.542506778316355,45.672618058722485],[8.542527530990148,45.67266505435258],[8.542703799630306,45.67306887204376],[8.542865556875357,45.67371765117739],[8.542693189157584,45.673847473013396],[8.542757208714153,45.6741132467219],[8.542735983951715,45.67435619056083],[8.542613157692497,45.67458858818764],[8.542150569295705,45.675456847070244],[8.541474855962889,45.675543736181226],[8.540383729720414,45.6757103618283],[8.540418352815486,45.67603902183897],[8.54042727848546,45.67612457404754],[8.540571992260414,45.67653469536098],[8.540779324230755,45.677381593769006],[8.540990539884815,45.67809802090909],[8.54110915097127,45.6786565381016],[8.541120178657106,45.67868775327196],[8.541269946289988,45.679111717333555],[8.5413749869263,45.6794676684585],[8.541504145891455,45.679720210898395],[8.5418731994683,45.68032740408874],[8.541016350526764,45.680325195313266],[8.540884599392667,45.68032484774208],[8.540626741777874,45.68032417124037],[8.540409588504373,45.680324702009905],[8.53935119726881,45.68032360498137],[8.538747110691075,45.680316621317765],[8.538658702995232,45.68031572159629],[8.538272108448112,45.68031121833328],[8.537514526203282,45.68030236737191],[8.53662856885689,45.6802919412789],[8.53637057652466,45.68028909891876],[8.535973837378979,45.68030022170142]]]}}]}
