{"type":"FeatureCollection","metadata":{"code":"003069","referenceDate":"2026-01-01","sourceDbfExportDate":"2026-02-18","upstreamArchiveUrl":"https://www.istat.it/storage/cartografia/confini_amministrativi/non_generalizzati/2026/Limiti01012026.zip","sourceManifestSha256":"70ac8256c4785dc6ed2814c32b6965ae76f9161b51abaa1660059e1c6cbd8ca6","license":"https://creativecommons.org/licenses/by/4.0/","attribution":"Istat, Confini delle unità amministrative a fini statistici al 1° gennaio 2026, versione non generalizzata.","modifications":["Converted from WGS 84 / UTM zone 32N (EPSG:32632) to RFC 7946 WGS 84 geographic coordinates.","Converted from shapefile to per-municipality GeoJSON without geometry simplification."]},"features":[{"type":"Feature","id":"003069","properties":{"code":"003069","name":"Garbagna Novarese","alternativeName":null,"regionCode":"01","regionName":"Piemonte","territorialUnitCode":"003","territorialUnitName":"Novara"},"geometry":{"type":"Polygon","coordinates":[[[8.685296480723803,45.40108056963667],[8.684903061740389,45.40140798182725],[8.68467889701876,45.40159245141185],[8.683784426013037,45.402890642843964],[8.683451535373457,45.403443309152834],[8.682585202418025,45.404887431925495],[8.682118990884161,45.40566636699597],[8.682096898391672,45.40570326299333],[8.682032239150491,45.40589218654361],[8.68198331739021,45.40589756543488],[8.681912357103487,45.40590536728927],[8.681844628295254,45.40601768483424],[8.680884002611418,45.40760372465574],[8.68080766032363,45.407582680573704],[8.67847590772663,45.40693987956426],[8.678016653723306,45.40680356931734],[8.676473553888389,45.40633114308862],[8.67578764957918,45.40613117266715],[8.676471760444738,45.40510697381901],[8.677019876151006,45.404221910708856],[8.675845595826296,45.40389003356269],[8.674444410907832,45.403544008493206],[8.673742021476698,45.403024425677934],[8.672953236100374,45.402950161382606],[8.672762625380797,45.402861329893106],[8.672610811821716,45.40279049935964],[8.672532710368474,45.40274760575292],[8.672039349956977,45.402582996839726],[8.671542382087434,45.40240239992401],[8.671490079598215,45.402383392704124],[8.671934216694856,45.40141702843304],[8.671021953169154,45.40123888748297],[8.669210240567477,45.40092932853457],[8.668155117764528,45.40074902980991],[8.66727869746427,45.400643661126516],[8.666198611212845,45.400513798568355],[8.666155707695792,45.40064031149757],[8.665515517670157,45.40252807468826],[8.664472496136822,45.40244302910567],[8.664346201389355,45.40243294745096],[8.664139222191139,45.4024161790132],[8.664047255768892,45.40240872372495],[8.663934306090336,45.402399514384484],[8.663850731612301,45.40239407741477],[8.66339329953854,45.40235081218381],[8.663111733399392,45.402327485145726],[8.66133692344774,45.40215111673584],[8.661244522213646,45.402141933253674],[8.660354138776547,45.40206728417658],[8.660131463763625,45.40206923669772],[8.66006069666489,45.40206983802428],[8.660014919230324,45.40207077202929],[8.660066285778045,45.402618450113565],[8.659914435833345,45.40261904944617],[8.659575540243711,45.40262038024893],[8.659395091844162,45.40262109168185],[8.659114782730091,45.402621661470604],[8.658516956633369,45.402640482405936],[8.658501048186533,45.40226596669261],[8.658483501729975,45.40181703146554],[8.658482227133907,45.401786180223176],[8.657001048358742,45.401737717546546],[8.656879759798679,45.401755351348505],[8.656616739777897,45.40186717431689],[8.65653925676329,45.40187646472291],[8.655789363984496,45.40197260139746],[8.65535760173523,45.40202530991263],[8.653967126564355,45.40221013130755],[8.654027019342532,45.40247134751162],[8.653922835833482,45.402466875100494],[8.653885721463963,45.402465260327254],[8.653762537612259,45.40246015681137],[8.653457417936398,45.40244770805005],[8.652696037495978,45.40241692444285],[8.652384524854325,45.40240335161845],[8.651529575800701,45.402378241493075],[8.650845300709168,45.4023581564608],[8.650251817962511,45.40234733136186],[8.650175928520648,45.402252585392596],[8.64998295459241,45.40173504906377],[8.649822098847848,45.401294661010105],[8.64967194465537,45.40039228884687],[8.649677214270849,45.400185278811406],[8.649581723858075,45.40013097722375],[8.649441516432947,45.40010805005998],[8.648738254795425,45.40015989098606],[8.648657540426404,45.400065243449696],[8.648570455928093,45.39973641743457],[8.648518141380656,45.39964268438682],[8.648394240711474,45.39942523228136],[8.64800233574736,45.39924669876515],[8.647837224095595,45.39917147995287],[8.647770910383548,45.39906293496223],[8.647702577269332,45.398950835390956],[8.647473128001588,45.39860456223274],[8.6474147283125,45.398515531060845],[8.647377819585724,45.39845295351268],[8.64733945948178,45.39841153442386],[8.647232376604496,45.39828314677867],[8.647121641353149,45.398150859185364],[8.646924260889582,45.39792002029499],[8.646851185449833,45.39791623887147],[8.646549980570628,45.397903440800185],[8.646247883464307,45.39789134577327],[8.645778479586593,45.39787343935777],[8.644372301355888,45.39790076166746],[8.644104733715073,45.3978961756433],[8.643186453456469,45.397880212954014],[8.642923982938543,45.397877399840475],[8.642837914336262,45.39788126954047],[8.64243007812619,45.39789398786004],[8.642381632242163,45.3978965320794],[8.642318879132489,45.397898662423216],[8.642280723151115,45.39780852903748],[8.642305684617602,45.39770326049858],[8.642330833609408,45.39758121411648],[8.64152841979982,45.397630650551115],[8.64147152127592,45.397635392077774],[8.640700596847855,45.3976968545568],[8.640443667258879,45.397721031868656],[8.640131857131681,45.39774777930435],[8.639480256828096,45.39787174179806],[8.639220820471444,45.397951927133214],[8.639022161083219,45.3980503128689],[8.638928191489624,45.39813552999761],[8.638851532693675,45.39819829673504],[8.638787871969413,45.39836686618657],[8.638376812740782,45.39833534186006],[8.6382695722386,45.398326972229775],[8.637898952238517,45.39828079591137],[8.637856248067257,45.39822807583598],[8.637831614672852,45.39819765975411],[8.63764916706062,45.397951202522826],[8.637351122983766,45.3977589592149],[8.637097067962184,45.397597869771744],[8.636328468197776,45.39742116093125],[8.63618474041441,45.39738863069067],[8.63611219763631,45.3973729434735],[8.635686203330266,45.397296540801044],[8.635200820513033,45.39720555830075],[8.635135376533695,45.397211758193805],[8.634967870570087,45.39721610890234],[8.634858740152143,45.39722247145789],[8.634673835435347,45.397291013796504],[8.634534529009755,45.3973408269146],[8.634319693120283,45.39743315515614],[8.63414653254876,45.39751060591843],[8.633921236427687,45.39760452553782],[8.633845928606881,45.39763778519037],[8.633556108662384,45.397722370810655],[8.632899173982699,45.39783727194762],[8.632267567047812,45.397862244154275],[8.631930892703402,45.397850235768445],[8.631824858514438,45.39784290992456],[8.631599982206739,45.39783308903612],[8.63135775182825,45.39784581306041],[8.631213460849281,45.39789934877641],[8.630915039897138,45.397925390574585],[8.630745105509543,45.39802385383123],[8.630165767832969,45.39872857513774],[8.63004479468025,45.39890531542389],[8.630024877568099,45.39893515592431],[8.628851736729324,45.398925878088455],[8.628283624758849,45.398921597617374],[8.62823337147234,45.39892129814511],[8.6281853479076,45.39892272785729],[8.627013055936247,45.39890744083522],[8.626846707322972,45.39890611799519],[8.626184901774865,45.39889562420634],[8.625980041640148,45.398892104661705],[8.625747154446614,45.39888971079652],[8.625749393418365,45.39815611769333],[8.625760754554696,45.397404548183104],[8.62575828204594,45.3973550374302],[8.625750839654405,45.39711950211423],[8.625737755115546,45.396853408685985],[8.625729915249487,45.396661847004474],[8.62569990629453,45.39657996374326],[8.625582405599662,45.396296816237886],[8.625682401379356,45.39569406030437],[8.625597573974597,45.39530927630511],[8.6255616388095,45.39514908922251],[8.625745022334089,45.39485715145454],[8.626005122949856,45.39456408199775],[8.626176153348881,45.39447151347392],[8.626252434026208,45.394452739742256],[8.6265117056141,45.39438259542726],[8.6267099624911,45.394316415138846],[8.626890767666508,45.394172301805966],[8.626983696452614,45.393974579300846],[8.627178747617089,45.393637675243816],[8.627227695058982,45.39359764506647],[8.62735758413932,45.3934897336747],[8.62739914310758,45.393473238437764],[8.627537503786948,45.39341831546231],[8.627928264487688,45.39315855382245],[8.628126851343033,45.39307368452194],[8.628283612620487,45.39307463135022],[8.629178198840773,45.39310860626216],[8.629186293067594,45.39303325559349],[8.629206064616655,45.392817944596196],[8.629210977553553,45.39276410212073],[8.629274627866103,45.39209401730982],[8.629279574309358,45.39204675398995],[8.629313513302993,45.39189665479587],[8.629341186007037,45.391775457359984],[8.629370226177285,45.39165572616472],[8.629420574874805,45.3915761280239],[8.629559265971759,45.391360691397736],[8.629582560780209,45.39132246727134],[8.629619219719933,45.391245112774826],[8.629712769527917,45.39105122992186],[8.629749394350933,45.39097337209606],[8.629753813177645,45.39037896324676],[8.629754514230779,45.38996967947402],[8.629730483793313,45.38970569390237],[8.629708364473231,45.38947049800732],[8.629707539576918,45.38940901276534],[8.629689413692379,45.38920357284023],[8.629687761506787,45.38916451078524],[8.629655829661196,45.38850298081051],[8.629649537724918,45.38837649284113],[8.629596264925219,45.387859650916326],[8.629592470082168,45.38782359824315],[8.629552525700946,45.3874526432951],[8.629530373005965,45.38736183457895],[8.629523719252008,45.387332642432156],[8.629507079819703,45.38726708768233],[8.629655167286602,45.38722784062151],[8.630312500593478,45.38705959042218],[8.630365666910697,45.38704212800874],[8.63098162577722,45.386839294712665],[8.631206690434178,45.386765498814114],[8.631652888640161,45.386603948165735],[8.631745106435204,45.38657143301676],[8.632021252025273,45.38647487653122],[8.632917159965967,45.38590167946491],[8.633287478548887,45.38567334167172],[8.633772029183234,45.385494863644],[8.634358435902623,45.385244724309366],[8.635340166708794,45.384910307903155],[8.636220500777164,45.38451706596657],[8.636756580389099,45.38426673327808],[8.636930275630371,45.38432974389594],[8.637194661554053,45.38442565143557],[8.637478351061961,45.384444542221765],[8.637517688007804,45.38440866628319],[8.637747215952494,45.38440939446595],[8.63817149331688,45.38441523544115],[8.638958711561994,45.38447174070631],[8.63963584156644,45.38444687328495],[8.640148653825914,45.38434048320012],[8.640440246349947,45.384309893264756],[8.640864654361335,45.3844237350958],[8.641274149147607,45.38443403762812],[8.641841178658597,45.38439979557069],[8.642164377740093,45.38435581095826],[8.642369269544039,45.384338441025925],[8.64238202836702,45.38429783190897],[8.642602629718287,45.38354708306848],[8.642649200995352,45.38341072103001],[8.642786887437813,45.383016471622184],[8.642851891173846,45.38282813408402],[8.641189866569912,45.38280004646186],[8.641024675726687,45.382790514390145],[8.640885939373469,45.38106183655436],[8.643351906446629,45.38086703860744],[8.643729716135459,45.38089522705575],[8.64420273689161,45.380829193350706],[8.644407784727914,45.380780316495645],[8.644510550791312,45.38069061861647],[8.644548084192845,45.38086194515471],[8.644579620151008,45.38100588178122],[8.644685855295254,45.38124594461561],[8.644699287837282,45.38127684924565],[8.64472721103856,45.38133939810008],[8.644763735994317,45.381338857305536],[8.645230901872731,45.381331598696775],[8.645271098528289,45.38132235496102],[8.645807005243928,45.38119422432824],[8.645809158000816,45.38122421081923],[8.64583434001851,45.38180189404262],[8.645984008016967,45.38178977777141],[8.646151838828898,45.381775872301205],[8.646740529300112,45.381723679361194],[8.646926718575157,45.38086426390839],[8.646849927063954,45.38076416849425],[8.64682571755254,45.38073380417662],[8.645692115275297,45.380739096703785],[8.645471838683648,45.38059909336881],[8.64552915321475,45.38024372423896],[8.645545445886917,45.380189779438616],[8.645586999556016,45.3801921659154],[8.646772894797499,45.380258478794225],[8.646494916686466,45.37943660769478],[8.646684592031507,45.37936069227966],[8.646661919254967,45.379216592783415],[8.647252713709776,45.379141915670616],[8.64790754665827,45.37897289826332],[8.648585305824954,45.37883997185556],[8.648751824762892,45.37869647358207],[8.648886375097435,45.37856185292126],[8.648746213349948,45.378313901603825],[8.64862122656104,45.3781289862988],[8.649536527541189,45.37785725150684],[8.650238670589413,45.37764788596387],[8.650482917765348,45.377585625208845],[8.649896987044286,45.37940208858876],[8.649873224123965,45.37943350239632],[8.65047099471175,45.37952085123555],[8.650542037827549,45.37952106861446],[8.651049430395208,45.37769086635655],[8.652741522491366,45.377790537253496],[8.653717854605512,45.377842998795096],[8.654756968479301,45.37787764901196],[8.655063808922208,45.37789208885546],[8.655047220530378,45.37937274218625],[8.655480362767596,45.37936055558993],[8.655441636016823,45.37791573886595],[8.655749361965633,45.377849139657286],[8.656725794768489,45.377820572813235],[8.656915042865107,45.377812147286896],[8.656952948807932,45.37932898430042],[8.658338902668483,45.37930613264809],[8.65980508175634,45.379176134401135],[8.660524486771426,45.37911341124084],[8.66130125997705,45.379044905599336],[8.661305289432299,45.37909072621079],[8.661348490133147,45.379712386127856],[8.661417799564783,45.38064747484093],[8.661472785087838,45.38066564857442],[8.661536297738579,45.38068874607148],[8.661623706059629,45.38072035306951],[8.661706660768683,45.38075022035568],[8.661813285091817,45.38078860901056],[8.66184995387969,45.3808017784987],[8.662897000608886,45.38085438887668],[8.664236205197572,45.380969422428976],[8.664416193927522,45.38098488188271],[8.665242497821541,45.38104129925377],[8.665573291529876,45.38105578285466],[8.665602870618518,45.38111887873524],[8.666237674655129,45.38115673715225],[8.666799184887655,45.381189824483386],[8.666880479077616,45.381194614473756],[8.66692455489922,45.38119736239617],[8.667009527337191,45.381202649092224],[8.667107928114861,45.38120877237969],[8.667169401638033,45.3812089515256],[8.667282300867685,45.38114627207142],[8.667366710332393,45.38070996981556],[8.66840131247877,45.380703961470026],[8.66845144921465,45.38086614798588],[8.668983527651092,45.3809351993565],[8.669078285581516,45.3804944071444],[8.67060363108901,45.380597828104776],[8.670552256089664,45.38064717732839],[8.673558637651062,45.381474931532544],[8.67536577482559,45.38193014464175],[8.677632410829787,45.38252163954732],[8.679553237166676,45.383215649369724],[8.680875969688996,45.383727924616856],[8.682552046124604,45.384448190241166],[8.682153793296123,45.38506818006623],[8.682731905978565,45.385330821985335],[8.682807979635424,45.3852329647983],[8.684301517504403,45.38331889059911],[8.684648509874005,45.38337532608154],[8.684864224123489,45.38341045861314],[8.68526894715474,45.38356008463402],[8.685107361855774,45.38376217981151],[8.684312140265865,45.38470960513002],[8.682565247691432,45.38693707702047],[8.684650217941359,45.387869981579044],[8.684154786532874,45.38844919115658],[8.682585541663823,45.38980403932803],[8.680285528604392,45.39181390274777],[8.681419186667027,45.39212310309835],[8.682226279490102,45.39229186834575],[8.683740507721136,45.39272814007672],[8.684456185294424,45.393040668108185],[8.684555464893576,45.393207462900264],[8.684682514020764,45.39318980298596],[8.684710068467824,45.39311787309795],[8.684919599093881,45.393059940087845],[8.68500185119851,45.39312767494953],[8.685142090537639,45.39303804404678],[8.685246533293665,45.39292132931601],[8.685337009497028,45.39273254935382],[8.685441497467664,45.39260681885377],[8.685575468663151,45.392566688140896],[8.685753807734521,45.39258966779266],[8.68587277208756,45.392589995025325],[8.686021353913517,45.39257690969228],[8.686229794710483,45.392568487469525],[8.6864086030564,45.392505969370006],[8.686556984358598,45.392528866416114],[8.686735742418824,45.392475362475516],[8.686899302291957,45.39242629654565],[8.687049018358161,45.39227817806703],[8.687168677191815,45.39215250644501],[8.687362713806278,45.392004509825405],[8.687437487043708,45.39191469958059],[8.687497475970932,45.39182034998348],[8.687631691860114,45.39173519747793],[8.687751005227819,45.39167251544822],[8.687906087968459,45.391636935860106],[8.68817834005201,45.3916421782797],[8.688613775913026,45.39173338106544],[8.689493222811302,45.39203732982626],[8.691333481025394,45.39257787657715],[8.691985848183657,45.39286767676251],[8.69204079901889,45.39282282739878],[8.69408971181458,45.39347641646434],[8.695096836919383,45.39365464288474],[8.696139634283606,45.39395445943983],[8.696272364987381,45.39406733687523],[8.696369630505854,45.39409458408547],[8.69621826231781,45.39447673525249],[8.696116204003948,45.394899537659896],[8.696148184113968,45.394967129813544],[8.696233037247518,45.395147368071974],[8.696592340731087,45.39589993542149],[8.696906051111734,45.396665876216424],[8.696848112442431,45.39726880687776],[8.696727620030257,45.39777703973432],[8.69564905795601,45.39906585810176],[8.694349645397125,45.39902404732955],[8.694123292277178,45.39901676423768],[8.691473991368609,45.3985280730989],[8.688824663612582,45.39797181605249],[8.688161658517826,45.39856721344024],[8.687665462591195,45.39901280001946],[8.686014748845178,45.40045459624183],[8.685296480723803,45.40108056963667]]]}}]}
