{"type":"FeatureCollection","metadata":{"code":"003130","referenceDate":"2026-01-01","sourceDbfExportDate":"2026-02-18","upstreamArchiveUrl":"https://www.istat.it/storage/cartografia/confini_amministrativi/non_generalizzati/2026/Limiti01012026.zip","sourceManifestSha256":"70ac8256c4785dc6ed2814c32b6965ae76f9161b51abaa1660059e1c6cbd8ca6","license":"https://creativecommons.org/licenses/by/4.0/","attribution":"Istat, Confini delle unità amministrative a fini statistici al 1° gennaio 2026, versione non generalizzata.","modifications":["Converted from WGS 84 / UTM zone 32N (EPSG:32632) to RFC 7946 WGS 84 geographic coordinates.","Converted from shapefile to per-municipality GeoJSON without geometry simplification."]},"features":[{"type":"Feature","id":"003130","properties":{"code":"003130","name":"Romagnano Sesia","alternativeName":null,"regionCode":"01","regionName":"Piemonte","territorialUnitCode":"003","territorialUnitName":"Novara"},"geometry":{"type":"Polygon","coordinates":[[[8.426884635089932,45.64883895062843],[8.42687930972659,45.64907244350673],[8.426764674801877,45.64989093393384],[8.426756695575916,45.65011629462863],[8.426721598493769,45.65104734333764],[8.426744841809755,45.651835022106944],[8.426696796969189,45.65260280747494],[8.426682157959027,45.65283676920352],[8.426630025066002,45.65283279199071],[8.424824887599403,45.65268649277888],[8.42433776393,45.65264649822937],[8.421875220724914,45.652405581269186],[8.421592999977518,45.65237792318938],[8.421350526284119,45.652354378437245],[8.421134939897682,45.652333039620636],[8.421163239257439,45.65222294893481],[8.421388277358757,45.65159199048166],[8.421541210994139,45.65049017103687],[8.421315471851848,45.64989948093273],[8.420860130510913,45.649712698988964],[8.41996961586454,45.64934810513252],[8.419780985773178,45.64928414088904],[8.4193016634907,45.64911758376781],[8.419053271988663,45.64893115238464],[8.418900302223342,45.648816201446785],[8.41824120746324,45.64858362080055],[8.416489291375667,45.648236793534224],[8.416420472532394,45.64955064325472],[8.41640420093599,45.649856583825006],[8.416386408490377,45.650180426613765],[8.41558969693448,45.65016286047496],[8.415484881348316,45.648601112940476],[8.415450110051026,45.64808295151373],[8.413413483444216,45.64780104839696],[8.413356578418066,45.64779349515937],[8.412522053676355,45.647679059836356],[8.41191373939727,45.647605963193115],[8.411674386884897,45.64757752554924],[8.411624907379549,45.64759855878193],[8.411322930920797,45.64772438761472],[8.411227198550659,45.6477645306862],[8.410986982981438,45.647771999893],[8.410511946120462,45.647787246354646],[8.409941521403638,45.64830214014087],[8.409582303039041,45.64820805995942],[8.409150034385478,45.648095536026126],[8.408805275347891,45.64883306203029],[8.408790806947374,45.648862565946594],[8.408762138926978,45.64892066247202],[8.408411192777528,45.64864076073094],[8.408077493959011,45.64833751159137],[8.408545930599928,45.64786733862107],[8.40827084273321,45.647681208172436],[8.407767371679203,45.647340936318415],[8.407567406685793,45.64720557618639],[8.407165459826874,45.64748008909223],[8.407131321506725,45.64750580845624],[8.406924586656443,45.647646851690325],[8.406879980259019,45.64767862555243],[8.406665160477163,45.64782683426721],[8.406621939302727,45.647852820435055],[8.405836923921957,45.64833268868699],[8.405761524654238,45.64837918225762],[8.405339222882676,45.64863832446068],[8.404764115535158,45.649053865415326],[8.404370463448135,45.64933984097755],[8.404098479725139,45.649536438088134],[8.404008068362485,45.64964088914761],[8.403908460160446,45.64975596902447],[8.402945048430054,45.6492002164724],[8.402895469678658,45.64917168999097],[8.402821438337568,45.64912922017088],[8.402651706588442,45.64902482682762],[8.402357519710064,45.648780278007834],[8.40220745673951,45.64889875852767],[8.402043401408148,45.649027659771434],[8.401758974149535,45.649249674967855],[8.40165028890672,45.64921310392732],[8.401244628280258,45.64915698744888],[8.400883531032454,45.64932160483427],[8.400832059200274,45.64974886998295],[8.400899756100408,45.649936417821884],[8.400923198907785,45.65000137250354],[8.400560566293992,45.650316536286816],[8.400521400053153,45.65035079344565],[8.400436016410113,45.65042604840009],[8.400066657517785,45.65082976762394],[8.399962018051875,45.65094211824422],[8.399832803908987,45.65107978072913],[8.399727818720711,45.65115016078539],[8.39952036172421,45.65128491941121],[8.39906861167684,45.651183877859744],[8.39835986757475,45.651738322525134],[8.398024082869139,45.65202427120314],[8.397942154157104,45.65199537139755],[8.397467839308954,45.65182388773124],[8.39648256714984,45.65154263003679],[8.395038940358083,45.65109745766021],[8.39283787525102,45.65041772884578],[8.39278640237996,45.650404170827215],[8.392558014647076,45.65034565688535],[8.391534050359443,45.65008226681401],[8.39130250858753,45.650022523836924],[8.389984296452582,45.649554856578796],[8.388908180120932,45.649177163407],[8.388473011796236,45.64903514155536],[8.388302734349097,45.64898040629011],[8.38796678514975,45.648821091024104],[8.387725573831915,45.648653286144295],[8.38757875890325,45.64850849450999],[8.387397204196818,45.64816548373725],[8.387208497671736,45.64778193468623],[8.387051286261046,45.64734004655028],[8.386625969333295,45.64566173583124],[8.386513936932134,45.64522008665534],[8.386503005662478,45.64517685505526],[8.386378060872731,45.64468567812366],[8.386386602596799,45.644626643781294],[8.386422625151132,45.644348518982774],[8.386332436935497,45.64399344067297],[8.386247534007621,45.64381629742963],[8.386225170674507,45.64377049221661],[8.386176239322545,45.64366885916298],[8.386054656277386,45.64341933129967],[8.385497997396794,45.64321765835612],[8.385437717807072,45.643195467258145],[8.384175950208446,45.64250042522086],[8.383169658358764,45.64192793908338],[8.382979841400891,45.6418027084958],[8.382872716833228,45.64173253112335],[8.382390661838084,45.64141039597341],[8.38170819650242,45.6408621520892],[8.381505195876713,45.640640896923315],[8.381401101232193,45.64052744551518],[8.381231459136385,45.64034136607339],[8.381054431738596,45.64014752896737],[8.380704419386568,45.64006913231338],[8.3801963208031,45.63985677581951],[8.379951636528215,45.63975451344953],[8.379696374533495,45.639667630605835],[8.379279671174814,45.639530363218775],[8.379143430502786,45.63942407531472],[8.379114615153517,45.639401520803894],[8.379088674921165,45.63938167678978],[8.379023896479145,45.63933048025726],[8.37900710867523,45.63927360845902],[8.379008328454946,45.639223938977544],[8.378986115680684,45.639203530141266],[8.378519323196183,45.63902071480799],[8.378452133334607,45.638994822635894],[8.378203087017004,45.638896842414496],[8.378162829784053,45.63888109309049],[8.378112763472073,45.63886147756207],[8.378048067324459,45.638833594220145],[8.377804441486735,45.63877789028856],[8.377592157374709,45.638728365618775],[8.377497617076815,45.63870607365365],[8.377452153026242,45.63869683307934],[8.377432267378094,45.63873991115896],[8.377281621496152,45.63905592991335],[8.37721056294345,45.63920856460205],[8.376954345080469,45.639751719931894],[8.376443749343162,45.64077503049262],[8.376070940384444,45.64152455407119],[8.376057225199077,45.64157175831067],[8.376037345125221,45.641640153052],[8.376023855591075,45.64168736932014],[8.375902515880057,45.64210418907323],[8.375798725934695,45.64210585694389],[8.375619143801845,45.64210865595811],[8.375384725564787,45.64211246181531],[8.375266564315314,45.642112573573776],[8.374879649923514,45.64209008343959],[8.374162170105489,45.64204509921791],[8.373999445572757,45.64203464326848],[8.37340621295554,45.641978740082784],[8.373292929044458,45.641967953032136],[8.37321942021236,45.641960993473944],[8.373083705449817,45.641948072339446],[8.372947402182206,45.641934998398106],[8.372362097245821,45.64190926929103],[8.372245602824123,45.6419041377442],[8.37202949030258,45.64195064767213],[8.37161096891967,45.64204021241855],[8.369167742836934,45.642761385126256],[8.36903675739686,45.64280009838283],[8.368997853197149,45.642812630606294],[8.368961688073455,45.642824071733514],[8.368547530375404,45.64294328128078],[8.367762168067777,45.64317294076893],[8.36763244873247,45.64321072332419],[8.367097145715174,45.64336742264952],[8.366786992730388,45.643458154188416],[8.366732189438697,45.643552359168936],[8.366638678626847,45.64377237050489],[8.36657936403517,45.64391156399386],[8.36652712144352,45.644056649961854],[8.36638445162908,45.644446015281176],[8.366110479200566,45.64480904069144],[8.365960278948222,45.64490303543686],[8.36574462875793,45.64503683772158],[8.365648162530022,45.64518931860179],[8.36554657334255,45.64536961348251],[8.365426463519011,45.645579313097066],[8.36491756757386,45.64595869559171],[8.364677461329718,45.646137692093355],[8.363965464016133,45.64654977776329],[8.363522148329453,45.6468063469635],[8.361920828684248,45.64751297241647],[8.36075611448907,45.64802422329609],[8.360604038171903,45.648089471338025],[8.360513757640023,45.648135490825396],[8.359192098531041,45.64882081489415],[8.358566615843818,45.64915934199883],[8.358458456293231,45.6492172432792],[8.358217893401429,45.64935138640646],[8.356732569305583,45.65017962297184],[8.355605069411338,45.650749322347366],[8.355199201778033,45.651059311579175],[8.35512977627304,45.651107579514616],[8.354874970005183,45.650793969561576],[8.35454628753619,45.65039134389324],[8.354517092601075,45.650354277908946],[8.354377284614785,45.650182512890765],[8.354277958108137,45.650060772254136],[8.354147298501276,45.64990070853318],[8.354054947470365,45.649822903673225],[8.353664358064215,45.64949578231995],[8.353616218642458,45.64945607245871],[8.353520532720788,45.6494176101764],[8.353362552275994,45.649354934705975],[8.352817466393459,45.64913866773926],[8.352637353819176,45.64906770745261],[8.352599079821884,45.64906583619142],[8.352280501355025,45.64905171890519],[8.35198076924964,45.64893176330193],[8.350813829382657,45.648467283119274],[8.350532079409831,45.648355872342975],[8.34940602371214,45.647910445463516],[8.348769902415526,45.647634100491715],[8.347927368243703,45.647268525208375],[8.347850417376167,45.64723526501545],[8.347813365926342,45.64722315968806],[8.347183841184288,45.647020157761986],[8.34681312318399,45.64686005734367],[8.346646300399108,45.64678807175422],[8.3465179619154,45.64673308287453],[8.346550165565926,45.646548301862566],[8.346607028366769,45.64622206215921],[8.346613497078362,45.64618533941355],[8.346620199949239,45.646146577498705],[8.346683711478681,45.645786484607584],[8.346693223897788,45.64572581881918],[8.346752738556077,45.64544442503368],[8.34677159706318,45.645347867512356],[8.346829805513492,45.64530058818174],[8.346880897496783,45.64525821954067],[8.3469639739377,45.6451897708375],[8.347027163352022,45.64513810582777],[8.347848488620016,45.64489075641538],[8.349552625488467,45.64425243824639],[8.350808501193736,45.64377354218603],[8.351660194947724,45.64345431612255],[8.35216927324072,45.64314950946965],[8.3522568535691,45.643096394802136],[8.352294431420855,45.64307369241923],[8.35242492726373,45.64299533212449],[8.35292031966153,45.64261091867634],[8.35306189135636,45.64247604958848],[8.353306159530025,45.64224119531415],[8.353355596333428,45.6421937945721],[8.353387087856806,45.64216386923812],[8.353400212764427,45.642114429450935],[8.353542953998435,45.64156603965915],[8.353846421738703,45.64062732735106],[8.353882378074935,45.640514858939746],[8.35389864086481,45.64043560416184],[8.353945533730942,45.64020018373034],[8.35419174898646,45.63898614475821],[8.354276901509287,45.638563902927494],[8.354292275803443,45.63851587626613],[8.354419596221685,45.63811286009092],[8.354463109194892,45.63799050252661],[8.354480493821546,45.6379422504707],[8.354512207998038,45.63785512515767],[8.354523669437677,45.637822431035765],[8.354814944083337,45.63779812495698],[8.355577500558644,45.63773329115675],[8.355921569481556,45.63770411622396],[8.3559678888445,45.63770036744927],[8.35606058592713,45.637689565931225],[8.356338620451172,45.63765649363721],[8.356383030783933,45.63765126228602],[8.35786039678826,45.6374767618792],[8.359171524992384,45.637240342162904],[8.359456288902988,45.637188708606224],[8.361127405488386,45.63677503890951],[8.361433790835708,45.63668608016218],[8.3617419632653,45.63659649241042],[8.362979205506244,45.63623635017657],[8.363478529938599,45.636119535352975],[8.364366569240245,45.63591105703357],[8.364843494232963,45.63582187587886],[8.36585795042964,45.635631529859936],[8.366209459312381,45.63565176954948],[8.366940112349361,45.63569384257841],[8.36715246932004,45.63570598050413],[8.370022867068561,45.63579831658854],[8.370948327280194,45.63579414089151],[8.371169037845753,45.635793464017446],[8.371409297001243,45.63579245233757],[8.371589531974168,45.63563521924129],[8.371664381174465,45.635570167171075],[8.372160979935096,45.63513425323434],[8.37223653867511,45.63506793105137],[8.372285046472868,45.6350255466793],[8.372311026228148,45.63500284326059],[8.372891459284563,45.634495654665386],[8.372928045882315,45.634464046199675],[8.373172249297369,45.63425029198291],[8.373407763598964,45.63404435909468],[8.373490413146877,45.63397205423764],[8.373675915957117,45.63380964325162],[8.37377249455102,45.633725006765175],[8.373837503683985,45.63366877243123],[8.3738663161719,45.63364378084107],[8.376921652389713,45.63096609152255],[8.376960259600851,45.63093268267886],[8.377027438085422,45.630872749947926],[8.377061963466003,45.63084310550521],[8.377102796844053,45.63080722629277],[8.377657814517669,45.63032096914826],[8.377752410512269,45.630237953018245],[8.377791459842319,45.63020380282015],[8.379395124749957,45.62879833503763],[8.379612464292315,45.62860871085503],[8.381459692511575,45.62699139108532],[8.38152537018238,45.62693699392656],[8.38154738790329,45.62691447664875],[8.381733656045743,45.62675357679139],[8.382096392627203,45.626434874378546],[8.382225040217516,45.62632230314224],[8.383295680988239,45.62538290477544],[8.38334464839947,45.62534176565178],[8.383610832162299,45.625102905690255],[8.383827350108707,45.62491505472765],[8.384462391653791,45.62436043289859],[8.385639910934149,45.62317563800472],[8.385678174433849,45.62313538180002],[8.385727786760432,45.623084769806105],[8.38619086731095,45.62263604301125],[8.387472084215515,45.621392937784755],[8.388861364389578,45.62018065820438],[8.388957438421112,45.620096980793114],[8.389136936466572,45.61987923283573],[8.389183806287392,45.619822169864676],[8.389324896035776,45.61965075837641],[8.389354942617237,45.6196133444982],[8.390021853053245,45.61880212550699],[8.390044742458961,45.61877384160126],[8.390074297910916,45.618704977358924],[8.39027391509991,45.618233823882996],[8.390288794023487,45.6181882540337],[8.390318783134717,45.61809742699565],[8.390333785141454,45.61805232854646],[8.390423676278662,45.61777698645113],[8.390473831212518,45.61762396322755],[8.390484156846622,45.61759409913062],[8.390500297852439,45.61754554136329],[8.390509961898893,45.61751683485762],[8.390520244053489,45.617485652784346],[8.390529322550515,45.61745866323616],[8.390538752708496,45.61742928490826],[8.390549577781378,45.617396882497914],[8.390589734061876,45.617274626958796],[8.390796601392832,45.61664463696653],[8.390872524166836,45.61632083709086],[8.390979600548462,45.6158611410899],[8.391435692116398,45.61390728868694],[8.391635636622281,45.61191014527698],[8.391648278146102,45.61179320450582],[8.391800905962667,45.610376371645685],[8.391855026147796,45.609922042309925],[8.39203389005723,45.60839737896287],[8.392061635574617,45.608162803714706],[8.392072118746844,45.60807418910296],[8.392082720469665,45.607982669605114],[8.3920862576391,45.60795225613273],[8.392091936424233,45.60790095109279],[8.392096423822858,45.607867216816075],[8.392220020733495,45.60600867419154],[8.392403604410568,45.60408039527366],[8.392415454782531,45.60395944101419],[8.392422223940475,45.60388569867539],[8.392467247685213,45.6031514193193],[8.392491092895849,45.60277427984758],[8.392520673827203,45.60230550393122],[8.392672691697033,45.59988555388402],[8.39267890390083,45.599775523736],[8.392689382402569,45.599602472448055],[8.392772163648512,45.597465183803195],[8.392948070267142,45.594936858544095],[8.393118975486747,45.59287205316892],[8.39312199969365,45.59251653248975],[8.393458645019415,45.59246882394569],[8.394716475803031,45.59252499209513],[8.396317085801527,45.59260998474914],[8.396574809851899,45.59262589743564],[8.397353122026791,45.59267393995323],[8.397629738448769,45.592726008824464],[8.397958990391972,45.5927879801049],[8.398287948745649,45.59284989848344],[8.398168221059384,45.59333081756072],[8.398201762824996,45.59352900900629],[8.398287402359504,45.59354154666861],[8.39886010929109,45.59362468874196],[8.399294256005746,45.593687780566654],[8.40062208429495,45.59387026478086],[8.40031869163398,45.59481827577026],[8.400259815231944,45.595206311000354],[8.400253699504457,45.595244700537165],[8.40023776159113,45.59534504815491],[8.40021661353652,45.59548036787867],[8.400098625064432,45.59625726854256],[8.40009699460768,45.59641028045672],[8.40022046064111,45.59651893257724],[8.400313481825979,45.59658692567911],[8.400469016925163,45.596655248607966],[8.400655693591867,45.596696726338116],[8.400798115312154,45.596689041346494],[8.40085293136319,45.59668547283661],[8.400965594672998,45.596679523562415],[8.401047820230076,45.596675293998764],[8.401788754755467,45.59663422456771],[8.401994332445453,45.596622741838445],[8.401983528801733,45.597639799110844],[8.40204979348618,45.597662630458316],[8.40204458319767,45.59815316255119],[8.402072828863236,45.59843684786948],[8.402131379120817,45.59881067465977],[8.402218616315487,45.59942319389818],[8.402533713768632,45.60110802410217],[8.4023998686933,45.601181994370606],[8.40196096311107,45.601424558478065],[8.401619468759607,45.6018098080288],[8.400945448832111,45.60301690228021],[8.400737387704691,45.60355136943321],[8.400435428146498,45.60402231940741],[8.40023080856593,45.60423277822674],[8.400295108995728,45.60426418448659],[8.401304783527257,45.60476045426142],[8.401127595697476,45.60514743710701],[8.40111154444771,45.60518249998089],[8.401564705669612,45.605414395256375],[8.401667995675616,45.60546718338194],[8.402614562796417,45.605950932592755],[8.402851490943808,45.60607340100116],[8.40395493156207,45.60663889574934],[8.40400706676321,45.60658360923327],[8.404787899882903,45.605800163231386],[8.40482479773241,45.60574074020051],[8.40485711611438,45.60568362455257],[8.40609693398061,45.60709420144642],[8.40729908976529,45.608243568794265],[8.407472727177943,45.608100695199965],[8.408006959896428,45.60766218226437],[8.408043861132722,45.60769964382286],[8.408100537809325,45.60775717829679],[8.409007448441661,45.607487337689996],[8.409101481937082,45.60750133818935],[8.409814097982677,45.60776154711698],[8.409435309437997,45.60833773830053],[8.409286301899538,45.60856439548034],[8.411155661612275,45.60929680218415],[8.41120969823509,45.60931797196468],[8.411643340076521,45.60948786548974],[8.41169393492154,45.60950768787053],[8.411084989020582,45.609978536896556],[8.41104053316983,45.610012749923825],[8.410750332052606,45.61023609674289],[8.410725763124505,45.61025500616286],[8.410615840087102,45.610354612688326],[8.410521028860503,45.61044056160596],[8.4102611626632,45.610676200603066],[8.410232152729039,45.61070251638962],[8.410673478223757,45.61100181875619],[8.411410991592726,45.61139579057643],[8.411512950189943,45.6114501542522],[8.411732972052386,45.61156799403335],[8.41189197424393,45.61165307617614],[8.411982944370846,45.61170163034021],[8.412498597074089,45.611977000149984],[8.413768283101444,45.61265590322931],[8.413046155401743,45.613682795893446],[8.413430003060302,45.61386764007498],[8.413527910870707,45.613914787557015],[8.414704475433242,45.614444091918635],[8.415616657195748,45.61485633807887],[8.4158690579393,45.61499073250375],[8.416853291783058,45.61551938475388],[8.416997533843173,45.615597248418126],[8.417579396267453,45.61593735915323],[8.41796257935239,45.616161960784424],[8.418125886965543,45.616257417119506],[8.418323523013157,45.616392948377715],[8.418932891865383,45.6168125617886],[8.418971076050438,45.616839846194786],[8.419547964767432,45.61724434949412],[8.419741098893201,45.61737530991587],[8.420035708057668,45.617574283414584],[8.420251019223953,45.61772039165435],[8.421238665341733,45.618418203365856],[8.4213555472386,45.61850207862205],[8.421412278996533,45.61854328432127],[8.421526354143028,45.61862524058264],[8.421919751347984,45.61890804833188],[8.422678576676686,45.61952844131006],[8.423202154672731,45.620050099186926],[8.42330374070817,45.6201523192475],[8.423350605720842,45.62019847329204],[8.423308250124352,45.62035093547199],[8.42330499051056,45.62039587698357],[8.423297961968354,45.62053068209631],[8.423306244306021,45.62058374402711],[8.423345625550416,45.620805397791315],[8.423393859232775,45.62100965146798],[8.42339960806819,45.62103959065241],[8.424042213584388,45.62121399983204],[8.42439175111312,45.62129226427193],[8.424429259099005,45.6215176867954],[8.424441544973387,45.621569350255555],[8.424517522107015,45.621616922314146],[8.424592971548936,45.62165377062961],[8.424702162816228,45.62170786902917],[8.424680561190055,45.621843846537004],[8.424738231120992,45.62190927504542],[8.424777315654906,45.62195374123574],[8.42496924546007,45.62216825147496],[8.425319972008689,45.62273875945002],[8.425548832139699,45.6231065120147],[8.42564930111998,45.62324885505048],[8.426152903281249,45.623959540055964],[8.426201540300365,45.62402881803638],[8.426207800692147,45.62418168288438],[8.426041251790988,45.624396869881856],[8.426047347103403,45.62450490467938],[8.426267177877072,45.62468603418732],[8.426459340333787,45.624790506406555],[8.426693801928813,45.6249131969815],[8.426740858528856,45.624909497011444],[8.426801337667477,45.62490474195316],[8.42685452063868,45.625092916159055],[8.426884131580263,45.625197682720135],[8.427659808169293,45.62643427534118],[8.42772871186276,45.62654766519428],[8.42790235586587,45.626822690183005],[8.428376421695331,45.62758138645854],[8.428566951788158,45.62784785937483],[8.42862541345782,45.62791709000849],[8.429047856990243,45.62841732594142],[8.42959911666986,45.62908614667598],[8.430108793326031,45.62962874588374],[8.430127515600185,45.62965450815947],[8.430489559619302,45.63015269020773],[8.430714329593476,45.63056335232124],[8.430741493274278,45.63073000143489],[8.430939574348875,45.6309245057706],[8.431147840685458,45.6310245488318],[8.431175485409842,45.631146202738854],[8.431126691768123,45.63129448153549],[8.431065901544827,45.63139768327755],[8.431068101920037,45.631496703639776],[8.431109162503098,45.63155991377775],[8.43120047060777,45.63165037960447],[8.43127403269227,45.631749755247675],[8.431258459976284,45.631821679808716],[8.431234690748528,45.631911572631644],[8.431253387681581,45.63200617554414],[8.431297242647167,45.63210990103117],[8.431433722262351,45.632371601197114],[8.431547804009224,45.63258819586535],[8.431555301048984,45.63267824431897],[8.43156204429126,45.63279590118704],[8.431564771637877,45.632853799768],[8.43157871202924,45.632979881313815],[8.431542165343055,45.63306521463838],[8.43145470014602,45.63315029455053],[8.43131525299305,45.633262101339426],[8.431281036934022,45.63335644081132],[8.431303939908576,45.633469074598516],[8.431383612702792,45.6335594652239],[8.431497199265667,45.63362755373638],[8.431581558756386,45.63369098004601],[8.431612052150538,45.63376763159811],[8.431595206749202,45.63384854538006],[8.43146349949248,45.6339874143471],[8.431283521094759,45.63413953885994],[8.43105750090921,45.63428691712661],[8.430871208884797,45.63447050920031],[8.43071438251979,45.634595740847054],[8.430656863957994,45.634694462651154],[8.430681157130797,45.63478909260162],[8.4307564665238,45.634874983934765],[8.430850441649602,45.634938458683635],[8.43099539625756,45.63515518691071],[8.431090449080164,45.635232180824204],[8.431265648534517,45.635314048053225],[8.431385496095094,45.635436161706984],[8.431400385250518,45.6355487555457],[8.431376249225954,45.635674648434694],[8.43129782245827,45.63577776153556],[8.43124402317003,45.63590350941982],[8.43115952326118,45.63617310668029],[8.431103254250162,45.63638435461851],[8.431155971617867,45.636524122527874],[8.431262252333363,45.636758667734114],[8.431403028278524,45.63695288665188],[8.431449651455644,45.63706114063369],[8.431577715864451,45.63712478351021],[8.43172026674327,45.63714348466583],[8.431820611076104,45.63729250538664],[8.431812417045549,45.63742747494398],[8.431845132597283,45.637562644362404],[8.431870588136512,45.63774279579922],[8.431855540889643,45.6378822272298],[8.431915200547571,45.638008536888584],[8.431852402642246,45.63819274808295],[8.431674403889316,45.638308878344255],[8.431659265032499,45.63845730660498],[8.431684674884615,45.63864195559036],[8.431703025071009,45.638849075358586],[8.431830850923824,45.63897572501879],[8.432027033856148,45.63904420569701],[8.432188232336644,45.63920252230421],[8.432274910151676,45.63939647116395],[8.432123978011393,45.639530729455785],[8.431885444976633,45.63960604233471],[8.431707791473405,45.63972667569928],[8.431393564499833,45.63990963376443],[8.431331276807587,45.6400038325186],[8.431268766474382,45.64015654152974],[8.43124641072214,45.64034543071153],[8.431177637980728,45.640444114651444],[8.430876633371232,45.64066763585866],[8.430622453872031,45.64094088572204],[8.430620584894159,45.64112539620238],[8.430707796456925,45.64122484007297],[8.430956192470399,45.641523099931355],[8.43119779997234,45.6417808266921],[8.431373352352855,45.64190771351887],[8.43148877027672,45.641993802092195],[8.431597564883013,45.64206184945265],[8.431778474245649,45.64213475048366],[8.431954041807234,45.64222113864685],[8.432048109963688,45.64231611600803],[8.432275709829716,45.64265027052338],[8.432483366212953,45.64293483394173],[8.431373412660072,45.64290711291896],[8.430915047538926,45.6428955289559],[8.428979452023148,45.64283014395229],[8.428898683888837,45.6428269553266],[8.428747090920282,45.642818471005086],[8.428369257837184,45.642797321777905],[8.42810503378427,45.64271498298611],[8.427699468420686,45.64253292728942],[8.427013657119677,45.64250250391756],[8.426612955590151,45.642513985823676],[8.426515571626371,45.64260324606701],[8.426622919020883,45.642833567565525],[8.426696625039582,45.64327498519149],[8.426735795981623,45.643995240780626],[8.426873611224648,45.644283959804774],[8.427096955993541,45.644600111249844],[8.42709559500117,45.64465318372758],[8.427094771166969,45.644814448108754],[8.427092459155586,45.64504113357795],[8.427055423065562,45.645789834765644],[8.427053068553235,45.64583751160157],[8.427043806764399,45.64597248066414],[8.426907614758866,45.64783046529307],[8.426884635089932,45.64883895062843]]]}}]}
