{"type":"FeatureCollection","metadata":{"code":"004076","referenceDate":"2026-01-01","sourceDbfExportDate":"2026-02-18","upstreamArchiveUrl":"https://www.istat.it/storage/cartografia/confini_amministrativi/non_generalizzati/2026/Limiti01012026.zip","sourceManifestSha256":"70ac8256c4785dc6ed2814c32b6965ae76f9161b51abaa1660059e1c6cbd8ca6","license":"https://creativecommons.org/licenses/by/4.0/","attribution":"Istat, Confini delle unità amministrative a fini statistici al 1° gennaio 2026, versione non generalizzata.","modifications":["Converted from WGS 84 / UTM zone 32N (EPSG:32632) to RFC 7946 WGS 84 geographic coordinates.","Converted from shapefile to per-municipality GeoJSON without geometry simplification."]},"features":[{"type":"Feature","id":"004076","properties":{"code":"004076","name":"Cravanzana","alternativeName":null,"regionCode":"01","regionName":"Piemonte","territorialUnitCode":"004","territorialUnitName":"Cuneo"},"geometry":{"type":"Polygon","coordinates":[[[8.131974047637188,44.589710353924836],[8.131649857196638,44.58976933097765],[8.131440804384999,44.589808526452494],[8.131090681498808,44.589922901796996],[8.131022504999066,44.5900844273348],[8.130845602690638,44.590359303974054],[8.13077747102183,44.59046516867388],[8.130280291043446,44.5906459368416],[8.130208187950855,44.5906595829529],[8.129754393943864,44.590745456488705],[8.129603687979875,44.59080978180172],[8.12947939342932,44.590864896064616],[8.129432358146692,44.59084362458572],[8.12912507803294,44.59070464997518],[8.128982159535756,44.590442492148284],[8.12877697541415,44.58994577729711],[8.128427061187885,44.5896505313968],[8.127924054595598,44.58961518252609],[8.127626104542975,44.58987397398801],[8.1275099645832,44.58996650542737],[8.127251155022858,44.59017270577671],[8.126746811385855,44.59038489477198],[8.126578060866631,44.59053215372826],[8.126388996747158,44.590328154556474],[8.12614921668289,44.59014626621054],[8.126032796525658,44.59003285325562],[8.125770797622517,44.58994081786519],[8.125520193367203,44.58990289348352],[8.12511974145104,44.589800800997416],[8.125029322931876,44.58987212246921],[8.12458145091023,44.59009825099406],[8.124109773399704,44.590256677787394],[8.123835879240893,44.59035360316708],[8.123594483434907,44.5904102693735],[8.123277018956587,44.59049786008361],[8.123226438142746,44.59049169573112],[8.123088411270743,44.590473901123175],[8.122782159565073,44.59039340515871],[8.122647252900908,44.590357994370585],[8.122582177110118,44.59033948299889],[8.122747229391633,44.59009767646849],[8.122940998149183,44.5897525851004],[8.123158111567616,44.58945265751466],[8.123405562084134,44.58920248364724],[8.123708645069334,44.58897075114032],[8.124175538241113,44.58876276708719],[8.12443100508356,44.588658683892845],[8.124609263021165,44.58858605295117],[8.124773155925883,44.58842076890847],[8.124746171380242,44.588283246927624],[8.124735446684435,44.58822642158523],[8.124633172577413,44.58818739842383],[8.12452550181768,44.588145510597144],[8.12438871614996,44.58809371989123],[8.124042106547174,44.58797404027587],[8.123779136155543,44.58773794643044],[8.12343487962118,44.587487748555546],[8.123341636839093,44.58736154250908],[8.123225000241293,44.5872045957832],[8.123137423460712,44.58708484739002],[8.12295472747388,44.58690340582388],[8.122771117249451,44.58670392480126],[8.122410185095504,44.58635907057486],[8.122163831332738,44.585981989924804],[8.122067329711514,44.58583427223397],[8.1218255234019,44.58549932898073],[8.12128980584729,44.58510360207605],[8.120831655127098,44.58483900881129],[8.120643164910744,44.58470250470412],[8.12037568957865,44.58450689236563],[8.120147241674186,44.5841495374526],[8.120142290479885,44.58356434044827],[8.120501015434126,44.58324301559671],[8.120630900530939,44.582748868131],[8.11991496747171,44.58242828125789],[8.119055218915147,44.58243064886246],[8.118487164684282,44.58258831008215],[8.118214329111177,44.58279281009755],[8.11806512736132,44.58290464114865],[8.117547349009387,44.582990670762655],[8.117053503690599,44.582901323048034],[8.116527632361791,44.58266319744625],[8.116338884123682,44.582468183686935],[8.116510764267776,44.58190685009701],[8.116562154488552,44.581814950578114],[8.116657640296424,44.58164109960266],[8.116736491857617,44.581499442727896],[8.116240291245127,44.581000008780364],[8.115802716968732,44.58073103600104],[8.115800160993404,44.58047824555447],[8.115796779472547,44.58029737296991],[8.115531602951183,44.57973868230937],[8.11548765322022,44.57963238342091],[8.115352366471145,44.57930516594197],[8.114844915194576,44.578999657618695],[8.114773000918248,44.578515881530194],[8.114765971343388,44.57846789012142],[8.114721019708613,44.57825860267095],[8.114636205572172,44.5778637133186],[8.114511378335292,44.57730038418658],[8.114403468307295,44.57688514434087],[8.11413087142395,44.57677048892237],[8.113931638956341,44.576686365366726],[8.113805076454852,44.576632927115796],[8.113417145489972,44.57654438450919],[8.112824854243685,44.576436262476314],[8.111926679204917,44.57622673169233],[8.11150530848383,44.57606140961752],[8.111433615503138,44.57593481480667],[8.111354825297624,44.57585924896741],[8.11131290618645,44.575820679816616],[8.111185710263713,44.57569880691012],[8.110906313629915,44.57546257311226],[8.110823476173673,44.575344888324224],[8.110406818048,44.5752377150302],[8.109785300913579,44.575053238125804],[8.109272367133878,44.57487817973184],[8.108683210489442,44.57461701133795],[8.108542655321628,44.57430983816934],[8.108541126655789,44.57404873782216],[8.108507568510573,44.57367038536127],[8.10804421178315,44.57331566932372],[8.10767531355288,44.57291216624674],[8.107452412396373,44.57258633584382],[8.107027348276228,44.57227693681439],[8.10696396027465,44.572228288129175],[8.10667181367119,44.57200407152166],[8.106317593010298,44.57171421220625],[8.106227522270435,44.5716404981621],[8.105953699875268,44.5712737419938],[8.105609762887173,44.570757905965564],[8.10512058578582,44.57029495271833],[8.104657163311048,44.56992222605177],[8.104566773674378,44.56952989211519],[8.104556600148719,44.56949764609337],[8.104367475284542,44.56889816778116],[8.104270915100026,44.56860031056241],[8.104199883342496,44.56832968467311],[8.103900148189435,44.56778267997119],[8.103588691036718,44.567433636781516],[8.103397067121854,44.56709904647133],[8.102725273102827,44.56674267187231],[8.102306281472476,44.56640177559861],[8.101709263504118,44.56578941055392],[8.101334381382213,44.565421866917845],[8.100927493432334,44.56495952209433],[8.100621601948003,44.56453399868852],[8.100494053001908,44.56428091960898],[8.10004441461913,44.564092841094826],[8.099755106896058,44.563969024045896],[8.099328686719106,44.56378110321862],[8.098735039444216,44.563515349926114],[8.09795925791285,44.56334718279614],[8.09742919874177,44.56319444482088],[8.09669316717038,44.56310309541845],[8.096002168532799,44.56274652824237],[8.095700494285653,44.56240655409594],[8.095463074809906,44.561729486010094],[8.095345112509483,44.56116588450875],[8.095476116518824,44.56073481342138],[8.095515931632116,44.56060727738476],[8.095628959118972,44.56024539186177],[8.095806590729289,44.559697624181226],[8.095865518954168,44.55967812114005],[8.096311268388446,44.55953057825553],[8.096815793286794,44.55932300275641],[8.097013017770964,44.559174739163254],[8.0973253728271,44.55893992585672],[8.097615655155712,44.558812130416406],[8.097830101376436,44.558718850754396],[8.09802967881065,44.55858139720119],[8.098327648316767,44.558376177915655],[8.098721114019764,44.55799970859857],[8.098798907097683,44.55792527405793],[8.099388435583375,44.55764680963849],[8.099717298506027,44.55749138877003],[8.10040199723902,44.557487787920394],[8.100897458540866,44.557541489347265],[8.101476750172228,44.557604271941976],[8.101992086729688,44.55772515840978],[8.10205269468584,44.557739362138555],[8.102148499334707,44.5577647843183],[8.102842310195316,44.557949116802504],[8.102995556971829,44.557989824900794],[8.103534201803818,44.55805159089474],[8.10388050679162,44.558091299546895],[8.104385269069532,44.55800923467223],[8.104461550647306,44.55799683129306],[8.105212319505023,44.55779114928363],[8.105705351475008,44.55779051068197],[8.1058057152711,44.557660763226004],[8.106082421912747,44.55739735877119],[8.10632268935371,44.55738122674368],[8.106759596895689,44.55755120656287],[8.107244825408472,44.55736594679693],[8.107698650261764,44.55709940621766],[8.10774771880972,44.55708289709033],[8.108455328629596,44.55683974776433],[8.108650772032947,44.55677439654092],[8.109092818180322,44.55662865541427],[8.109684407348588,44.55622814775173],[8.109799539504062,44.55616153465572],[8.110195121737497,44.555931811706984],[8.1104343253908,44.555792893220094],[8.11083258051223,44.55566032704917],[8.111266789291042,44.55551579122508],[8.111631103417395,44.5553880923214],[8.111858169253352,44.5553088276594],[8.112282300588996,44.5551545776985],[8.112956370384428,44.554813214652036],[8.113432735795499,44.554510838278],[8.113561027308828,44.554430807897766],[8.113977598382284,44.55430800478232],[8.114115906422548,44.554290752891745],[8.11416338707485,44.554285683607326],[8.114590109493022,44.55423624007279],[8.114663164227109,44.55421879219588],[8.11525887383695,44.55406136431025],[8.11589594707094,44.55382323989878],[8.11648895998552,44.55368827774099],[8.117227743392563,44.553617477464975],[8.117705355957446,44.55352941450382],[8.117859022878555,44.55350081550056],[8.11832563047369,44.55331988218027],[8.11867243101543,44.553178509020114],[8.118980950880845,44.55296482217038],[8.119042983484752,44.5529473008621],[8.119730704540762,44.55294046459366],[8.12031871890076,44.5529346198375],[8.121056156075444,44.552926801824825],[8.121649130714864,44.552976368888],[8.12222094056115,44.55309780553685],[8.12258591051067,44.55331665667695],[8.12288936843685,44.55357106000796],[8.122659338812186,44.5539023997948],[8.122532007792575,44.554180486407034],[8.12269040692241,44.55430422619707],[8.122420239159393,44.55480980069335],[8.122499435198831,44.554985968290566],[8.122639705389487,44.555207591991106],[8.12269338546486,44.55572114878297],[8.122683234231532,44.555776731252905],[8.122673873720506,44.55581781568745],[8.12251566401869,44.556629053485686],[8.123088922584806,44.55675377380322],[8.123330612485566,44.55680635543987],[8.123856429126011,44.55698145002871],[8.124311911343176,44.55709746614195],[8.124905714240299,44.55709301866346],[8.125461667101348,44.55701624297697],[8.12613873934825,44.55720598641871],[8.126512634403156,44.557384405718956],[8.126772278517587,44.557467403965646],[8.127310113704725,44.557602051983835],[8.127892318629614,44.55776854362761],[8.128004707593508,44.55777178029751],[8.128530546320778,44.55778647652754],[8.128935731501079,44.55790703730536],[8.128837471816846,44.55837443067723],[8.128656789440337,44.558800661762646],[8.128645980464546,44.5591291897706],[8.12872333825247,44.559404347771405],[8.12881438916237,44.559841672378795],[8.128929833365982,44.55996616143695],[8.12907501257193,44.56012272115429],[8.129171232691665,44.56042505296949],[8.129230702766288,44.560817114332316],[8.129182300931008,44.56121286797005],[8.129133975846278,44.561631115149964],[8.129230879819849,44.56201896237468],[8.129655325512385,44.56216173004957],[8.129714774968573,44.56221411010225],[8.129871273407003,44.56235243020789],[8.129888860071134,44.562455144349734],[8.12992991770674,44.56269497767965],[8.129909917925263,44.56298291125955],[8.129900857177525,44.56311337364411],[8.129897399480214,44.56360847683608],[8.129920940126082,44.56388092271984],[8.129924252065907,44.563919272019675],[8.130165578700115,44.56409665020904],[8.13022327544629,44.564116811631514],[8.13052020588428,44.56422538703803],[8.13100169516501,44.56439561423937],[8.131145681895033,44.564356245774064],[8.131411809265124,44.564286193505154],[8.131658681017479,44.56438259811346],[8.132101834746319,44.56451200308829],[8.132613937239098,44.56450237893885],[8.133086123541812,44.564385958657034],[8.133162950259566,44.56436701787316],[8.133473169653756,44.564490908957346],[8.133739703774264,44.56466847083674],[8.134264971975442,44.56480750723289],[8.134783496003047,44.56484294582928],[8.134953020008172,44.56477271336881],[8.135199644563537,44.56467053902291],[8.135592507077876,44.564822062412766],[8.135639787920175,44.56534905966182],[8.135669221291002,44.56604698101596],[8.135806396250834,44.566531082222966],[8.135843124258825,44.56666046726736],[8.13622415971113,44.56691992108761],[8.13659053755283,44.56707882265921],[8.136794293199587,44.567167320768846],[8.137333092282242,44.567405459409045],[8.138004091160157,44.56761759280818],[8.138174991110425,44.5678934140057],[8.138303913362217,44.568101490588326],[8.138336132342552,44.568185373177485],[8.138509280508096,44.56863867532642],[8.13870250985391,44.56925230184342],[8.138781512427878,44.56976604174469],[8.139062863515765,44.57030381991023],[8.13921015964277,44.57066954230847],[8.139414155715942,44.57095464235623],[8.139567020578914,44.571322873826546],[8.139580987768086,44.5713565209011],[8.139900326814807,44.57190807883371],[8.139911320091988,44.57194869397689],[8.14000398763014,44.572289741851584],[8.140029441728233,44.57238618558677],[8.140177085953551,44.57278339937849],[8.140541718497433,44.573519850284896],[8.140468543364035,44.57381187909412],[8.140424227692343,44.573987105863274],[8.140040932064352,44.5745264531584],[8.140004229753702,44.574578098287354],[8.139539042586067,44.57498029937269],[8.139219400277868,44.575431927785154],[8.139165069261644,44.575545320814165],[8.138945632086454,44.5760058051038],[8.138805523256051,44.57652510955049],[8.138734078494721,44.576792149076944],[8.138631732022143,44.57767363089522],[8.138460725745947,44.57817872432314],[8.138517044975078,44.57837493543621],[8.138043540990914,44.57853342616687],[8.137486259721138,44.57882179800796],[8.137525661618708,44.578925618911825],[8.137712273884517,44.579199208359306],[8.137806509745108,44.579337358569],[8.138190773114395,44.579677843834176],[8.138513704647098,44.57998637054686],[8.138553546028096,44.579997397645954],[8.139717630771495,44.58031953494138],[8.140207951340965,44.5804087581425],[8.140472705995217,44.58052776921131],[8.140941823755169,44.58066633393664],[8.141492630370692,44.580846034125045],[8.141864493876511,44.5809883607115],[8.142291390325974,44.58118963864478],[8.142561897589479,44.581263686895014],[8.14257834317781,44.58153837444731],[8.142574241445757,44.5818174270125],[8.142653929644073,44.58196657311604],[8.141643165497493,44.5824406147382],[8.140779454159022,44.58295175600083],[8.140748682537394,44.582929016258205],[8.14061159509886,44.583032987143746],[8.140147111863842,44.58338812636563],[8.139740944256783,44.58369852626432],[8.139108779415036,44.58418153716608],[8.138998502879353,44.58426621673122],[8.138729890764447,44.584381231010696],[8.138460640651282,44.584541242781626],[8.138188679148081,44.584669726264515],[8.138124302921476,44.58484479862683],[8.138101227162432,44.585020163743344],[8.138161871741975,44.58523218534479],[8.13815934370578,44.58572279895702],[8.138074934520494,44.58621279098172],[8.137866747682267,44.58642278615306],[8.137499661111653,44.586573367710166],[8.137046311856444,44.58666416114732],[8.136570251488306,44.58677758457671],[8.136174085740274,44.58694564645148],[8.135772138548951,44.58710465072907],[8.13540755644809,44.58728542108711],[8.135362458043002,44.58730859795526],[8.135150580266867,44.58744654598038],[8.135098863507428,44.58748215917964],[8.134609827330497,44.587807043585485],[8.13411480640354,44.58792482696069],[8.133531870502942,44.5880239306826],[8.133007122526747,44.5880739671888],[8.132667437914135,44.588255944965695],[8.132461954375648,44.58847278727853],[8.132328651976026,44.58861345150275],[8.13211986246637,44.589043975368824],[8.132076318741118,44.58916380703852],[8.131996317216627,44.58938637429924],[8.131974047637188,44.589710353924836]]]}}]}
