{"type":"FeatureCollection","metadata":{"code":"004005","referenceDate":"2026-01-01","sourceDbfExportDate":"2026-02-18","upstreamArchiveUrl":"https://www.istat.it/storage/cartografia/confini_amministrativi/non_generalizzati/2026/Limiti01012026.zip","sourceManifestSha256":"70ac8256c4785dc6ed2814c32b6965ae76f9161b51abaa1660059e1c6cbd8ca6","license":"https://creativecommons.org/licenses/by/4.0/","attribution":"Istat, Confini delle unità amministrative a fini statistici al 1° gennaio 2026, versione non generalizzata.","modifications":["Converted from WGS 84 / UTM zone 32N (EPSG:32632) to RFC 7946 WGS 84 geographic coordinates.","Converted from shapefile to per-municipality GeoJSON without geometry simplification."]},"features":[{"type":"Feature","id":"004005","properties":{"code":"004005","name":"Alto","alternativeName":null,"regionCode":"01","regionName":"Piemonte","territorialUnitCode":"004","territorialUnitName":"Cuneo"},"geometry":{"type":"Polygon","coordinates":[[[7.968521946904317,44.13343651601673],[7.967673726671255,44.133487357942684],[7.967095741403729,44.13345513975283],[7.967074590586366,44.133189340865435],[7.96701292222452,44.132716109770726],[7.967013178186247,44.13222994270417],[7.967000142386896,44.13205792569865],[7.966984247348507,44.131832368387464],[7.966978853951489,44.131787375369406],[7.966976495327485,44.131756959053426],[7.9670219041347075,44.131482765004],[7.96684265158331,44.13127857792528],[7.966993095700988,44.13114114157688],[7.9670383132336084,44.1310998356779],[7.96706121836729,44.13107856552724],[7.968545543154252,44.12972291253737],[7.969651950433215,44.128949610070855],[7.970165789643687,44.12860311907976],[7.970358188419231,44.12811868365685],[7.970370750645034,44.12754431771822],[7.970395290443779,44.127452906405075],[7.970474290649665,44.127205786524414],[7.970501994546322,44.1271770781055],[7.970807009926308,44.12684354566999],[7.970850307358025,44.12679513896286],[7.97099174705693,44.12636426909658],[7.97103207252217,44.12597749740677],[7.971156020693526,44.1255869826096],[7.97125943623164,44.12554738756158],[7.971255723175333,44.12507675167499],[7.971254591445559,44.12497113948492],[7.971229274594325,44.124901288341576],[7.971133452248277,44.12463693758798],[7.971133216650254,44.12457814414031],[7.971132046120088,44.12429029918136],[7.971293346253854,44.12417922269317],[7.971462300069324,44.12414471474189],[7.971862705767342,44.12388845875127],[7.971906224805213,44.123860607170535],[7.972478512804012,44.12369920113239],[7.972714922559824,44.1236876504631],[7.972880744637481,44.12368032462235],[7.973292957085038,44.12338627139215],[7.973594519119641,44.12308352292814],[7.973907691637099,44.12241109836927],[7.97411807569256,44.12185477885111],[7.974232100525245,44.12171194492051],[7.974460607006799,44.12142571090033],[7.9748546742881,44.12090704915197],[7.975097690505119,44.120687505213695],[7.975195096360427,44.120599505072555],[7.975398360561105,44.12012053918776],[7.975414660982644,44.12007777398674],[7.975340728574323,44.11998740945308],[7.975191999518749,44.119807189273324],[7.975083250256135,44.11972431356121],[7.974844679313788,44.119542985226744],[7.974563747498898,44.119391904386305],[7.974141855010838,44.11914953965751],[7.973680958270564,44.118835610646464],[7.973224561910883,44.11853358202699],[7.972607588785215,44.1184154849744],[7.972249949058115,44.1183074950493],[7.972120710233776,44.11827156160659],[7.972036267588094,44.11824272056042],[7.971772527568986,44.11815566757106],[7.971705262971389,44.11807510582085],[7.97155661200033,44.11789734395675],[7.971577771960092,44.11768313133102],[7.971592621704153,44.11753304534599],[7.971626582529965,44.11724159357979],[7.97163119637227,44.11719088183996],[7.9716438586187595,44.11707884920305],[7.971720356042739,44.11676412327829],[7.971762865696213,44.116589231896555],[7.971861489474146,44.11605894503037],[7.9719076134500755,44.115884277872084],[7.972014475381212,44.11547961478773],[7.972091240276709,44.115039143915894],[7.972186884127058,44.11443228841493],[7.972001332375728,44.11398495817031],[7.971858301971333,44.1138168302529],[7.971799556495185,44.1137471977307],[7.971759085212958,44.113699174582564],[7.971558691418755,44.11336425911569],[7.971531404279554,44.11309520242624],[7.972159864368275,44.11289248757448],[7.972350322566686,44.11288274346782],[7.972429051618103,44.11287871593992],[7.973319935632057,44.11283313577026],[7.973838979108489,44.112757153350096],[7.974247017777748,44.11269741858731],[7.9746480913187385,44.11261752271782],[7.974754710957022,44.11259642249925],[7.974797749868633,44.112587610096284],[7.974852061753963,44.112576487759874],[7.975024481838365,44.1125423395773],[7.976136985258877,44.111984503019336],[7.9764934552484545,44.11151049618746],[7.976525729244221,44.11148247540669],[7.976756053159433,44.11128426417823],[7.97690711002455,44.11115435819953],[7.977070938658023,44.11112499264744],[7.977175855934866,44.1111063895356],[7.97806354960464,44.11094898416196],[7.979328247788035,44.11079823430339],[7.980131780900868,44.11073125787051],[7.980252963806562,44.11072065251026],[7.980308396476779,44.11071584528224],[7.9804084560605775,44.11070727141797],[7.980493708409861,44.11069960700129],[7.981759342658025,44.110351758379224],[7.982202820473294,44.11015375131449],[7.983420931738882,44.109610292907114],[7.983748163260998,44.10952586348616],[7.98450032978739,44.10933179055574],[7.985724106924636,44.10923440069638],[7.985947839741291,44.109216475238085],[7.986025270449117,44.10921138062465],[7.987277478589597,44.10914936450975],[7.98878102756649,44.10891060135072],[7.989187851547877,44.1087619993265],[7.989724871904993,44.108565839515265],[7.990050262611792,44.108444675614585],[7.991026551498706,44.1082093619432],[7.991455520520169,44.108105964769784],[7.992854180640515,44.1081543155488],[7.993283255564165,44.10814686413737],[7.99456656460197,44.10812437753558],[7.995203126437994,44.10800905503082],[7.995356427292554,44.10798131726354],[7.995656428109198,44.10792689588558],[7.995695388243235,44.107903768616836],[7.996564788313015,44.107394412312104],[7.996604980992863,44.1073739461268],[7.9972041834214185,44.107071879182925],[7.997648545545467,44.10684786685117],[7.997686733626556,44.10682035382129],[7.998382375035053,44.10631430087438],[7.998578678482385,44.106244068403974],[7.999413478693929,44.1059453936064],[7.999727106030065,44.105847422971145],[8.000126540255215,44.10572256330604],[8.00061856019226,44.10556880405327],[8.001463263886837,44.10509868983203],[8.001501100515927,44.105070059637214],[8.001938119394696,44.10473577316112],[8.002341772980744,44.10442700697414],[8.002357850246316,44.104399205636824],[8.002743735580147,44.10373193977818],[8.002826086059319,44.10358953946148],[8.003363378420113,44.102765783037874],[8.003404519029774,44.102740029668816],[8.003447556683449,44.10271291172689],[8.003619626042942,44.10260687357989],[8.003894820624526,44.10243728157171],[8.004323779538238,44.10237308393772],[8.0046338394908,44.10232667919515],[8.004787972769549,44.102339263578266],[8.005619987031801,44.10240718742493],[8.005993703917127,44.102437695480745],[8.006878125593566,44.10258929538529],[8.007734787822711,44.10284883911559],[8.00864560834942,44.10322576508693],[8.009242790478405,44.103573464712866],[8.010180932077441,44.10376943651839],[8.010230601120954,44.10377981190883],[8.010853420817558,44.10409319935269],[8.01096823185049,44.104239165441996],[8.011315268378729,44.10468036723193],[8.011671187412569,44.10508753758477],[8.012134708233809,44.105389053571116],[8.012666200843807,44.10558372238232],[8.013078840963564,44.10586833132743],[8.01310099489293,44.10614518956431],[8.012944067755477,44.106738637523975],[8.012972679557157,44.10723372032038],[8.01297991957056,44.107264941481546],[8.012995732674378,44.107332050923986],[8.013112827536354,44.1078289550671],[8.013225869302348,44.10807435751524],[8.013262701477608,44.1081543161046],[8.013390240622181,44.10843419206599],[8.013952897518124,44.10913013293909],[8.014917469795371,44.109947024961635],[8.015409733399418,44.11049462546807],[8.015570494975053,44.11067563917999],[8.015593535655837,44.110701581737146],[8.014792772873214,44.11078278847379],[8.014050640077228,44.110765277556844],[8.013922997044666,44.11076224013921],[8.013191656665262,44.110904362312084],[8.012251496745906,44.11103032771196],[8.01170101237484,44.11095371323082],[8.01149544852911,44.11092510216647],[8.01097493619071,44.11121842852888],[8.010875309573766,44.111341427821834],[8.010730861479619,44.111519762052886],[8.010707087735836,44.11154925532782],[8.010636171047677,44.11165227713703],[8.01038291165385,44.112020184395725],[8.010361870600137,44.112050643912966],[8.010031807946325,44.1124947874831],[8.010005745364937,44.11252989412924],[8.009883829994294,44.11269395423412],[8.009863459643158,44.11272133674317],[8.009162546074649,44.11348953503315],[8.008502457329767,44.11415004832599],[8.008071528262615,44.11427152507075],[8.006995564783384,44.11383983780315],[8.00595308237409,44.1134166787286],[8.005523529913374,44.11363796647928],[8.005446952891766,44.11367730142565],[8.004541105266425,44.11414259360688],[8.004198730968424,44.114234574521916],[8.003827865487093,44.11433420994801],[8.003778181168954,44.114643896609174],[8.003770132515905,44.114694067445505],[8.003686421099168,44.115260546056966],[8.00310836870716,44.11601806408298],[8.003085895597422,44.11604761301237],[8.002754930434827,44.11653650964993],[8.00269058100383,44.11663158974253],[8.003121075893208,44.11695414887552],[8.00401985059161,44.11691113604762],[8.004078544861834,44.11690962292055],[8.004405382312159,44.11690119700798],[8.005057012787224,44.1168843947966],[8.005105171885148,44.11688704343637],[8.005508445775371,44.116909141207124],[8.005887518580117,44.116930060903265],[8.006140932003412,44.116943889998204],[8.006231961812071,44.11694887114105],[8.006380702617706,44.11695664822213],[8.006418645830255,44.11695873928103],[8.006633439552127,44.11697946461778],[8.007902678427717,44.11709862918054],[8.008427936780087,44.117232676561976],[8.00878364063445,44.11732345093336],[8.009066152852363,44.117701805033],[8.00908095819143,44.117769653427565],[8.009207254669061,44.11836095524758],[8.009322319474103,44.11855952200426],[8.009547237315875,44.118948723993384],[8.009942260712116,44.119362749889575],[8.010076289504946,44.11950329292886],[8.010125148014293,44.119554688354626],[8.010191882584424,44.119563704465726],[8.010654815207955,44.11962610625156],[8.011132407358861,44.119690773137265],[8.012101473532912,44.11957037372595],[8.012352636738196,44.1195391666991],[8.012399653726339,44.11953332490325],[8.012888231428638,44.119657891791356],[8.012725861416765,44.11991811127989],[8.012620424369508,44.120087861622096],[8.012601186768114,44.12011866481586],[8.012471057827684,44.12029321551409],[8.012413207792665,44.12037080082621],[8.01200984615031,44.12091176091665],[8.011988057255298,44.12094090334132],[8.011587945053973,44.121423082401485],[8.01142998103233,44.12161346727729],[8.011349936221253,44.12170139379414],[8.011164570820617,44.12178715809416],[8.010504652463734,44.12209248273406],[8.010005818574433,44.1221801563083],[8.009848163944207,44.12220777688149],[8.009015719570112,44.122354136453694],[8.008134302040213,44.12270888304653],[8.00761511672534,44.12320641806152],[8.00723883102281,44.124029192392406],[8.007224703602896,44.124060532445974],[8.007020998562655,44.124756473923945],[8.007011666969852,44.12478794836739],[8.006881345707958,44.12510358649113],[8.006646892973198,44.12567142967485],[8.00663423604118,44.12570120055886],[8.005939176652555,44.12616054319951],[8.004671327369033,44.12643760544892],[8.00364419170436,44.1263946335886],[8.003470743031002,44.126387500822396],[8.003314463129033,44.12638113431106],[8.003275511564157,44.12637956281489],[8.003115279227218,44.12636859959073],[8.00296851595541,44.12635847125793],[8.002819599125115,44.12634759827474],[8.002680794877806,44.126337806443935],[8.001691743791888,44.12626754639618],[8.000172964503134,44.12642532309718],[7.998984338266078,44.12649594763996],[7.998112313370935,44.12647816627222],[7.9974349609142665,44.12646434942341],[7.996047636795853,44.12647017655315],[7.994894529931632,44.12665810412103],[7.9940141200308314,44.12691827630983],[7.992789601371501,44.127110289431535],[7.992742328394914,44.127123371213784],[7.99270175669252,44.127134890578496],[7.992618423807825,44.127158342113525],[7.9917327043726525,44.127409022544654],[7.991240392819612,44.127906396593154],[7.99121320840833,44.128013325072814],[7.991137988107224,44.12833191287312],[7.991055767299356,44.12868323315674],[7.99104233358792,44.128740289719],[7.9910349469183375,44.1287713766623],[7.991030006043529,44.12880777462296],[7.991025213386848,44.128840091813714],[7.990889077778047,44.12984357395666],[7.990923468124754,44.1299942078651],[7.990964821571682,44.130185345903854],[7.991042601310249,44.130536291176945],[7.991087685758937,44.130645992523114],[7.9911997674772,44.13092557557459],[7.99137813403972,44.1313673594443],[7.991741279154274,44.132106187080296],[7.991461013575076,44.13227984467389],[7.99083105176063,44.132414851797904],[7.99068844288539,44.13244562997257],[7.990634365740681,44.132456969842465],[7.989641958914499,44.13273842843563],[7.9887685992899415,44.13320619584028],[7.98851564193632,44.13334167731684],[7.9882641735321736,44.133319382189505],[7.987720721077097,44.13327119728926],[7.986457586224697,44.13331362781771],[7.985698460153678,44.13337571539674],[7.985268936366921,44.13341084349963],[7.985142137863827,44.13341836202633],[7.984751208230068,44.133441543402014],[7.984508792225162,44.13345581964811],[7.983416965151416,44.13352041522052],[7.982028642222301,44.13357083714643],[7.980355527152524,44.13350333916176],[7.980066106847232,44.133510557319845],[7.979591901669452,44.13352370503884],[7.979186907880751,44.13353493307075],[7.97909720129439,44.133537423001016],[7.978931534264882,44.133542027638235],[7.9789001462076685,44.13337131459925],[7.978854955636313,44.13312555579356],[7.9787784344195165,44.13270936618372],[7.97823544217624,44.1319842467721],[7.977719487812037,44.131412445421724],[7.977693325458169,44.131434704128964],[7.977194030732525,44.1314617461832],[7.976469066624188,44.13163982416254],[7.975887191415643,44.13178766541059],[7.97528914570644,44.13201188180263],[7.974838735864152,44.13217476910269],[7.974740017611237,44.132209518931965],[7.974627472168594,44.13228625098417],[7.974270770732627,44.1325294380397],[7.974178287139445,44.1325695885941],[7.973781281659037,44.13274633639514],[7.973748390963358,44.13275883004226],[7.973717346689304,44.13277204072116],[7.97311552920068,44.133054734743304],[7.972379440823044,44.133264197181106],[7.971996742015893,44.13323374235078],[7.971520384239364,44.1331979396204],[7.971094016143939,44.13322305821475],[7.9709901195389925,44.133229176427484],[7.970669531140728,44.133334339806225],[7.970586585043205,44.13335999441648],[7.970528144600612,44.13337807389468],[7.970391057125058,44.133421866362724],[7.969949607347363,44.133489906403824],[7.969246618718851,44.13341154571765],[7.968521946904317,44.13343651601673]]]}}]}
