{"type":"FeatureCollection","metadata":{"code":"004226","referenceDate":"2026-01-01","sourceDbfExportDate":"2026-02-18","upstreamArchiveUrl":"https://www.istat.it/storage/cartografia/confini_amministrativi/non_generalizzati/2026/Limiti01012026.zip","sourceManifestSha256":"70ac8256c4785dc6ed2814c32b6965ae76f9161b51abaa1660059e1c6cbd8ca6","license":"https://creativecommons.org/licenses/by/4.0/","attribution":"Istat, Confini delle unità amministrative a fini statistici al 1° gennaio 2026, versione non generalizzata.","modifications":["Converted from WGS 84 / UTM zone 32N (EPSG:32632) to RFC 7946 WGS 84 geographic coordinates.","Converted from shapefile to per-municipality GeoJSON without geometry simplification."]},"features":[{"type":"Feature","id":"004226","properties":{"code":"004226","name":"Torre Bormida","alternativeName":null,"regionCode":"01","regionName":"Piemonte","territorialUnitCode":"004","territorialUnitName":"Cuneo"},"geometry":{"type":"Polygon","coordinates":[[[8.168263381248876,44.56614948756894],[8.168228499970683,44.56663536569493],[8.168223421034634,44.56666709256791],[8.168063803375581,44.56756142630629],[8.167831563225008,44.56778917896026],[8.167711786072221,44.56790547310998],[8.167384530068922,44.568300625208614],[8.167354660834281,44.5683350215192],[8.167328854106822,44.56836192757433],[8.167304317628707,44.568386568829766],[8.167040488345933,44.56867028280581],[8.166424319926623,44.569156416766624],[8.16628576854251,44.56926794592661],[8.165619116358895,44.56978971731005],[8.164895829085118,44.5703335816135],[8.16442436769095,44.57074425056473],[8.163795050955907,44.571212279577715],[8.163147298285242,44.57172967703053],[8.162587746968667,44.57221620487062],[8.16231509712765,44.57241686170083],[8.162116463872316,44.5725655902468],[8.16199622381894,44.57265299640394],[8.161746176448306,44.57277734792992],[8.160956788083695,44.573172020473315],[8.160219372584471,44.5735176995289],[8.15932350243504,44.57382168057049],[8.15853657394547,44.57432452857229],[8.157761469464921,44.57471493860595],[8.157295401913608,44.57501757576367],[8.156551673216551,44.575680706428884],[8.156528943045284,44.57570079886816],[8.156294016541588,44.57583883585624],[8.155810505525103,44.57612292144155],[8.15510305679905,44.576432782046034],[8.15455597273595,44.57667630796051],[8.153723420225479,44.57700772583854],[8.152997276819448,44.57713737420661],[8.152226511296657,44.57746926457445],[8.15183084410744,44.57763736946163],[8.150991887278456,44.577919215517085],[8.150315737385487,44.57796821054709],[8.149274108751825,44.578196896216255],[8.149046616861582,44.57824684106742],[8.148533650730982,44.57849508904098],[8.147583723955945,44.57901464010351],[8.147381231900763,44.5791279176996],[8.147067423453228,44.57930336456115],[8.146383271475576,44.579842905227316],[8.146156429531512,44.57995825017398],[8.145648270257912,44.5803360347908],[8.145424196839828,44.5813346514404],[8.145049636288656,44.581912507710754],[8.144784970691145,44.5824225005665],[8.144482946834396,44.583002076466784],[8.144211726953207,44.58332413245528],[8.142645200222107,44.58360495752932],[8.142323668457525,44.58351701166299],[8.142119866426224,44.58345695972199],[8.14185366367229,44.58343696451756],[8.141262017718404,44.583274973212056],[8.140779454159022,44.58295175600083],[8.141643165497493,44.5824406147382],[8.142653929644073,44.58196657311604],[8.142574241445757,44.5818174270125],[8.14257834317781,44.58153837444731],[8.142561897589479,44.581263686895014],[8.142291390325974,44.58118963864478],[8.141864493876511,44.5809883607115],[8.141492630370692,44.580846034125045],[8.140941823755169,44.58066633393664],[8.140472705995217,44.58052776921131],[8.140207951340965,44.5804087581425],[8.139717630771495,44.58031953494138],[8.138553546028096,44.579997397645954],[8.138513704647098,44.57998637054686],[8.138190773114395,44.579677843834176],[8.137806509745108,44.579337358569],[8.137712273884517,44.579199208359306],[8.137525661618708,44.578925618911825],[8.137486259721138,44.57882179800796],[8.138043540990914,44.57853342616687],[8.138517044975078,44.57837493543621],[8.138460725745947,44.57817872432314],[8.138631732022143,44.57767363089522],[8.138734078494721,44.576792149076944],[8.138805523256051,44.57652510955049],[8.138945632086454,44.5760058051038],[8.139165069261644,44.575545320814165],[8.139219400277868,44.575431927785154],[8.139539042586067,44.57498029937269],[8.140004229753702,44.574578098287354],[8.140040932064352,44.5745264531584],[8.140424227692343,44.573987105863274],[8.140468543364035,44.57381187909412],[8.140541718497433,44.573519850284896],[8.140177085953551,44.57278339937849],[8.140029441728233,44.57238618558677],[8.14000398763014,44.572289741851584],[8.139911320091988,44.57194869397689],[8.139900326814807,44.57190807883371],[8.139580987768086,44.5713565209011],[8.139567020578914,44.571322873826546],[8.139414155715942,44.57095464235623],[8.13921015964277,44.57066954230847],[8.139062863515765,44.57030381991023],[8.138781512427878,44.56976604174469],[8.13870250985391,44.56925230184342],[8.138509280508096,44.56863867532642],[8.138336132342552,44.568185373177485],[8.138303913362217,44.568101490588326],[8.138174991110425,44.5678934140057],[8.138004091160157,44.56761759280818],[8.137333092282242,44.567405459409045],[8.136794293199587,44.567167320768846],[8.13659053755283,44.56707882265921],[8.13622415971113,44.56691992108761],[8.135843124258825,44.56666046726736],[8.135806396250834,44.566531082222966],[8.135669221291002,44.56604698101596],[8.135639787920175,44.56534905966182],[8.135592507077876,44.564822062412766],[8.135199644563537,44.56467053902291],[8.134953020008172,44.56477271336881],[8.134783496003047,44.56484294582928],[8.134264971975442,44.56480750723289],[8.133739703774264,44.56466847083674],[8.133473169653756,44.564490908957346],[8.133162950259566,44.56436701787316],[8.133086123541812,44.564385958657034],[8.132613937239098,44.56450237893885],[8.132101834746319,44.56451200308829],[8.131658681017479,44.56438259811346],[8.131411809265124,44.564286193505154],[8.131145681895033,44.564356245774064],[8.13100169516501,44.56439561423937],[8.13052020588428,44.56422538703803],[8.13022327544629,44.564116811631514],[8.130165578700115,44.56409665020904],[8.129924252065907,44.563919272019675],[8.129920940126082,44.56388092271984],[8.129897399480214,44.56360847683608],[8.129900857177525,44.56311337364411],[8.129909917925263,44.56298291125955],[8.12992991770674,44.56269497767965],[8.129888860071134,44.562455144349734],[8.129871273407003,44.56235243020789],[8.129714774968573,44.56221411010225],[8.129655325512385,44.56216173004957],[8.129230879819849,44.56201896237468],[8.129133975846278,44.561631115149964],[8.129182300931008,44.56121286797005],[8.129230702766288,44.560817114332316],[8.129171232691665,44.56042505296949],[8.12907501257193,44.56012272115429],[8.128929833365982,44.55996616143695],[8.12881438916237,44.559841672378795],[8.12872333825247,44.559404347771405],[8.128645980464546,44.5591291897706],[8.128656789440337,44.558800661762646],[8.128837471816846,44.55837443067723],[8.128935731501079,44.55790703730536],[8.128530546320778,44.55778647652754],[8.128004707593508,44.55777178029751],[8.127892318629614,44.55776854362761],[8.127310113704725,44.557602051983835],[8.126772278517587,44.557467403965646],[8.126512634403156,44.557384405718956],[8.12613873934825,44.55720598641871],[8.125461667101348,44.55701624297697],[8.124905714240299,44.55709301866346],[8.124311911343176,44.55709746614195],[8.123856429126011,44.55698145002871],[8.123330612485566,44.55680635543987],[8.123088922584806,44.55675377380322],[8.12251566401869,44.556629053485686],[8.122673873720506,44.55581781568745],[8.122683234231532,44.555776731252905],[8.12269338546486,44.55572114878297],[8.122639705389487,44.555207591991106],[8.122499435198831,44.554985968290566],[8.122420239159393,44.55480980069335],[8.12269040692241,44.55430422619707],[8.122532007792575,44.554180486407034],[8.122659338812186,44.5539023997948],[8.12288936843685,44.55357106000796],[8.12258591051067,44.55331665667695],[8.12222094056115,44.55309780553685],[8.121649130714864,44.552976368888],[8.121056156075444,44.552926801824825],[8.12031871890076,44.5529346198375],[8.119730704540762,44.55294046459366],[8.119042983484752,44.5529473008621],[8.119358639427924,44.55284598197287],[8.119548644394389,44.5527846536957],[8.1200463018499,44.55252739893541],[8.120152841346446,44.55237519148456],[8.12021381995341,44.55231834338707],[8.120473693797928,44.55207606801085],[8.120765052568506,44.5517992258066],[8.120846571032699,44.551729477195686],[8.12097906389908,44.551616325839916],[8.12156471982025,44.55128772432976],[8.122277039640782,44.55098712730149],[8.122920341830515,44.55074899342395],[8.123600911049211,44.550412113974865],[8.123865041357433,44.55019359526728],[8.124469672746542,44.54985612891964],[8.124897552333247,44.549553312911954],[8.125495677253573,44.54922930687206],[8.126024368351123,44.5488912507113],[8.126317544240766,44.54828132451208],[8.126402672800229,44.54769231372741],[8.126481246734793,44.54714826311316],[8.12655251300437,44.54674004124719],[8.126597395193672,44.5464829570939],[8.126605487342545,44.54627712980369],[8.126618986751158,44.5459339682642],[8.126654530929178,44.54573076178848],[8.126692113314515,44.54551591337704],[8.127184415643418,44.54554788567377],[8.127342387121454,44.545519051985124],[8.127543312065958,44.54548232412053],[8.127683975564056,44.545455977501284],[8.128542285212337,44.545250962945396],[8.129046557264013,44.54507025402212],[8.129690885558544,44.54499415309021],[8.13033452731494,44.544832493107336],[8.130844329906836,44.54451680140329],[8.132063254571856,44.54445394143522],[8.132998947096082,44.54448815553061],[8.133846076818577,44.54453059122275],[8.134288837532706,44.54459696762329],[8.134940203437473,44.544655922655416],[8.135376290466677,44.544668224008156],[8.13565725163619,44.54476369990832],[8.135781407832077,44.544806322562444],[8.136615553398,44.54479463718005],[8.137203222612744,44.544799078367234],[8.13726609527103,44.54478500238468],[8.138000901179188,44.54462054700447],[8.138065246589015,44.54460832903698],[8.138497371360526,44.544592785744086],[8.138628169487012,44.54459556115221],[8.13882615182635,44.54459976220168],[8.138912149358024,44.54459591111953],[8.139274951678726,44.54460314549695],[8.139578152534623,44.54458293531818],[8.139653369278342,44.54449797158153],[8.139806721190824,44.54430557556541],[8.140080953280146,44.54431467268396],[8.14015760617186,44.544317215091546],[8.14046920106713,44.544392092109064],[8.140505702035512,44.5444008625961],[8.140702278730926,44.54451486389961],[8.140860676734436,44.54449806833265],[8.140490096752762,44.54487337513119],[8.140182577939,44.54521316477212],[8.140002156674608,44.54568444341856],[8.139884209170372,44.54602565866091],[8.139818700820648,44.546601328940646],[8.139917390415011,44.54724575370636],[8.140085509910396,44.54747536948805],[8.14011290939909,44.547512791743074],[8.140770159065557,44.54749523188129],[8.140790201762622,44.54765742632981],[8.140862146178161,44.54792805262666],[8.140964092212924,44.54793553814813],[8.141135282617391,44.54794810236661],[8.141679494953621,44.54804672396899],[8.142178801629356,44.548041476406674],[8.142602851888205,44.54812567354715],[8.143159714884371,44.54821988175411],[8.143343629532481,44.5482617876528],[8.143650379115327,44.54829559464091],[8.143590771171148,44.54844368106967],[8.143580959310578,44.54889823190143],[8.1434239863217,44.54927288268767],[8.143319623646965,44.54952195778789],[8.14325180673288,44.549687697791164],[8.143095604273006,44.55006943081534],[8.142618057111653,44.55049346043335],[8.142262013038739,44.55073544667059],[8.142089568118589,44.550849608213326],[8.141329333332493,44.551020609076595],[8.141256673937583,44.551036901257184],[8.14039763332701,44.55112946481387],[8.140166813552545,44.55116524387315],[8.139575272665974,44.55126275062919],[8.139469666361192,44.55128002590479],[8.138488598914602,44.5515043901921],[8.138365111357492,44.55153276572615],[8.138331042829382,44.551613215370246],[8.13814088906767,44.552062232864905],[8.138121262322914,44.55221235735611],[8.138118364030847,44.55223846108174],[8.138032478509356,44.55290314685703],[8.13792334970349,44.553392956772086],[8.13783915958042,44.55348421904479],[8.13757796543521,44.5537673958071],[8.137547952082077,44.553799365213386],[8.137322219818017,44.554101150195855],[8.137256104544372,44.55418914196815],[8.137192543589263,44.554337211243535],[8.137108117074447,44.55451211446956],[8.137144909674612,44.55479147710297],[8.137267609183695,44.554923116619925],[8.137502473403256,44.55501024617043],[8.137648553429164,44.55508336300137],[8.13788884675498,44.55511668631603],[8.138234690325183,44.55526134511822],[8.138459400191486,44.55535505170596],[8.13892138714136,44.55545756283262],[8.139118412395135,44.55544762295848],[8.13946476572566,44.55543014840735],[8.140146565088271,44.55532726133489],[8.140218891922672,44.55533171479377],[8.140646206091125,44.55535803166795],[8.140915956106932,44.55546768465339],[8.141007214327598,44.555504779451894],[8.141245313860216,44.555666704037044],[8.141283673028664,44.55569181267098],[8.141451342272875,44.55580521610485],[8.14154950705862,44.555918213902025],[8.141621527147233,44.55600028379238],[8.141781589662063,44.556185348874074],[8.141974840235555,44.55640780514771],[8.142067811919848,44.556633566196965],[8.142132894002458,44.55679160078617],[8.142245715128595,44.55699426063179],[8.142305520128673,44.55710427786484],[8.142352503320597,44.55718937587919],[8.142431563333803,44.55737902618937],[8.142435720107493,44.55745006279126],[8.142447910802748,44.557658210953306],[8.142457789956147,44.55789686509803],[8.14247293104438,44.55803737268318],[8.1424770342904,44.55806954010765],[8.142485058593088,44.558131449185005],[8.142491067418442,44.5582031892817],[8.14258788296741,44.558469505744654],[8.142725683698108,44.55872107831111],[8.142747327046884,44.5587620901082],[8.14276023615502,44.55880315157456],[8.142795112671191,44.558914356997846],[8.142814086667938,44.55897621048891],[8.14285180316252,44.559097082601454],[8.142885112915533,44.55914041097474],[8.142968656168597,44.559241024498746],[8.14307284749322,44.55937810400862],[8.143127922889194,44.55945039496328],[8.14317616313171,44.55951371032578],[8.143442844808193,44.55973627555491],[8.143589571654271,44.559926429770876],[8.143950479672643,44.560028162462515],[8.144525456484168,44.55996945351081],[8.144993060647748,44.55995945940154],[8.145328415366269,44.55997996486843],[8.145790246984417,44.5600419379453],[8.146270217232718,44.55999600536794],[8.146694285798139,44.55990971394414],[8.146889021167901,44.559870085376474],[8.147206795045951,44.55970778480182],[8.147278991215602,44.559669869243166],[8.147348178555006,44.559634319566655],[8.147457033941647,44.559574956093094],[8.147613361785407,44.55948891291061],[8.147871965006397,44.55935054609281],[8.148162235449801,44.559131816341136],[8.14881821760751,44.55909678162446],[8.149462532146686,44.55908357129506],[8.149916377924082,44.55888439798137],[8.149958682381405,44.558547109635896],[8.149470270648221,44.55833642320829],[8.149340216728657,44.558168948617755],[8.149266353547027,44.55807383591508],[8.149235109685037,44.55803819770818],[8.1490053175834,44.55777547299615],[8.14907793489797,44.5572264461121],[8.149083342179951,44.55718571537564],[8.149145675909468,44.55703784196521],[8.149239081525923,44.55681326276801],[8.149348878165101,44.55662044345261],[8.14959642946051,44.55618575487571],[8.149666952244553,44.55603798534448],[8.149712375225816,44.55594506907088],[8.149786526947038,44.555799405181034],[8.1498983612582,44.55578348562039],[8.150368844842367,44.555714546303534],[8.150475618027633,44.555722025928745],[8.150653926982105,44.555734593707776],[8.150896993786557,44.5557500193803],[8.151056443650141,44.555760199262764],[8.151092323631868,44.55576334860543],[8.15117186495192,44.55577024434805],[8.151608980941846,44.555809097678406],[8.151868657591669,44.55576493933779],[8.151970828029976,44.555747871067666],[8.152040155332568,44.55573588930381],[8.15217116379939,44.55566958271184],[8.15243528406588,44.555536169047244],[8.152851497228792,44.555431213186566],[8.153312908737322,44.55538513129925],[8.153749413687875,44.555482895816695],[8.153946548433067,44.55564639893151],[8.154081589572318,44.55583787384824],[8.154118851879502,44.55589076021371],[8.154365790657735,44.55597365025719],[8.1544560285408,44.55622295164752],[8.15448170608698,44.5562940301254],[8.154496905315927,44.556331726758046],[8.154517600911952,44.55638305082167],[8.154578188039169,44.556533302809754],[8.154693610259182,44.55676823769339],[8.15476576962112,44.55716487677184],[8.154938710605354,44.5575307515124],[8.15515619923068,44.557892477621834],[8.155498362867723,44.55801202780496],[8.15596654790132,44.558069509920664],[8.156517044328838,44.55817709981735],[8.157017267863262,44.55833384294989],[8.157593344507433,44.558441616464954],[8.15803293981185,44.55846320367791],[8.158130860437407,44.55846809284869],[8.15839319066585,44.558596359928565],[8.158486028743305,44.55864175279028],[8.158642659953248,44.5586748102474],[8.158834488093877,44.558716992501324],[8.158878561318357,44.55872668432132],[8.158917336535913,44.558735203678225],[8.159093656723348,44.558772264934596],[8.159434292505912,44.55880881141248],[8.159564575225549,44.5588216815808],[8.159615718483883,44.55882693734332],[8.159707380580036,44.558835849188085],[8.160132936577021,44.558821349693],[8.16021575965064,44.558830070991306],[8.160769731285008,44.55889263668104],[8.161154305743214,44.55877392321138],[8.161811134076174,44.5587112297679],[8.161843918805628,44.55872192961024],[8.16203815223939,44.55878531717697],[8.162121745048003,44.558812539501226],[8.16230539611252,44.558883277926974],[8.16241954176707,44.558927246619916],[8.16254055023071,44.558995779626514],[8.162781336893282,44.55913246982787],[8.163254643603878,44.5590278946402],[8.163512867262266,44.55893473040932],[8.163702349149927,44.55886913237308],[8.163958489153735,44.55882078126598],[8.164207366420989,44.558773800646094],[8.164280106017559,44.558842908525904],[8.164385580461254,44.5589416484928],[8.164427231544815,44.559000912220164],[8.164601335961084,44.55924934441458],[8.164635375682472,44.55929884757512],[8.164651303977374,44.5593293109745],[8.164685150473835,44.55939540451321],[8.164728848607608,44.55947832304705],[8.164749893507416,44.55952063437453],[8.164844187438502,44.55969672446746],[8.165331188564387,44.5600378699018],[8.16563619389659,44.56017946076665],[8.165952675253662,44.560325844787606],[8.16600280225901,44.560347809008015],[8.166100607978276,44.560362596973306],[8.166656567532335,44.56044367147124],[8.167127668315938,44.56090657766411],[8.167187217852813,44.5609657746358],[8.16730193395335,44.561078961829516],[8.167955105376603,44.5612993716684],[8.16876573523398,44.56142750207833],[8.169277090737626,44.56153405682387],[8.169239360793041,44.56163164609232],[8.169108759796607,44.56196946401131],[8.16902313599327,44.56240095342685],[8.169058807770643,44.562797337427156],[8.16916659534472,44.5630771861031],[8.169131378096782,44.5632751537012],[8.16909942472362,44.5634548013258],[8.168938052124535,44.56392626644562],[8.168820196000137,44.56427200890417],[8.168646392139522,44.56478838616766],[8.168263381248876,44.56614948756894]]]}}]}
