{"type":"FeatureCollection","metadata":{"code":"004225","referenceDate":"2026-01-01","sourceDbfExportDate":"2026-02-18","upstreamArchiveUrl":"https://www.istat.it/storage/cartografia/confini_amministrativi/non_generalizzati/2026/Limiti01012026.zip","sourceManifestSha256":"70ac8256c4785dc6ed2814c32b6965ae76f9161b51abaa1660059e1c6cbd8ca6","license":"https://creativecommons.org/licenses/by/4.0/","attribution":"Istat, Confini delle unità amministrative a fini statistici al 1° gennaio 2026, versione non generalizzata.","modifications":["Converted from WGS 84 / UTM zone 32N (EPSG:32632) to RFC 7946 WGS 84 geographic coordinates.","Converted from shapefile to per-municipality GeoJSON without geometry simplification."]},"features":[{"type":"Feature","id":"004225","properties":{"code":"004225","name":"Tarantasca","alternativeName":null,"regionCode":"01","regionName":"Piemonte","territorialUnitCode":"004","territorialUnitName":"Cuneo"},"geometry":{"type":"Polygon","coordinates":[[[7.531567180430763,44.5276611957822],[7.53118898030532,44.527687840877114],[7.53084025542566,44.52771486304588],[7.530773691850811,44.52771850614033],[7.53072838735931,44.52772242003392],[7.529970496911803,44.527771188317395],[7.5294404656786,44.527782357289865],[7.529157616357076,44.5278012254305],[7.528570522740043,44.52782967049673],[7.528333916774337,44.527840116340734],[7.5282673537432,44.527843775985566],[7.52806612236913,44.527854678090414],[7.5280265306303855,44.527849669130674],[7.52783457990939,44.5278204343397],[7.527822122296173,44.52748694268387],[7.527828652938228,44.52592556791633],[7.5277706029542735,44.524443415997595],[7.527791180220149,44.52361882194405],[7.527792814171385,44.523565947173886],[7.527811560383769,44.52346658919202],[7.52781898523773,44.523429208778516],[7.527839303654073,44.52332348369489],[7.527895141034134,44.5230226272165],[7.527957205841321,44.52217137533161],[7.528007609092013,44.52148913689497],[7.528010932959644,44.52144279729016],[7.52804864873258,44.52091348494719],[7.528117621624541,44.52057226501044],[7.528176568492891,44.51992387290773],[7.528204768809013,44.51961798301868],[7.528211815829219,44.51954725193275],[7.528333706731927,44.51900800589234],[7.528367331945975,44.51872998326521],[7.528377528624148,44.5186297947175],[7.528442870325599,44.51799992027724],[7.528456752918395,44.51785336882268],[7.528437637391617,44.51729945316579],[7.5283910576873545,44.51643462223592],[7.528353407075368,44.51605602351981],[7.528359296035902,44.515808597976395],[7.528249134379705,44.515469991576076],[7.528113626771382,44.51505549199632],[7.528084200694422,44.514967598939144],[7.527879414688914,44.51449444779429],[7.527667173024224,44.514005122300105],[7.527579548787605,44.5138048972627],[7.527497755039665,44.513672680371144],[7.527047717480012,44.51295122108788],[7.526811965212077,44.512572158386114],[7.526703890321519,44.51239666823635],[7.526826213350148,44.51230019588777],[7.527019362645071,44.51210208611395],[7.527054748278245,44.512064473974775],[7.5272319734248745,44.51176535131581],[7.527297207707311,44.51159983547641],[7.527290362924923,44.511458399373446],[7.527288091286947,44.51141047600476],[7.527374352123911,44.511253752289775],[7.527620517715603,44.51080696896901],[7.527693979646853,44.510673508453536],[7.527934429648045,44.510236270946294],[7.528325934150627,44.509525735501654],[7.528610533236023,44.509009204761185],[7.528653504156497,44.50892971499381],[7.528708199640498,44.50878600013108],[7.528773859482234,44.50861331373466],[7.528907663227092,44.50825796636923],[7.528926587686567,44.50821083462001],[7.529060171833675,44.50787934484724],[7.529099982368965,44.50778074657243],[7.529203705225668,44.50752401168786],[7.529152727852011,44.50737390837618],[7.529023788349809,44.507425856485156],[7.528926085358577,44.50742097070138],[7.528828662288299,44.50741571032896],[7.52860135041957,44.50733666595153],[7.5282151723378705,44.50715923537743],[7.528010652607757,44.50706436253206],[7.527966005716004,44.50704333297799],[7.527653394533117,44.50688576518794],[7.52759828101717,44.5068603395811],[7.52672197511285,44.50628939525517],[7.526572004642834,44.50618884071032],[7.526024217422279,44.505821551687674],[7.525220363360769,44.50530117156295],[7.525193579841204,44.5052839366734],[7.524718634715388,44.50505748423323],[7.524619556316413,44.50501119899414],[7.524518362595701,44.50495587017814],[7.523956303925617,44.504644801001724],[7.523634128399297,44.50446678043163],[7.52358583373637,44.50444034451541],[7.523050669624279,44.50414858447567],[7.522667625488534,44.503941656784036],[7.521803989042222,44.50344422803544],[7.521675828745813,44.50337053329026],[7.521533701372622,44.50328893688808],[7.521344423028396,44.50318069408187],[7.5212103769875815,44.50310315498558],[7.520456663447555,44.50270217869577],[7.519689396554809,44.50234113305369],[7.519069269482082,44.50203989565879],[7.5185927171231,44.501903795183644],[7.5179478938364,44.501769390860865],[7.517335061852121,44.50170741234103],[7.516484179002116,44.50170087974051],[7.515721863702271,44.50167296019022],[7.515101040474664,44.50164687463867],[7.514739404901272,44.50161363038274],[7.514359827140657,44.501578735435196],[7.515068436382517,44.500269060848005],[7.515714747558875,44.49902610349268],[7.5160757684780615,44.49837175108811],[7.516302262408162,44.497962439671255],[7.51656496344765,44.49799254554928],[7.516893795335486,44.49801722227832],[7.516942307728119,44.49802025785119],[7.517509119587092,44.49690468845767],[7.517711801924144,44.49650680537951],[7.517802120923208,44.49632951518513],[7.517890303584536,44.49612506944979],[7.517938524310452,44.496012112252046],[7.517244651994029,44.49594437569919],[7.517025112445683,44.495885639863616],[7.516520337197041,44.49575135985137],[7.516626487877881,44.495562959883074],[7.516568340576506,44.495534914738336],[7.516059215249148,44.49529431047826],[7.5155712820799465,44.495083521683554],[7.515532254592825,44.495066360306375],[7.515297789569149,44.494965026346144],[7.5150582287290755,44.49481786057153],[7.514778761557859,44.4946526452655],[7.514463269452641,44.494580558674116],[7.514235901452589,44.49450737797228],[7.514145110127045,44.494355854766006],[7.51437057333001,44.49392634861366],[7.514694841870894,44.493330434447984],[7.5152779792675215,44.49225936186399],[7.5154817368136335,44.49191043855372],[7.514842563197716,44.4916424930022],[7.514661653738795,44.491567210234585],[7.514393504065668,44.49147716219556],[7.513683918529804,44.49124082164264],[7.513523477417801,44.49118740629639],[7.5122229581168805,44.49080630873426],[7.512053524103547,44.490743612131105],[7.511895059175912,44.49068376712587],[7.511905337218159,44.49060893939435],[7.511936792428389,44.49037496285887],[7.5119962505761695,44.49000430257828],[7.512002271748025,44.48996624480417],[7.511986431872063,44.48983442828311],[7.5119789908960355,44.489777579352854],[7.5122042361000485,44.489460462828255],[7.512492291498433,44.4890279646942],[7.5125962658138805,44.48887106369139],[7.512674799983828,44.48874602301511],[7.512808045866392,44.48853653490776],[7.512894259200075,44.48841952364185],[7.513262130439108,44.48792126480988],[7.51333532629674,44.48782144808212],[7.513414378432342,44.487714759276685],[7.513465806135983,44.4876450197113],[7.514093081311211,44.48682449606273],[7.514354558390795,44.48648573960061],[7.5146287282807025,44.48612957258814],[7.514707737516952,44.48602671653904],[7.514844023846734,44.48584232176574],[7.515067446895382,44.48553983023842],[7.515392978174621,44.485094886654146],[7.515514779781496,44.484936993889654],[7.5155535714439745,44.48488624409158],[7.5156075816809835,44.484814091068756],[7.5144247846134755,44.48439360606856],[7.513387954580792,44.48403274696826],[7.512758730945588,44.48381374594429],[7.5114669208534455,44.483369296494175],[7.511298779731252,44.48333559430276],[7.509741781628457,44.48298219780459],[7.509705250480398,44.482970892622085],[7.509583821592729,44.48294289214201],[7.508427344656502,44.48262745718742],[7.507349698646118,44.48246417085732],[7.506743475606913,44.48237197004206],[7.506544466763254,44.48234177426203],[7.506587509372592,44.48226856736926],[7.5069746335552585,44.481622683046986],[7.5071424336860515,44.481390813271055],[7.507317804166637,44.481109522008865],[7.507277456588298,44.48100272415868],[7.507243121908588,44.4809104911211],[7.507558556613143,44.48029793983776],[7.507414524116167,44.480241917838015],[7.5071490248914685,44.48013865783537],[7.506358544184091,44.47985156577365],[7.505818297663465,44.479642933225584],[7.505727409965733,44.47960782811063],[7.505748629584901,44.4795765936618],[7.505676109644211,44.479550647818485],[7.505637866575577,44.47953696562383],[7.504612143334173,44.47917000959486],[7.504272790382913,44.479048602193224],[7.504102009809399,44.478996852130926],[7.504041302018117,44.47897284071556],[7.502995708027689,44.47855924685995],[7.503168597777133,44.47831393469411],[7.50318469464453,44.47820612238654],[7.503206825685217,44.47817040440573],[7.503298985296078,44.47808608228311],[7.503370479605315,44.47802288414218],[7.503484425076889,44.47792182510376],[7.50358722082349,44.47785105974608],[7.503670033665809,44.47779371834311],[7.503718556087626,44.47774456925745],[7.503772650791536,44.47769233951923],[7.504428525260066,44.4774301825389],[7.504852892069438,44.47721517455144],[7.505366421405892,44.47692481723414],[7.505803507847693,44.47659721702258],[7.505835204897386,44.47656599990108],[7.505974535304604,44.47641816659621],[7.505994694513608,44.47639596231845],[7.506075888772364,44.4762567193641],[7.506111453886003,44.47619738963557],[7.506227040700977,44.47599078008608],[7.50624459577357,44.475965269217426],[7.506376396903934,44.475768653936164],[7.506493909653766,44.47559367685868],[7.506599768114625,44.47539042191734],[7.506742086685412,44.4751212586641],[7.506819812292413,44.474972196463064],[7.506862964243687,44.474900974098965],[7.50693251233453,44.474793585508934],[7.507056210753604,44.47463489985791],[7.507162522236634,44.47450194335029],[7.507295151064796,44.47433370888155],[7.507418972658756,44.47417627851041],[7.507659372245482,44.4738712085523],[7.507712793875459,44.47380411185961],[7.507815741546503,44.47366242135976],[7.507881826365954,44.47357189848342],[7.507959608518642,44.47346590602013],[7.508045036712501,44.47331420316104],[7.508302469895062,44.47304702344652],[7.5095475834420595,44.47175763233709],[7.509702511048293,44.47161175795637],[7.509970127317225,44.471358288771356],[7.510284888638496,44.47118685353869],[7.510545025267893,44.47104619551623],[7.5106239240116235,44.47102058378777],[7.510678549543167,44.471002153784916],[7.510773062895868,44.471066624990044],[7.511197456749971,44.4713815556451],[7.511311853820435,44.47144726332793],[7.51153900322558,44.47157574993674],[7.512118691543875,44.471961351343296],[7.512329010023784,44.472102191145105],[7.512447329474972,44.472181329498774],[7.512694374804637,44.47234212618986],[7.5134158564790665,44.47279374251748],[7.5144418341467984,44.47343707261788],[7.5154145382146185,44.47406191602867],[7.51544246533874,44.47408048885584],[7.5158840242675815,44.47437409875256],[7.516796224305528,44.4749531178554],[7.516964349080897,44.475065711417514],[7.517398449457003,44.47536154574831],[7.518261612727952,44.47587689841574],[7.518708647924788,44.476094209299745],[7.518781696657322,44.476131220752116],[7.519150598558484,44.47628171658466],[7.519757180932143,44.476463466367676],[7.520662276234,44.476704756728026],[7.52115147731751,44.4768369409111],[7.521232133899913,44.476856155558515],[7.522213674153136,44.477089448733906],[7.523255892540117,44.4773624395195],[7.523830622811808,44.47751360299411],[7.52405324561005,44.477571786862974],[7.524651012817618,44.4777223679912],[7.525034355691285,44.477816885149245],[7.525157041678545,44.47784871519611],[7.5253714131398715,44.477902117524756],[7.527457863517934,44.47845808052805],[7.528765370063795,44.47876301974715],[7.52974698178511,44.47904384085791],[7.530361262770302,44.47921118583544],[7.531254325522783,44.479402735978475],[7.53240896108135,44.47967865634011],[7.533080444211596,44.479885336156876],[7.53356005901322,44.48008055457292],[7.534392306961607,44.48044234130334],[7.535096461572216,44.48078898107234],[7.536005267841975,44.4812988924707],[7.536472357306689,44.48156091894968],[7.53715611168995,44.48194520383451],[7.5380409233616765,44.482469682914974],[7.538467430728767,44.48270447425488],[7.539390109612435,44.48321045790605],[7.539707804359226,44.483385987077206],[7.539833518216638,44.48345545867963],[7.540021637206415,44.483565826886924],[7.540908439024895,44.48409081411958],[7.541470282517009,44.48440758949612],[7.542468684010232,44.48497048227846],[7.543501199804215,44.48553282911667],[7.543734695646513,44.485625816777336],[7.544619733009713,44.48614574793734],[7.545740451761728,44.48683258390334],[7.545790204552475,44.48686307489424],[7.545913701413811,44.48693758094579],[7.546116018400081,44.4870425958008],[7.546447287427287,44.48721785672172],[7.5465832383692355,44.487282606817125],[7.546749322684838,44.487383744664456],[7.5469253317410265,44.487480515319604],[7.547382805170452,44.487720239679824],[7.548114519061689,44.48812149136078],[7.5482580624369895,44.488199626643635],[7.548321133880369,44.48823355111733],[7.548746610812715,44.48846398748646],[7.549259096137195,44.48874561408254],[7.5497803281141165,44.48903374405048],[7.549855648295043,44.48907518201727],[7.551067379016818,44.48970093242813],[7.551544684782748,44.48993730680964],[7.551403554601643,44.490382792165],[7.551201593613185,44.491555078488325],[7.551215113863519,44.49210440244771],[7.551268137243573,44.49291530508507],[7.5512796485165525,44.49381564736414],[7.551157120310803,44.4938011758015],[7.551168130562026,44.494367983316316],[7.551149270746985,44.49624027613476],[7.551149715509722,44.49748570912633],[7.551148703532905,44.49773920329564],[7.5511741861390185,44.49784412589694],[7.551198194214419,44.497946881746635],[7.551205127517862,44.49839709943444],[7.551238338064425,44.498897172331844],[7.551250429557447,44.499027862582],[7.5512242943026004,44.49936789565948],[7.551206536145393,44.49959275047654],[7.551182530354174,44.49989574386152],[7.551153477366372,44.500323011673785],[7.551117753956809,44.500844701164894],[7.551109170765331,44.50119119475777],[7.551019646173064,44.50223434862177],[7.550997493776708,44.50238261682739],[7.5509531089251025,44.50268363912447],[7.550884810075718,44.503186923154225],[7.550896326207482,44.50374846518241],[7.550898559856567,44.503847589386375],[7.550902246773302,44.504037884841416],[7.550908353839821,44.50410933540988],[7.551093116320794,44.50631592528902],[7.551097007170705,44.50634954735584],[7.551162537263627,44.5073856686573],[7.551294046141963,44.50907532799303],[7.551352116556605,44.509335694818624],[7.55127867221587,44.50975932083282],[7.551159722796923,44.51092365557289],[7.551110330807457,44.51126963171269],[7.551090513023819,44.511435739272464],[7.551084547967041,44.511485350993816],[7.551032629944899,44.51193032142321],[7.551028371323202,44.511975293220104],[7.55097218331969,44.51240219511095],[7.550957835129276,44.512917409965176],[7.5509353804830575,44.513315500138134],[7.550877216127122,44.51498023744625],[7.550881172434181,44.51550243003692],[7.550876848478243,44.515533878105806],[7.550792361817392,44.51614947147366],[7.550552226028916,44.51736626863169],[7.550480815569724,44.51805856617637],[7.550446227327451,44.51833833148608],[7.550343560168382,44.51916864667467],[7.550342650223522,44.51992549202747],[7.550342603442192,44.519951833141164],[7.550241252468092,44.520360165391665],[7.5498986465233235,44.52164767588003],[7.549780266222973,44.521997273348596],[7.5496268263806545,44.522545390713994],[7.548687295357539,44.52249129434119],[7.547249607637703,44.52243325745281],[7.547079942369112,44.52244009786679],[7.547040906922386,44.52234957038722],[7.546076528573576,44.52229229063687],[7.5456033821040025,44.52226375252575],[7.545463440484353,44.522261970078276],[7.544842492810279,44.52223156677732],[7.544588759110376,44.5222508253049],[7.544436701448467,44.52226240372386],[7.544383176775915,44.5222603809574],[7.544203426155932,44.522252103657735],[7.543463687787753,44.52221893420021],[7.542284910079148,44.52216743730333],[7.542140361677248,44.522161073553434],[7.53979017389471,44.5220905394352],[7.536417731231469,44.5218403097662],[7.5361453558927245,44.5230116300576],[7.535833167355389,44.524249982995464],[7.5357156499737386,44.52476612083103],[7.535526133180799,44.52550189946052],[7.535413134475902,44.526072114172194],[7.53537749703614,44.52694491875675],[7.535359243491718,44.52739031354128],[7.535350608080532,44.52773800557002],[7.535302735278507,44.52774779495734],[7.535072676763818,44.527757466399684],[7.534650418004134,44.52777281761063],[7.534460012600745,44.52777166505838],[7.533985881726184,44.5277687875524],[7.533392854422661,44.527720667066795],[7.533172415737642,44.52771333614491],[7.53275921143789,44.52767651844478],[7.532636767530224,44.527665927168165],[7.532351068795771,44.527657758744105],[7.532183979591036,44.52765561109072],[7.531567180430763,44.5276611957822]]]}}]}
