{"type":"FeatureCollection","metadata":{"code":"005068","referenceDate":"2026-01-01","sourceDbfExportDate":"2026-02-18","upstreamArchiveUrl":"https://www.istat.it/storage/cartografia/confini_amministrativi/non_generalizzati/2026/Limiti01012026.zip","sourceManifestSha256":"70ac8256c4785dc6ed2814c32b6965ae76f9161b51abaa1660059e1c6cbd8ca6","license":"https://creativecommons.org/licenses/by/4.0/","attribution":"Istat, Confini delle unità amministrative a fini statistici al 1° gennaio 2026, versione non generalizzata.","modifications":["Converted from WGS 84 / UTM zone 32N (EPSG:32632) to RFC 7946 WGS 84 geographic coordinates.","Converted from shapefile to per-municipality GeoJSON without geometry simplification."]},"features":[{"type":"Feature","id":"005068","properties":{"code":"005068","name":"Monastero Bormida","alternativeName":null,"regionCode":"01","regionName":"Piemonte","territorialUnitCode":"005","territorialUnitName":"Asti"},"geometry":{"type":"MultiPolygon","coordinates":[[[[8.29509602347659,44.6237904418104],[8.294985577240201,44.623933789453076],[8.294836035736056,44.62404990516645],[8.294658534549663,44.624134337411896],[8.294493702132174,44.624344866602115],[8.2944512086011,44.62447063925184],[8.294449191424208,44.62463716784782],[8.294623479679988,44.62481830097228],[8.294919454454043,44.62496867456782],[8.295097494433849,44.62510030821138],[8.295173618527803,44.62519078694027],[8.295172202347532,44.62530781713531],[8.295144395553974,44.6253931729674],[8.295022247105734,44.625459935149195],[8.294791118223825,44.6255485377844],[8.294533469143362,44.625614461757486],[8.294498007198644,44.62562725042408],[8.293539554929694,44.62597291139237],[8.293632453829403,44.626108515546946],[8.293630816062777,44.626243557452774],[8.293535078228453,44.62634198836103],[8.293304107561351,44.62641707528528],[8.292789721766848,44.6264724092497],[8.292398081163398,44.626513291736934],[8.292179140472495,44.62653614454591],[8.29162188121368,44.62661821594436],[8.291156702535487,44.62665827431616],[8.290549229252784,44.62671058339925],[8.290572562080927,44.62660720490198],[8.290851365988154,44.62635686621911],[8.290886365589325,44.62633007331445],[8.290934017619549,44.626298859500764],[8.291115187996006,44.62604341628925],[8.291186542126544,44.625746782669104],[8.291132825288866,44.62562941124014],[8.291000061059952,44.625403527061216],[8.290979002392447,44.62532236563306],[8.29111358687391,44.62526919863576],[8.29123684911901,44.62523845488569],[8.291295836023028,44.62505426678281],[8.291396243851011,44.62496036346],[8.291510439855825,44.62489805437242],[8.2915665919265,44.6248173909115],[8.291644271036512,44.624777347036506],[8.29198037953834,44.624738926243545],[8.292038024012589,44.62466277035537],[8.292015497902794,44.62457260200106],[8.291894728094741,44.6243962970867],[8.291974554022715,44.62431127984412],[8.2922554948801,44.624272497303735],[8.292344697969648,44.62416793674231],[8.292312768485138,44.62409731314196],[8.292048752529375,44.6239013198001],[8.29199290619457,44.62381819819964],[8.291963955190147,44.62377481475962],[8.29297320362137,44.623561256543475],[8.293297655750061,44.62357226181813],[8.29346114182206,44.62360478214399],[8.293677574424022,44.623556616991394],[8.293949007349658,44.62352228893603],[8.294287330164325,44.62356038648954],[8.294476720988776,44.62353454729808],[8.294856996024262,44.62336133876502],[8.295006285806274,44.62339376922668],[8.295099182575013,44.623529393841366],[8.29509602347659,44.6237904418104]]],[[[8.319171081778544,44.67050047614933],[8.319149045191061,44.67041130613972],[8.319183509486097,44.670347141449504],[8.319209707355698,44.670297677069755],[8.319235720428388,44.670248476253775],[8.319265348328578,44.670191475657724],[8.319274834868377,44.67013784434701],[8.319300338768912,44.66998070211218],[8.319309606372304,44.66992162661572],[8.31925712849505,44.669664739739424],[8.31925217353727,44.66958106941871],[8.319236517478261,44.66933374563337],[8.31922712381444,44.669198291106426],[8.319221280968653,44.66911536088716],[8.319067989928607,44.66898393859878],[8.319027882378593,44.66887010123059],[8.318982080608267,44.66872166321019],[8.318972707417448,44.66869030942241],[8.318800333938647,44.668552282209184],[8.318683053364076,44.668459510111425],[8.318673529572862,44.66807231850365],[8.318638713410165,44.66803489558679],[8.318509690556585,44.66789927993237],[8.318460229581506,44.66778682601969],[8.318366155657307,44.66756842251788],[8.318344022739206,44.66751672801121],[8.318101845338404,44.667278369415875],[8.318002776340744,44.66718135085381],[8.31774728075078,44.66693015369367],[8.317404015993496,44.6665928847461],[8.317427515572613,44.66634013297218],[8.317467167882098,44.66591358554668],[8.317946413023472,44.66565536421921],[8.31855647592934,44.665470443437336],[8.318767940768744,44.665385704636016],[8.318916621584181,44.66521103557593],[8.319178900965593,44.66494056163573],[8.319250224782142,44.664866430321766],[8.319433507047851,44.6647155802439],[8.319673725874594,44.66451786111205],[8.319802234174468,44.6643160795553],[8.31974848230779,44.664059192269754],[8.319801727012681,44.66368590320152],[8.320149838852034,44.663309892862834],[8.32030847684261,44.66255462932932],[8.320358783261725,44.662494037927665],[8.320402807248945,44.662442669941846],[8.320502107552704,44.6622527157829],[8.32055591789324,44.66214977149115],[8.320609229990469,44.662047782069244],[8.320461506233608,44.66199092232497],[8.320221027472035,44.66189855469514],[8.318959091499948,44.66141344262848],[8.318321566851129,44.661167148058254],[8.31790943945604,44.66100991985612],[8.317984744802242,44.66077181173146],[8.318144645243883,44.66031363407434],[8.3172976452726,44.66000879395366],[8.317319685589146,44.659939617592336],[8.31755140801967,44.65954038688044],[8.317805997558484,44.65920882690648],[8.318220280970916,44.65870266555361],[8.318240015455665,44.65867006662731],[8.31856935452321,44.658110601017654],[8.318708811734252,44.657950931783375],[8.319064212998198,44.65754762738831],[8.319196831389503,44.65743914706932],[8.320085702861597,44.65665674322823],[8.320056893181645,44.65654575860185],[8.319992825431083,44.65629895454301],[8.319960484588847,44.65617436954524],[8.31997931514551,44.65604844809253],[8.31989769770316,44.65585506540572],[8.319813628836505,44.655655863265494],[8.319690192328585,44.65542555080331],[8.31965439759248,44.65538449069197],[8.319509802608517,44.65521293079297],[8.319417897729227,44.65511785726627],[8.319119112708323,44.65491802750786],[8.318870898840977,44.65470948351497],[8.31851709840644,44.654630857317194],[8.318306481715513,44.654575581941344],[8.318149143791587,44.65454763078063],[8.31788795516525,44.654505566286225],[8.317584333180791,44.654540898411376],[8.317520100502929,44.65454837283183],[8.317336805558357,44.654718333166414],[8.317163679028713,44.65482981907394],[8.31702584511036,44.65488296195072],[8.316935591250154,44.65491848514727],[8.316754038908092,44.65493990799307],[8.316378912839324,44.654933166405115],[8.316094156208427,44.65501697142954],[8.315796245200971,44.6551457200592],[8.315170538429312,44.65474712883387],[8.315026937549106,44.65465458473868],[8.31436447333221,44.65423239819586],[8.313665789215277,44.65369289503739],[8.314180682037486,44.65331678631145],[8.314300904022968,44.653227948057385],[8.314456561906098,44.65311403626338],[8.314491174025795,44.65308954485653],[8.315163880317726,44.6528823387561],[8.3151340487922,44.65284283618661],[8.31483946221196,44.6524527666714],[8.313046921327302,44.65326122570719],[8.311491812243192,44.65198703314472],[8.311072802169935,44.65182696307753],[8.310409393469214,44.651404348886786],[8.310149529109825,44.65116319134482],[8.30981375867658,44.65085158748878],[8.309915133999725,44.650779896751246],[8.310394721733966,44.650445945496244],[8.311967581866844,44.64934768597315],[8.311946216266627,44.64928387465831],[8.311906661139922,44.649168266946475],[8.311891639953338,44.649128272978274],[8.31184703809406,44.64900061113118],[8.311813664934578,44.64890113885506],[8.311793384110693,44.64874796828464],[8.311761681816282,44.64849570886132],[8.31174332127852,44.64804997751084],[8.31137758788294,44.64725107713518],[8.311216925663338,44.64697552643946],[8.311188618552267,44.64683582632301],[8.310888237054657,44.64624434654458],[8.310835293116726,44.64619002390488],[8.310629837906141,44.645968223196036],[8.310414854578458,44.645755361654935],[8.31001273681689,44.645370329352744],[8.309973250965136,44.64535057611197],[8.30958135983448,44.6451542150069],[8.309528397706625,44.64512808020576],[8.309429548333636,44.64507896726749],[8.309057860063447,44.644941445192785],[8.308886854451263,44.64485887411794],[8.308651936666406,44.64474543801077],[8.308352434493461,44.64461309309961],[8.308026451557954,44.64440497602023],[8.308019556302126,44.644367005889684],[8.308010736982101,44.64431193919206],[8.30798679903934,44.64416250690317],[8.307891967622192,44.643570512416154],[8.307666303428759,44.64319555870796],[8.307499267096121,44.642793929187896],[8.307405251143537,44.64248276978821],[8.30735227725688,44.64240280264284],[8.30731544407151,44.64234719326428],[8.307185035255811,44.642179861672744],[8.307025826580514,44.64205767548649],[8.30697824948846,44.64202058373196],[8.3065050915769,44.64196417015243],[8.306110612410809,44.64200229963692],[8.30569017604736,44.642098768998004],[8.304974206955093,44.64213042036019],[8.30474741400134,44.6421155253975],[8.304634542022951,44.642065335344995],[8.302657177511188,44.64121155883551],[8.302282517772722,44.641051495665735],[8.30220949562411,44.641019820802704],[8.301492060520117,44.64071379504147],[8.300995975652377,44.640418183471816],[8.300316479531702,44.640170967083826],[8.300057677384567,44.64006583731988],[8.299761592223314,44.64004603081448],[8.299591778824093,44.64001348078765],[8.299490891070773,44.63988232774161],[8.29951616897833,44.639747431068876],[8.299585331912944,44.63963083462357],[8.299847867872826,44.63942538001261],[8.300267574091956,44.63912637794986],[8.300448092907175,44.6390683653974],[8.300706909479034,44.63898587081159],[8.300568092926476,44.63887700076985],[8.300465233289804,44.63879712726494],[8.300432586816443,44.638771795943605],[8.300270351432356,44.63863125356223],[8.300153250260037,44.638540527337845],[8.300095298195766,44.638490331710656],[8.299984772635522,44.6383954477487],[8.299867972200657,44.63827769309522],[8.299763906957642,44.6381510391217],[8.299667879778168,44.63801090179845],[8.299603353398377,44.637870973787656],[8.299548406672844,44.637727857293605],[8.299526827341191,44.63767248925619],[8.2995138126002,44.63763141568689],[8.29947688010431,44.63751010834741],[8.299541065303849,44.6372854415492],[8.299560500381125,44.637217302057024],[8.29960005369875,44.637079352786536],[8.299629575716716,44.63703152534659],[8.299698786748797,44.6369223777341],[8.29981395051774,44.636742450646494],[8.2998865228169,44.636648565642595],[8.300191636332865,44.63624791260897],[8.300331816714934,44.63606571479619],[8.300363314873042,44.63569710439837],[8.300499666187633,44.63528826941018],[8.300919048765333,44.63483050824629],[8.301145738331462,44.634356385616606],[8.301160610927955,44.63429827188575],[8.301294236370468,44.63382123695657],[8.301430504390709,44.63335841313384],[8.301445475864837,44.63332290883367],[8.301622101532761,44.63289599138521],[8.301642934305239,44.63260354206992],[8.301768214606074,44.632335623090185],[8.301790145827647,44.63229121280441],[8.301875843138559,44.63212019316355],[8.301888022136065,44.632093466269595],[8.302019510336734,44.63182262311478],[8.302210410266772,44.63119819328606],[8.302234561960294,44.6312342860356],[8.30239075540872,44.630758857558064],[8.302430848146402,44.630636819667394],[8.302721703864911,44.630692614460465],[8.302729046950503,44.630781845279124],[8.302740976368426,44.63092679177171],[8.302992554054972,44.63110388343207],[8.30440047592573,44.631967726606156],[8.30476349904325,44.632190456053536],[8.304926325397734,44.63217602767581],[8.305163560709056,44.631945339121096],[8.305296843830869,44.63107739782144],[8.305314857197219,44.63088451356498],[8.305351043428095,44.630497073329295],[8.305447766784352,44.63018257401115],[8.30544969926414,44.63002054251059],[8.30535809289608,44.629802504689295],[8.3051853576977,44.62967979678605],[8.30496606571921,44.629521506475314],[8.304758289619222,44.62937275557835],[8.30472118574635,44.629346300902],[8.304617903737855,44.629273473796125],[8.304583100898624,44.62925946374301],[8.304243647253175,44.62912190135738],[8.303819290863954,44.6290187330501],[8.303596488284839,44.62896498368541],[8.303020196672053,44.629060872875],[8.30283381331869,44.62909188589791],[8.302618708846087,44.629126800472626],[8.30255600201162,44.62913747712129],[8.302180223529199,44.628929324985684],[8.301974616980845,44.628730019697386],[8.301741182359793,44.62848551876322],[8.301462727901356,44.628182242804506],[8.30101087801192,44.628017433969994],[8.300907476969577,44.62800026435963],[8.30072937473376,44.62797068646464],[8.300540161366902,44.62799641735768],[8.300453638079606,44.62809953325955],[8.300216834121624,44.62813408893628],[8.30010404712414,44.628079395357915],[8.2998903192666,44.62784476199806],[8.29975992735822,44.62773518980421],[8.299477715661016,44.627616420216356],[8.299310737759491,44.62753478652841],[8.2992724834303,44.627516135390884],[8.299019516742904,44.627325530345544],[8.298879579691437,44.62716714547133],[8.298852859509807,44.62703192941409],[8.298853396283024,44.62698734148881],[8.298853062601422,44.62689243590406],[8.298941093423233,44.62677140555402],[8.299441924678325,44.62666195739235],[8.299603600894818,44.626581918352244],[8.29977804910052,44.626518674148706],[8.299860001476379,44.626488963269985],[8.30017040612897,44.62649086578909],[8.300680637362408,44.626516502916154],[8.300953493891175,44.62649566170826],[8.301020062539774,44.626464560371886],[8.301031023905663,44.6263385923381],[8.300965940460795,44.626248165302904],[8.300883128935236,44.626189158294125],[8.300460124343056,44.62598400080623],[8.300272621870878,44.62585231846586],[8.30016547471462,44.62560065036028],[8.300143893396715,44.625549957315094],[8.30005651930594,44.62514360489351],[8.300018459575453,44.62497303242141],[8.300029809750816,44.624946089953724],[8.299947933140142,44.62472761210127],[8.299872568391793,44.62452651383992],[8.299828059716761,44.624458773452716],[8.299757457946187,44.624346193597],[8.299628758734967,44.624148090961],[8.29978881340314,44.62407388070768],[8.300448851030366,44.623773836913536],[8.300998462667986,44.62353864636826],[8.301209011595024,44.62332386912781],[8.30136621966414,44.62324154597502],[8.301485934594377,44.623177940883046],[8.302102363052024,44.622852059009055],[8.302196899699286,44.62280327588585],[8.30238162962151,44.62261584948082],[8.30268067450976,44.62231243561574],[8.302721679800623,44.62227082968516],[8.302657757064091,44.622081386569825],[8.302697085073099,44.62195559058285],[8.30285941260708,44.621821551951285],[8.302871306141054,44.621770846761216],[8.302876288832554,44.62174336818824],[8.302949020876655,44.62144399052905],[8.302985805753725,44.6213262730693],[8.303027640518694,44.621192399888486],[8.30311354114527,44.621093509293736],[8.303445853956097,44.62110256485278],[8.303592030310096,44.621106546868134],[8.303702277244826,44.62110988922787],[8.303754996173497,44.621111307142144],[8.304846937067472,44.62123949640588],[8.306323726591177,44.621289548914184],[8.306478620575911,44.621294439924576],[8.306588508260045,44.621299732662926],[8.30842169960229,44.62140074925745],[8.308633731913933,44.62139884343734],[8.309181223357648,44.62139345192678],[8.309572024766963,44.6213896952583],[8.311279458687117,44.621436012980475],[8.311700275345489,44.621560085716915],[8.31190961403734,44.62157934050169],[8.312097201453614,44.62157147434493],[8.312456792904982,44.621542131814955],[8.313014994844123,44.621504983212716],[8.313420943321312,44.62150762695317],[8.31390044509346,44.621510306036456],[8.314227847990336,44.62153225174307],[8.314273437454903,44.62153436469861],[8.314765923023444,44.621567137897294],[8.314881308729937,44.62157471257438],[8.31617249672837,44.62163171643859],[8.31703256205919,44.621660393755214],[8.317076442064332,44.62166200293125],[8.317144833300537,44.621665297179334],[8.317412084059757,44.62162439121629],[8.31746825192004,44.6216165049084],[8.31761321862344,44.62159556888801],[8.317863368734384,44.62153301036569],[8.317959091118093,44.621510297051714],[8.318617187443937,44.62134675869628],[8.318719249988465,44.62132142592831],[8.318961141914325,44.62126151738993],[8.319859125551147,44.62115751877356],[8.320254906955643,44.62111167833685],[8.320901279690537,44.62107951809035],[8.32101313237097,44.621065542345164],[8.322159782389633,44.620920863865045],[8.3223987354611,44.620890362528726],[8.323785321625609,44.620673861858805],[8.32390979696273,44.62065421800748],[8.323975859857496,44.620643883473996],[8.324119293509876,44.620621475308404],[8.32522442450717,44.62042996199653],[8.325624538023497,44.62030179060106],[8.326349367369406,44.62057163453239],[8.32682137774672,44.62086583914553],[8.327149125483471,44.62126390203699],[8.327163304426914,44.62130050968498],[8.327329774205529,44.621746521629746],[8.327388740511624,44.621885027843604],[8.327627810760466,44.62242918106738],[8.327792581875899,44.622758734719746],[8.328123240030388,44.62305327569925],[8.328399965237164,44.62310440816877],[8.328523911291045,44.62310551688319],[8.328565846714389,44.623106990477595],[8.328617996464397,44.623108019963],[8.328716009969403,44.623109718724315],[8.328930323922714,44.62306146169105],[8.329007754371117,44.62304352540453],[8.329490105758142,44.62284974430483],[8.329735546937279,44.6227185860915],[8.329915572898782,44.62262246215071],[8.329950834482336,44.622603681830945],[8.330351567569007,44.62228198938224],[8.330609051966018,44.62198206220228],[8.330735510571461,44.621890667982505],[8.330920737250791,44.62175984301053],[8.330944895387063,44.621739848609536],[8.331210189264617,44.6215215186975],[8.331285881947604,44.62145926749737],[8.331341797129925,44.62143005942609],[8.331434788881303,44.621381533817576],[8.33153440305173,44.621329616935874],[8.331668577027115,44.621260074529246],[8.332228027280818,44.620840237703796],[8.33230513410933,44.62055798334135],[8.332317031142757,44.620511531480005],[8.332335790213673,44.62043517105429],[8.33248877483378,44.62007183689906],[8.33266155954841,44.62003113618332],[8.33316251760166,44.62006000577444],[8.333299160116512,44.6200789859198],[8.333353803706595,44.62008215689663],[8.333390971694113,44.62008512771827],[8.333575450855587,44.620130240174504],[8.333706742002587,44.62016362594539],[8.334109262837044,44.62040277044748],[8.334224963012153,44.620472737376275],[8.334626360171773,44.62068526564951],[8.334763696758545,44.62075931648955],[8.33519001994817,44.62109052411331],[8.3351975041609,44.62117916775892],[8.335203975283909,44.62126181703078],[8.335198144722716,44.621301088982854],[8.335157513921489,44.62157185524033],[8.335152926910228,44.621604324923275],[8.335187379488389,44.621775738049585],[8.335276485034594,44.621865063838044],[8.335329245044896,44.621873614513014],[8.335507250204978,44.62190398864894],[8.335553994963472,44.62191166338598],[8.336216863427946,44.62195173601394],[8.336504572790291,44.62197238606173],[8.336618366267441,44.62198107104414],[8.336662208506596,44.62198938655178],[8.336758645787924,44.6220090364775],[8.336819425623984,44.622029434436605],[8.336981178874252,44.62208660151688],[8.337241767601155,44.622119661569855],[8.337375145221317,44.62212933088979],[8.33748000129183,44.62218517955556],[8.337723997056749,44.622483672357895],[8.3378634478541,44.6226018863468],[8.338037513805556,44.62261870831758],[8.338163705132796,44.622616946880385],[8.338227811871317,44.62260789993466],[8.338551361822033,44.62256843024161],[8.33860475798285,44.62256978917654],[8.338716705518136,44.622573763864445],[8.339151961321173,44.62269330157024],[8.339223035124856,44.62275525220674],[8.339259343833234,44.62278859063246],[8.339291547280219,44.62283312783224],[8.339365013125528,44.62293760659503],[8.339632408302109,44.62303854891534],[8.33969724848093,44.62306434691961],[8.34059476038605,44.623422018758234],[8.340852040461135,44.62351803035204],[8.341119691008974,44.62353757172216],[8.341138760424045,44.623569364284],[8.341425695512905,44.62351675750833],[8.341835101820077,44.623397583681864],[8.342172263968626,44.62326278883572],[8.342205403607208,44.623365292392606],[8.342516056270158,44.62428096331933],[8.342528056118747,44.62431632855444],[8.342561219217416,44.62441373310133],[8.342605303627872,44.624613936276596],[8.34287012404699,44.62576184286359],[8.342906382529875,44.625924461277975],[8.34293653131739,44.62604615332332],[8.343077294021153,44.626090980860425],[8.343296279457492,44.62621798823125],[8.343531316369083,44.62640066894165],[8.343857656201928,44.62680765993336],[8.344028853938557,44.62699769876605],[8.34416039387424,44.62720378614018],[8.344185991115825,44.627236034276486],[8.344519425715426,44.62755973594639],[8.344712539434004,44.627684878901135],[8.345150930899266,44.627967397533496],[8.345400748127156,44.628171378000275],[8.345537816677252,44.62833174379568],[8.34558642104187,44.62838508488927],[8.345646977991,44.628600100240725],[8.345785987475654,44.628744835893094],[8.345974251284215,44.62888135328207],[8.346457835385293,44.62904941841102],[8.346538295543251,44.629079212577984],[8.347149663040017,44.629366287964196],[8.347334472233717,44.62945042657976],[8.347431877178233,44.62949393593955],[8.34760410293296,44.6295939447513],[8.348071904027853,44.629595413340255],[8.348312673623706,44.629596978333126],[8.348595543454405,44.629666108187976],[8.348705667589375,44.62971209717627],[8.348703306466861,44.62986031895256],[8.34844732116733,44.6302188185612],[8.348129833342355,44.63045122137567],[8.347779650377625,44.63077331397411],[8.347636569655455,44.63098843620122],[8.347175449939318,44.63139975164965],[8.347459057038353,44.63168074168787],[8.34748585812688,44.631708839483544],[8.347688935083749,44.63186754425344],[8.347876378787623,44.63187763162587],[8.348034547257678,44.631824512456134],[8.348146131044679,44.631712610024984],[8.34825682765264,44.63167723448738],[8.34843008225136,44.63166818978328],[8.348610884450794,44.63173953879335],[8.348713700920106,44.63178230819457],[8.348916955288269,44.631927497236035],[8.349055352067298,44.63223437658128],[8.349070444395826,44.63230498909367],[8.349076926674615,44.63233458395036],[8.349098931855165,44.632437784398306],[8.349116875660584,44.63252355175823],[8.34914367128395,44.632649024673704],[8.34927315582727,44.63290583323722],[8.349291328019303,44.63294175142243],[8.349359710533395,44.63307772406816],[8.349429144782915,44.63312568252393],[8.349469160030857,44.63315493632064],[8.349627008103417,44.63312425096203],[8.35047625959499,44.63326413595136],[8.351640057040234,44.633360757659325],[8.351770267274569,44.63337468096114],[8.351940437478646,44.63339327810747],[8.352299997360793,44.63343320216837],[8.35246609618309,44.633475668973645],[8.352532567432183,44.633492167512316],[8.352566538054724,44.633501101522754],[8.352609630314394,44.63352546619928],[8.352871225014441,44.633681579297026],[8.352956164092626,44.633731587803226],[8.352982708703946,44.633796138464035],[8.353047638666375,44.63399532016961],[8.353092048229502,44.63413391942049],[8.353117433082852,44.63421459955332],[8.353152295369455,44.634325811314504],[8.35317570889688,44.634401916000165],[8.35321252001703,44.63452203324427],[8.353217162591788,44.634642659690584],[8.353223232737282,44.6348001459401],[8.353227386067687,44.634924980077194],[8.353230849810034,44.635021772930926],[8.353244603135357,44.63508212163148],[8.353256012580323,44.635139070317365],[8.35328958428552,44.635282320896074],[8.353344837726654,44.63552201823419],[8.353477620969926,44.635757065348315],[8.353524273459714,44.63583989852593],[8.353539285979092,44.635866143855885],[8.353586373403354,44.6359521771548],[8.35369528985195,44.636025694881056],[8.353939483271274,44.63619618840237],[8.354088374066853,44.63629767486498],[8.354492540412997,44.6365761871145],[8.35452795421214,44.63660059407872],[8.354565113746137,44.63662721290792],[8.354575587435532,44.63675768402784],[8.35458382122567,44.63686046341834],[8.354590110949417,44.63693468131179],[8.354597926948456,44.63703443439951],[8.354603723879068,44.6371081822757],[8.354613067040757,44.63720916652817],[8.354709631211703,44.637426205030515],[8.354796675485352,44.63762342919017],[8.354842575432512,44.63767753149838],[8.354931576571005,44.63778276653212],[8.355341214715887,44.638272125164974],[8.355429232226763,44.638376851909],[8.355467170759884,44.638423788955],[8.355477036285537,44.63846111224473],[8.355507104525183,44.638582648115346],[8.355502105634942,44.63862440136641],[8.355490383194647,44.63869865887763],[8.355485319508208,44.638733962376996],[8.355476351246338,44.638778454288804],[8.355409815461813,44.63886908945342],[8.35485680725184,44.63918138623758],[8.354503564095728,44.639615879559415],[8.354469265513272,44.63968609506715],[8.354365969436872,44.639894705597825],[8.354276538566904,44.64007538497942],[8.35424895388273,44.64013206892456],[8.354177094120184,44.64038268527402],[8.354149972029846,44.64047936896245],[8.354131936302561,44.640537961388],[8.353959224499972,44.64112616762145],[8.35383834016741,44.64179166594104],[8.353693903363071,44.64259206354291],[8.35369669791332,44.64302429583621],[8.353698222886665,44.64319608896449],[8.353700302801466,44.64338524921829],[8.353700660583376,44.64342866391905],[8.35368311415107,44.64361761677039],[8.353664978478008,44.64381351799536],[8.35363558852764,44.644130671168945],[8.35360174844623,44.644454267413295],[8.353552643190083,44.64492434391981],[8.35353429052584,44.64510666180838],[8.35353150077157,44.64577474708689],[8.353531040190486,44.64583120173089],[8.35357714900617,44.646079066919214],[8.353659671958908,44.646525925501976],[8.353761186045938,44.64695795274261],[8.353805175685045,44.64705758180508],[8.353817224421187,44.647086276056896],[8.354053995627845,44.64763995977036],[8.35422889682857,44.648356632238034],[8.35439202532511,44.64914077436286],[8.354531468328865,44.64950165432088],[8.354857223942082,44.65026420216419],[8.355197314220936,44.65172450161441],[8.355307032252854,44.65277840367979],[8.355451256165702,44.653562436075255],[8.355546455097697,44.654076109447296],[8.355570506416674,44.654449534240825],[8.35556001541334,44.654615687574825],[8.355424402966719,44.6551677105554],[8.355415016997302,44.65520457759032],[8.355273628504207,44.655464912193096],[8.355186362995779,44.6555860689218],[8.355147636889487,44.655640286366406],[8.354855059480858,44.65586369288094],[8.35434199724786,44.65606783931431],[8.354062162922556,44.656138266741074],[8.353678568176905,44.65601149341303],[8.352979850297809,44.65578104494092],[8.352542551201987,44.655619902696465],[8.351974988459352,44.65541075856634],[8.351868849532964,44.65534550416252],[8.351317335581914,44.655006427028276],[8.35039648793363,44.65445654916286],[8.350318204061281,44.654361714797844],[8.350043000222453,44.65402840531917],[8.350004503694828,44.65398168758298],[8.349579818575465,44.65347063211743],[8.349544640734392,44.65325086607921],[8.349501798655202,44.652975045710164],[8.349264202773096,44.652597238617616],[8.348899499419195,44.652017312170365],[8.348294999503738,44.6510560364718],[8.348234795918636,44.65096030092082],[8.347943340181711,44.65038248352052],[8.347286735014112,44.64989260551656],[8.347110869734072,44.64950864944962],[8.347093126015999,44.649468156611945],[8.346879448114949,44.6494126120998],[8.346679691354069,44.64936039401737],[8.346582033815455,44.64933491377069],[8.346491267560227,44.64936756853964],[8.346541443372663,44.64986133523804],[8.346348255867193,44.65035985073628],[8.346089271155629,44.65068245264906],[8.345711614970673,44.651040400233576],[8.34538632050529,44.65124707838908],[8.345311490050198,44.65129467402616],[8.344811843564175,44.651463646047944],[8.344670596994183,44.65151156061186],[8.344448267007209,44.651469371102124],[8.344181368517079,44.65141872308476],[8.34366454005468,44.651118662612724],[8.343116553673244,44.65112709281577],[8.343026754554222,44.65112851000756],[8.342752994283527,44.65114944733804],[8.34253144020726,44.65122468409145],[8.34243508176619,44.65138167256565],[8.342396483562519,44.6515884972413],[8.342373508902151,44.65208800563631],[8.3422340856219,44.652384784740704],[8.341946941527162,44.65285172617916],[8.341829461039103,44.65340111169227],[8.341821753295617,44.653434383603816],[8.34181090929266,44.653482228639035],[8.341688876790618,44.65346676933102],[8.341399095211791,44.65342709106532],[8.341001637199387,44.65337193311785],[8.340827698354522,44.65333180818412],[8.3405613620332,44.65327036550868],[8.339961058807873,44.653113483936046],[8.339713731388807,44.65308543396526],[8.339459268994654,44.6530116627684],[8.339186815649255,44.65295193878616],[8.339018367387027,44.65297327030496],[8.338887838670644,44.65303185904449],[8.338847623203108,44.65321508483112],[8.338838546966015,44.65325143556588],[8.338751242370357,44.65337975451718],[8.338656873244208,44.65351573950185],[8.338553718539117,44.65362294664935],[8.338500988781378,44.65367706205453],[8.33837900911707,44.65371589609551],[8.338199478091411,44.653711321516084],[8.33766736978156,44.65364523843446],[8.337358118698385,44.65365679427533],[8.33720114284745,44.65373653466357],[8.337140289013877,44.65376866057773],[8.336953914496823,44.6539386372593],[8.33693207191493,44.653966486510036],[8.33671123070733,44.65425230266188],[8.336625129187043,44.65436338362853],[8.336530604934602,44.65448009705308],[8.336490530592174,44.654472022188365],[8.336436270467333,44.65446179972154],[8.336182245851647,44.654343303133686],[8.335790188452439,44.65416096800466],[8.335622227903501,44.65409697377041],[8.335450795098078,44.65414378394557],[8.335256737957469,44.65419811967569],[8.335197153164762,44.65421010711968],[8.3349626710765,44.65425381997826],[8.334854204334377,44.65425525797268],[8.334513596154826,44.65426123099928],[8.334283395964642,44.6542783111118],[8.333910785489255,44.65430706738289],[8.333865534445202,44.65431550433561],[8.333662019126834,44.654355693326806],[8.333623432369563,44.654435490201585],[8.333535934226473,44.65461632259108],[8.333435823019226,44.65469081439131],[8.333226679267645,44.654693951615684],[8.33318754309771,44.65469494475171],[8.333120071389256,44.65462842497425],[8.332998391073135,44.6545085190357],[8.332904637348383,44.65447255303943],[8.332853644759783,44.65448980277623],[8.332572469101756,44.65458738147585],[8.332469074253838,44.65462246925313],[8.332259612110107,44.65467919452178],[8.3320303587856,44.65465534141721],[8.331778663951143,44.65455301349254],[8.331660552952336,44.654505829123636],[8.331411443386129,44.65450000754432],[8.33097071094345,44.65452788546679],[8.330937130587825,44.654542039573876],[8.330831415670554,44.654585769947545],[8.33077926743876,44.65460627808072],[8.330717969914284,44.65463064684427],[8.330684588224134,44.654644295202274],[8.330559825338813,44.65464772038196],[8.330292166669413,44.65465600252241],[8.330229658619055,44.654657426543636],[8.329871703686598,44.654669810777825],[8.329517505374367,44.65468168659961],[8.329362829594888,44.65469955845764],[8.32922041502385,44.65476297987574],[8.329153001928272,44.654829269667566],[8.329123774702298,44.65490063786985],[8.32911104381667,44.65493213472832],[8.329134211075033,44.65506738071143],[8.32924698507322,44.65531103943591],[8.329268691292395,44.655454027923426],[8.329240219969352,44.65546987609016],[8.32919919345579,44.65549081431897],[8.329124728306251,44.65549427317891],[8.329021002959772,44.65549426518242],[8.32862746869785,44.655409500640296],[8.328441851823701,44.65540533226946],[8.328347968022838,44.65544871399282],[8.3283051221592,44.655535122422656],[8.328520413351079,44.655730729136465],[8.328868016660863,44.6560470096589],[8.32897390773151,44.65616017077406],[8.329265117874842,44.65633741956588],[8.32944963471045,44.65646903610428],[8.329495527519095,44.656590840595285],[8.329477853514694,44.65675727877755],[8.329429677969136,44.656833526747896],[8.328994026314767,44.657150553517674],[8.328886145964832,44.65723921413478],[8.328547254544441,44.65752152979415],[8.328505897917559,44.65755682475023],[8.328471081359172,44.65758564756749],[8.328407209425864,44.65763774912443],[8.32830633417019,44.65772266304475],[8.327746100354544,44.65821390601262],[8.327663712487384,44.658286725344816],[8.327125362226399,44.65876124774498],[8.326289770766524,44.659497743291524],[8.326168903384568,44.65960485715017],[8.326076225537168,44.65968309980275],[8.325767356239783,44.659953792826826],[8.325352747333428,44.66047028014662],[8.32533220448844,44.66049586710503],[8.325334376433915,44.66066543759253],[8.325337164891065,44.66088299840588],[8.325362059247382,44.66118471781377],[8.32541201930623,44.6612431750907],[8.325498535779522,44.66134207572489],[8.325724173822378,44.66150194406219],[8.32596186719082,44.661534855768785],[8.326006683069718,44.66155215110707],[8.326045762300575,44.66156726008747],[8.326115710917717,44.66159428140656],[8.326100278824674,44.66170221169527],[8.325958483288463,44.66182308537936],[8.325578389147243,44.6621087443895],[8.325505708112743,44.66225685834068],[8.325390514608301,44.66240304036991],[8.32527843289651,44.66254809285086],[8.32496756435454,44.66284332955257],[8.324903573971746,44.66289703893949],[8.32472711882232,44.663044474071846],[8.324422268269693,44.66309217292005],[8.324220356542181,44.66337005703972],[8.324077630805428,44.66357626158497],[8.323960182747285,44.664048194176864],[8.32405518692385,44.66428731064894],[8.324222040463278,44.66444584186025],[8.324511678927795,44.664685775479434],[8.32468040268892,44.66482684601895],[8.324820104028237,44.66494440948025],[8.32491343956312,44.66502187906811],[8.324948112344606,44.66507195938819],[8.324997518705537,44.665152614473726],[8.325079729405722,44.665270137581885],[8.325185753731072,44.66535673209113],[8.325323387195338,44.66546962664136],[8.325399140579407,44.665600608736284],[8.325417056881982,44.66568624052262],[8.325405825306312,44.665839220294295],[8.325341013776415,44.66599283241024],[8.325236080776493,44.66624307827252],[8.32515147421882,44.666609682830966],[8.325117623172506,44.66676026387089],[8.325125635505852,44.667202363723554],[8.325126269420764,44.667237423892885],[8.325036426833574,44.667455307576404],[8.324742807889692,44.668167370308886],[8.32466708177303,44.66835100541221],[8.324337679310785,44.66901523786404],[8.324337181645925,44.66907381831564],[8.324198890990541,44.66942402690428],[8.324186263146393,44.6694780622571],[8.324174041184857,44.66954091790178],[8.324014093648293,44.669449942350354],[8.323401815709998,44.66975688642568],[8.322789713472837,44.670050352488545],[8.322369287238004,44.67013336655559],[8.322150103559606,44.67026711683892],[8.321629369332717,44.670295532525785],[8.321282731455213,44.67032193059822],[8.32112903884794,44.67033306506594],[8.32040384930346,44.67045028853376],[8.320119499937498,44.6704602119518],[8.319936144393408,44.67046661118548],[8.319853272858563,44.670469503490466],[8.31951311624991,44.67044675085657],[8.319476650866019,44.67044476729307],[8.319171081778544,44.67050047614933]]]]}}]}
