{"type":"FeatureCollection","metadata":{"code":"005047","referenceDate":"2026-01-01","sourceDbfExportDate":"2026-02-18","upstreamArchiveUrl":"https://www.istat.it/storage/cartografia/confini_amministrativi/non_generalizzati/2026/Limiti01012026.zip","sourceManifestSha256":"70ac8256c4785dc6ed2814c32b6965ae76f9161b51abaa1660059e1c6cbd8ca6","license":"https://creativecommons.org/licenses/by/4.0/","attribution":"Istat, Confini delle unità amministrative a fini statistici al 1° gennaio 2026, versione non generalizzata.","modifications":["Converted from WGS 84 / UTM zone 32N (EPSG:32632) to RFC 7946 WGS 84 geographic coordinates.","Converted from shapefile to per-municipality GeoJSON without geometry simplification."]},"features":[{"type":"Feature","id":"005047","properties":{"code":"005047","name":"Cortazzone","alternativeName":null,"regionCode":"01","regionName":"Piemonte","territorialUnitCode":"005","territorialUnitName":"Asti"},"geometry":{"type":"Polygon","coordinates":[[[8.037068051571987,44.99707981328369],[8.036977344220515,44.99708276077329],[8.036514941094941,44.99719222435349],[8.03638295819517,44.9970231149117],[8.036323990820389,44.996947558322994],[8.036110671631366,44.99652267445334],[8.03603104854004,44.99641061336564],[8.035966039083025,44.99631812696053],[8.035844185569873,44.996146958122],[8.035872202007003,44.99598954474223],[8.035915663314123,44.995963174131106],[8.035989646549112,44.99591889526788],[8.036259937857894,44.99575427726419],[8.036547757247336,44.9954236263338],[8.03682628780983,44.99507942042062],[8.03689606271834,44.9948967457613],[8.03695681334704,44.99473730905661],[8.036973456624958,44.99469310228883],[8.036983587282426,44.99466263515991],[8.036995489357693,44.99463525172728],[8.037195936288184,44.9944073962014],[8.038139733587428,44.99410927845901],[8.038420489316396,44.99397408793511],[8.038791985114578,44.993795203575786],[8.038825152137736,44.99378051792792],[8.03919787424752,44.99362033868227],[8.039335072745256,44.99356123308501],[8.039885839717169,44.99324629814609],[8.040454318139634,44.9928887294569],[8.040602010580972,44.99279295650093],[8.040834636568505,44.99264664604187],[8.040506480480513,44.992261308780584],[8.040186613890773,44.992042569765594],[8.039941818889732,44.99160391353016],[8.039847728418163,44.99139920785808],[8.039825522945858,44.99135088508867],[8.039688464115706,44.990917652141356],[8.039392935028454,44.99076213088832],[8.039337254702195,44.990706447300646],[8.038988988379876,44.990358158494715],[8.038674306044172,44.989884009836125],[8.038625510625566,44.989810486192965],[8.03822949628414,44.98931203853686],[8.038175690843355,44.9891087635209],[8.03816764205738,44.9890783411811],[8.038080221397134,44.98875717080136],[8.037456456097315,44.988603378304504],[8.037168556896148,44.98808784412111],[8.037153114665587,44.98800536414158],[8.037126213354695,44.987860716436586],[8.037121059349953,44.98782730547407],[8.037071233375425,44.98755592412428],[8.037051098341555,44.9874637976774],[8.037043346335784,44.98742638144121],[8.037031401935693,44.987368585456956],[8.037003561315862,44.98724044745484],[8.036997533226852,44.987212654427466],[8.036969192510034,44.987082195095645],[8.036919707272007,44.98685250632786],[8.036810929030368,44.98672106247696],[8.036788766811808,44.9866810167322],[8.036483106770826,44.98612866321397],[8.036492983254947,44.985855931751274],[8.036498791523606,44.98566520789659],[8.036205190694549,44.98499994572945],[8.036085326570047,44.984682064548],[8.0359231488831,44.98425155639677],[8.03570482400617,44.983655580735245],[8.035363219759288,44.983319633372695],[8.03558146864204,44.98250229828993],[8.03564142713662,44.98228624287972],[8.035651447364787,44.982252583679724],[8.035661267631298,44.982216097977386],[8.035784096894725,44.98179008702057],[8.035843339218223,44.98126979180515],[8.035891297777987,44.980853050654225],[8.035886057551,44.98067631064598],[8.035886437555513,44.98064387621028],[8.035886088832891,44.98061337464308],[8.035885049507849,44.980559374843395],[8.03588475187152,44.98051810646867],[8.035849286275786,44.98013314538646],[8.035837430874551,44.980001938107364],[8.035786452620401,44.979958705182945],[8.035441587994708,44.97965999121212],[8.035405925722324,44.979629302979674],[8.035366345686922,44.97961184512444],[8.035295611544607,44.97958152583728],[8.035247171656133,44.97956077489434],[8.035208146672543,44.97954395631122],[8.035150308953826,44.97951924428459],[8.035115804810122,44.97950459282946],[8.035083330323236,44.979490452721244],[8.035042642581422,44.97947333556972],[8.03498097564684,44.97944720209803],[8.034905874694543,44.97941531533376],[8.034869076955554,44.97939865678801],[8.034831805650144,44.9793835398638],[8.034670271499937,44.979313499453006],[8.034556925159329,44.979264031500705],[8.034412874283758,44.979202230390925],[8.034333760281836,44.97919773557898],[8.034040639588333,44.97918108832129],[8.03324838102438,44.97887280853181],[8.032629261603676,44.97873254247685],[8.032371816207839,44.97860823896049],[8.032125972391421,44.978489862859874],[8.031880620520665,44.97837155611243],[8.031717135395072,44.978292722563324],[8.031372815336393,44.97755614283939],[8.031158951207374,44.97679366477301],[8.030932524747039,44.97657454422117],[8.030887222044692,44.97653253380336],[8.030845298524456,44.97649396018828],[8.030723674670535,44.976375881724636],[8.030513609576047,44.97618754097582],[8.03036758329363,44.97605779095616],[8.030256018573107,44.97571850396073],[8.030133715315566,44.9753536563807],[8.029757389642555,44.97454479107596],[8.029398732249359,44.97437971148304],[8.0287866936238,44.97419896052441],[8.028488577226389,44.97392187737703],[8.028409057071093,44.97356413067667],[8.028395794983153,44.97350250020682],[8.028470757551492,44.973233000686875],[8.028483488690867,44.97318352256692],[8.02861183557419,44.972725662640194],[8.028821991726366,44.972339557143584],[8.028960287365189,44.972084992696246],[8.029243025432697,44.97160638628261],[8.029309506409984,44.97149384527059],[8.028943424043321,44.970930326992836],[8.028913730607195,44.97088470006327],[8.028804277334764,44.970715391003495],[8.028563170439057,44.9704152930764],[8.028527392337434,44.97037301342529],[8.02849886157724,44.97033584732455],[8.028478280463053,44.97030914072362],[8.02845825968147,44.970285375328885],[8.028380205367892,44.97018830733272],[8.028356631443607,44.970132919271094],[8.028334823853733,44.97008099848936],[8.028321212038655,44.970051317494836],[8.028307716472177,44.97001805740382],[8.02829535221094,44.96998809445734],[8.028078383960633,44.969489440929856],[8.02802410809653,44.96930080084815],[8.028014070621811,44.96926441045946],[8.027881311378627,44.96879190559318],[8.027858529757376,44.968711371747155],[8.027848055877707,44.96867245167143],[8.027828600402685,44.968605138525305],[8.027808123891951,44.96840903444976],[8.027805074429478,44.96838004283789],[8.027801399668173,44.96833019193006],[8.027794870803309,44.968281820953024],[8.027884734979605,44.96743986344107],[8.02825416575889,44.96704710443499],[8.028296319612373,44.96700228852084],[8.028427779088181,44.96648253650743],[8.028467858903063,44.96632408353034],[8.028777349454812,44.96573710013577],[8.028831959061149,44.96569160857664],[8.028910181691007,44.96562621187542],[8.029071543634068,44.96549204746353],[8.029334825302028,44.965012684325536],[8.029755543499995,44.96474986140641],[8.03007170923713,44.96455085967767],[8.030451308968901,44.96432450122047],[8.030833799250523,44.964098219135835],[8.030938735354294,44.96404901365092],[8.031408910733136,44.96382855260784],[8.031613986129674,44.96341619982236],[8.031753695343724,44.96302580818472],[8.031592526494705,44.96252482702538],[8.031535887640196,44.96223410566633],[8.031506449752015,44.962082999871456],[8.031669253170794,44.961942008725295],[8.031995399254358,44.961659559493526],[8.032274628157902,44.96117131075265],[8.032692772882257,44.96071576213039],[8.03269088243043,44.9606678492528],[8.032676098860904,44.960292534759176],[8.032678821362525,44.96013052386896],[8.032725229080146,44.96001969922581],[8.03276950739312,44.95991455838409],[8.032883647753698,44.95964530434886],[8.032802330886984,44.95926868455482],[8.032878381153262,44.95881793386258],[8.032926912565818,44.95868392627294],[8.03309776121952,44.95821216273734],[8.033103630159477,44.9581624179259],[8.033169206084644,44.95761090901145],[8.033212026943572,44.95725892373373],[8.032880242145719,44.9570085586806],[8.032970320183097,44.95698309421403],[8.033115912109258,44.95694304029078],[8.033659539136611,44.95690095212001],[8.03401722755155,44.95687416018293],[8.034105105104155,44.95682882591513],[8.034253850565113,44.95675013095879],[8.034442413206966,44.95646816362903],[8.034493873579535,44.95639231134912],[8.034736298809287,44.95604756260711],[8.03476797610082,44.9559947312084],[8.034918897155674,44.95574303185717],[8.03492899582835,44.95551806646924],[8.035314424305575,44.955309787946106],[8.036243762102266,44.955613731179774],[8.036458671327292,44.95568401927342],[8.036472337838052,44.955898433332244],[8.036478764480204,44.95599925766515],[8.036926255568044,44.95608683833472],[8.036963170971946,44.95608636738373],[8.037026548641887,44.9560865597691],[8.037077056206984,44.956086400542446],[8.037267646033543,44.956087787833056],[8.037318909517511,44.95608852066832],[8.03747179697607,44.956089979562826],[8.037602170061922,44.956097531002534],[8.03786362897415,44.95611520590846],[8.038028537963832,44.9561272895719],[8.03807876072929,44.95612976058582],[8.038532770931175,44.956178604785876],[8.03913854525539,44.95634573754915],[8.039376833873835,44.95650077797017],[8.039411488291554,44.956703607996175],[8.039273872318041,44.9568779783496],[8.039299330625067,44.957157256955284],[8.03936528232538,44.957382859742786],[8.039568825871454,44.95772215184952],[8.039849688863992,44.95798556688379],[8.039958454784177,44.95821152836846],[8.039887760195546,44.95845849232066],[8.03964331285956,44.95876698924792],[8.039717151012015,44.95918619903517],[8.039815790916453,44.95944809961179],[8.040134541334012,44.95962630724947],[8.040307376775434,44.95990682687671],[8.040002529436116,44.95994027429818],[8.039747498895052,44.960028151737745],[8.03955065916156,44.960332550406044],[8.039548545095604,44.96053494047921],[8.039546078585609,44.960607079652064],[8.039599796253531,44.960767142042855],[8.039624080923447,44.96083986267111],[8.039636473255248,44.9608775033673],[8.039657790587553,44.96090662942392],[8.039682709944108,44.96094017423513],[8.039701876313154,44.96096644836991],[8.039718561262504,44.96099098045536],[8.039804047006331,44.96110434382026],[8.039899820129774,44.96134821076344],[8.039773971438459,44.96167121955371],[8.039866744182081,44.962095082038495],[8.040002669029205,44.96230778039426],[8.040086166882457,44.96235406473875],[8.040365434169589,44.96250886856541],[8.04069923337838,44.96264220008409],[8.040946070073671,44.962781419473494],[8.041055666727775,44.96284322835947],[8.041340367054122,44.963005195079525],[8.041545530438412,44.963121909436694],[8.04186493500835,44.96328032946729],[8.041979405265824,44.963337104835475],[8.042279825404878,44.96347464637224],[8.042903157798161,44.96361910689231],[8.043150230936787,44.96336491349334],[8.043649833068287,44.96305852481619],[8.044146962214901,44.96290065314657],[8.044524610823608,44.962683265890234],[8.044994424435304,44.96264219584448],[8.045761203954937,44.962747788703446],[8.045776342385718,44.96277500666785],[8.045813803872216,44.96285038362123],[8.045852809374884,44.96293114314455],[8.045876712323722,44.962982290478],[8.045938299728672,44.96310418235783],[8.045940562803846,44.96313571450285],[8.045944051277196,44.96316407828557],[8.045950223823679,44.96320974469634],[8.045954542553252,44.963248375873484],[8.045958945995334,44.963289852384115],[8.045965242446934,44.963336842219356],[8.045984088338415,44.96352014047398],[8.045979874726415,44.96356887620628],[8.045950669767882,44.963958131725704],[8.045939904237994,44.96404420424088],[8.045925088958885,44.964170113590114],[8.045917245034097,44.96424324585746],[8.046103396702208,44.964372905443646],[8.046218097637379,44.964452794662755],[8.046442892167358,44.9647562490816],[8.046491808717239,44.96483038644507],[8.046584883417127,44.96497146030444],[8.04661608449518,44.965018750735595],[8.04650793540135,44.965328420548374],[8.046515803353298,44.96542563379302],[8.046536993502032,44.96567973941857],[8.046574801072204,44.965914808657594],[8.046688617935281,44.966226735770334],[8.046707746601166,44.96627977396909],[8.04673078091686,44.966581920461536],[8.046741230115888,44.9667436552779],[8.046736832111941,44.96700917145853],[8.046687902461787,44.96720247651756],[8.046633374038175,44.96741789767097],[8.046781678356052,44.96813028269735],[8.047155441806613,44.96795787427879],[8.047349867958726,44.96772599777814],[8.04740929140766,44.96765842415526],[8.047649949573021,44.96729136302862],[8.04810162697516,44.96721427681247],[8.048203111432771,44.96719695582135],[8.048352483052604,44.96721636578993],[8.048589325721332,44.96724714378759],[8.048758268809861,44.96726909370289],[8.049002089159487,44.96731504508451],[8.049428242602632,44.967396182128525],[8.049902355730856,44.9675046622229],[8.049965163966528,44.96751768310602],[8.050137093204178,44.96752366561451],[8.050200357757607,44.96752586888951],[8.050314719188522,44.967530230857555],[8.050616258607265,44.96754110998436],[8.051370710014723,44.96754288144611],[8.052130912118573,44.96724770608653],[8.052476871073393,44.96726850278686],[8.052947767807257,44.96745243321475],[8.05305183646247,44.96739028240503],[8.05309392139528,44.96725578358697],[8.053200735602417,44.96691441501439],[8.053463915300265,44.966718561361255],[8.053851960413246,44.96625368870604],[8.054208719768557,44.965860548901794],[8.054558458590895,44.965479350369804],[8.054938218017101,44.96506541863956],[8.05573797805058,44.96582279858136],[8.055833113322544,44.96591487605138],[8.055971243763892,44.96602979131763],[8.056190205018373,44.9662051620278],[8.056933657041355,44.96590301698956],[8.057026808445805,44.96586585999305],[8.057654176732354,44.965884534527795],[8.05848997838027,44.96585542149721],[8.058829806418,44.965749531986],[8.058950179516541,44.96571246634038],[8.059321718633834,44.96559660953066],[8.059490465213182,44.96554409829423],[8.059700440683432,44.96566307730778],[8.059752249326591,44.96569167648313],[8.060028985971472,44.965847652664635],[8.060091779399817,44.965882263603454],[8.060294504608759,44.96599764226553],[8.061101870094477,44.96645304789065],[8.061288133756934,44.96630604024166],[8.061537922819271,44.96615055867786],[8.061629815887406,44.96576423238079],[8.061842352411464,44.96546442496999],[8.062145236986314,44.96547657738687],[8.06240623318547,44.96548704649409],[8.062603327626407,44.96538047696804],[8.063276154676227,44.96501710230354],[8.06305979883802,44.96476584652906],[8.062964857594565,44.96465673860733],[8.062596334108665,44.96422834803833],[8.062572534863985,44.96409188249584],[8.062457181258178,44.96343053397843],[8.062811390012273,44.96338394136532],[8.063336852727058,44.96342875515869],[8.063876768744366,44.96336566933878],[8.064374431672842,44.96317171145179],[8.064758440381478,44.96324236920941],[8.064970464107056,44.96346013679705],[8.065210901065251,44.9637816728573],[8.065439811230894,44.96413012270311],[8.065882189543416,44.964120248220055],[8.06604426179747,44.964085438096454],[8.066144629904985,44.96406387999148],[8.066408071896257,44.96404352276924],[8.06651143281811,44.9637292984035],[8.066682680170727,44.96333462084609],[8.066650948971914,44.96330928558456],[8.066606720157495,44.96327217079355],[8.066294763743594,44.96301637860503],[8.065818009001507,44.96280094732447],[8.065964331304063,44.962562316999005],[8.066045937628862,44.962429224881355],[8.065998523242609,44.962268507270785],[8.065905827531305,44.96195826988912],[8.065694254979556,44.96124709539962],[8.06610326935696,44.961266300751525],[8.066307064521261,44.961277087118724],[8.066346269491968,44.96127854641163],[8.066425353176742,44.96128151457472],[8.066472186073185,44.96128414522836],[8.066539937304958,44.96128756169055],[8.06668632137183,44.96129469767634],[8.06749172079973,44.961333797855026],[8.067572353503053,44.96139245154743],[8.067748630013117,44.961520438832615],[8.068024821708253,44.961568675352524],[8.068505641938966,44.961652645844275],[8.068733866037983,44.961642730836424],[8.069208262737702,44.961622367898926],[8.069526786282196,44.96162496368005],[8.070215993386277,44.96203115386123],[8.070484866673178,44.96236192770629],[8.070524435862064,44.962560114265855],[8.070612418017143,44.9630021021279],[8.07061334221089,44.96307490687888],[8.070615735949817,44.963455855123236],[8.070616317494396,44.96353527443642],[8.070616861927927,44.963609767562346],[8.070777240687063,44.96398463779576],[8.071099501140665,44.96463990856269],[8.071186465792907,44.96504569149113],[8.071546523255144,44.96542220516554],[8.07197325449584,44.965805031598755],[8.07201500383618,44.96584022832977],[8.072027903880404,44.96588676535935],[8.07211185576414,44.966142441149124],[8.072108338413388,44.966272987150134],[8.07210488793714,44.96638160937649],[8.072101641607947,44.96647898438923],[8.07209833555915,44.96658792735528],[8.071737444212127,44.967409000145935],[8.071645475227063,44.96761823530057],[8.071424893788441,44.96812339798809],[8.07153309928852,44.968227949935056],[8.071873421162021,44.968544030099196],[8.071828983640877,44.9688226472858],[8.071802233903869,44.96899036887508],[8.071785239574378,44.96909692482609],[8.071314201597305,44.969210126193104],[8.071038815659113,44.969250388236325],[8.07099845858047,44.96925601023736],[8.070888316367267,44.96927198205947],[8.070799034459215,44.969285602062364],[8.07076127840872,44.96929113441944],[8.070744190841436,44.969371848389294],[8.070678651746798,44.969695552589826],[8.070673197903787,44.96976698746404],[8.070660036733816,44.96996544944934],[8.070951704668222,44.97026038316246],[8.070991160016511,44.9704677575781],[8.07065266469259,44.9708071376427],[8.070103359969298,44.97135622142079],[8.071062001649851,44.971519620820544],[8.071794866822342,44.97164453022939],[8.071783073888291,44.97167646517973],[8.071622395437718,44.9721157333749],[8.071419578667008,44.97279823930637],[8.07144008463245,44.97309996203644],[8.071442007881922,44.97320883755653],[8.071447489369849,44.97351922221389],[8.071454156203684,44.97389674594976],[8.071300519601339,44.974535611030625],[8.071291033161069,44.97457505880713],[8.071499065856502,44.97527886312773],[8.071514366899729,44.97532493445624],[8.071526138670782,44.975362896925475],[8.071538923523011,44.975404019217315],[8.07155003395548,44.97543911188199],[8.071638373007126,44.97574363911397],[8.071834675575623,44.97615975534891],[8.071856895087175,44.976206952289374],[8.071869369045857,44.97623388131882],[8.07191280365185,44.97632199174982],[8.072258852497354,44.97649133539219],[8.072420072153152,44.97659699847706],[8.072516130784651,44.9766599552356],[8.072719931244869,44.976931803244966],[8.072787723151908,44.97702223287456],[8.072861281890347,44.977139357786044],[8.072905181384591,44.977209773746274],[8.073033901192781,44.97741465186028],[8.073076732616785,44.97748368718272],[8.073241915058052,44.97785859475735],[8.07364563543071,44.978123947162196],[8.073911266917875,44.97825079587261],[8.07405570636041,44.97831978608517],[8.074156993038388,44.978342599092464],[8.074387448353638,44.978394505553474],[8.074568498183371,44.97845201099006],[8.074731262277457,44.978505308098406],[8.0749143548442,44.978655325557256],[8.074776911051279,44.97877960574103],[8.074100300523758,44.979391381540765],[8.073694522774506,44.97977966960692],[8.073072602051383,44.98049478326596],[8.072833929638483,44.980744882462],[8.072784823261964,44.98095610170631],[8.072704206800227,44.98130482196274],[8.07262151795427,44.98166818139219],[8.072564760187396,44.981903951512166],[8.072915218053023,44.982194857874646],[8.073027698487172,44.982262444834774],[8.073266961879185,44.98240475061134],[8.073368253957995,44.982678027460274],[8.073399152602814,44.98276139320029],[8.073393141061093,44.983020152330376],[8.073390433876042,44.98324653933892],[8.073388288552556,44.98333742543262],[8.073437661328915,44.98411200456984],[8.073392501755288,44.98440272788615],[8.073373780066534,44.98453456885385],[8.07334092324527,44.98457874936187],[8.073262151567961,44.98468414228972],[8.073243507581916,44.98471187002227],[8.073153740789017,44.98549598354159],[8.073118754824753,44.98579383597581],[8.073070854834782,44.98621095477463],[8.072977932815705,44.98688240910308],[8.07294703886353,44.98710563610059],[8.072693813356098,44.9877652230492],[8.072620575963661,44.98779264236851],[8.072444948817044,44.987857722343776],[8.072035692841164,44.98786428788691],[8.07101908058762,44.98788213697911],[8.070971679893614,44.98811518437058],[8.070934768730526,44.98829104220926],[8.07063652294225,44.98829804672593],[8.069432536313018,44.98832830784215],[8.069224986517662,44.98875970253685],[8.069061667312798,44.98909921720373],[8.068753399445969,44.98973986187788],[8.068589121203976,44.99008129800697],[8.066419793127123,44.99118636521748],[8.066339422103825,44.99122741322092],[8.065867184597957,44.99146787198276],[8.065208345451806,44.991803044764566],[8.065037804347131,44.99189032310585],[8.064962734153175,44.991928561720805],[8.065006560572716,44.99213586880259],[8.065019066448505,44.99219743282161],[8.065030260149902,44.99224552729918],[8.065119247403167,44.99267005981992],[8.065214341741212,44.993117853723284],[8.065221582364304,44.9931530151414],[8.065365292491178,44.99383051311286],[8.065445759490784,44.99420998476394],[8.064741250305781,44.99429047630209],[8.06437971838444,44.99433178182542],[8.064318545862037,44.994335061430036],[8.063651168795234,44.99437083090919],[8.063261371996957,44.99434012421113],[8.061499096458734,44.9942032375885],[8.061454449410219,44.99419976048836],[8.060642365878468,44.99400460533219],[8.060623232265963,44.993729320013394],[8.059394490458615,44.99360201320706],[8.059324137012892,44.993594604834364],[8.05926964279385,44.993588756572365],[8.059196466646153,44.99358103770626],[8.059145139999046,44.993575128161986],[8.058830300451763,44.99354563960721],[8.057843731207397,44.99341386547483],[8.057174712482746,44.993380104822656],[8.056450992279917,44.9933438511531],[8.0555585554461,44.993367048059696],[8.055446336801849,44.99336988092699],[8.055397535570359,44.993371138122974],[8.055245976475431,44.9933408378188],[8.055208417126403,44.99333450298612],[8.054853131673562,44.99330361830477],[8.054563354534483,44.993278726455536],[8.05440463666698,44.993286410646014],[8.053795641816354,44.99329036280787],[8.053739744765121,44.993294415914605],[8.053641616531761,44.99329866274348],[8.053484577012544,44.9933058005434],[8.053280053206526,44.993262256966396],[8.053226357520613,44.993250267718615],[8.053182817162657,44.99324160064155],[8.053121075013284,44.99322811872294],[8.05293465426026,44.99318871608829],[8.052677418125452,44.99310805857211],[8.052388793609682,44.99301765737639],[8.052238860610508,44.99283344516849],[8.05220850555428,44.99279561195209],[8.051807957029627,44.9927804681828],[8.05082326162417,44.992744291803454],[8.050772984017758,44.99274240567853],[8.050418776476452,44.99272919595839],[8.050333699840545,44.99272603905736],[8.049553146178761,44.99245847376411],[8.048597940496126,44.99230200029621],[8.04794987401224,44.99246313144902],[8.047261594977671,44.992781126947115],[8.047190630767286,44.992811496129434],[8.04684466833213,44.99293550931589],[8.044494795609392,44.99382732469766],[8.044312730810836,44.993875817721474],[8.04408932121717,44.99398827329251],[8.043865080373239,44.99415073801076],[8.043680875067071,44.994327827233136],[8.043506855465921,44.9944978575333],[8.043381420654047,44.9947556790343],[8.043028386009073,44.99499202040523],[8.042922129138907,44.995266762788745],[8.042733285878914,44.9957567556367],[8.042600762200404,44.996100172876034],[8.042496038245588,44.996166379031],[8.041905172430278,44.99653993102452],[8.04102877557336,44.9967047150749],[8.040242855658747,44.996940059205684],[8.039756656779298,44.99699448896728],[8.03811434926085,44.997142696757216],[8.037519420831511,44.997061157750736],[8.037068051571987,44.99707981328369]]]}}]}
