{"type":"FeatureCollection","metadata":{"code":"006032","referenceDate":"2026-01-01","sourceDbfExportDate":"2026-02-18","upstreamArchiveUrl":"https://www.istat.it/storage/cartografia/confini_amministrativi/non_generalizzati/2026/Limiti01012026.zip","sourceManifestSha256":"70ac8256c4785dc6ed2814c32b6965ae76f9161b51abaa1660059e1c6cbd8ca6","license":"https://creativecommons.org/licenses/by/4.0/","attribution":"Istat, Confini delle unità amministrative a fini statistici al 1° gennaio 2026, versione non generalizzata.","modifications":["Converted from WGS 84 / UTM zone 32N (EPSG:32632) to RFC 7946 WGS 84 geographic coordinates.","Converted from shapefile to per-municipality GeoJSON without geometry simplification."]},"features":[{"type":"Feature","id":"006032","properties":{"code":"006032","name":"Carezzano","alternativeName":null,"regionCode":"01","regionName":"Piemonte","territorialUnitCode":"006","territorialUnitName":"Alessandria"},"geometry":{"type":"Polygon","coordinates":[[[8.905258350930744,44.827942431736474],[8.905143973760396,44.828018865392465],[8.90490817618732,44.82814018278809],[8.904793901891214,44.82815360348419],[8.90464360719503,44.82818948238974],[8.904436358837268,44.828261322250384],[8.904300642813059,44.82833321989658],[8.904243208357682,44.82840970394708],[8.904221769235702,44.828463683857166],[8.904121653398292,44.828517619344524],[8.90387883669166,44.82857143202869],[8.903471555598554,44.828643102502234],[8.903249611138639,44.82873293847908],[8.903142346875482,44.82881385653922],[8.90304442154944,44.82898032851137],[8.9030596049746,44.82865624876953],[8.903240005102077,44.8276301591636],[8.90336306123418,44.82685608581676],[8.903419197114511,44.826608586270815],[8.903447918469354,44.826460067928],[8.903477945309419,44.82622426892748],[8.903485168092521,44.826167535051766],[8.903461044046814,44.826067374164246],[8.903449901833962,44.82602364644954],[8.903402980352462,44.82596157349555],[8.903329119663255,44.825865818486236],[8.903229779946017,44.82578543560808],[8.903126642999386,44.82569755688805],[8.903043118511498,44.82552350853285],[8.903014869580488,44.82539295529983],[8.903025734700625,44.825046379684345],[8.903022754740721,44.82493833900263],[8.90299858616043,44.82473577698309],[8.902971227761853,44.8245512067483],[8.902941114441745,44.824357635555565],[8.90289238182779,44.82419105783485],[8.90284990856865,44.824060491534674],[8.90277158967627,44.82393397810507],[8.90261133229946,44.8237405596981],[8.902547034212802,44.82366312098658],[8.902276254580524,44.823402837471654],[8.902230533518015,44.82332628768582],[8.902258280689963,44.82327679119724],[8.902295226314301,44.82318229963887],[8.902298500072398,44.82311478858806],[8.902286361018477,44.82304726254991],[8.90220064779839,44.82299769054648],[8.902086574100277,44.82297744496385],[8.902047726774306,44.82297054836919],[8.90204604600151,44.82293751602871],[8.90203626845421,44.822745486056306],[8.902000299998045,44.82226384067187],[8.90199659625733,44.822231082958474],[8.901973038744565,44.82202525064749],[8.901964273538967,44.8218316983333],[8.901915293992401,44.82181366446334],[8.901780985308363,44.82176402788278],[8.901591801031433,44.82167383933208],[8.90147578012814,44.82156572089096],[8.901350674245231,44.82145307717406],[8.901255913003492,44.82139449712281],[8.901100243388825,44.82135383807566],[8.900843418240541,44.82129961652757],[8.900617458200228,44.8212228896331],[8.900363293235047,44.82110894325562],[8.900320565799227,44.821077657499],[8.90025100020117,44.82102902623565],[8.900180788867022,44.82094345919599],[8.90014741838111,44.82081289977204],[8.900149569238701,44.82075172352886],[8.90015406512089,44.82062385915642],[8.90014798554014,44.820484306966655],[8.899838105302743,44.82061980066001],[8.899747286116257,44.820659509845264],[8.899542193093252,44.82072079672193],[8.899453006223418,44.82061946406966],[8.899233167363573,44.82037143133768],[8.899145774858232,44.82027967927574],[8.898749419839415,44.819870935131064],[8.89861220543571,44.81973759956363],[8.898248707555627,44.81938437694861],[8.898163496070277,44.819289778662295],[8.897542412416435,44.81847001721266],[8.897306519255183,44.818113753350886],[8.897207034155008,44.81770453207352],[8.897092721188793,44.8175333978319],[8.89644860312581,44.81746080149798],[8.896035087496658,44.817397981942044],[8.895912024050082,44.81737928387281],[8.894556477475568,44.81677164477206],[8.894252181838647,44.816635088756485],[8.893587199197269,44.816420547796156],[8.893314847868485,44.81633265081545],[8.89297618635085,44.81630082619298],[8.892725679140057,44.816264584095116],[8.892562441776192,44.816235659561094],[8.892496494673061,44.81622495868247],[8.89232592161226,44.816155450307505],[8.892120940400728,44.81607497058506],[8.891840029725847,44.8160206852817],[8.891540560289302,44.81596188505548],[8.891168019827067,44.815876022182714],[8.890630389605604,44.81571796886249],[8.890221157347014,44.8156005419833],[8.889606985186091,44.815392889030015],[8.889210077645936,44.81523948586204],[8.888819079158903,44.81509955618432],[8.88851369341819,44.815036243842776],[8.88811023851337,44.81499084808815],[8.887661350363894,44.814945403526075],[8.887153831726025,44.81497641184991],[8.887026119090537,44.8149987740324],[8.88692463878409,44.81501558157147],[8.886756495635877,44.815043530702624],[8.88634967572924,44.815115137144105],[8.885775195928357,44.81522708005829],[8.885505955019955,44.815262838239136],[8.885175862535426,44.815303009623776],[8.884821269219906,44.815343158948146],[8.884344540135746,44.81538767835923],[8.883965507211244,44.81539631051107],[8.883626412510779,44.815391467976546],[8.883293270175376,44.81537761479551],[8.883057739139824,44.81535488092024],[8.882697430226372,44.81528697496216],[8.88229412503795,44.815183043490066],[8.881796447138647,44.815034005457555],[8.881322905991446,44.81487597551347],[8.881162963546267,44.81481278375526],[8.880960315512764,44.81533919986157],[8.879161250154379,44.81533731048926],[8.877571261674854,44.81552016438971],[8.876190771222477,44.815694206831274],[8.876137528581676,44.81570523083063],[8.875282124901977,44.815882269259134],[8.874932548670767,44.81596741074794],[8.87474761267364,44.81613374550916],[8.87451824334425,44.81637656080733],[8.87440375424311,44.816469012862484],[8.874345264739704,44.81649790235675],[8.87409462156565,44.816529113369235],[8.873869894328982,44.816636903710716],[8.873711655391583,44.81706432603977],[8.873680885514178,44.81713118748112],[8.873527392144874,44.81746472435626],[8.873490421214312,44.81756370508169],[8.873380099020727,44.817766124569644],[8.873245332450267,44.81794152727516],[8.873095053608779,44.81816191465206],[8.87257990058217,44.81894901769168],[8.872257967753727,44.81939876331468],[8.872165930215802,44.81955170154854],[8.871969775705283,44.81978103283409],[8.871693835675915,44.82014982015039],[8.87156186968319,44.82030721051706],[8.871412116682118,44.82046006339184],[8.871231189041726,44.82059490620619],[8.87102272326566,44.82084671576468],[8.870869787670271,44.82100859893779],[8.87069516752953,44.82114792662094],[8.870447409842763,44.821291671296535],[8.870190248998606,44.82139941661011],[8.869933548921912,44.821475636129676],[8.869710116752675,44.82152490080431],[8.869459437851111,44.82156062158472],[8.869117057059581,44.821596235858884],[8.869030985129845,44.821596256015305],[8.868820583647036,44.82159589750955],[8.868569953781844,44.82160910096774],[8.868248127479935,44.8215997729544],[8.868155256966547,44.8215148370591],[8.86798494047139,44.82136272172319],[8.867929459316763,44.8213146866019],[8.867476475625233,44.82075281104146],[8.867408535595663,44.820666626038914],[8.867593628640316,44.8205997653055],[8.868152227222279,44.8200287738363],[8.868359686614712,44.819880470355116],[8.868452887767107,44.81974555086498],[8.86851026413573,44.81953857685575],[8.868589333544257,44.819363116613616],[8.868647122872945,44.81914712547993],[8.868608730167788,44.81907548581433],[8.868578738090877,44.81901903713486],[8.868554632530223,44.81897148670845],[8.868328945590847,44.81880312929733],[8.868289945605676,44.818773506653145],[8.868204470268472,44.81862008323837],[8.868201825679044,44.81854951993217],[8.86819707967183,44.81837650449955],[8.868234859537877,44.818286962556634],[8.868263797264218,44.81822845453812],[8.868319982768982,44.81820313398868],[8.868363205478076,44.81818275419026],[8.868411055829936,44.81813466278835],[8.868469432192748,44.81807578983357],[8.86851976528881,44.81802930904014],[8.868713217881561,44.81784978886075],[8.868751384780342,44.817813820267354],[8.86878229556091,44.817783423797614],[8.868812945601189,44.817752540900194],[8.868814082666773,44.81768894065385],[8.86881452052876,44.8176575945421],[8.868812554591726,44.81763102404501],[8.868807160582811,44.81756842364297],[8.86876324785085,44.81751188518685],[8.868693711348307,44.81742778397845],[8.86858677117615,44.81735564774953],[8.868513762167069,44.81724867410374],[8.86856479553514,44.817169750102344],[8.868614911565073,44.817188400945305],[8.868680563114902,44.81721194973212],[8.868744400178286,44.81723420187708],[8.868779949778649,44.81724119784039],[8.868873021540043,44.8172603912382],[8.868980519813581,44.81728107567435],[8.86909186294815,44.817299584079706],[8.869157042818491,44.817310934048706],[8.869194279004036,44.81728692188133],[8.86924920922686,44.81724842018828],[8.869272912526284,44.81721644714482],[8.86930849000994,44.81717192779284],[8.869380439474872,44.81699196037436],[8.869496428028913,44.81689648583115],[8.869554053963792,44.816888925887895],[8.869623372569473,44.81687972015581],[8.869659651736377,44.81674471390883],[8.869752509741971,44.8165737858234],[8.870038934937275,44.816272548635645],[8.869975047287388,44.81620946039226],[8.869432330767873,44.816069294233834],[8.869204080661932,44.815979009074496],[8.869083022323313,44.815861853232],[8.868655501867647,44.81545626161419],[8.867921044555626,44.814816261493945],[8.867857174891233,44.81474867276086],[8.868693463971901,44.81439855343287],[8.869243773660127,44.81415161923827],[8.868226076422353,44.812602086194076],[8.868535939880793,44.81255834140767],[8.86866923344628,44.812539569390516],[8.868582238594787,44.81239113967721],[8.868075898653007,44.81153600893774],[8.867907034264128,44.811250985137974],[8.867822411366923,44.81110724861569],[8.868086445106988,44.81126059623138],[8.868293167596217,44.81142287217725],[8.868373072053355,44.81145947282299],[8.868500054760917,44.81151764114725],[8.868735568450639,44.81152690800402],[8.86900006503095,44.81147770936305],[8.869242950296394,44.81137446841427],[8.869436168945175,44.811212652109646],[8.869550660116955,44.811091251092044],[8.869672822387063,44.810897844502534],[8.869744397482236,44.81069536346076],[8.869895138809277,44.810438973623],[8.870002594857617,44.81029057364354],[8.870202832912904,44.81016926772257],[8.870503084490375,44.81003008214314],[8.870767427010303,44.80987284348543],[8.871046444516118,44.80968411208357],[8.871032818365407,44.80941851925661],[8.870935446521903,44.80919787265776],[8.87091918315107,44.80915732984342],[8.870656208934674,44.80853139356949],[8.869993981977002,44.807510473744564],[8.870029882429284,44.80750392587256],[8.870215988757582,44.80745510686021],[8.870630260930318,44.807392561264436],[8.870730302222263,44.80737016266328],[8.870483360352022,44.80717633759699],[8.869763418332637,44.80662638808667],[8.869558738171897,44.80653716021826],[8.869513466567797,44.806517426919854],[8.869473031331609,44.80650017114424],[8.869391495026324,44.80641892279403],[8.869448179335409,44.80622994160193],[8.869585761000474,44.80596882425777],[8.869605439573876,44.805928980333675],[8.869639725706584,44.80586004165558],[8.869668453634118,44.805798080556904],[8.869427611262319,44.80553224763881],[8.868807245460632,44.80523057216896],[8.86871931123021,44.8051882146299],[8.868684743685229,44.80517131370246],[8.868675824986388,44.805213159340305],[8.868665963711043,44.80526581467742],[8.868592133809713,44.80527529732698],[8.868386890483306,44.80530150055087],[8.868245954741539,44.805247321035914],[8.86802076556584,44.80525826880787],[8.867960633276752,44.805260880167666],[8.867890869284508,44.80526455612177],[8.867834120885231,44.80527267709626],[8.867409208672923,44.80533187749556],[8.867029579664598,44.8054574674147],[8.866954272355098,44.80558025031178],[8.866201131870225,44.8068039046916],[8.866111588727918,44.80678994261519],[8.865980605919251,44.80677020192616],[8.865754981339403,44.80673878290965],[8.865879346801076,44.806099775863075],[8.866185080770594,44.805645530673665],[8.865852307285325,44.80498347330155],[8.86617296747303,44.80455625409616],[8.866426079140863,44.804466524447086],[8.866541602854634,44.804232609453265],[8.8667095036214,44.80407976300502],[8.866813769538917,44.80393134323205],[8.866884905951615,44.80375139492332],[8.86700772675811,44.803607494108086],[8.867052625510203,44.80350852356731],[8.86720877277029,44.8034771964978],[8.867343145952432,44.80329730339449],[8.867597143793272,44.80280698603891],[8.867828283339454,44.802469663495415],[8.868293764659862,44.80211461727642],[8.868867265734998,44.80169667663242],[8.869176273547604,44.80152599744331],[8.86953759692517,44.80126984869161],[8.869764915374422,44.80103605885825],[8.869606642011362,44.800266192832446],[8.869583526172692,44.800200525682],[8.869422145102725,44.79972584922743],[8.869230536491347,44.799009944351916],[8.869167786912866,44.79880733006928],[8.868956404038583,44.7984560028386],[8.868875115898884,44.79823085518507],[8.868694070060192,44.797749031479945],[8.868594371578823,44.79745634737481],[8.868527974718507,44.797298732526016],[8.868465500735693,44.79696556841083],[8.868358431245433,44.79662337400417],[8.868272876655826,44.79620003371155],[8.868485878617369,44.79618266989124],[8.868664506955296,44.79614660988773],[8.868947123024718,44.79609291744242],[8.869125407643761,44.79605261536319],[8.869367344995391,44.79599887615447],[8.86962028762607,44.79595415934892],[8.869854258959439,44.79591842081492],[8.87008504275955,44.79589617164797],[8.870367629921862,44.79586498577843],[8.870571586470353,44.795839685819494],[8.870895592367214,44.79580256718055],[8.871338308587703,44.795708544061824],[8.87160235507571,44.795654821419525],[8.871869992146893,44.795578610971994],[8.872245452490843,44.795525012684145],[8.872368368152124,44.79551165394052],[8.872408461885737,44.79550408373642],[8.873045027255918,44.795390875050764],[8.87304955510237,44.7951208224559],[8.873061055375173,44.79491827377984],[8.87315423103131,44.79476985365594],[8.873176605219998,44.79466184067889],[8.873210620634874,44.79446383430184],[8.87325548622421,44.794360362700715],[8.873371058030509,44.79427046567596],[8.873493693761278,44.79419409053952],[8.873501497274443,44.79405905188771],[8.873472442878732,44.79378896111105],[8.873424256713799,44.79359986129326],[8.873354101108607,44.793523272463574],[8.873261081656443,44.79342414628298],[8.873235525223919,44.79336560056788],[8.873228398133326,44.79320355388288],[8.873273222062853,44.793118077712194],[8.873340241794995,44.793005633780744],[8.873359071718957,44.792884121523535],[8.873311108668679,44.79277153204069],[8.87317751660192,44.79261384340561],[8.873085023328581,44.79246521784862],[8.87307422718576,44.79233467494581],[8.87314469649016,44.79226723812419],[8.873252864440436,44.792127813352394],[8.873234535782354,44.79201977313888],[8.873186662386061,44.79186667893398],[8.87315731908748,44.79174061475717],[8.873205807601515,44.79160114172354],[8.873239584651952,44.791511153948996],[8.87322130675708,44.7913806027338],[8.873296099848641,44.79114663514699],[8.873404471968712,44.790912685823336],[8.873993487012228,44.79085849545849],[8.874404029078514,44.79087778310383],[8.875292524600317,44.790874257419375],[8.876091748832293,44.790870628002956],[8.87729740028145,44.79087115371186],[8.87768356580105,44.791120965600356],[8.877953141141203,44.79130922743631],[8.877862394669464,44.79199330823767],[8.877923101807392,44.79206088736471],[8.878055149920048,44.7922050546292],[8.87812231061793,44.792205126320624],[8.878728119414808,44.792129261039975],[8.87897747173699,44.79209351832205],[8.879315758113716,44.79203535893084],[8.879601846415481,44.79201314984519],[8.879969969847412,44.79204954365593],[8.880129562528122,44.79206322456117],[8.880257927862791,44.792049293195014],[8.880992158595536,44.79196960298723],[8.882058959463457,44.79191669071316],[8.882530037847099,44.79186855683684],[8.883339278304396,44.79178626489744],[8.88460751426356,44.7913735386485],[8.885697440374937,44.790681680498196],[8.88637001199329,44.790458219723476],[8.886429589564424,44.79049878374702],[8.886565472968897,44.79130911120455],[8.886649696827167,44.79188083543709],[8.886938109228838,44.79201261097851],[8.887702239965016,44.79236283426773],[8.887709983334304,44.7924078450574],[8.887661017559285,44.79254705999437],[8.887630429154665,44.79278106693091],[8.887615744921899,44.79297522931802],[8.887551777726165,44.79314590581385],[8.887428822489314,44.79330301805882],[8.887372680445388,44.7934514278805],[8.887443791595674,44.79354608646761],[8.88749161585317,44.79358711455035],[8.887502046136467,44.79377119750437],[8.887506225346968,44.79393802147621],[8.88753163383902,44.79425734200725],[8.88757942108927,44.79455023952974],[8.887563187753498,44.79468501066847],[8.887642056357976,44.7948426051891],[8.88781108476756,44.794996732364005],[8.887936921251562,44.79510489462743],[8.888004975626531,44.79521204136189],[8.888023700357435,44.7953470898869],[8.887974858487805,44.79559910500854],[8.887918677058908,44.79581510749571],[8.887918214745806,44.79605393763436],[8.887936099856613,44.79622500783135],[8.887961827300787,44.79629106097219],[8.887976917884938,44.79632781395501],[8.88808446223834,44.79661224642929],[8.888106440384046,44.79679653319401],[8.888098126043047,44.79684631198356],[8.88808915923133,44.79690004752114],[8.88823288851487,44.79694383207121],[8.888545694031517,44.797039832566234],[8.889679526760006,44.79609167509605],[8.891160835914357,44.79740807106441],[8.891472532577646,44.79721932048234],[8.892825782963962,44.79850019490711],[8.893369683688299,44.799013127140675],[8.893458804894458,44.79909813209346],[8.894128738275278,44.799850446104706],[8.894157249418685,44.80024656134262],[8.894588969450417,44.80054402744502],[8.894904373007897,44.800499314110255],[8.895899692055615,44.800270673894445],[8.896488441778565,44.8000506531654],[8.896691361767214,44.79992930391307],[8.896742378125973,44.799897842196856],[8.89719324960949,44.80023433330946],[8.897338002476724,44.80034189719122],[8.897549351155057,44.800500095247756],[8.897591353090249,44.800459620125096],[8.898185927062817,44.79993987788258],[8.898541618758527,44.79962868887746],[8.899226586256656,44.799008015318606],[8.899249975187036,44.79898666192337],[8.899286486759868,44.79895312205397],[8.899368936260792,44.7988784373869],[8.899848472841757,44.798275389764164],[8.900112033805092,44.79796469559208],[8.900508871723265,44.79817276882789],[8.900699814724174,44.798184792767216],[8.900786351894844,44.79819030083228],[8.901242319888144,44.79818820330845],[8.90218592728207,44.79818365993697],[8.902258782799533,44.79818327580051],[8.902432094992605,44.798328682440925],[8.902474195208418,44.798368010503786],[8.902580764575903,44.79843561470301],[8.902857475278134,44.79860240545734],[8.90319311549751,44.79872420456765],[8.903371155132765,44.7987409599855],[8.903773286187121,44.798780233327236],[8.903973632569675,44.798800584991014],[8.90413812677863,44.79876963482655],[8.905038870523894,44.79859972185934],[8.905423503037966,44.79801040649953],[8.905616093432858,44.7976504858457],[8.905653072468285,44.797029353199605],[8.906372723781129,44.796678859546695],[8.907801444217824,44.795158663227525],[8.908462298114726,44.794240967817096],[8.908630821120754,44.79396099586468],[8.908877431326847,44.79354812359313],[8.909068859790626,44.79342676194463],[8.909355202765253,44.79322442714941],[8.909574842073226,44.792990551648614],[8.909637897167583,44.79283849405735],[8.90964244300316,44.79271153254957],[8.909657172597642,44.79263053290771],[8.90982650690273,44.79258436453341],[8.910038378561161,44.792562675047144],[8.910114073791245,44.79256894980489],[8.910385748016939,44.792586085741235],[8.910857470103435,44.79265007294936],[8.91098810282567,44.79267208362671],[8.911133189326158,44.792551811254135],[8.911498010555032,44.792249380197575],[8.911712845042347,44.792359494627455],[8.911999206512654,44.792505637701],[8.912393707413575,44.79218705589379],[8.912475763467883,44.792268128308756],[8.912592801697702,44.79220972038388],[8.912851495367372,44.79251148284313],[8.912346977464244,44.79331229112147],[8.912802132845293,44.793551188471874],[8.913321089212463,44.79345139833694],[8.91342785573524,44.79343014487727],[8.914384469248006,44.79324632160236],[8.914907076045486,44.79355024388154],[8.91505513410478,44.79363841504674],[8.915519220120837,44.79346306589518],[8.915987041602863,44.79328605308346],[8.916446179500596,44.793112821046215],[8.917598303960398,44.79222243846364],[8.917765439246626,44.79201465722837],[8.917865591513184,44.79188955022369],[8.918606697260412,44.79096284380979],[8.91956562458422,44.79064293297644],[8.919739943833271,44.79058487851868],[8.921772165126752,44.78990729951359],[8.923379499675782,44.78881462442759],[8.923599025870242,44.78883989680629],[8.924122804821733,44.7889012489206],[8.924547280392076,44.78895086703865],[8.925851781934405,44.78910372010524],[8.925731528182213,44.789119883846894],[8.9255536531995,44.78914347909154],[8.925273659489115,44.789180480971446],[8.92516975536352,44.789221668499486],[8.923831590829764,44.789752304325795],[8.92378249907253,44.7897715688185],[8.923743237346065,44.789787117419614],[8.922296585052017,44.790703640858744],[8.921934329565422,44.79093365807533],[8.921651954841895,44.79115356361186],[8.921512926628651,44.79126161047075],[8.921350010588478,44.791387390460834],[8.920447317930146,44.792089429188],[8.918624125805342,44.79346547798127],[8.917085735739535,44.79474019956594],[8.916968763064887,44.7948371228499],[8.916759956925162,44.79504944919631],[8.91672107497627,44.795088985745444],[8.915958624309518,44.795853614941855],[8.915304607408965,44.79648329107586],[8.914620528752684,44.797139949469795],[8.914282262547427,44.79717120395393],[8.914404351474836,44.797432356209924],[8.91446733766286,44.797598938677474],[8.914467144830038,44.79772946841843],[8.914351468794377,44.79792742666063],[8.91418940322201,44.79808920231184],[8.913909146269342,44.79807113813804],[8.91398685002144,44.798161202947846],[8.914159051353979,44.79823569286521],[8.914476906304571,44.79860718036027],[8.914651328554676,44.79874685825388],[8.914749817816226,44.79879076644847],[8.915015394745032,44.79890916566389],[8.915320282434962,44.79900841413009],[8.91543546524408,44.79913003428529],[8.915788564145004,44.799233814706916],[8.916048365962865,44.799355540783814],[8.916293491123136,44.799526755252074],[8.91646036841197,44.79969791107914],[8.916720414887019,44.79994116788819],[8.916861585158024,44.80012581853593],[8.916924536121021,44.80032390919534],[8.917102456250907,44.800526580842494],[8.917303006424813,44.80063926237255],[8.917603926537488,44.800751998001154],[8.917822987372313,44.80092321014219],[8.91805692323518,44.80117994032564],[8.918097098348317,44.80128589041988],[8.918290803867343,44.801495186347736],[8.918312608761264,44.801517741757586],[8.918374629686712,44.80158190636496],[8.918417065405002,44.80162580640785],[8.918576865372199,44.80186524232089],[8.918691499129572,44.80203558696714],[8.918906895099372,44.80227880690063],[8.919022161313864,44.80236891288779],[8.919196701393721,44.80244104992883],[8.919445598670675,44.80246823427659],[8.919650724018515,44.80249494168389],[8.919736667034147,44.80252727244461],[8.919791245453913,44.80254949770847],[8.9199140667698,44.80260810115905],[8.920121675267957,44.802774783480224],[8.920287013429077,44.802895035682965],[8.920344701117527,44.802936994858705],[8.92036613715051,44.803012654721],[8.920434402677481,44.80324841961878],[8.920463052093979,44.80335676530982],[8.920497607499518,44.80361368443855],[8.920522125908292,44.803796809720666],[8.920476940390689,44.80418838639218],[8.920446294982652,44.804629457541026],[8.920424092278834,44.80469245772674],[8.92014485241252,44.80487681315934],[8.92013350495208,44.80508836316573],[8.920118290039524,44.805227879072376],[8.919970403110412,44.80533647572769],[8.919939163193657,44.80535938792656],[8.919858323022849,44.80541854072829],[8.91990347911479,44.80548418699675],[8.920039793551307,44.80568692102137],[8.920096042785206,44.80573492879665],[8.920622739609852,44.80619595030799],[8.92067710032894,44.80623954718612],[8.921279974730014,44.80672304307224],[8.921513565692596,44.80728133145753],[8.92163227111134,44.80746146121414],[8.921855369141428,44.80758764622872],[8.921883372117144,44.80761727912709],[8.92191611307948,44.807653746151196],[8.92205416196001,44.80780393375666],[8.92221506278137,44.80811000948593],[8.922229722521966,44.808161187248984],[8.922277978873174,44.808330606070086],[8.92226664682884,44.8085331413373],[8.922221535920597,44.8088751989596],[8.922232337227053,44.80906875154725],[8.922257095615931,44.809240938736515],[8.922324954148745,44.80958195692564],[8.922302142141408,44.80978899986102],[8.922261124559656,44.81003651701271],[8.922097037623995,44.810373995035135],[8.921977641351209,44.81072050016713],[8.921910086074188,44.81099500749857],[8.92195055822992,44.81144514285742],[8.921957840560921,44.81161170340715],[8.921942635654652,44.81176921305107],[8.921834542059853,44.811913182820874],[8.921548080474354,44.81216504868924],[8.921146252018728,44.81238532824774],[8.920729471462879,44.8125515745623],[8.920100757190955,44.81278518885426],[8.919646815850516,44.812960420928675],[8.919218901837379,44.81317165689198],[8.918601049531677,44.81355380995322],[8.918146954981252,44.81383255878328],[8.917391433293815,44.81430013390548],[8.917071367059657,44.814520456354735],[8.916769792496874,44.814812804636844],[8.916535115150449,44.81503768616943],[8.916248635339278,44.81525803172536],[8.915913494083009,44.81552784123872],[8.915620052126988,44.8156536558753],[8.915362758191936,44.81566246410527],[8.915262641934211,44.815738917728076],[8.915105707013884,44.81575229730614],[8.915077154487228,44.815828786834665],[8.915077170677458,44.81587807579359],[8.915077016708764,44.81592783004024],[8.915069531573847,44.81617536837078],[8.91504752967111,44.8163599019743],[8.914969147022695,44.8164498676195],[8.914832915337826,44.81663431606743],[8.914418415693593,44.81681853455819],[8.914168286013414,44.81705691369502],[8.913968956997346,44.81715633453217],[8.913925032957371,44.817178260542605],[8.91354618822874,44.817574061993824],[8.913309946633188,44.81777192715872],[8.913066926569742,44.81799679601465],[8.912730962503783,44.81825759771859],[8.91249475556713,44.818410459129886],[8.9123089829032,44.818423829863534],[8.912144504854924,44.81853598087212],[8.91210878391408,44.81855870198296],[8.91192292272913,44.81886912167588],[8.911550728954092,44.819305444981104],[8.911457660300485,44.819422405233915],[8.911343279585378,44.81953483425656],[8.911335881424003,44.81971487906583],[8.911292690978982,44.81978685872452],[8.911154074483626,44.819870810930276],[8.91097109907661,44.81993964788985],[8.91081411713184,44.81999354498131],[8.910728234465395,44.82005197605521],[8.91072050536786,44.8204615697387],[8.910715766032887,44.820486949568604],[8.910612486664938,44.8210466397476],[8.910661812040846,44.82134824157753],[8.910404284012737,44.821739629647716],[8.910375261111932,44.82184764418743],[8.910160911827356,44.821923985547414],[8.910053589663901,44.82205893060451],[8.90968840862955,44.82277432426028],[8.909666399838148,44.8229498390963],[8.90978064834983,44.82319299439893],[8.90973012952447,44.82339549512902],[8.909587275277724,44.823503402302684],[8.909372864903974,44.823615768042174],[8.909236710236122,44.82372817669126],[8.909157852508176,44.82384514897247],[8.909121915311943,44.82407916962741],[8.90906457225331,44.82435369574529],[8.908978007182123,44.82483974043747],[8.908820545517662,44.824925138473496],[8.908727417833115,44.82508710285712],[8.908670294105788,44.82520407323659],[8.908541217056369,44.825343514900574],[8.90838409180595,44.82546042300899],[8.908305175547815,44.82562689593314],[8.908183505391872,44.8258158444418],[8.908168897560175,44.826058880463016],[8.908111425012248,44.82614885805938],[8.907832343711526,44.826405194131254],[8.907682525286903,44.82640507312545],[8.907532606122507,44.826467966353675],[8.907417775754592,44.826589404845635],[8.907360698215829,44.826688380976506],[8.90728197949268,44.82671532820125],[8.907203037961596,44.82689529370569],[8.907081604864745,44.82693120107555],[8.906881434146564,44.82702106275086],[8.90679914151299,44.82705249612469],[8.906617163964025,44.82711984957456],[8.906531204442985,44.82723231486529],[8.90645227695005,44.827403283046955],[8.906330668610924,44.82754723027622],[8.906151623647862,44.82777213288181],[8.906130179206269,44.827830634056454],[8.906037198096765,44.8278800588892],[8.905858472051607,44.8279069210023],[8.905729997994523,44.8279068150275],[8.905472654171898,44.82791110161606],[8.905365538249365,44.82790651360791],[8.905258350930744,44.827942431736474]]]}}]}
