{"type":"FeatureCollection","metadata":{"code":"006037","referenceDate":"2026-01-01","sourceDbfExportDate":"2026-02-18","upstreamArchiveUrl":"https://www.istat.it/storage/cartografia/confini_amministrativi/non_generalizzati/2026/Limiti01012026.zip","sourceManifestSha256":"70ac8256c4785dc6ed2814c32b6965ae76f9161b51abaa1660059e1c6cbd8ca6","license":"https://creativecommons.org/licenses/by/4.0/","attribution":"Istat, Confini delle unità amministrative a fini statistici al 1° gennaio 2026, versione non generalizzata.","modifications":["Converted from WGS 84 / UTM zone 32N (EPSG:32632) to RFC 7946 WGS 84 geographic coordinates.","Converted from shapefile to per-municipality GeoJSON without geometry simplification."]},"features":[{"type":"Feature","id":"006037","properties":{"code":"006037","name":"Casal Cermelli","alternativeName":null,"regionCode":"01","regionName":"Piemonte","territorialUnitCode":"006","territorialUnitName":"Alessandria"},"geometry":{"type":"MultiPolygon","coordinates":[[[[8.634014155264223,44.792306690229445],[8.63378909161835,44.792286156601016],[8.63354974119329,44.792276392896504],[8.63313303643972,44.79226156067837],[8.63235928291798,44.792232063930946],[8.631843778234463,44.792221386638225],[8.631325001420787,44.792233226397514],[8.630904610284531,44.79223636695355],[8.630491353078426,44.79217651416365],[8.630485583442283,44.79184342377598],[8.630444680876755,44.79137966627703],[8.630402905854462,44.79111847197154],[8.630303217903863,44.79051949745187],[8.630261662267607,44.79028531863987],[8.630214380556843,44.79001960795925],[8.630150815583612,44.789578292375076],[8.63011869604213,44.789415907337144],[8.630083109828034,44.78923598815969],[8.630047524022208,44.78905584120965],[8.630142630839192,44.789069644542316],[8.63031217505561,44.78911971401818],[8.630637736779255,44.789185329814],[8.631193718710705,44.789212566097454],[8.631511360928092,44.789278146625094],[8.631758975679041,44.78928642797399],[8.632091801013692,44.78950353234847],[8.632052366496971,44.78930535831209],[8.632246656664691,44.78931499897414],[8.632742683507788,44.789339086398925],[8.633200057141954,44.789354069578266],[8.633282445410092,44.78931832242327],[8.633350561705601,44.78953907846206],[8.633396409523499,44.7897237764438],[8.633415047528839,44.789777852521226],[8.633485243236262,44.78998062052334],[8.63354335680053,44.790223875169985],[8.633639164291928,44.790692284620036],[8.633801039547878,44.79139497527144],[8.63385128688061,44.79163370425058],[8.633977096502521,44.79216974349939],[8.634014155264223,44.792306690229445]]],[[[8.632166402320557,44.8538465703624],[8.631929030579757,44.854169879631485],[8.631409640084858,44.85455979200452],[8.63103031653582,44.85468909388546],[8.62998727835431,44.85520333783681],[8.629048565484252,44.85560539229732],[8.627909299092616,44.85612830043564],[8.626900846220709,44.85617902685907],[8.626820261507348,44.856199166946375],[8.62604752695204,44.856392290311774],[8.62602243795194,44.85634679049413],[8.625618363549515,44.85561398487615],[8.625592509613597,44.85556710422044],[8.625435022974152,44.85521100719809],[8.625265713936823,44.854791854255026],[8.625052734862,44.854336556241],[8.624775782361596,44.85386303070681],[8.62445223384625,44.85314179099906],[8.624231510537323,44.85265945397802],[8.623904400291428,44.85193821885184],[8.62356812730583,44.85134748203373],[8.62331765356724,44.85080142675263],[8.62370661637414,44.85036670278339],[8.624173520763726,44.84990012685829],[8.624539468219355,44.84957275696672],[8.625272265167986,44.849449134372186],[8.62566446478319,44.84940541786365],[8.626401339610457,44.849263788055666],[8.627077199924127,44.849159019781936],[8.627254396526315,44.84913155111661],[8.62751791750083,44.84904688763755],[8.627473060624261,44.84888920074085],[8.627422686660763,44.84873149942444],[8.627357816833003,44.84854675869029],[8.627280109307131,44.84833494881427],[8.627204680171252,44.84813216108408],[8.627154153661838,44.84799694654212],[8.627067330174272,44.84778512384371],[8.627040679191085,44.84768601477804],[8.626980916162648,44.84757328440459],[8.62691927901395,44.847442556143875],[8.626817258113599,44.84732068995895],[8.626667499213031,44.847239191793555],[8.626438790997147,44.8471394245793],[8.626129648482934,44.84706188193247],[8.625752263971624,44.84696162292294],[8.625550913093512,44.84691146449923],[8.625252569609868,44.846815960447955],[8.62511378742968,44.846752489790276],[8.625031930484033,44.84663068998445],[8.625060104690741,44.84655427305448],[8.625202282876247,44.84640169837422],[8.625420491578538,44.84610535170565],[8.62554465037018,44.84592570827438],[8.625607831739627,44.84581789838198],[8.625757137034393,44.84566084887122],[8.625927600239123,44.84540934837625],[8.6257223752093,44.84535015647664],[8.625384248049333,44.845232013327845],[8.624915554899074,44.84506394109271],[8.62461006364334,44.84497741132726],[8.624697245434406,44.844829176437734],[8.624860397851023,44.844546142271916],[8.624907316827827,44.84438425908723],[8.624996176393402,44.84428103222388],[8.62505368287759,44.84413267799284],[8.62503451374438,44.843979577222655],[8.624938502083715,44.843844232958126],[8.624754695428352,44.84359156922053],[8.624667778926543,44.843456254603126],[8.6246205864926,44.84335707738676],[8.62326331022875,44.842843987953984],[8.620167492471543,44.84165895686587],[8.620127550489912,44.841643741769865],[8.619813202859163,44.84152341150131],[8.616889833332577,44.84036971300757],[8.616799326044202,44.84042342602715],[8.61663701232059,44.840571423527294],[8.616528405035968,44.84067008105881],[8.61630149122895,44.84084485057454],[8.616034498022518,44.8410374982475],[8.615850292835137,44.841149414102524],[8.615585596730991,44.841234029716674],[8.615161864730716,44.84127312684219],[8.614967610005602,44.84128596635513],[8.614674200070917,44.841289476056346],[8.614356719212125,44.84128840443615],[8.614149552057048,44.84128320540333],[8.613918765131547,44.841264431884724],[8.613688006021171,44.841241139801156],[8.613261123071268,44.84115866642071],[8.613078263404956,44.841126540324446],[8.612841964099525,44.841044732513474],[8.612585837964918,44.84097185013112],[8.612390484005568,44.84085865194833],[8.612354348021448,44.84076400733268],[8.612293438892518,44.84058826800695],[8.612235507354171,44.84044402837271],[8.612223925251904,44.840281951637664],[8.612138615952547,44.84015113215382],[8.612007564088271,44.84000214474947],[8.611889276615225,44.839893725679424],[8.611858872565705,44.83976759094254],[8.611952756710139,44.839682383878205],[8.612050692573817,44.83958369713216],[8.612235054730956,44.839449294161774],[8.612417565541493,44.83929687484626],[8.612412715324808,44.83919333691571],[8.612370852500415,44.83912568118318],[8.612265266362643,44.839012787401366],[8.61217310196576,44.83889995710367],[8.612094951663956,44.83882316324853],[8.611996342324804,44.83872830537294],[8.611878894712763,44.83861089054129],[8.611782286387983,44.83851603927775],[8.611700554055334,44.83843923207087],[8.611539127879595,44.83827664653667],[8.611446607863453,44.838159318739066],[8.611359724462252,44.838028492369325],[8.611310532533492,44.83793380204611],[8.61124079903462,44.83778052399128],[8.611197843894354,44.837640852034816],[8.611164489016614,44.837487696868195],[8.611152706283908,44.83724009491683],[8.611138619358137,44.837100522112856],[8.611141210915127,44.83705324426756],[8.611151210772489,44.83687100660221],[8.611133305332892,44.83671340831703],[8.611331931738585,44.836691571805225],[8.611422497415699,44.83662886559913],[8.61130432903547,44.83661946759128],[8.611575539819839,44.83585970571972],[8.61178138169064,44.83567533689759],[8.612056181470589,44.835429169700085],[8.61272185184949,44.83483286550156],[8.61359046591356,44.83400311168622],[8.61355740759425,44.83380493817887],[8.60974115604099,44.83268021408835],[8.609692346754061,44.83264853602],[8.609360420106471,44.83244936014817],[8.60913294620714,44.83247107291532],[8.608838169387527,44.83244756358134],[8.608114730821866,44.831918457960654],[8.608080091589965,44.83049601155024],[8.607972983516209,44.8301985598268],[8.607986313878204,44.829982569121555],[8.608008879003751,44.829802597278494],[8.608311124622098,44.82895292410937],[8.608235664867452,44.8289481668819],[8.608367750010103,44.82870557500564],[8.608583354047052,44.828625286282076],[8.608698838030076,44.828558168249344],[8.608896607033916,44.828482334224674],[8.609057892629798,44.828365852483074],[8.609285625427674,44.828303616443534],[8.609685834789678,44.82822397595555],[8.609819588128973,44.82820192120712],[8.610067973056701,44.82818475614717],[8.61025939134331,44.828113399172565],[8.610423769844001,44.828005940850026],[8.610521488202046,44.82787574497759],[8.610625611925176,44.82773655605617],[8.610759520628287,44.82763349085239],[8.61086033578962,44.827516800432015],[8.610997400907284,44.82741374840102],[8.61116168532001,44.827319783878856],[8.611334586393493,44.82723936344498],[8.611642195991683,44.82705136371644],[8.612018698618652,44.826908600115985],[8.612619968546232,44.82673060890349],[8.612774377196803,44.82669510844693],[8.612990053494496,44.826659832522004],[8.613180862833435,44.82661997536729],[8.613405599733683,44.826589228645176],[8.61362366065165,44.82654946029548],[8.613799889205831,44.82650503457092],[8.614179033598967,44.82643880227301],[8.614597773827855,44.826359209846956],[8.615186326372656,44.82624865888707],[8.615626106657327,44.82616011337521],[8.615845833353855,44.82598981717346],[8.61592554820946,44.825769528655805],[8.61602318842258,44.82547278973077],[8.616097277438959,44.82532899637471],[8.61614921342351,44.825185145615286],[8.616188508950533,44.82504123434374],[8.616224674257118,44.82489283123972],[8.616304573703582,44.82476706976768],[8.616356569702367,44.82461420609559],[8.616443623530133,44.8244839674516],[8.616517709690894,44.824335674486846],[8.616582672718003,44.82419636564849],[8.616650406810544,44.82405706697166],[8.616696022233194,44.82391317761091],[8.616779790135247,44.82380094197739],[8.616914516363472,44.82368885832016],[8.617039515333587,44.82355874737675],[8.617177370274044,44.823451191202494],[8.61730585533974,44.82333008845156],[8.61742716163059,44.82321795920995],[8.617374000961211,44.823069258228244],[8.617223303199538,44.82278518195465],[8.61710381862461,44.82250121192177],[8.61697210785069,44.82221720164563],[8.61690583766522,44.82207745325757],[8.61691982078011,44.821933456743906],[8.616943041251682,44.82177149669564],[8.616956694206532,44.82161850045535],[8.616957647842453,44.82147447912845],[8.616927184274012,44.82129882578681],[8.616960004356274,44.821177422258614],[8.616960809051925,44.821055891539466],[8.617022425610385,44.82088504541077],[8.61706800765316,44.82074567301803],[8.617131148618464,44.82046231241442],[8.617144381268448,44.82031383471713],[8.61724469024767,44.82003060312484],[8.617302940172937,44.81988675126248],[8.617335697898255,44.819715827125584],[8.617381398666701,44.81961695862525],[8.617589201051624,44.819455620233214],[8.617737620839973,44.81918603996687],[8.617783438102,44.81906917896543],[8.617848297532774,44.818902632738656],[8.617867469654511,44.818853402577055],[8.617934628365301,44.81879961039747],[8.618109461291693,44.81864790472828],[8.617927999827817,44.81854752086953],[8.61777730908737,44.81844349748889],[8.617591981428804,44.81831684609897],[8.617468542596098,44.81821291175445],[8.617290817060276,44.81807279011575],[8.61719217537182,44.817991432393704],[8.617130175380625,44.81786069335809],[8.61707216244294,44.81767145326304],[8.617057409032006,44.8175093657382],[8.617069210466111,44.81733837133572],[8.61712065914804,44.81720801351912],[8.61716459516071,44.81709748847893],[8.61722841579726,44.816933802669155],[8.617322164847387,44.816682054808794],[8.617385654108759,44.81646621074994],[8.617432780275868,44.81627282277732],[8.617520593474001,44.816079571049364],[8.617624444401077,44.815917883405035],[8.617692940180783,44.81577858465713],[8.617845167897316,44.815590046683724],[8.617976079859798,44.81539693969236],[8.618095461488464,44.81527130792117],[8.618242050868087,44.81515926219936],[8.618282859101907,44.81508288875163],[8.618324197080492,44.81498850271962],[8.618394811747855,44.81494823411245],[8.618627251433912,44.81488149751404],[8.618776080246253,44.81484598733811],[8.618970574509836,44.81477912156847],[8.619168046068602,44.814739259448245],[8.619381677762574,44.81470846026595],[8.619554201691589,44.81467752735165],[8.619759485498175,44.81465120256287],[8.619970371350233,44.81461589832869],[8.620189458272725,44.814594136010776],[8.620364665094218,44.81457670602043],[8.620583601719947,44.814577433590635],[8.620785992826315,44.81457360649434],[8.621004482258378,44.81458332949068],[8.621260832858509,44.81460668996541],[8.621460603270716,44.8146388600579],[8.621616444197429,44.8146798819799],[8.621790964542345,44.8147074685239],[8.62184322213432,44.814388065495386],[8.622209148809741,44.814519806948084],[8.622422730955929,44.81461503657967],[8.622967875218581,44.814837391060685],[8.623157549740654,44.81490103351803],[8.623452303943756,44.81503703451419],[8.623715792143415,44.815177428342956],[8.623939251698895,44.81533570409694],[8.624220341637141,44.815566200294434],[8.624443249076565,44.81580998079477],[8.624574161935689,44.81597694593197],[8.624678833367444,44.816107820312574],[8.62473914852571,44.816193545874285],[8.624870118825726,44.816356012442405],[8.625037966213121,44.816559106308866],[8.625153197421906,44.81670802654443],[8.625285972386246,44.8168378718149],[8.625459117493554,44.81670424645695],[8.62564684010722,44.81658302595971],[8.62579836590835,44.81647118029239],[8.625863103900347,44.816390778447904],[8.625973437737997,44.81632714579496],[8.626032807652441,44.816292542151515],[8.626324450616337,44.816108922526276],[8.626650148104904,44.81594324777565],[8.62691238763007,44.81584958148881],[8.627131765578895,44.81578278311937],[8.627314744747611,44.81572486416971],[8.627552866661361,44.81563111860311],[8.627743330804673,44.81557773798712],[8.62781859413124,44.81552504214562],[8.62796095851165,44.81542543645484],[8.628175578589794,44.81529107783492],[8.628324333775057,44.81520603377668],[8.628436372729558,44.81511637616646],[8.628470887426172,44.81499106414697],[8.628505951046787,44.81486454130105],[8.628562462381547,44.8146801760253],[8.628547328380707,44.81457660758588],[8.628524293945304,44.81447301074436],[8.628437923463217,44.814382705780005],[8.628388045986991,44.814333042090276],[8.628372266457017,44.814265456993525],[8.628336728884065,44.81407631363779],[8.62832845318142,44.81402661335621],[8.62831123840562,44.81392318843902],[8.628293536538836,44.81378810382386],[8.628252080652405,44.81365743939311],[8.62819473748984,44.81354021845198],[8.628145267276762,44.81342752152426],[8.628027418111158,44.81331461898326],[8.627982423171815,44.81326502142221],[8.627869555631683,44.81314061209913],[8.627830828564875,44.813097923399994],[8.627704751400332,44.81297597798112],[8.627536585040781,44.81282239098485],[8.62740523841354,44.81271843968957],[8.627302832176177,44.812605591269715],[8.627187167300356,44.81252418564768],[8.627069149036052,44.81243829181645],[8.626940247336258,44.81232533493795],[8.626698392887935,44.812139993677164],[8.626532887453175,44.81200442642672],[8.626383537278215,44.81187790770732],[8.626209657777729,44.81175130670813],[8.626094140218578,44.81164740659297],[8.625942137562848,44.811502866054525],[8.625895326539764,44.81140818847189],[8.625853704374968,44.811304533745556],[8.625856609396411,44.811223533146546],[8.62581804805744,44.81107486380529],[8.625842936288686,44.8108948954507],[8.625820056192735,44.810764290027365],[8.625831599957873,44.81062930077253],[8.625764001345106,44.81044904737474],[8.625735043363841,44.8103959473749],[8.62569760806246,44.810327297945854],[8.625620917913665,44.81014699575169],[8.625547375273333,44.810029719404326],[8.625503336779884,44.809935051627384],[8.625461977245804,44.80979089027399],[8.625428540637738,44.80964673688353],[8.625448127942304,44.8094892810576],[8.625547109570094,44.809278046097155],[8.625717372503019,44.80903544055352],[8.625848337477853,44.8088334266856],[8.62596014535771,44.8087167576608],[8.626061166056028,44.80861806576336],[8.62615699391789,44.80846535780817],[8.626181629830587,44.80838441028875],[8.626258304561281,44.808321646534395],[8.626462388852676,44.80823228923725],[8.62667972970193,44.80811146530579],[8.626889060126745,44.808004131635606],[8.627077247401434,44.80786971735128],[8.62717013570669,44.80780700502107],[8.627247458943218,44.80770373808013],[8.627369169420428,44.80764111965485],[8.627551762034432,44.807578699665605],[8.627658006945264,44.80752502642204],[8.627840168399326,44.80752562017634],[8.628146345985442,44.80754011184899],[8.628283327714593,44.80756307055873],[8.628486829625032,44.807563732738835],[8.628650510615259,44.80755076893804],[8.628796042784572,44.80753323039581],[8.628957064069509,44.807519504924194],[8.629118228524758,44.80752466907012],[8.629271385050226,44.80754376945284],[8.62941326692007,44.807602749833826],[8.629508375127026,44.807621068274464],[8.629623046240795,44.80742339835737],[8.629697937405215,44.807270598791824],[8.629770216731368,44.80715379962933],[8.62978993837717,44.80706409871635],[8.629853267881485,44.80695602425426],[8.629946494562127,44.80683929196341],[8.630005243362197,44.806735962049814],[8.630023386478802,44.80668323354228],[8.630034638787045,44.80665052977849],[8.630059268371985,44.806569600280696],[8.630093676122598,44.8065021958933],[8.630131820330307,44.80634478217597],[8.630106130793767,44.80622316703945],[8.630033025896218,44.806096898086544],[8.629949421919552,44.805948084082154],[8.629891995161655,44.80584437951681],[8.62980801765853,44.80575408050709],[8.629734683548925,44.80566383574667],[8.629661380136213,44.80557357213255],[8.62959855343609,44.805523823692724],[8.629477373825935,44.80542893146163],[8.629411706833094,44.805374719397626],[8.629311588950065,44.805338369339154],[8.629227684051553,44.805297594119025],[8.62904814491987,44.805256503744516],[8.628924247915414,44.80522909274328],[8.62882116150034,44.8052197600153],[8.628718661842433,44.80518342149995],[8.628615976187183,44.805111055347155],[8.628524161514468,44.8050117348636],[8.628230430411072,44.804722709364725],[8.628164882558972,44.80465498100982],[8.628023888179458,44.804478698316615],[8.627892451865739,44.80431202586532],[8.627753402296602,44.804181024107315],[8.627708800151527,44.80411336375394],[8.62738016873767,44.80377509164469],[8.627236010258313,44.80360801231737],[8.627136866833931,44.8035039081892],[8.627058946454687,44.803350575230894],[8.62700660057315,44.803255881694916],[8.626978331278892,44.803170260910925],[8.626973515687679,44.803057709115684],[8.627003417785252,44.80295428825326],[8.627051382512528,44.80286893534411],[8.627094219935206,44.80278354856757],[8.627101716697938,44.80269780422601],[8.627126249753461,44.80263497849013],[8.627206799886709,44.80254084938762],[8.627334182629925,44.802460253983845],[8.62743454226467,44.80239756665853],[8.62752226631416,44.80233483713409],[8.627644397049167,44.80220920495722],[8.62780879775883,44.8018361461391],[8.6278522493922,44.80153022330164],[8.627897796861815,44.80134490216755],[8.627916359850898,44.80126937173877],[8.627979928677034,44.8011940419335],[8.628048944170512,44.80111226442205],[8.628250418616103,44.80093286840899],[8.628417834727138,44.80076687989152],[8.62848080142021,44.80062303718652],[8.628509326303794,44.80048810356084],[8.628474266970057,44.80040926581283],[8.628441170857565,44.80033483923695],[8.628414293888982,44.800213219728974],[8.628535338783426,44.800102304385504],[8.628678601552108,44.79997103146365],[8.628970372526926,44.799818939822856],[8.62915787084566,44.79966200866949],[8.629283426105602,44.7995543956873],[8.629470603363925,44.79944696630508],[8.629769018425927,44.7993084083331],[8.63000477071355,44.799205650156075],[8.630157943509312,44.79910262679572],[8.630327902510391,44.79903114561247],[8.630629817644241,44.798838575144984],[8.63070974922086,44.798757826944616],[8.630794748848245,44.79856455531526],[8.63088272306578,44.79846129947188],[8.630979406454534,44.798295073991746],[8.631115827914915,44.79815148870029],[8.63122155619564,44.79805280996006],[8.63135346380013,44.7978776848397],[8.631375226624169,44.797810240045784],[8.631366712708365,44.797594155066875],[8.631265769246367,44.79719324094289],[8.631208900650298,44.796999510814466],[8.631147357267604,44.796738253200296],[8.631122648011013,44.79658513248772],[8.631100089025201,44.796341994433185],[8.631052638474081,44.796166309918426],[8.631000333345833,44.79600410136308],[8.6309398606007,44.79581935626267],[8.631114301919306,44.79560386407263],[8.631448780577243,44.79513232406316],[8.631792644681155,44.79467432927355],[8.632255691167074,44.794549789726666],[8.63281586280366,44.79437155880739],[8.633149504117986,44.794278108281986],[8.634331916425324,44.79391279899656],[8.634391143099645,44.794169551883684],[8.634568753593129,44.795011818167005],[8.63463310776986,44.795268585485616],[8.634746211843849,44.79581809707413],[8.634944987135846,44.79580971777646],[8.63531949333028,44.795763204145885],[8.635368849982834,44.795757070969444],[8.63565088372213,44.79571707477328],[8.63588542907041,44.795682828359965],[8.636041564989904,44.795660386521995],[8.636797300351343,44.79555326299352],[8.637285421547126,44.795483649722335],[8.63837419537605,44.795334513435336],[8.639474072844381,44.79521645867813],[8.640274980833642,44.79510705291972],[8.64031583273714,44.795101333726564],[8.640374834217626,44.79509326447039],[8.640536301575489,44.794859722406024],[8.641277655362963,44.79488370113655],[8.641291044870885,44.79476603516859],[8.641294889362046,44.794731576726534],[8.641763313470994,44.79475104162689],[8.64184673639933,44.79461627041725],[8.64214542690233,44.79467572676383],[8.642529809623003,44.79474894225569],[8.642867594332369,44.79474999904379],[8.643359076180497,44.79468402252424],[8.643771450342395,44.794635806166575],[8.64409643137474,44.794600813080166],[8.644358542238107,44.79457462105478],[8.644738496910408,44.794526282239154],[8.64497974753711,44.794486527720785],[8.645175442741861,44.79446462576496],[8.645537661976167,44.794411748765576],[8.6458076741931,44.79438557703643],[8.646008521844633,44.7943636887319],[8.646449735203015,44.79431103565724],[8.646711901137248,44.79427584244992],[8.646927045575412,44.794240501480026],[8.647180808113912,44.79421098234168],[8.64723581488615,44.794205448436465],[8.64768888330382,44.79415282989147],[8.647734194428148,44.79414748008933],[8.64783393315762,44.794135141326215],[8.647876721771647,44.79413004295385],[8.64803530611711,44.79411225542697],[8.648447200384403,44.79406513878103],[8.649233193390561,44.79396853349031],[8.650122806675165,44.79385874410782],[8.650488122817443,44.793814842435275],[8.650900790504167,44.79378009650062],[8.651102335658441,44.793774806921355],[8.65120781328474,44.79377203863356],[8.651486833628535,44.79382241183037],[8.651695358777367,44.79384404123369],[8.651754557042892,44.793849232415035],[8.65182333936253,44.7938561623125],[8.651869869762677,44.79385945494778],[8.651987895002472,44.79386894114357],[8.652222212435909,44.79386515560025],[8.65245187679975,44.79384334641108],[8.652538181029309,44.79383609303776],[8.652639874651369,44.79382744154621],[8.652710394733493,44.7938216263054],[8.652790224439038,44.79368684065267],[8.653185450887808,44.79359801541996],[8.653325298470417,44.79356838599804],[8.653527484483796,44.793525557391916],[8.6535833962756,44.7935137161961],[8.653921079899984,44.79335663432104],[8.654031422516503,44.79330713937116],[8.654221988287173,44.793223082722285],[8.654378802098147,44.79316504095194],[8.65445019253864,44.793131426512026],[8.6547872541438,44.79297272877965],[8.655251605524997,44.79368080649088],[8.655479873293162,44.79442867231291],[8.655692464586272,44.794799999113025],[8.655732383010614,44.79487124983398],[8.655753686444053,44.794965632427214],[8.655763083745375,44.79500457477978],[8.655787345536247,44.7951111103168],[8.6558038356926,44.79518491094924],[8.655813966629491,44.7952304001428],[8.65581463617032,44.79529195774408],[8.655816475418037,44.79538495472547],[8.655817900972382,44.79549458751569],[8.655820277119062,44.79575292051894],[8.655824406264381,44.79584141426702],[8.655829945586534,44.795976624031475],[8.655850683310923,44.79652256305129],[8.655855664268158,44.796637293703206],[8.655860014274024,44.79674225141197],[8.655868901527565,44.796977467302604],[8.655934119227323,44.797967904591296],[8.655935193403156,44.79858455350886],[8.655818333434423,44.7989083929084],[8.655691045118294,44.79904742877968],[8.655473689653297,44.799586905186494],[8.655432845039789,44.799650601562796],[8.655292198273436,44.79986992187688],[8.655019970379337,44.800265186836356],[8.654865625187892,44.80044027231769],[8.654643659565297,44.800691664970195],[8.653929715284171,44.800946065844016],[8.653708040456003,44.80104130737341],[8.653575979914777,44.801098041385345],[8.65341557183205,44.80118606202779],[8.653249694400863,44.80127707438636],[8.652770893608057,44.801523185751016],[8.652458800947405,44.80164376757775],[8.65219601796762,44.8016474669135],[8.65182802116331,44.80186690138151],[8.651647932236575,44.80191585372512],[8.651384307628955,44.80205909323451],[8.650794371192266,44.80232285065318],[8.65065513845274,44.80247546469087],[8.650450594375833,44.80262455414783],[8.650397627378533,44.802662696541994],[8.650224565445445,44.80278923592761],[8.64970322155993,44.80310723816338],[8.649218540551713,44.80324075614676],[8.648351829953683,44.80359367551253],[8.647651152700755,44.80386608682581],[8.646480522662609,44.80409652100438],[8.645614195723883,44.80437740734584],[8.64495556275241,44.804622926735696],[8.643909836482111,44.80477720917467],[8.643122341922712,44.804572183676775],[8.642664590969181,44.804728293253326],[8.64231092205365,44.804920729657695],[8.642075496582473,44.805100041252835],[8.641753746093835,44.80536908953402],[8.64141408916014,44.80559757692558],[8.641330778342983,44.80571804336266],[8.641259992061944,44.80582039067486],[8.641103466908927,44.80604670834814],[8.64067165131212,44.8063514345297],[8.640433968785379,44.80652122833676],[8.640071046971125,44.80678048818426],[8.640038096980213,44.806804027795046],[8.639645396843571,44.807171887151824],[8.639534807795073,44.80735157016485],[8.639426036389663,44.807684316521495],[8.63942966750257,44.807801348873085],[8.639438656470567,44.808071454944795],[8.639456970019067,44.80855762772887],[8.639539207796,44.808805449505066],[8.63961563010862,44.80903524300313],[8.639728868212606,44.80944520163499],[8.63999113506438,44.809909630762],[8.64025206344207,44.8104685973078],[8.640377960146651,44.81052731653393],[8.640695001169837,44.81067518483622],[8.640961367312721,44.81079941875174],[8.641312696251816,44.810965957509836],[8.641380197811335,44.81099795454941],[8.641477554612866,44.811044105851785],[8.641546257269848,44.81105841989244],[8.642442575125875,44.81124517388768],[8.643855792099654,44.81156916775018],[8.644889236520374,44.81189196206938],[8.645439628826079,44.81223574131566],[8.645575118257943,44.81263226867119],[8.6455907052557,44.81292488385842],[8.645243344392462,44.813243382441655],[8.644722448667789,44.81375938369083],[8.644409114963315,44.81419951730778],[8.64439575808834,44.814258215202784],[8.644302688964554,44.81466728689584],[8.644333739551028,44.81520751581853],[8.64437426555203,44.8153352619656],[8.64440664032946,44.815437312891625],[8.644426402580445,44.81550037104238],[8.644450044674421,44.815575640173165],[8.644548433015535,44.815885597511155],[8.644604684939585,44.816068053966596],[8.645011362279925,44.81729812215293],[8.645402522374182,44.81826591678045],[8.645418854148229,44.81830769364729],[8.645595929532519,44.81893807680911],[8.645660059402843,44.81916624962178],[8.645723412028882,44.81938882600397],[8.645608926766677,44.82013109379786],[8.645561679726395,44.82043709344028],[8.645335295768112,44.82067943588843],[8.645022400910209,44.82104306224175],[8.64467324216222,44.82132102870513],[8.644477009293334,44.82147795664428],[8.643659227774197,44.8220515447465],[8.643414256289628,44.822230830574746],[8.642836549304006,44.82252159254546],[8.64241150139852,44.822731820619246],[8.64234126980922,44.82277532621128],[8.642181131357233,44.82287452132233],[8.641846104764614,44.823080966595775],[8.641811526968961,44.823103505001534],[8.64148382570353,44.823305400858516],[8.641294505832503,44.823421452458],[8.64075276151549,44.82363833845607],[8.640627846861774,44.82368749268719],[8.640558353281948,44.82371564443705],[8.640434401305855,44.82376493651884],[8.639930167396766,44.82396629356331],[8.639859768724811,44.824159617176285],[8.639867281428751,44.82444948752467],[8.639866366331935,44.82447761292432],[8.639881860043461,44.825147955916826],[8.639883541802824,44.82519498872555],[8.639886846151322,44.82533899117149],[8.640016330000854,44.82676624555983],[8.640312388909585,44.82759537891436],[8.640247155341934,44.82759517344313],[8.640313242431995,44.82771239488009],[8.640375825308135,44.8279466617252],[8.640450891674172,44.82814493923276],[8.640531749031538,44.8283612510096],[8.64062805148295,44.82857758971831],[8.640787218580053,44.82898319381952],[8.640973501562256,44.829415890405365],[8.640951011324681,44.82960034940745],[8.641026383968292,44.82974912707153],[8.641183153559512,44.83003318977242],[8.641490902632034,44.83057428702791],[8.641540702693401,44.83085173612161],[8.641553976247302,44.83092106316509],[8.64147984448566,44.83107834184561],[8.641374618721487,44.83128057071017],[8.641287743886886,44.83158186412425],[8.641183893237526,44.83194613476858],[8.641118279590042,44.83226098640039],[8.641036060761696,44.83258030308497],[8.640958608417481,44.83282762345633],[8.64094568104077,44.83299863523188],[8.640899755302252,44.833201032007054],[8.640853028878343,44.8333404127122],[8.638319887412116,44.837851482576355],[8.638222018558336,44.840221942761126],[8.638192581262473,44.84093488773263],[8.639950417638959,44.840892807207375],[8.641365512901078,44.84270857774411],[8.642711111228381,44.84452642183033],[8.644888642984656,44.84490697102658],[8.645116481551483,44.84492151108251],[8.64513433688096,44.845010210946086],[8.64514502917821,44.845052081760095],[8.64521267219401,44.84517380502458],[8.64535554701272,44.845412814416015],[8.64545344953738,44.84563367337009],[8.645518402661752,44.84580940741197],[8.645596620575727,44.846142738547734],[8.645609327109758,44.846394838717174],[8.64558845314498,44.84670083327692],[8.645535125817913,44.84694823190516],[8.64548898319394,44.84712362105433],[8.64538868046824,44.847294360743604],[8.645326726308143,44.84740218626481],[8.645240815445433,44.84754596220807],[8.645130690316167,44.847770672444575],[8.644899899020446,44.848004002403975],[8.644577752306349,44.84817403604991],[8.64443285117716,44.84826360846632],[8.644184273246724,44.84836635467717],[8.643983370959306,44.8483702251525],[8.64365969823486,44.848400724172706],[8.643463345412735,44.8484361353135],[8.643279055360354,44.848435559828566],[8.64305668998171,44.8484573587611],[8.642741831410637,44.84853290345819],[8.642481385862546,44.84863560883222],[8.642215720247055,44.84881482376368],[8.642043104005733,44.84897180274038],[8.641831812396193,44.84930872686194],[8.641409757409706,44.84990154975862],[8.641065341515725,44.85027854156167],[8.640449781399997,44.8506951995137],[8.64010588449442,44.850923685842865],[8.639858236192483,44.851062429663884],[8.639656673094919,44.85123282862915],[8.639399919676363,44.8514390769321],[8.63907648560457,44.851618083149475],[8.638811216105001,44.85179279743974],[8.638592259579244,44.85195863841366],[8.638417405902732,44.85209311284555],[8.638230679186945,44.85223206487996],[8.638076100149764,44.85234859148455],[8.637761054411284,44.85257715941308],[8.637559651781103,44.85272054506257],[8.637288239670667,44.852926722237044],[8.637107386799512,44.85307019034812],[8.637005283832801,44.85314637790885],[8.63690905468775,44.8532270995346],[8.636873880905132,44.85328550442995],[8.636800730317107,44.85334828602268],[8.636687034757097,44.8534424470445],[8.636552524491567,44.85357254854264],[8.636453552943207,44.85365324304665],[8.63628972922816,44.85379226477365],[8.636143847835816,44.85390881552965],[8.636069895823297,44.853971595894414],[8.63587191925205,44.854133000964985],[8.635668039522326,44.85428988847819],[8.635450310346945,44.85445123069319],[8.635310779172496,44.85456332026854],[8.635185232372601,44.8546529426523],[8.635105288567747,44.85472469909819],[8.635040962020504,44.854764997850566],[8.634948103794889,44.854751205938],[8.634820599900367,44.85471479238171],[8.634701986139342,44.85464687976887],[8.63450815346456,44.854524746703326],[8.633095451470453,44.85383638693465],[8.632867599736455,44.85372544577873],[8.632360186516864,44.853478100484885],[8.632166402320557,44.8538465703624]]]]}}]}
