{"type":"FeatureCollection","metadata":{"code":"006038","referenceDate":"2026-01-01","sourceDbfExportDate":"2026-02-18","upstreamArchiveUrl":"https://www.istat.it/storage/cartografia/confini_amministrativi/non_generalizzati/2026/Limiti01012026.zip","sourceManifestSha256":"70ac8256c4785dc6ed2814c32b6965ae76f9161b51abaa1660059e1c6cbd8ca6","license":"https://creativecommons.org/licenses/by/4.0/","attribution":"Istat, Confini delle unità amministrative a fini statistici al 1° gennaio 2026, versione non generalizzata.","modifications":["Converted from WGS 84 / UTM zone 32N (EPSG:32632) to RFC 7946 WGS 84 geographic coordinates.","Converted from shapefile to per-municipality GeoJSON without geometry simplification."]},"features":[{"type":"Feature","id":"006038","properties":{"code":"006038","name":"Casaleggio Boiro","alternativeName":null,"regionCode":"01","regionName":"Piemonte","territorialUnitCode":"006","territorialUnitName":"Alessandria"},"geometry":{"type":"Polygon","coordinates":[[[8.732911836058328,44.64545890110649],[8.732717003849087,44.6455186719483],[8.732635213692598,44.64554376579196],[8.7324638396471,44.645705407437354],[8.732390352592535,44.6458312691807],[8.732381252151573,44.64590082177162],[8.732365031428843,44.64602476059949],[8.732377912772034,44.646222840072575],[8.732195707614105,44.646424979703674],[8.73199050221238,44.64665855575858],[8.731782949002111,44.646896087014674],[8.731748020267121,44.646937061712066],[8.73125108851205,44.64691115192678],[8.730632950400766,44.64687909895887],[8.729217065981599,44.646805054266544],[8.729117230070068,44.64649423178589],[8.728860043015905,44.64612453219554],[8.72873762154799,44.64592617329916],[8.729301254449332,44.64370392219474],[8.729478555973245,44.6436233117847],[8.729706390880974,44.64350288745866],[8.729856124652917,44.643439672443165],[8.73012370242063,44.64335477598054],[8.730342740538553,44.643278780288796],[8.73044629940755,44.64321148986857],[8.730550182512713,44.64315773356268],[8.730740421568074,44.64300963572805],[8.730924863609625,44.64292004280731],[8.73092661121707,44.642541960297635],[8.730918619928426,44.64239339405622],[8.7309767605943,44.64226299849101],[8.731049775650366,44.64206512012999],[8.731073046245877,44.64197514730259],[8.731062807514023,44.64190521433787],[8.731050898639674,44.64182205007596],[8.73101950279022,44.64170945488188],[8.730919914337505,44.64151565048968],[8.730882468283504,44.64151556226021],[8.730800973956772,44.64082219529242],[8.729704100688695,44.640625340711146],[8.728809278367489,44.640464740452884],[8.727954458048663,44.6403113116334],[8.727711470212586,44.639816072468115],[8.727620557857245,44.63950030379676],[8.727540715804283,44.63924841615492],[8.727362674732326,44.63920301120708],[8.727174223492659,44.63897258340185],[8.726922635150395,44.63867940816659],[8.726751380770288,44.63848094811817],[8.72669286938676,44.638377269484614],[8.726611475753646,44.6382330428103],[8.726256404088224,44.63799363330372],[8.726004255253313,44.63782197128444],[8.725726337182508,44.637600761884066],[8.725310909586813,44.63729367220067],[8.725271088607364,44.63726545621115],[8.725222173660692,44.63723044124693],[8.724973172385011,44.63697327245271],[8.724844599815833,44.63683792886306],[8.724701365939573,44.636711549585954],[8.724648225564305,44.636638383292286],[8.72456708905814,44.63652667277102],[8.724473333909446,44.63627437659692],[8.724454673628484,44.63597275587688],[8.724433292489802,44.63566211616792],[8.724059274365647,44.63509855129847],[8.72403744664145,44.63505370750424],[8.723657776559405,44.63427387664618],[8.723595305020089,44.63415683785387],[8.723207903312538,44.63343104401363],[8.723096251912438,44.63329574298123],[8.722967686719853,44.633155898657684],[8.72287332770101,44.63303413410179],[8.722804706091306,44.63296644967493],[8.722698651709841,44.63289867612634],[8.722894313028695,44.6327755799136],[8.722931358577442,44.63274339400259],[8.722973093467822,44.6327105487671],[8.723057693216118,44.632613212676056],[8.723148659913397,44.63254867278436],[8.723318905854292,44.6324590584684],[8.723456974045277,44.63241888518082],[8.723641157331823,44.632378826022475],[8.723759209533625,44.632329589722914],[8.723903556593894,44.63221290076299],[8.723964185040288,44.632141032651326],[8.724093753948551,44.632069330171646],[8.724203058355474,44.63202908828937],[8.724304142464865,44.631979811347584],[8.724410755969433,44.63193054585797],[8.724566367653669,44.63184990947097],[8.724690487988234,44.63167916917744],[8.724691858280943,44.63159625937556],[8.724694617427934,44.63147211332719],[8.724718268927875,44.631301125365084],[8.724805252999756,44.63115278548369],[8.724909544981678,44.631009007381934],[8.725048889432356,44.630842282451134],[8.725227216855146,44.63064965909161],[8.725452520431304,44.63040714573683],[8.725643353353245,44.63020955538003],[8.72607008738349,44.62985948444742],[8.726342635681037,44.6293694901186],[8.726277561689603,44.62913527785572],[8.72602207601275,44.62909416115515],[8.72589297713134,44.62906683934911],[8.72584729730401,44.62898120133445],[8.725971521953023,44.62886897704802],[8.726075020264764,44.628810706291596],[8.726067256950937,44.62869814815363],[8.726024616974355,44.62855401556146],[8.725913438845406,44.62840070427281],[8.725601168840377,44.62812087291261],[8.72527530778454,44.62780050297913],[8.725101734507023,44.62766217490438],[8.724754118239687,44.62738513331444],[8.724641302669673,44.627272167885664],[8.724651337000886,44.62713411869404],[8.724687766787685,44.6270338779781],[8.724691945994408,44.626990098013984],[8.724703630498093,44.62685761274276],[8.72468582058401,44.62679140491811],[8.724673620359251,44.6267457651588],[8.7245710646385,44.62660598787888],[8.724422057025341,44.62646159807126],[8.724244551132816,44.62634413060823],[8.72402958591481,44.626231071817074],[8.72380583059986,44.62614951907856],[8.72352999192986,44.62608583406589],[8.723177144634926,44.62597243981029],[8.723186953795953,44.6257339067661],[8.72320573017736,44.62542786125141],[8.72321919937806,44.62500028415273],[8.723225471810501,44.624842756166174],[8.723229371818844,44.62468522062526],[8.723246986870743,44.62454123289759],[8.723247671255209,44.62439718703404],[8.723257779227671,44.62409563519765],[8.723264326479768,44.62395610208848],[8.723282364761848,44.623812115362405],[8.723277221286155,44.623650060220164],[8.72330460606725,44.623357550920296],[8.723334689575902,44.6230785420168],[8.72333545917781,44.62291650027985],[8.723338905136062,44.62277245926381],[8.723304940982363,44.62262384886254],[8.723285565132919,44.622475255788366],[8.723217958048012,44.62219150978024],[8.723181237845054,44.62204739030886],[8.723125131211406,44.62175018091537],[8.723117879664654,44.62165173693623],[8.723087189068243,44.621281954044846],[8.72310596190326,44.620975908298874],[8.723101444598806,44.62068332066192],[8.723090655136733,44.62055275967529],[8.72313750342078,44.62039083047881],[8.72316403296385,44.62027837400844],[8.723231094781191,44.62008948257795],[8.723299375729152,44.619925925366395],[8.723342265420676,44.61982416387168],[8.723486888967848,44.61939240538321],[8.72349910964429,44.61936177866102],[8.723544310737992,44.61924849583893],[8.72359337802781,44.61911358297592],[8.723714644031846,44.61879428842406],[8.723788614581656,44.618629875001794],[8.723007570691212,44.61830644548434],[8.722586969131322,44.61812536863765],[8.72173389649969,44.61778121343085],[8.721398183507688,44.6176408413691],[8.721552486462333,44.61755130758997],[8.721703999818011,44.617439036312916],[8.721815504997142,44.61734928084957],[8.72194162822008,44.61724606247044],[8.722067307187585,44.61716084073011],[8.722201632104467,44.617075656084815],[8.722387232653535,44.6169725638564],[8.722484413757698,44.616914298880594],[8.72266451290047,44.616811192830845],[8.72277860047995,44.61675746992143],[8.72290691022775,44.61669476356701],[8.723015497044916,44.61663650600228],[8.723124106273746,44.61657375162305],[8.72323267378401,44.61651999597027],[8.723329810567632,44.61647072729411],[8.723458220894546,44.61638550882732],[8.723578606351278,44.61625076766468],[8.72363885036644,44.61616988255597],[8.723915331693117,44.6161750489007],[8.724154239194185,44.61621163359885],[8.724279438845025,44.61622095285338],[8.724462123815654,44.61615387743596],[8.724528211395096,44.61608650075166],[8.724556963129244,44.61600555809921],[8.724580402082298,44.61587957915599],[8.724595170785701,44.61575357929829],[8.724629830908846,44.615672650869904],[8.724678703933845,44.61558274155531],[8.724750442157388,44.615483888392816],[8.724853670356168,44.615313076371194],[8.724971801279302,44.61507030686811],[8.724974918726438,44.61498928345852],[8.724975895959837,44.61478223830636],[8.724976554613832,44.6146426888901],[8.7250287636156,44.614431269414084],[8.725069048779456,44.61432332336143],[8.725117712350947,44.61425391750972],[8.725163822319072,44.61418851972238],[8.725372209882897,44.61409899112937],[8.725497598621196,44.61406778458862],[8.725628874446803,44.614041107725164],[8.725760277358777,44.61398740180006],[8.725879840916416,44.613942666243645],[8.725999978795848,44.61385294626338],[8.726105887072817,44.613781165596535],[8.726194468883438,44.61370486453186],[8.72628307420208,44.613624045980636],[8.72633652362075,44.61356084931744],[8.726366239743427,44.61352521915488],[8.72644625164673,44.61342638741418],[8.726518051644256,44.61331853431493],[8.72662403735603,44.613224262306076],[8.726698426727829,44.613152426339454],[8.726775622082432,44.61307157919384],[8.726916301594914,44.612882863249745],[8.72699366489078,44.61276602780658],[8.727059568297289,44.61265364548595],[8.727131513733307,44.612514285248224],[8.727183244072897,44.61239737041984],[8.72726402829913,44.612222024648844],[8.727327382349138,44.61206463057905],[8.727385425694441,44.611866699760384],[8.72742859727642,44.611731771001004],[8.727454742058445,44.61161029459934],[8.727486742217293,44.611506848044534],[8.7275297832409,44.61139892654897],[8.727564564286661,44.61129096912777],[8.727636581782063,44.61112909695595],[8.727716911654511,44.6109672445514],[8.727817641838795,44.61081445855047],[8.727949552081911,44.61056719843521],[8.728053171282937,44.610391887534554],[8.728130545822394,44.610266036150556],[8.728259250156638,44.610113316327684],[8.728391023577167,44.609983094707395],[8.728571153687781,44.60986648357685],[8.728685287181712,44.60979474072034],[8.729011313036871,44.60955693924345],[8.72908291392908,44.60948959273152],[8.729202819448075,44.60936384057919],[8.729254357601823,44.60929194691506],[8.729337387711464,44.60922012966254],[8.729454834853186,44.609116864270625],[8.729657769903888,44.60892379280038],[8.729794930251774,44.60881609494742],[8.729858243331384,44.608748727432385],[8.730012962164396,44.60850601826189],[8.730138959097257,44.60833977615172],[8.730239556579646,44.60821847403375],[8.73037972647102,44.608056763696524],[8.73051422200588,44.607922047432616],[8.730660300797934,44.60776034888412],[8.730757709147799,44.607648038622315],[8.73094658279566,44.60742342184764],[8.730995483162948,44.607324510816845],[8.731018695575392,44.60724355516579],[8.731056099660076,44.60715811274907],[8.731107660618639,44.607081720601435],[8.731193628225963,44.60696938301833],[8.731302565874486,44.606830106171],[8.731554135596278,44.60659212301763],[8.731617485642431,44.60651575834096],[8.731622673046441,44.606482271147485],[8.73164956415669,44.60630876609647],[8.731599315377807,44.60610160019876],[8.731571406228136,44.60600250836746],[8.731572131752941,44.605844965458544],[8.731606556515716,44.60572800781467],[8.731652589672906,44.60565160241138],[8.73172139846657,44.60558874621254],[8.731809858217247,44.60553493236564],[8.731927327962818,44.605486377414906],[8.732052495770771,44.6054364783175],[8.732246584993204,44.60536041812361],[8.732356984701335,44.60527064868336],[8.732400850670492,44.605234784480885],[8.732435797061076,44.60516764070965],[8.732506563132592,44.605171973752725],[8.732714768752434,44.60451077279312],[8.733484287269706,44.60372936343748],[8.734420159696828,44.602727754252406],[8.735026896601417,44.601270772002756],[8.736085130208004,44.59945775913181],[8.736159248784478,44.59933821433801],[8.736194788290561,44.599279430493844],[8.73671726114519,44.598155307897585],[8.737134102804077,44.5979084419217],[8.73887243419199,44.596881899896324],[8.742536189363108,44.59635458497362],[8.742541191864763,44.59602149144712],[8.742490621472312,44.59588634526218],[8.742442474395615,44.595733188582194],[8.74241068628038,44.59561609794304],[8.742346494486032,44.59544489269345],[8.742317097807943,44.59532330793461],[8.742447496162555,44.595215561363865],[8.74257517850189,44.59510332704285],[8.742699703994756,44.59498656797707],[8.742955125773513,44.59474858589221],[8.743353896467005,44.59440738150414],[8.743613496356438,44.59418708115254],[8.74374412903585,44.594025461336784],[8.743844821106476,44.59393104681345],[8.74397172436158,44.59382311238595],[8.744071765081664,44.59373312096154],[8.74438803642545,44.59345993146993],[8.744640159066625,44.59323540241129],[8.744730562418622,44.59315049420965],[8.744861264300056,44.593046685944486],[8.744942538899661,44.59296671039311],[8.745058027676269,44.59288083795481],[8.745146895505918,44.59280078647837],[8.745242684656517,44.59271474745637],[8.745391654449595,44.59259331537871],[8.745492786638847,44.59249040823452],[8.74559252646717,44.59240969823725],[8.745674419133735,44.592333167016086],[8.745841427243686,44.59220250546222],[8.745959687659786,44.59209373482642],[8.746061299646145,44.59200028453801],[8.746200417341134,44.59190203451325],[8.746338727331713,44.59178082326443],[8.746482480571727,44.591677599363685],[8.746639702437529,44.591556428822535],[8.746786217455613,44.59145321066184],[8.746935160221504,44.59133652083941],[8.74707333076914,44.591246798479034],[8.747198157168144,44.59115254782866],[8.747355298172677,44.59104937135536],[8.747544895311854,44.59100026834497],[8.747742373586535,44.590942185254825],[8.747878176605889,44.590856973276324],[8.74801359001538,44.59077174227028],[8.748127259237396,44.590708975887694],[8.748226677877154,44.59065967193537],[8.748367452214246,44.590605980238124],[8.748497600409449,44.59055674464861],[8.74866627611298,44.5905121102913],[8.748755342212306,44.59049429390429],[8.748823515858284,44.59048094809419],[8.74898772747875,44.590472311939465],[8.749382182636612,44.59047767676693],[8.74948018222367,44.59039236191218],[8.749556031080735,44.59033400882563],[8.749669730530092,44.59025774430976],[8.749716138534588,44.59018131243176],[8.749827482681031,44.5900105155616],[8.750067026865105,44.589695949888515],[8.750268321033882,44.58939031524531],[8.750395818808329,44.58922403279863],[8.750572123467068,44.58905337622222],[8.750721499571737,44.58892316769052],[8.750911502666131,44.58877053482863],[8.751158078538786,44.58855952527394],[8.751426607130686,44.58836655731095],[8.751635405974914,44.58824097546912],[8.75201465152532,44.58802123548793],[8.752217854629494,44.587918134265045],[8.752453483823496,44.58786464235163],[8.7522452969188,44.58775614919076],[8.752083118320812,44.58775579727017],[8.7519402691856,44.58774199133776],[8.751957404885712,44.587692506270486],[8.75189191582726,44.58768073089284],[8.751704060418902,44.58764695189453],[8.751222315204057,44.58784054471594],[8.750066299374197,44.588300569672775],[8.749848064553873,44.58861066640371],[8.749193985181988,44.589104379952914],[8.748171372843695,44.58869701021268],[8.748036384479347,44.588661697872396],[8.747996101912229,44.58865241736698],[8.74778809618957,44.58883569631188],[8.747693498290214,44.58913708178341],[8.747040275384553,44.58952274313553],[8.746625040341568,44.58985942467995],[8.745920684374612,44.590501536791734],[8.745308955064617,44.5909873971639],[8.745238840746437,44.591121373725095],[8.745192741324873,44.59119717427907],[8.74516137100697,44.59122133291167],[8.745074556701203,44.591287255866526],[8.74500876107092,44.59134585437667],[8.74494388624652,44.591403882341005],[8.744902151069766,44.59143258385918],[8.744845665791983,44.59147183043315],[8.744790060770617,44.591543104696434],[8.744754164454594,44.591590910061335],[8.744711335568628,44.59164664468882],[8.744691474527926,44.5917391152246],[8.744660989465629,44.59176383475603],[8.744583880139992,44.591825381271796],[8.744455011542508,44.59189372861305],[8.744416218331313,44.59194727012746],[8.744372954847366,44.59200918031631],[8.744266313976587,44.59213204724783],[8.744234341158759,44.59216755651506],[8.744187943075353,44.59220928214901],[8.744125304244397,44.59226639908613],[8.744108261302056,44.59229895021001],[8.744054418533072,44.59241038852174],[8.743761214105005,44.59257395957987],[8.743471873333627,44.592736397932896],[8.743374947770059,44.59279148478009],[8.74331177948557,44.59282745123759],[8.743236914037448,44.59288978509889],[8.743150131276437,44.59296264672341],[8.743069060033717,44.59303136914456],[8.74297655368906,44.59310838684952],[8.742914910450386,44.593160667373176],[8.742521886278418,44.59352775394143],[8.742404231767665,44.59352862476615],[8.742298057009638,44.59352933952068],[8.742025397539201,44.59353115197357],[8.741756515723015,44.59351693063939],[8.741707122799498,44.59352729883756],[8.741549253688666,44.59356158449],[8.741154259051358,44.59368570594579],[8.740896421816876,44.593857628523125],[8.740848812099525,44.59393073929458],[8.740793441003161,44.594019185410836],[8.740726449936668,44.594125939751116],[8.740697682645235,44.59417170561645],[8.740647360589332,44.59425086977031],[8.740537269483855,44.59442298558574],[8.740457922790736,44.594547805051214],[8.740409319589542,44.59462533993522],[8.740385920011427,44.59466185337608],[8.73999022299978,44.59513791913186],[8.739947213755736,44.59517570130977],[8.739896347831886,44.595220450670155],[8.73977777913661,44.59532375690865],[8.739368358232461,44.59568503708231],[8.739375415860046,44.59575932165288],[8.739396893585996,44.595965299843],[8.739404922360158,44.5960374089035],[8.739416781795091,44.59613594382913],[8.738991655366641,44.59637355004703],[8.738948128934569,44.59635173728231],[8.738062168084209,44.595907783713024],[8.737463063660988,44.59569935903074],[8.736989375639032,44.59518060994134],[8.736412270078235,44.59472015940499],[8.735917147600036,44.59429854533234],[8.73585572360955,44.59424623521011],[8.735237507156533,44.593655149031434],[8.733842342767566,44.593549838759465],[8.733671718993568,44.593537151606235],[8.733784715499205,44.59338620519327],[8.73381286907388,44.59325573535817],[8.733746433000691,44.59306200904992],[8.733673742673153,44.5929448187655],[8.73361476529441,44.59284115797032],[8.73355840644886,44.592678982043466],[8.733550988518035,44.592579920259176],[8.733594861212731,44.592454004619945],[8.733769001939379,44.592346369927135],[8.733871971834356,44.592297105669054],[8.734010822240824,44.59223891151162],[8.73416543462961,44.592180749371444],[8.734344838734444,44.59211814970535],[8.734464290551138,44.59208691758615],[8.734567609947891,44.59205115016609],[8.734741350170944,44.59193451588213],[8.734812213058179,44.59185366809889],[8.73486693508054,44.591763765826194],[8.734908269366858,44.591678332838754],[8.734913850702403,44.59163313397658],[8.734925095890146,44.59152984295801],[8.734882353443151,44.59140820722316],[8.734874809113705,44.591246145206505],[8.734970312571157,44.59110681258166],[8.735025673666732,44.59105849908968],[8.735109057162724,44.59098561862599],[8.735250989299118,44.59085539240433],[8.735389856538504,44.59070718436431],[8.7354606702526,44.59063081572785],[8.7355448971586,44.59055449791077],[8.735637739847043,44.59047819997351],[8.735724619871199,44.59041987890657],[8.73580360789637,44.59036604260492],[8.735858251482258,44.590298651488986],[8.735931353515953,44.59024030199836],[8.73599151130697,44.590168424979986],[8.736035520852386,44.590010981649705],[8.736057369884668,44.58988049661247],[8.736082616116205,44.58978602791752],[8.736094593100276,44.58957448877658],[8.736106282476065,44.58934045872763],[8.736120445484866,44.58925495887983],[8.736197184063206,44.58908859570155],[8.736227208898448,44.588976144549775],[8.736235917066857,44.58888163851032],[8.736258050274934,44.58877364340153],[8.736282846740801,44.58868819238659],[8.736324137359075,44.58861175141343],[8.736375793210362,44.588508349125455],[8.736424933064994,44.58843644462414],[8.73646895829711,44.58836001440732],[8.736547984237015,44.588211670402266],[8.7365839379915,44.58809471262115],[8.736657665850833,44.58798236122341],[8.736709565172166,44.58791044405008],[8.736878370424346,44.58775780814696],[8.736951933723246,44.58768144398012],[8.737031135586614,44.587576029723735],[8.737061579548689,44.587532991868954],[8.737089187627015,44.587490528144016],[8.737130897253172,44.58742635204042],[8.737173083626887,44.587359796736145],[8.737214337932635,44.58729737685619],[8.737268798051936,44.5871690308449],[8.73730734237711,44.586998076801855],[8.737305009132559,44.58690804384069],[8.737292008192695,44.58682248312954],[8.737210811270312,44.586754781487464],[8.73733055335691,44.586656031260375],[8.737442542028976,44.58652575315183],[8.737537834006714,44.58643144508285],[8.73768997225671,44.58630575847369],[8.73785893204379,44.58620262122207],[8.73801352085218,44.58613995696627],[8.738127437020674,44.586108709184145],[8.738295762682768,44.58605507322037],[8.738448162672583,44.58595639843682],[8.738505642407643,44.58587099923192],[8.738563068107679,44.58570458744421],[8.738569132972879,44.58558306467617],[8.738548053170108,44.585456999184586],[8.73849168646036,44.58529480655813],[8.738408325065132,44.58518659277461],[8.738294954883587,44.5850963036317],[8.738135148140685,44.585005909715555],[8.737991813728565,44.58492456855008],[8.737891977020714,44.58480280190917],[8.737876704064774,44.58473665729098],[8.737868900561372,44.58469926785894],[8.73788841571841,44.584559760005504],[8.737918153752048,44.584488019143606],[8.737931697115547,44.5844607903983],[8.737975439080719,44.58436638343865],[8.738051958743815,44.58424502228439],[8.738109347804148,44.58417311701811],[8.738247929202261,44.58408342776984],[8.738356624077031,44.58398465110161],[8.738452397356612,44.58378679650488],[8.738521394005101,44.58358890482843],[8.73859350916476,44.58339101754025],[8.738678066649156,44.58332369345424],[8.738628899626997,44.583178054156924],[8.738518379383304,44.58285069223245],[8.738416425905157,44.58241382973749],[8.73857470036222,44.58188305479844],[8.73871852987851,44.58173368529793],[8.739321030284142,44.58110795434791],[8.73935692921168,44.58107010387062],[8.739714216317466,44.58061968460072],[8.739994456897561,44.58026334862517],[8.740616913841505,44.580383194826545],[8.741281454125286,44.580664881595226],[8.74180190240865,44.58095863629392],[8.742282228771872,44.581207297740235],[8.743234378744495,44.58130846894694],[8.743281415816256,44.581353577722055],[8.743424323779744,44.58144392743402],[8.743583527031422,44.58148929160821],[8.74383203937508,44.581552867384815],[8.74402626207708,44.58160732197179],[8.744158653394003,44.581666140833995],[8.74427565930442,44.581733915979285],[8.745613955851393,44.582024986513886],[8.745968404702543,44.582088465845885],[8.746301107976238,44.58214805437217],[8.746635758491637,44.582255702057644],[8.7467276783665,44.582285752208236],[8.746987837316729,44.58237014111106],[8.747789930109363,44.582677989588824],[8.747894159668023,44.58270072977317],[8.748034662386456,44.582705539316635],[8.74831337783745,44.582712813066536],[8.748426697495276,44.58271540250156],[8.748542482475706,44.58279219026538],[8.748580689016352,44.58284733329306],[8.748644057036945,44.58293510484126],[8.748686761798183,44.582957570242726],[8.74877659040651,44.583004253618405],[8.748843833785251,44.58300627764698],[8.748935975198876,44.58300909998356],[8.74902508971689,44.58306781715051],[8.749092970791443,44.58311079339523],[8.74914639860393,44.583144617335996],[8.749356547378468,44.583253100731554],[8.749489584612899,44.58326189735154],[8.749549739027186,44.58327207706218],[8.74960745160839,44.583281509574846],[8.749701594670515,44.58331967172955],[8.749805088479041,44.58336167048651],[8.74992892240745,44.58342989410425],[8.750006964709065,44.58350210183826],[8.750109247250492,44.5836058481973],[8.750233322534667,44.583682631667756],[8.750406083865624,44.58369652852338],[8.750718910812433,44.583818748423205],[8.75091848864133,44.583909190788056],[8.751018270459863,44.58395893247141],[8.751145315081354,44.58398622161053],[8.75129126571956,44.58400902978142],[8.751426056261558,44.58405884643694],[8.751512431539355,44.58411305709956],[8.751671750211672,44.58414041406469],[8.751760921877866,44.5840955832892],[8.751858327721813,44.58405528783059],[8.751895086651885,44.58402522343545],[8.751964180914417,44.5839699887102],[8.752164486542016,44.58388941108329],[8.752316435085056,44.583799710357],[8.7524030736924,44.583700875180966],[8.75259626307258,44.58357335449165],[8.752677311968327,44.58352018701198],[8.752775992218892,44.58344632108585],[8.752937110176605,44.583364427510915],[8.753034976721715,44.58331093875123],[8.753086718214808,44.58328096668214],[8.753183731535799,44.58322542606091],[8.753308271210928,44.583095163937486],[8.753387058199435,44.58299180885017],[8.753522966396753,44.582875061409254],[8.753625922004895,44.582821262628826],[8.753755825187692,44.58272701652141],[8.75384570141999,44.58260566994325],[8.753870432778017,44.582529211159745],[8.753911437046597,44.5824212774797],[8.753951922975775,44.58234033242176],[8.754052835377694,44.582214513554995],[8.754125925542974,44.58215165191496],[8.75433719339531,44.58199006356138],[8.754470228782397,44.581904816949546],[8.754581160601598,44.58182404378719],[8.754651906760122,44.581761177669634],[8.754714384473566,44.581693794256886],[8.75474153675686,44.58159932539268],[8.754644704922546,44.58150459114119],[8.754537228153168,44.58141433252212],[8.754529500283162,44.58128827877476],[8.754575947779614,44.58119384781061],[8.754632979659634,44.58110846286009],[8.754692804077353,44.5810230595707],[8.7547604871496,44.58093317813045],[8.754820744558343,44.58082978132568],[8.75498856875764,44.580704105217826],[8.755319149042055,44.58053377370734],[8.75563871590311,44.580363398766316],[8.756006829681388,44.58027667518593],[8.756302932484239,44.58020946834963],[8.75645033632917,44.58008606467384],[8.756557280854631,44.5800377543077],[8.756681481846963,44.579965621939714],[8.756737146571464,44.579938530183846],[8.75678399361694,44.5799160415539],[8.756911996706494,44.57984485149909],[8.757019516225194,44.57978924082057],[8.757089149532613,44.57976855694445],[8.757319459131836,44.57971430448612],[8.757492899105046,44.579656154239075],[8.75769961178345,44.579643098079586],[8.757893197660158,44.579566975776125],[8.758090548492032,44.5795268858877],[8.758309596630246,44.57948234568049],[8.758452884594021,44.57947812950749],[8.758653027257541,44.5794380481519],[8.758788194916322,44.57940232513386],[8.758939873195226,44.57936663680453],[8.759158969577626,44.57930858127833],[8.759299673477507,44.579268368932645],[8.759426578319246,44.5792281327499],[8.759545614417538,44.57918785465263],[8.759686312340376,44.579143147723215],[8.759784095285298,44.57910734845879],[8.75998163731721,44.5790222319375],[8.7601007306188,44.57896845939481],[8.760200846191157,44.578937159666346],[8.76039975603604,44.57890606894794],[8.760374810218405,44.57895440194564],[8.760353342053891,44.57899600289396],[8.760308621394945,44.57904992820435],[8.760275577011315,44.57907629946441],[8.759549205829174,44.57965600237602],[8.758835136534367,44.58024217063871],[8.75865222610418,44.58039231657874],[8.757789577992076,44.581106180977535],[8.757698678957526,44.581270694134105],[8.757546793018015,44.58154804134265],[8.75754478429292,44.58203742135157],[8.757440434986956,44.582334300467686],[8.757438600868145,44.58277540170873],[8.757276935722256,44.5830564088729],[8.757102380352867,44.58335937629557],[8.756988547180992,44.58355767446008],[8.756608701953192,44.58392595809551],[8.757880889980184,44.583955671646294],[8.758714534730178,44.58391938102298],[8.759556960192022,44.58388270038467],[8.760557984615728,44.583992824489755],[8.761102977421082,44.58394896272622],[8.7611798548876,44.583823087320816],[8.761256276607964,44.58371522508036],[8.76138368570364,44.58355344751068],[8.761586886695213,44.583436831054726],[8.761921644140385,44.58341002375522],[8.76203068175769,44.58340175165352],[8.762460709061726,44.58355569258245],[8.76300461003529,44.58388091104434],[8.76329449277592,44.58422809098286],[8.763468201934177,44.58449403878828],[8.763457078765086,44.584521030704636],[8.763304577336243,44.58465574540973],[8.763174131508968,44.584790510144884],[8.762997094950814,44.58495668259542],[8.762869034945147,44.58508245654511],[8.762711470512107,44.58519916737147],[8.762624181016855,44.58527100214283],[8.762526117679093,44.58537881937306],[8.76247671922545,44.585522766967216],[8.762359578977117,44.585671073997524],[8.762272677613474,44.58574290570077],[8.762122932834142,44.585877629037846],[8.762000240928753,44.58603941719597],[8.761890940675215,44.586201234037475],[8.76182272056049,44.58632262843333],[8.761770797200386,44.58640805185895],[8.761716488768647,44.58650246476178],[8.761612845022277,44.586623765309646],[8.761493259913774,44.586700049280346],[8.76133032229795,44.58678521991197],[8.761164237249398,44.58687040353382],[8.7610829094218,44.58692875290498],[8.761033700958443,44.58701867755373],[8.76097894995807,44.58712658763718],[8.760932464442915,44.58722551331484],[8.760896617862379,44.58732898504092],[8.760858470435155,44.58741441616969],[8.760795508282825,44.58750431190935],[8.76068684724826,44.58760311084516],[8.76053453457562,44.58768832329598],[8.760431427543018,44.58777813555325],[8.760374038551245,44.58785002768542],[8.760286484456868,44.587984879027914],[8.76025662805953,44.58806132837012],[8.760123078628679,44.58818258816016],[8.760063134357836,44.588303998843564],[8.76007044876131,44.58843904926966],[8.760116056087487,44.588547186799175],[8.760162134890164,44.58864181062994],[8.760251191594534,44.58871850960918],[8.760266946958508,44.58880857024948],[8.760217763341078,44.58889849817001],[8.760136356475005,44.58897483922955],[8.760060041822141,44.589055712922075],[8.75999980364799,44.58915461199443],[8.759961336194197,44.589316574822476],[8.759974041321328,44.58948314197408],[8.760016892864014,44.589591257527275],[8.760054540885335,44.58972186766851],[8.76004578648505,44.58984338944288],[8.760010318530734,44.589946837331546],[8.75989567010913,44.59006363704276],[8.759811437301236,44.59014899159354],[8.759778457297752,44.59022543511283],[8.759791883778206,44.59031099501086],[8.759875293465859,44.590419191393806],[8.759864236717629,44.59052269054718],[8.759766362056327,44.59058100685219],[8.759680909968635,44.59068349783421],[8.759690032695637,44.59075286655544],[8.759697203796543,44.59080545127201],[8.759744938226975,44.59090518947803],[8.759749220009086,44.59094230709253],[8.75976126506215,44.59106413454463],[8.759760443882538,44.59112248749625],[8.759758373999878,44.59117966028413],[8.759682075816194,44.591256012635135],[8.759697077715686,44.5913221897036],[8.759705284387941,44.59135981971901],[8.759732584621688,44.591626116531444],[8.759687504518244,44.59175070281113],[8.759617257317743,44.59189505796653],[8.759523991487605,44.59207491666663],[8.75947893477651,44.59217928132757],[8.759477453064953,44.592246810095865],[8.75947508444825,44.59229996799171],[8.759495888728626,44.59239441726471],[8.759490995471012,44.59246280849503],[8.759488251144798,44.59248914873979],[8.759464024599191,44.592565231561515],[8.759422585544296,44.59264217657838],[8.759420609309236,44.5926793035182],[8.759418337582996,44.59275140752253],[8.759418113937926,44.59277691043331],[8.759406040244118,44.59288076115828],[8.759303256714311,44.59299271481715],[8.759256809923265,44.59308714300833],[8.75920073847289,44.59323620728887],[8.759115832109368,44.593321301484885],[8.759048568324303,44.593386502949805],[8.758986795727088,44.593446670922276],[8.758950204270546,44.593541120678005],[8.758916405042733,44.59367174413562],[8.758885750196427,44.59376463815053],[8.758863547133783,44.59382911538688],[8.758803985023736,44.59395812606378],[8.758853264360917,44.59408486565229],[8.758829838525898,44.594175658404716],[8.758824120428866,44.59421813395086],[8.758818169008642,44.594284120110494],[8.758831099514513,44.5943709762832],[8.75883557452066,44.59440942579715],[8.758804490304657,44.594438772446445],[8.75872021891885,44.59451478318012],[8.758550634796004,44.594665583308775],[8.758493859892065,44.5947342374834],[8.758496741771209,44.594822970179536],[8.758446225261233,44.594966936833096],[8.758421763387558,44.595050278572714],[8.75841174578472,44.595088236511955],[8.758470117969948,44.59525945734974],[8.758496343894135,44.59529564370837],[8.75854799764577,44.595362695103184],[8.758482400293722,44.59545314563054],[8.758434607340382,44.5955021967663],[8.758395016829418,44.59554298827421],[8.75841144113325,44.595575340428724],[8.758462352814673,44.59567374532603],[8.758630318655603,44.59576854723778],[8.758640656540598,44.59580235751439],[8.75866292769982,44.59587661722649],[8.758559418891322,44.59596796805368],[8.758441861805373,44.596020224242835],[8.758407750510552,44.5960783572779],[8.758385966541303,44.596114632945806],[8.75840565479946,44.596146869567825],[8.758452042215179,44.596222814293014],[8.758571078354281,44.596290583418195],[8.75866295580079,44.59634927536406],[8.758698055928342,44.59643488109444],[8.758640487211842,44.59654730051107],[8.758618443347679,44.596641781751096],[8.758693823693395,44.59679046984477],[8.758720639813466,44.59687605445789],[8.758720230029022,44.596975079994436],[8.758681630293854,44.59707402484413],[8.75862724694108,44.597177431303386],[8.758561528743217,44.59726282395177],[8.758425429130039,44.5974200810192],[8.758379015895155,44.59750551439002],[8.758397382109566,44.59763158912336],[8.758513493914622,44.59773985553539],[8.758624619463063,44.59781210734145],[8.758725839007242,44.59790234863861],[8.758848782649649,44.59797462518979],[8.75893064562005,44.59805046004274],[8.758964502047597,44.598083085663944],[8.75898136647121,44.598116814242445],[8.75901824382574,44.59819562936495],[8.759037741788514,44.59822812743935],[8.759102085672868,44.59833090047913],[8.759109583768625,44.59836938964144],[8.75911463399768,44.59839712278119],[8.759119934471451,44.59843260225231],[8.759124702160141,44.59846711912574],[8.759131264708422,44.59850637423112],[8.759030241700838,44.5985727386747],[8.759001425103927,44.598592831906316],[8.758843620455316,44.59865484245018],[8.758658694126154,44.59871242382399],[8.75848481171064,44.59877057740828],[8.758324596536179,44.59885576733082],[8.758272830897841,44.59890497741066],[8.75823446699482,44.598941087402146],[8.758190746676393,44.599035521732425],[8.758189468840886,44.599095409461],[8.758188320959713,44.59913915407279],[8.758234395240684,44.599184763156494],[8.758264821402038,44.59921573784983],[8.75826381510948,44.599248747208094],[8.758262766300955,44.59931176290937],[8.758261930923387,44.5993506540013],[8.758229939854232,44.59942721067439],[8.758196072201589,44.599571283462915],[8.758166643739527,44.59971105161091],[8.758143131441052,44.599830379361805],[8.758098654297465,44.59991205271229],[8.758092320897534,44.60001660852294],[8.75808970581944,44.60010357040404],[8.758088092184147,44.60013351399817],[8.758068452655348,44.60015727066219],[8.758004943858092,44.60023150985428],[8.757921057647653,44.60026134121205],[8.757800384595972,44.60030405368613],[8.757610405349952,44.60035317462923],[8.757453213863444,44.600408347990864],[8.757366209289383,44.6005015602308],[8.757358305238675,44.600615920940115],[8.757430166273126,44.60071719751859],[8.75750532212491,44.600783155009076],[8.75758773361135,44.600851845721685],[8.75768232788182,44.60089805312759],[8.757741102720987,44.60092836788907],[8.75782489428933,44.600970105898604],[8.757864975342304,44.601009394316556],[8.757919761152088,44.601064552988355],[8.757967724500048,44.601128332428615],[8.757992418428158,44.60115954980875],[8.758020960944217,44.60118705638104],[8.75809004113373,44.601253517355566],[8.758141070575046,44.60130393891934],[8.758150464849232,44.60133057847323],[8.75817313781647,44.60140188622108],[8.758172553503593,44.60143612350785],[8.758169884288668,44.601490886710394],[8.758168005011417,44.6015623882379],[8.75816752196574,44.60161625761302],[8.758166213678996,44.60166766844263],[8.758160233594877,44.601724701378686],[8.758154946196381,44.60178121183184],[8.75812242144659,44.60181049579002],[8.758072840941576,44.601855961716794],[8.75803713850044,44.601888501445465],[8.757981674040806,44.60190281052398],[8.757924041563033,44.6019157537939],[8.757814947795389,44.602010049350696],[8.757909211979985,44.60216779302314],[8.758032018484748,44.602317224710035],[8.758099397485925,44.602371267537976],[8.758144282879176,44.60240698930865],[8.758178945858527,44.60253760515677],[8.75818694772734,44.60259740446543],[8.758192293334616,44.60263653818599],[8.75821987307633,44.60274932206373],[8.758229226676395,44.602785225147024],[8.758246159852094,44.6028408832745],[8.758253204665019,44.602866220571514],[8.758248813076316,44.602921847062476],[8.758244108211974,44.602970667858784],[8.758207901056885,44.6030475810562],[8.758194758999224,44.60307377407235],[8.758142122814801,44.60311775172923],[8.758112240124168,44.60314087992444],[8.757902039463582,44.603230068477956],[8.757714785200312,44.60327919534501],[8.757530327788372,44.60331930818372],[8.757353780764424,44.603350441278394],[8.757152462505577,44.60346705379328],[8.757046526365281,44.60356585478032],[8.756942823591713,44.60369166988039],[8.756893702617933,44.60377258651155],[8.756871383298437,44.60385351336446],[8.756876807816736,44.60393910497977],[8.756886860098561,44.604078656941645],[8.75681878391081,44.60416404256357],[8.75675887510611,44.60427193661468],[8.75663924103827,44.60434369497806],[8.756451518840995,44.60441081126748],[8.75636104180124,44.6044324386811],[8.756302122644128,44.60444652170596],[8.756060475796746,44.60450450352097],[8.75593034805687,44.60454924997532],[8.755943365137858,44.604639307810714],[8.756051853938816,44.60468454424276],[8.756097350935345,44.60481967158232],[8.756104903073295,44.60499525006285],[8.756237796454327,44.60495050661516],[8.756347458713641,44.60490573686151],[8.756315274518398,44.604956616335144],[8.755968495893672,44.60550359740182],[8.755209446969682,44.60601511389132],[8.754449168846937,44.60647213382018],[8.753935056508444,44.606781172337506],[8.75365746784134,44.60694803214277],[8.75324257542194,44.607197079644656],[8.752760835144029,44.607486245731465],[8.752573426391907,44.60766785698095],[8.752380806695436,44.60785451425008],[8.752035998360643,44.60809684031188],[8.751459853854355,44.60833707048626],[8.751209071009272,44.60844164179669],[8.750726076962295,44.60876017721146],[8.750702156111647,44.60881590656982],[8.750621850580727,44.60900300309127],[8.750621003068883,44.609201070725014],[8.750686822449568,44.60931444212244],[8.75079146222079,44.609494020977586],[8.751072262538738,44.609864089626484],[8.751000104372228,44.60988158091837],[8.75098948690142,44.61015612183138],[8.750985379358706,44.610471202769],[8.750989838041733,44.61071428833197],[8.751029948520873,44.61082239727682],[8.751083842720462,44.61093055515245],[8.751167323253634,44.611025244843894],[8.75126454792941,44.6111290002571],[8.7514104312073,44.61127334863361],[8.751488900734808,44.6113455343287],[8.75160748114169,44.61152584850424],[8.75171788840146,44.61167913446159],[8.751769076131335,44.61176927473171],[8.751823049364694,44.61185940032442],[8.751863301290737,44.611936020177716],[8.75190109726656,44.612030628957704],[8.7519357451308,44.612125229985786],[8.75196252248497,44.61221981751036],[8.751989317825753,44.612309902896115],[8.752048715235324,44.61241805513374],[8.752121544473969,44.61251723845305],[8.752256452652686,44.61265256565661],[8.752353642482499,44.612765316274796],[8.752426570836858,44.61284198696014],[8.752482957389837,44.61292314012402],[8.752753050260242,44.61322080080835],[8.752952940406423,44.61345079357514],[8.753014809316262,44.61353645509399],[8.753184970718731,44.61371686109168],[8.753336201226059,44.613906241987245],[8.753398068652558,44.61399190508899],[8.75341082440428,44.614235007422224],[8.753434574518941,44.61439260308408],[8.75349356950034,44.61450525222952],[8.753601698960924,44.614645016763276],[8.753815232162154,44.61481203765293],[8.754069430151587,44.614965612197814],[8.754397361137158,44.615132773835576],[8.754037059058025,44.61512884037504],[8.753968695429112,44.615127495790816],[8.753725332229385,44.6150831190348],[8.753672943441172,44.615073251809484],[8.753466750101651,44.615023307372454],[8.753421001101545,44.61501581752925],[8.753325581030492,44.61500109129076],[8.75325639756485,44.61501183131331],[8.753198469756509,44.61502245067627],[8.75315707363911,44.615039772118074],[8.75300020449511,44.615107262572465],[8.75288895110127,44.61515266386764],[8.75280164491066,44.615187636136646],[8.75275209821888,44.615200669887436],[8.752698379568107,44.61521431485787],[8.752456814380878,44.61525446679402],[8.752398613469468,44.61526341788945],[8.752019714511688,44.61532091065521],[8.75187603319372,44.61533453992289],[8.751721953231579,44.615370153101196],[8.751669428206112,44.61538280810268],[8.751542310995829,44.615408473343344],[8.75149060010443,44.61541935563402],[8.751373008093319,44.615468802700974],[8.751227216992746,44.61545010836055],[8.75111631953658,44.61540934094208],[8.751005073667244,44.615359594428234],[8.750902117463077,44.615324310452905],[8.750774533626728,44.61529253134812],[8.750590657543428,44.61526426530974],[8.75040698710024,44.61523746593754],[8.75028124361033,44.61523251245553],[8.750229895442276,44.61523314738334],[8.750039828706317,44.61523605079991],[8.749978604291066,44.615241065338665],[8.749738774995018,44.615262187568035],[8.749612883397049,44.61525797123351],[8.749520170112623,44.6152540516925],[8.74948515907999,44.61524000927108],[8.749365252695561,44.615189883861085],[8.749221933344936,44.61517322515665],[8.749161420746761,44.61516688952401],[8.749108675760896,44.615172877388275],[8.748906058159333,44.61519745555796],[8.748807348838847,44.615251259112945],[8.748554356070684,44.61528221127955],[8.748143225014394,44.615357818841865],[8.747939030731764,44.61539787347695],[8.747740398077944,44.615428943798086],[8.747588245899214,44.61545561884075],[8.747369332995085,44.61552714969744],[8.74719653487421,44.61559428365046],[8.747024046343212,44.61567943209781],[8.746917151864327,44.615805230754546],[8.746697429480164,44.61606131406643],[8.746501042752088,44.616299453577895],[8.746376845308397,44.616420695837675],[8.746304746894651,44.616510563738984],[8.746157526019253,44.616672281312745],[8.746039159765647,44.61681156732943],[8.745932262336902,44.61693736503252],[8.74598319625072,44.61709050426549],[8.746051507237622,44.6172302080218],[8.746108469422852,44.61735637010524],[8.746188159360267,44.61750957405697],[8.746224915289144,44.61765820289898],[8.74620418464908,44.6178067048953],[8.746100433029955,44.617932509724206],[8.745809182068236,44.61815692243918],[8.745532072232656,44.61838136681072],[8.74523250723715,44.61861025717645],[8.744978673011294,44.61883025444149],[8.74468113799022,44.61906804417433],[8.744427705085837,44.61926113793807],[8.744269254428557,44.61937332296646],[8.744130913922467,44.61948553122167],[8.743848352478881,44.61969646355193],[8.743701272216564,44.61981767221106],[8.743536874096995,44.619943338554265],[8.743404106994504,44.62003756688215],[8.743257047725958,44.62015875430319],[8.743118817035475,44.620239473425364],[8.743011925569688,44.62036077066965],[8.742985296531259,44.62050474127062],[8.742973231268865,44.620653260304984],[8.742943856332323,44.62079272614709],[8.742905730829683,44.62095018543442],[8.742870838619597,44.621094155397735],[8.742755568534601,44.62114789567439],[8.742576938591604,44.62119251842564],[8.742556298104079,44.62131850725553],[8.742581436911852,44.621512115505745],[8.74258970739942,44.62159764552833],[8.742573915313994,44.62187669089567],[8.74254120128616,44.622146700979904],[8.74249150437599,44.62234014139967],[8.742415949337541,44.62250201464386],[8.742312142610732,44.62263681202363],[8.742222730661556,44.622726639084355],[8.742153729891527,44.62280007715081],[8.742230729256823,44.622870683098554],[8.742100596875698,44.62299192517673],[8.741826647477085,44.62321186804068],[8.741702438944875,44.62332410882324],[8.741567191662542,44.62344534051643],[8.741402915840881,44.62353499569759],[8.741295994756388,44.623660788857734],[8.741242072005074,44.62377080084793],[8.741223267824552,44.62380917650278],[8.741329110033403,44.623926436440485],[8.741524165562032,44.623998891912805],[8.741696460230406,44.62405779989755],[8.741902993585205,44.62412128716119],[8.742055019790591,44.624216156180424],[8.742181048575727,44.62431096721247],[8.742327142493307,44.62441032373485],[8.742484635477242,44.624518719094304],[8.74260508215662,44.62462701184458],[8.742797424772833,44.62469496226095],[8.742977943638037,44.6247628857448],[8.743152819983488,44.62485780471242],[8.743218392449409,44.62499298454962],[8.743272535760834,44.62513265702001],[8.743441501544023,44.62522756315363],[8.743587605331536,44.62533141392806],[8.743742380855105,44.62543078721298],[8.743882915515641,44.62553912456903],[8.744008692950295,44.62569245296918],[8.744123297420925,44.625791732984666],[8.744174252615103,44.62594039588216],[8.744592870365905,44.62614837990105],[8.74473008722857,44.62630173307175],[8.744815955498792,44.62639645139308],[8.744965030802737,44.62653631529125],[8.745070986461975,44.62663107827082],[8.745199707333262,44.62674390507684],[8.745322827237272,44.62687471437629],[8.745394088450482,44.62697389823788],[8.745439740284205,44.62707302587653],[8.745482307759511,44.62716314770681],[8.745505208075784,44.627239712020774],[8.745492656818673,44.627406244997154],[8.745492066774979,44.627541275112875],[8.745609459107387,44.62763606216111],[8.745805293943626,44.62762298451633],[8.745879724233022,44.627638820827336],[8.745999023725632,44.62766388993803],[8.746061124765589,44.627710128111595],[8.746128999283584,44.62776340194665],[8.746151338893187,44.627797630550134],[8.746178739930768,44.62783998796537],[8.74623183540913,44.62795127260636],[8.74622979827972,44.62807566392708],[8.746228796729056,44.628105599563725],[8.746215532666456,44.62815493267802],[8.746194058454217,44.62823190687056],[8.746190786965084,44.62830077243537],[8.746187755335352,44.62840716641237],[8.746207020634806,44.62848822104697],[8.746240374493663,44.628672742262005],[8.74623970766946,44.628825786210356],[8.746215919394668,44.62895176853924],[8.746166584458981,44.6290641795132],[8.746182320862813,44.6291045448441],[8.746200849897681,44.629149783136825],[8.746305079722054,44.62919051791459],[8.74639316870069,44.629226721802404],[8.74642992994299,44.62923837975668],[8.74648647858967,44.62925619522932],[8.746536755009991,44.629272063014646],[8.74667424138441,44.629366895332666],[8.746707855546665,44.62951549783663],[8.746762147139203,44.629623659179],[8.746807437183426,44.6298128132425],[8.746944038249627,44.63010569221547],[8.746992718692361,44.63019341790747],[8.747126594369375,44.63043468101135],[8.74723769175227,44.630619481107665],[8.747401053011615,44.63071881252893],[8.747545266713384,44.630709446494095],[8.747723140655971,44.630697075774826],[8.747969677922425,44.630665830414074],[8.748108653858335,44.63064842547099],[8.748439284919995,44.63062664162129],[8.748654874843876,44.63060910225374],[8.74875597255986,44.630596598747566],[8.74889499356237,44.63058063694922],[8.74898681974596,44.63056875113175],[8.74909848704636,44.63053988328158],[8.749103272626717,44.630682122658584],[8.749120180475773,44.63115027412033],[8.749089029776096,44.631429287984744],[8.74908372066873,44.63174972693139],[8.749089212626048,44.63202795702236],[8.749137209122647,44.63222611043436],[8.749275423173492,44.63224442705555],[8.749394533961366,44.63239321815228],[8.74947518773866,44.632514930751675],[8.749906431396363,44.632780717949466],[8.7500028992809,44.63284017284908],[8.750177105578794,44.63273253205573],[8.750293907461934,44.6326922618007],[8.750414461327315,44.632625488141244],[8.750503368195714,44.632539694045605],[8.750739999521745,44.632481689929065],[8.751117449071176,44.63238798674374],[8.75131857329731,44.632343401505814],[8.75130951972474,44.63252793860178],[8.75198037147814,44.632703891195696],[8.751964334099242,44.63282892099819],[8.75195085846055,44.63291193715835],[8.752048388051179,44.63295265391679],[8.752173734315116,44.63299864520663],[8.75226790117221,44.633034160933974],[8.752237585493596,44.63311962528813],[8.751870991775652,44.63325836017864],[8.75150122045518,44.63339708607493],[8.751354624500978,44.63340578392791],[8.751091092541495,44.63348622254566],[8.750778496978976,44.633616072685555],[8.750675632659044,44.63353033877427],[8.75051739899087,44.63377304828893],[8.750304029106708,44.634101165344035],[8.750008439990545,44.634123031285185],[8.749853481382234,44.63414970131154],[8.749527458023744,44.63428402075369],[8.74944064145381,44.634225309542444],[8.749151833972324,44.633860084024036],[8.748979290080593,44.633670653206664],[8.748848680646363,44.63362536074135],[8.748586684267266,44.63380932036647],[8.748407706208106,44.63392596511094],[8.748280711269638,44.634047220906275],[8.748113534025908,44.634163891193126],[8.747923473752087,44.63429400548405],[8.747839631274774,44.634365834138194],[8.747758841773502,44.63446018203559],[8.74768077666778,44.63456353389621],[8.747585382985822,44.63466684560478],[8.747490026043426,44.63475666436001],[8.747328840908626,44.63485983127241],[8.747210241735354,44.63494959656857],[8.7470603925972,44.63507080129802],[8.746775062208814,44.63526821959783],[8.746656912782411,44.6353489873082],[8.746477940160057,44.635456613902136],[8.746423037245723,44.63548799987618],[8.747449800942547,44.63603492274123],[8.74753893759825,44.63610713262536],[8.747554750018965,44.63618819819602],[8.747417031309555,44.63643673815281],[8.74727631351887,44.63669070700634],[8.74715968665596,44.636901169511226],[8.747126270721171,44.636961461797185],[8.746922358464284,44.63691148647588],[8.74690106063739,44.637100491789525],[8.74697395212736,44.637190682803016],[8.747168167634998,44.637290135910376],[8.747279942454355,44.637373882383194],[8.747402475807666,44.63746651640168],[8.747572680178083,44.637687150568624],[8.74794358497574,44.63829113446513],[8.748159555158708,44.6385073890765],[8.748605838991482,44.638954261498945],[8.74831610665724,44.639075591019925],[8.748162213917917,44.63914003825497],[8.747622139675338,44.63936620415327],[8.747345488161745,44.639469115792785],[8.747068184638394,44.639716074259226],[8.746588592673147,44.63982303209008],[8.746312063650901,44.639979962766],[8.745839775076552,44.640217486958456],[8.745375743902025,44.64054503814245],[8.745236724731472,44.64070677032743],[8.745023686227782,44.64112940404083],[8.744872454595646,44.64120575945845],[8.744722737179757,44.641281777765045],[8.744696036507346,44.6417993533419],[8.744686786488368,44.64202439228018],[8.74458040329191,44.642204210562944],[8.74441751184547,44.642325381600074],[8.744164258699204,44.64242642840948],[8.74382424845811,44.64246358025921],[8.74319894922113,44.64244867945131],[8.742930836489947,44.64248408355206],[8.742828665938523,44.642524396257706],[8.742754456146786,44.642553279272775],[8.742564527618612,44.64262728842338],[8.741790918453141,44.643089175743],[8.74172516661971,44.6433455962516],[8.741715542517984,44.64355907754501],[8.741711584136258,44.643611963623336],[8.74155274888224,44.643658574794635],[8.741431271747361,44.64369353918417],[8.741393551393445,44.64370463487229],[8.741224532516503,44.64374739736913],[8.74105887689645,44.643788932099284],[8.740982775880497,44.64380840746854],[8.740719339330642,44.64386636190837],[8.740561954914451,44.64387909952551],[8.740469600724735,44.64389485921363],[8.740386627131276,44.64391060864194],[8.74023696963031,44.643927373984155],[8.74013929339159,44.64400368284674],[8.740118046288286,44.643116890134536],[8.739682093750051,44.64312411387691],[8.738908716869027,44.64313713239717],[8.737730288784205,44.64315643804455],[8.73781025892513,44.64342220502882],[8.737889866352807,44.64376896561221],[8.737823297738668,44.64411091101704],[8.737559447362166,44.64416959001742],[8.737002046020551,44.64429357114859],[8.736692626773232,44.64429159516239],[8.735901841899581,44.64428653560145],[8.73562586985821,44.644619105321546],[8.735473119739865,44.64480317750474],[8.735789719763103,44.64485341413899],[8.735992245787777,44.64494391095756],[8.736089175136913,44.64503416165615],[8.736137470405701,44.64516480751331],[8.73611262397042,44.645250280038994],[8.735941709654572,44.64531290241636],[8.735706077975152,44.64531235738254],[8.73539778249872,44.645253122869356],[8.735179274378872,44.64512208215251],[8.734854817642738,44.64498178090676],[8.734698052120434,44.645134460048034],[8.734412219101797,44.645417028372414],[8.734316467904753,44.64551168197878],[8.73401866852705,44.645549280905286],[8.733723425196814,44.64558681299444],[8.733642541339094,44.645523606980106],[8.733228726213923,44.64544612900475],[8.732911836058328,44.64545890110649]]]}}]}
