{"type":"FeatureCollection","metadata":{"code":"006013","referenceDate":"2026-01-01","sourceDbfExportDate":"2026-02-18","upstreamArchiveUrl":"https://www.istat.it/storage/cartografia/confini_amministrativi/non_generalizzati/2026/Limiti01012026.zip","sourceManifestSha256":"70ac8256c4785dc6ed2814c32b6965ae76f9161b51abaa1660059e1c6cbd8ca6","license":"https://creativecommons.org/licenses/by/4.0/","attribution":"Istat, Confini delle unità amministrative a fini statistici al 1° gennaio 2026, versione non generalizzata.","modifications":["Converted from WGS 84 / UTM zone 32N (EPSG:32632) to RFC 7946 WGS 84 geographic coordinates.","Converted from shapefile to per-municipality GeoJSON without geometry simplification."]},"features":[{"type":"Feature","id":"006013","properties":{"code":"006013","name":"Bassignana","alternativeName":null,"regionCode":"01","regionName":"Piemonte","territorialUnitCode":"006","territorialUnitName":"Alessandria"},"geometry":{"type":"Polygon","coordinates":[[[8.721737768315684,45.02472755307732],[8.721466870507301,45.02520998981128],[8.721203943019269,45.02567788026677],[8.721106976811244,45.025850432021095],[8.720884713247553,45.026245613734304],[8.720575176707278,45.026796341104394],[8.720535416895359,45.0268670922506],[8.720330185588013,45.027307664181464],[8.720048490242851,45.02780208300356],[8.719766947289882,45.02826947511069],[8.71967671525098,45.02841893066398],[8.719409109401473,45.02886246235302],[8.719013283393622,45.02934758444152],[8.718642765727882,45.029832764768386],[8.718297312557405,45.03038104223694],[8.71796476474565,45.03088430778106],[8.717621658592964,45.03128854986027],[8.717511546338116,45.031448564080094],[8.717380603673725,45.03163825084122],[8.717237522634036,45.031845962457226],[8.716892579032264,45.03228620073145],[8.716782229829738,45.032455359538396],[8.71674147124961,45.03251811765208],[8.716609673586705,45.03272054982884],[8.716470981460198,45.032933020724776],[8.716087544521388,45.033463180555025],[8.71584398761222,45.03393068125733],[8.715510943756412,45.03453297490916],[8.715229001644992,45.03506336468343],[8.714997935047965,45.03556690477751],[8.714703695974249,45.036025250211694],[8.714345579624142,45.036546469787424],[8.713936999910173,45.03696858085859],[8.713758894000957,45.037062651520095],[8.713580847336809,45.037156690544336],[8.713211321914816,45.03738982888362],[8.712929133240085,45.037522664427264],[8.712868504716223,45.037551186563576],[8.7125122496339,45.03770332477867],[8.712143348121327,45.03784641463383],[8.711761801339113,45.03798049381801],[8.711393141053914,45.0380695661502],[8.710999175671127,45.038149594797005],[8.710643319043514,45.038220702373934],[8.710058933933873,45.03829123069407],[8.709949076870641,45.038282555701045],[8.70929753106158,45.03821728471513],[8.708798048072332,45.03816226838737],[8.708730015746397,45.03744610438351],[8.708593904782647,45.0367635568769],[8.708531556149557,45.036450899686535],[8.70849251564051,45.03555827992953],[8.708485682406168,45.03540207012562],[8.708375977108652,45.0346982442735],[8.708368152291234,45.03464111101447],[8.707203375921718,45.034323085023026],[8.70627669466606,45.03339224865213],[8.706234785988922,45.033348389951755],[8.706203618187088,45.03328356559598],[8.70618101270915,45.03324070712896],[8.705687267798059,45.03224064173799],[8.705668774304328,45.032200895804884],[8.705646525808673,45.032153442686166],[8.705624967134478,45.03211060750293],[8.70560268740828,45.03206430743477],[8.705584976328298,45.03202797161413],[8.705401092191662,45.03165408428028],[8.704875929366844,45.03089640504921],[8.70444344283033,45.028982395304425],[8.7042702381805,45.028261792794375],[8.704496514397054,45.02722717724436],[8.705427662316254,45.02448328104466],[8.705684444098935,45.02454320160452],[8.706016712009388,45.024102963957304],[8.70606173572097,45.023929657554426],[8.706095187648865,45.02379687396104],[8.70614753933325,45.02349093092536],[8.706167160581147,45.02330576572266],[8.706187578663105,45.023112938351055],[8.706278935818343,45.02261809635567],[8.706358078092832,45.022033177812446],[8.706450084995884,45.02141229185095],[8.706427750089347,45.02082708255209],[8.70642961873788,45.02015194976418],[8.7065081391719,45.01967509072486],[8.706524421717555,45.01898196223966],[8.70651758508011,45.01852370038838],[8.706514007220035,45.01837910001133],[8.70647926733061,45.01773086234381],[8.706470388106654,45.01753859406622],[8.706456402161841,45.017235711716346],[8.706472401059282,45.01658762772435],[8.706500002525647,45.016155601108736],[8.706489660215285,45.01569648924162],[8.70645452742214,45.01512028168005],[8.70644501621313,45.01441810875239],[8.706406984606227,45.01385781616547],[8.706385939108358,45.01356277862746],[8.706122792174702,45.01290497705859],[8.705601547448865,45.01308365921531],[8.70543798933058,45.01318552704026],[8.705054856467472,45.013424127540446],[8.705015924501453,45.01344493751589],[8.704685991889498,45.01362113703035],[8.704552491251091,45.01369888417494],[8.704316317099012,45.013836500809404],[8.703922662773351,45.01392544958322],[8.703503325815648,45.01413121015576],[8.703348581456913,45.01446410741878],[8.703347815671231,45.014679787446426],[8.703459660987644,45.015112410526],[8.703572130033248,45.01549899575251],[8.70367158504431,45.01591397778196],[8.703683223056233,45.01598706741276],[8.703745191125037,45.01640926071687],[8.70384462751449,45.01681460864733],[8.703968854336287,45.01733703101607],[8.704043151476407,45.017526288668655],[8.703202007617936,45.01715822899931],[8.701293680067831,45.016322146936865],[8.701139237479083,45.01627672077826],[8.700942953902308,45.01619520245433],[8.700782051598571,45.016172269951035],[8.700708083269879,45.01613157117547],[8.700569592559129,45.016072693997934],[8.700469702068693,45.01606343645646],[8.700221822622602,45.01606278606862],[8.700051510794973,45.015940809618456],[8.699774899323923,45.01582755092107],[8.698017021778927,45.01547184388797],[8.697956305526331,45.015408304531064],[8.697875554517504,45.015376948855845],[8.697727199586426,45.015381074350756],[8.697633994795119,45.01538082762424],[8.697531221381045,45.015317542161306],[8.697392993738834,45.015204644101516],[8.697270920511723,45.01511429705274],[8.697061773178831,45.01506874195431],[8.69695563665044,45.015036952809986],[8.696797863214465,45.01502302129356],[8.696695066249744,45.01496425216675],[8.69654391996025,45.014896339081936],[8.69635389679825,45.01483282068973],[8.696244682299698,45.01478301169112],[8.696219260373379,45.014719930747845],[8.696125405180556,45.01476919873153],[8.696019818077096,45.01479352534415],[8.69582521013365,45.01476388333433],[8.695845279387656,45.01493948200392],[8.69468207241131,45.015089415965434],[8.693549994238515,45.0151223860674],[8.692840003927323,45.015138472638114],[8.692126789666077,45.01508705163534],[8.691914547531196,45.01502796511036],[8.691628093652135,45.01474808888898],[8.691563409583864,45.014661052145286],[8.691436073565106,45.01468909568026],[8.691401956118504,45.014673475211936],[8.691356968825717,45.014652877011464],[8.691255543096009,45.01463011160517],[8.691115553297024,45.014557704336646],[8.691031765019648,45.01450348066895],[8.6909408498905,45.01444471779701],[8.690755685406295,45.01436319132312],[8.690559815337075,45.0142816544456],[8.690412729784725,45.01427225931991],[8.690339163391164,45.01423603515242],[8.690259031916124,45.01416380981924],[8.690171535927048,45.014136562270615],[8.690084186844311,45.014082328243525],[8.690042526651466,45.014014703599486],[8.689947932173464,45.01397842300582],[8.689885146393106,45.01392875195966],[8.68982601643136,45.01386108069617],[8.689674051002502,45.01377815910748],[8.689654874106568,45.01374378363318],[8.68964040413448,45.01371155259799],[8.68962869926461,45.013685009277644],[8.689588455108442,45.01364906601655],[8.689565580609719,45.0136270607968],[8.689489873850887,45.01356631987199],[8.689465345820231,45.0135443110363],[8.689427481964568,45.013520473651056],[8.689396969738628,45.01350137324598],[8.689344369337432,45.01346814007284],[8.689236459296758,45.01338687615017],[8.689156090486001,45.0132921374203],[8.689086401095551,45.01319742770645],[8.688989271769536,45.01304412723461],[8.688946360554898,45.01295478797362],[8.688923364458581,45.0129089245386],[8.68891360847004,45.01280987969264],[8.68891421767667,45.01269734941584],[8.688922043869598,45.01249483592741],[8.688898043406082,45.01238675666638],[8.68888477312752,45.012274188572185],[8.688853795658689,45.012211088126726],[8.68881215941492,45.01206245760934],[8.68875718248672,45.01188676248746],[8.68869522650754,45.011684057888225],[8.688622249784894,45.011539819404305],[8.688598612951202,45.011436239307535],[8.688553737046314,45.01130559195785],[8.688505221536403,45.01117943201448],[8.688463736093434,45.01108030055392],[8.688460661989312,45.01099027127309],[8.688450417715789,45.010904718884866],[8.688423076716509,45.01082813616517],[8.688332465444889,45.01071537495139],[8.688249023528005,45.0105981160756],[8.688235490083219,45.010535065760656],[8.688179757816942,45.0104268987839],[8.688096219831264,45.01033215060608],[8.688005707760212,45.0102013783711],[8.687967711406042,45.01011575010953],[8.6879155430527,45.01001209188828],[8.687818642212273,45.009818287759686],[8.687735569466598,45.0096335178628],[8.687708400845732,45.00944890168132],[8.687691525079153,45.00934533804617],[8.68766018821017,45.00927324335142],[8.687584187691119,45.00910198923577],[8.687525315143478,45.008989314166065],[8.687497684653126,45.00889471667928],[8.687438931091375,45.00875953350316],[8.687351933196595,45.008597695726955],[8.687293665113092,45.00849817937939],[8.687174591929974,45.0083762536344],[8.687241492969463,45.00832691913923],[8.687493184367435,45.008318613420286],[8.68777408639234,45.00831937722033],[8.687945715276154,45.0083333437755],[8.688054224166676,45.00836064865406],[8.688180515427762,45.00840149495094],[8.688407799370538,45.00846063222466],[8.688642429437957,45.008483781419464],[8.688901863598725,45.00847097474431],[8.689203365388044,45.008444807004985],[8.689371605888613,45.00842725189763],[8.689571746712405,45.00837827745913],[8.689771958941574,45.00831130983821],[8.689993026029603,45.008275906075795],[8.690189435323532,45.008253946870404],[8.690371503753708,45.008245427013506],[8.690638152149742,45.00821464292663],[8.690740296771027,45.0081990590994],[8.69078273158647,45.00819260710529],[8.690843521268016,45.00818323235178],[8.690897703198063,45.00817483979457],[8.691339395541771,45.00811302190024],[8.691511559154995,45.008099992302846],[8.691781451123756,45.00805570063358],[8.692117975033812,45.00801160507925],[8.69247608052567,45.00793154818841],[8.693103931900572,45.00783871338747],[8.693213547691998,45.00782225533382],[8.693545642043086,45.0077723896479],[8.694040469064086,45.0077062047123],[8.69443998869246,45.00767126847626],[8.69475228958099,45.00763160040181],[8.695004642039313,45.007600768805744],[8.695197473738538,45.00757402221597],[8.695367266579614,45.00755364841769],[8.695523687421007,45.007534641215855],[8.695905810825893,45.00748614159607],[8.696344419134848,45.00740630039629],[8.696740975517889,45.00733082790864],[8.697197064109405,45.00724201532923],[8.69751972284814,45.007188872374485],[8.697698535213693,45.00712183416255],[8.697773056220063,45.00705000076561],[8.69764673910634,45.00701816061294],[8.697426415561463,45.00690956311727],[8.697168059163392,45.00672433636115],[8.696874925330805,45.00651652452475],[8.696490982438055,45.00623644179471],[8.696078803451861,45.00596979720126],[8.695296570611886,45.00541858417016],[8.694846180789805,45.00510682894316],[8.694612280586883,45.00494867104845],[8.694483063193431,45.00486280361338],[8.69437116360731,45.004803987234595],[8.694206952117227,45.004740534230315],[8.694189601918,45.0046459667179],[8.694145155920705,45.004506326942476],[8.694061324063572,45.00438907114145],[8.693971173269205,45.00426280362561],[8.69380063264294,45.00404631662801],[8.693532003369574,45.00378454488438],[8.693392739861252,45.00365364503492],[8.693253154385275,45.003504732203425],[8.692963853228742,45.00325190099455],[8.692688011971239,45.00300360172131],[8.69249980160446,45.002832066695795],[8.692300913956581,45.0026559863235],[8.692182529442366,45.00254765233238],[8.692074562478746,45.00242133435733],[8.691938570358598,45.002272429575434],[8.691530435886763,45.00192477277914],[8.69153457335742,45.00181674826441],[8.691440460582122,45.00169948341985],[8.691329664441007,45.00151014360671],[8.691217508613343,45.00133265913931],[8.69115587074012,45.00123510964659],[8.69109360694772,45.00109092035201],[8.691090553350167,45.00099639187745],[8.691095184888319,45.000911789907114],[8.69120350352082,45.000857155788594],[8.691491134175468,45.00074991813494],[8.691761528380367,45.00068313560028],[8.691835055282164,45.00067656547613],[8.691911992658426,45.00066929515319],[8.692019867657576,45.000720211142685],[8.692149915307004,45.00079220089536],[8.692247462494024,45.00085997374064],[8.692398001999075,45.00088738868106],[8.692713851668072,45.0008432347289],[8.692885699905231,45.000812190241696],[8.69303659755445,45.00076757729593],[8.693306506880367,45.000714304391416],[8.693576748496865,45.00067000846052],[8.693888767467167,45.00060333436388],[8.694309933018628,45.00050994313604],[8.694481828499338,45.000469898046276],[8.694569569082674,45.00045212167869],[8.694659723355668,45.00064590145988],[8.694780924197827,45.000893781995266],[8.694888276949074,45.001137124432994],[8.694985326677171,45.001303914780756],[8.69510501182373,45.00124122179305],[8.695330082014332,45.001115795490996],[8.695494953517873,45.0010577217909],[8.695751125579301,45.000977396206174],[8.695915898250801,45.0009328137195],[8.696073939627048,45.00088823288575],[8.696315995656487,45.00085286999105],[8.696526347863715,45.000812909677016],[8.696764840539382,45.00077753726191],[8.696943738164912,45.000760018175725],[8.697231347228616,45.000733772535625],[8.697708214586878,45.000681018799064],[8.698072783971426,45.00064597909589],[8.698402091607347,45.00060634595121],[8.698882469943861,45.00056259310695],[8.699184071539985,45.0005138872279],[8.69933128435405,45.00049176737342],[8.699517349626786,45.000469763962165],[8.699769599535948,45.00045691367818],[8.70006749692437,45.000430686139815],[8.700383314835051,45.000391013652944],[8.70060425003863,45.000373581104746],[8.70083550146507,45.000356193156996],[8.701021173767229,45.00033417006223],[8.70126310494822,45.00032130926952],[8.701494354801358,45.00030390107933],[8.701795812857405,45.00028217840166],[8.702052104419181,45.00025134057819],[8.7019724993113,45.000003593389444],[8.70190038225048,44.99976484690285],[8.701741822602626,44.99922431905851],[8.701693454851734,44.99907117705498],[8.70169560008871,44.99896314691415],[8.701608417765943,44.99872437885216],[8.701523185177175,44.998494613237604],[8.701458413280868,44.998368416926326],[8.70140336246075,44.99820174090926],[8.701339356832538,44.99800801584897],[8.701286119129417,44.997877351327325],[8.701249421025635,44.997764741107424],[8.701185576241496,44.99753952851324],[8.70110730837861,44.99734128662207],[8.701031731772348,44.997084535560276],[8.700964879876109,44.9969043165012],[8.700961815594468,44.99686803249282],[8.700955812196513,44.99680847889587],[8.700938135160701,44.99662066220636],[8.700855829826908,44.99636389427572],[8.700803207531154,44.99611619967363],[8.70074354120433,44.995922503580516],[8.700677457168355,44.99567027626021],[8.700636426557317,44.99548114700771],[8.70058175591743,44.99524244432942],[8.700506397879415,44.99494518919271],[8.700446596839441,44.99477850285791],[8.700389841803183,44.99448577667634],[8.700288990877342,44.99413445726152],[8.700237932153692,44.99404324616623],[8.700154500825482,44.993891304911344],[8.698205028997785,44.994020935245665],[8.697868817178946,44.99319636995664],[8.697180861419758,44.99329358541201],[8.697249887592859,44.99343778951177],[8.697467579400033,44.994185514529285],[8.697066083871281,44.99423846817291],[8.696396576850539,44.99436721569156],[8.696264367472265,44.9941778243958],[8.695960263820712,44.99350637183343],[8.695701076640733,44.993564199519625],[8.69479540489098,44.99375082255501],[8.694023407996266,44.99384327718497],[8.693458403188101,44.99393178230639],[8.69319672947519,44.99407959988981],[8.69306288240132,44.99427729723978],[8.692803520654033,44.99436660304356],[8.692156152328018,44.99465291911837],[8.69137764878345,44.994628327554075],[8.691311968848593,44.99438059231653],[8.691012320935892,44.99444279645025],[8.690896695635905,44.994415475955336],[8.690571414644952,44.99430657997408],[8.690135865550483,44.99412985411237],[8.68980014889266,44.993966908794484],[8.68955002019147,44.993741183418095],[8.689412518034354,44.993578776493244],[8.689327248871214,44.99351553100821],[8.689260973439694,44.99338032614271],[8.689233248843102,44.99322721506677],[8.68926981923618,44.99291674411761],[8.689275633146382,44.99268271854328],[8.689316771189999,44.99237225907656],[8.689333605000416,44.99226204011881],[8.68936231259212,44.991940302475534],[8.689383229233313,44.99166579390058],[8.689437162123138,44.991479158417626],[8.689452084615512,44.99139624611507],[8.689503155418628,44.991112511476366],[8.68951227455433,44.99104052344152],[8.68950458918431,44.990846966212935],[8.689525848131526,44.99072549329828],[8.689590847261009,44.99050962158249],[8.689609227209221,44.9903341435705],[8.689610247522518,44.99014510375494],[8.689576598617611,44.98991996913399],[8.689743927344225,44.98991414767534],[8.689937008949524,44.98990743268454],[8.689982592130907,44.989538489367],[8.69002171834081,44.98926852826028],[8.690066621280156,44.98902561024191],[8.690208982118724,44.98900899902419],[8.690201170755392,44.988967723724805],[8.690186860511155,44.98885488784147],[8.690150671948333,44.98858474122577],[8.690208844152792,44.98853088286655],[8.69020178831711,44.98822031101921],[8.689969217834923,44.988269180700314],[8.689948420929603,44.988141291214184],[8.689780410168714,44.98759815174823],[8.689565722841628,44.98757910539268],[8.689359730119564,44.98757437377355],[8.689263716918916,44.98758762629809],[8.689132784144146,44.98762807129637],[8.688948747946938,44.98777581065238],[8.689037838805975,44.98794258476752],[8.689127026173075,44.98809136508178],[8.689268584091911,44.98830328253861],[8.689354872970725,44.98847456594338],[8.68944350182878,44.98872684343716],[8.689448405044041,44.98891589760547],[8.689450042045378,44.989127454047335],[8.689408012962039,44.98935238564944],[8.689325826664108,44.989523190932736],[8.689200017111459,44.98969389634738],[8.689085985313096,44.98981511579513],[8.689037185136053,44.989889912402795],[8.688980459075918,44.98997685893085],[8.688895269665903,44.99011614890844],[8.688850994224394,44.990237559013316],[8.68881271542235,44.99035446556312],[8.688765388403667,44.99052538609684],[8.6887560027277,44.99065138680267],[8.68875824522158,44.99074591330059],[8.688804037982154,44.9908585524549],[8.68886706642833,44.991002763343324],[8.688887157714909,44.99110183762752],[8.68886904209238,44.99122331627809],[8.688736768583931,44.99149300326115],[8.688604543809053,44.991753694572566],[8.688551487310024,44.991884076221815],[8.688419358294475,44.992126771785244],[8.688310587899391,44.9923740328078],[8.688221927936832,44.9926393398931],[8.688215976517982,44.99266934240998],[8.688188912651833,44.992805782016596],[8.688149552153572,44.99301607504354],[8.688135023962209,44.99309369418946],[8.688134071893149,44.993269237475495],[8.688148260755893,44.99335478202378],[8.688162280678007,44.99338001852903],[8.688188324155671,44.993426900611844],[8.688283831340698,44.993503688600725],[8.687836207069505,44.99351146339949],[8.687462022700544,44.993509785568115],[8.687331146637067,44.9935095533611],[8.687009539937375,44.993508829955594],[8.686818988120962,44.99351230983339],[8.686535817808576,44.99351689721032],[8.68646290892825,44.99350987810387],[8.686199014471152,44.993484465496586],[8.68600192078092,44.993396318721814],[8.685824492129173,44.99331690537317],[8.685808404061001,44.99321784160206],[8.68577073999282,44.99299719140294],[8.685759101105008,44.99273610677332],[8.685753503112357,44.9925245395136],[8.685748388776037,44.99248633021499],[8.685713138842699,44.99222287428909],[8.685647249648492,44.991876118278675],[8.685611346314957,44.99162396333068],[8.685524536709346,44.991335664935235],[8.685476691908038,44.99122148039241],[8.685449601869479,44.99116219011619],[8.68538913423184,44.991020296998954],[8.685356015007045,44.99094473348366],[8.685303352739597,44.990857908691055],[8.685253703399118,44.9907775960791],[8.685178196842974,44.99065507408003],[8.68506845431605,44.990281187317336],[8.685069514182107,44.99008765027934],[8.685083037642435,44.9899928106963],[8.685101702501472,44.98987319213557],[8.685166065434103,44.98975831125127],[8.68521889818853,44.989664978907136],[8.685369224690639,44.989431349822475],[8.685441887176733,44.98933702957303],[8.685449547273905,44.98924252936114],[8.685350079893487,44.98909371788283],[8.685158065130471,44.988827639441936],[8.685037876829107,44.98862477148945],[8.68495640807498,44.98844450338074],[8.684897857586606,44.988205800201584],[8.684817902932167,44.98796701990969],[8.684725804524389,44.98771127696841],[8.684675597652832,44.98753454627378],[8.684662452194916,44.98749310462453],[8.684542698603728,44.98711559322909],[8.684501291372785,44.98699686018714],[8.684493255089963,44.98680938413092],[8.684478454396631,44.986471763891096],[8.684504499989469,44.98598573692181],[8.684516824712421,44.985477163527975],[8.684531057342477,44.98532768675677],[8.684547395596098,44.98513934447433],[8.684566154892917,44.98493718457466],[8.68456354722227,44.984824260502926],[8.6845631984002,44.98468062350998],[8.684522107647625,44.984513977513096],[8.684442744226253,44.98439891855952],[8.684185921669155,44.98416197763571],[8.683979096589628,44.98399937487624],[8.683798189414015,44.98388635963888],[8.683626347757436,44.98377784769791],[8.683314578268822,44.98360145632926],[8.683117536688538,44.98346588678167],[8.682971250687741,44.98332593791664],[8.68282750457113,44.98315450978206],[8.682747165624342,44.9829877576955],[8.682663878663341,44.982856998870574],[8.682604042489048,44.982708294948374],[8.682578997970893,44.98257769880612],[8.682575896306648,44.98234814394496],[8.682497662653645,44.982163385499],[8.68241203569053,44.98201912603516],[8.68231804454285,44.98182012845147],[8.682287877042953,44.98176343213266],[8.682236768556908,44.981672063221005],[8.68216696579344,44.98147366931632],[8.682150535200574,44.9812847427421],[8.681997363730112,44.98109977353153],[8.681839356351402,44.98100481200709],[8.681728054852837,44.98091897698968],[8.68180282890048,44.98086968808783],[8.682078456635844,44.98077143597705],[8.682195209746071,44.98073123772064],[8.682405645697447,44.980664312038115],[8.682660453631618,44.98052999458937],[8.682844931117575,44.98042699173172],[8.682978429075368,44.980368846059065],[8.683146422361125,44.98030629766112],[8.683344885013648,44.980257330137036],[8.683487227673501,44.980248728162536],[8.683678174643179,44.98026277093974],[8.683903863421463,44.980308396609566],[8.684106486542055,44.9803629752966],[8.684306989120975,44.980372526270266],[8.68457047156511,44.98031923805153],[8.684733922897307,44.98029267990452],[8.684988086746987,44.98027538723228],[8.685258459344773,44.98026261984033],[8.685496388230815,44.98024528129322],[8.685930411487329,44.980169949154536],[8.685993105413221,44.9802286351764],[8.686053294675059,44.98030982727476],[8.686127201875253,44.98042254499057],[8.686210836401766,44.98049480487932],[8.68631524852513,44.98053559422107],[8.686436502758617,44.98054042548069],[8.686655928201093,44.98050052521901],[8.686928938512489,44.98044275672238],[8.687173209239965,44.98040376075387],[8.687391271605955,44.98036803045272],[8.687850894961167,44.98028429834725],[8.688021049254232,44.980253052093246],[8.68823156775275,44.98021800083107],[8.68831330651201,44.98020470119845],[8.688451568722723,44.98018097841458],[8.688524981058181,44.98016807180631],[8.688558523531501,44.98014962915084],[8.688588861161959,44.98013206804035],[8.688688056814861,44.980075027513024],[8.688805696295296,44.97998568501897],[8.688850686721464,44.97995199084569],[8.689004138043368,44.97988130234563],[8.68914962635749,44.979815067738514],[8.68928727062228,44.979843054911484],[8.689398573375357,44.979865055094066],[8.689496525270602,44.97993693653111],[8.689629752443922,44.980005105926175],[8.689687729869489,44.980035210288946],[8.689800386768892,44.98009220437065],[8.689948911600485,44.98015061000844],[8.690010548167592,44.98018478402368],[8.68994148312385,44.980036897808105],[8.689871856686743,44.979937689913925],[8.68971376565334,44.97978422450535],[8.689593214615908,44.979644374653475],[8.689424352746217,44.979504374398175],[8.68931476175405,44.9794022713601],[8.68920941527137,44.979305751078606],[8.689123873244936,44.97921549596153],[8.688989797660208,44.97908910258098],[8.688877291910655,44.97893126184346],[8.688759527115892,44.978795915160255],[8.688657629530253,44.978656116931184],[8.688561073413842,44.97855683299562],[8.688410570411378,44.97846190278516],[8.68820463581827,44.97833079250404],[8.688112368830351,44.978272047622845],[8.688057323493299,44.97822305174241],[8.687970348025466,44.97814563222662],[8.687849587122871,44.97805078162678],[8.687631466809012,44.9780051835375],[8.687510286476066,44.977982340821534],[8.687254528297238,44.9779321218361],[8.687030950545806,44.9778684956285],[8.686805049696876,44.977791368670765],[8.686648847782266,44.977727925564],[8.68649567021908,44.97761948973615],[8.686342879317511,44.97750653757803],[8.686179147303118,44.97737106194517],[8.686001914883823,44.9772400490381],[8.685800717369045,44.97706846739091],[8.685593915755089,44.97690584581383],[8.685549190645816,44.97682471580907],[8.685486743060784,44.97672102757057],[8.685363741367354,44.97654509286047],[8.685242901641658,44.97637377837784],[8.685123227824796,44.97622940895607],[8.685032616694825,44.97613255721388],[8.684958624736126,44.97603091808942],[8.68487904291399,44.975945191568115],[8.684750567694309,44.97581429140502],[8.684571269568911,44.975624774869196],[8.68440126076053,44.97547928172352],[8.684209367914844,44.975331488122194],[8.684023409813264,44.97521816744002],[8.683863750513398,44.975124726280754],[8.683715673640265,44.97501507022537],[8.683572171810848,44.97489735098791],[8.683397698199432,44.97479407668582],[8.683367284803312,44.97477585070565],[8.683280103893102,44.974733004456226],[8.683163080978822,44.974676228528466],[8.682969990978519,44.97459439681723],[8.682894483074985,44.97456771960145],[8.682694314721017,44.97449897103175],[8.682539485457989,44.97445466786475],[8.682486882630045,44.97444007257307],[8.682423565418237,44.97442234088467],[8.682291785738682,44.97439954416023],[8.68215979439813,44.9743758239929],[8.681936372919706,44.97435718904199],[8.681777133212202,44.97434325149645],[8.681604825650922,44.97432475921003],[8.68147568738807,44.97431540164329],[8.68134335709634,44.97430603592435],[8.681230552142548,44.97428320989906],[8.681030847453439,44.97427365664298],[8.680766963053312,44.97426390295231],[8.680405603009499,44.97424939743665],[8.6800608420817,44.974243932946365],[8.679602346077967,44.97423365191045],[8.679424511475302,44.97421514082804],[8.679171174936632,44.97420638076897],[8.678942399188458,44.974177781345325],[8.678778117465514,44.97414581250598],[8.678597576355557,44.974113797673276],[8.678387787714714,44.97406818644097],[8.678137246476755,44.97400898403188],[8.677972964236298,44.97397251484835],[8.67764728385899,44.97388607195822],[8.677456194582893,44.97382701784136],[8.677324632879433,44.97375463675822],[8.67713116983611,44.9736235623424],[8.677020939786066,44.973492063169715],[8.676930575428049,44.9734389300138],[8.676888019617984,44.97341498591141],[8.676850455514698,44.97339261775906],[8.676809713423676,44.973354200892686],[8.676754176682323,44.97330199072995],[8.676493457231008,44.973053683037016],[8.67647055597277,44.9730316128486],[8.676745611999976,44.97291130892636],[8.677038791296832,44.97278612971348],[8.677272628238798,44.97271026409624],[8.677474290451277,44.97265231648066],[8.677643019327927,44.97259879634448],[8.677897657749849,44.97249148126167],[8.678114265340477,44.9723795772451],[8.678149063193388,44.97235980436745],[8.678301112556886,44.97227206836947],[8.678466748490747,44.97220502184124],[8.678603085614844,44.9721333952382],[8.678769083743738,44.97207084757399],[8.67890851525079,44.972012725063344],[8.678981300904193,44.97198768455165],[8.679035587809402,44.97196807870714],[8.679317023277628,44.97188334698494],[8.679560679320163,44.971826835975314],[8.679643534268013,44.97180898346095],[8.6797522764216,44.97178631631054],[8.67990919318198,44.97172747373688],[8.680013033973784,44.97172412793497],[8.680098657867097,44.97170224816461],[8.680169767392089,44.97168427594834],[8.680382426606224,44.97165698409205],[8.680421368184085,44.97164898049149],[8.680533323912393,44.971626423311456],[8.680687017179286,44.9716077788571],[8.680752128284295,44.9716000409518],[8.680942581359508,44.971593797399166],[8.68101840316696,44.9715913482161],[8.681106869049149,44.97158285885852],[8.681205400632065,44.97156332330476],[8.681285814829595,44.97154591378371],[8.681388113835819,44.97152457468862],[8.681577555068786,44.97144857457481],[8.681784842203484,44.97137264367632],[8.681986444226737,44.97132368628298],[8.682234918670822,44.97125236843355],[8.682560755484984,44.97116325035439],[8.683155637510824,44.971011885881296],[8.683433748472504,44.97095414159473],[8.683750368107205,44.97088750670086],[8.684031765452724,44.97080725882338],[8.684273722484145,44.97074508790959],[8.684395698345444,44.970713744409224],[8.684804036983587,44.97061135392592],[8.685206864702238,44.97050444940473],[8.686150514191528,44.97024665547445],[8.686170540012446,44.97029047180128],[8.686235730750115,44.9704172753854],[8.68638530972056,44.970597441242816],[8.686557325182374,44.97075138181762],[8.686597509586774,44.970787342456454],[8.686844287027542,44.97099517099581],[8.687022025196693,44.97115850120583],[8.68712402969946,44.97125238861177],[8.68743605926441,44.97151879309336],[8.687641969581321,44.97169490210546],[8.687803738873749,44.971825871225086],[8.6878806869719,44.971889096247025],[8.688269503316628,44.97224573156024],[8.688444304103184,44.97239112858004],[8.68860305811531,44.972522710361815],[8.688635681843586,44.97255370037361],[8.688734510415403,44.97264485096272],[8.688766325257335,44.97267348201617],[8.688935706337158,44.97282816613855],[8.689054482293663,44.97292301297283],[8.689126246464502,44.97298621042631],[8.689201963483013,44.97305391957604],[8.689313261544283,44.973211759571406],[8.689392141051355,44.97335599483239],[8.689492008638954,44.97357681463673],[8.689545368142545,44.97374798809995],[8.689591610741669,44.97391916199402],[8.689623372320744,44.974054273335355],[8.689661351418172,44.97413990154037],[8.689851505810289,44.97430244811815],[8.690122127010456,44.974609238809016],[8.69017634528629,44.97469940827836],[8.690310854616099,44.97496082473564],[8.69056162911463,44.97497951651706],[8.692369475229055,44.9769423108003],[8.692579693863212,44.976796122356276],[8.692659463488027,44.976740555486536],[8.693813397029952,44.97662662320367],[8.694820067372651,44.976705826258325],[8.6958846575182,44.97652087252988],[8.695890721774335,44.97660065237963],[8.695892929659289,44.9766366787168],[8.695899589368427,44.976713223944095],[8.695881092173844,44.9767601379334],[8.695845755174718,44.9768424802097],[8.695837266517264,44.97688831540425],[8.69579653115537,44.977100027602035],[8.695802433752606,44.977329588876444],[8.695808529606776,44.977527643787845],[8.695844331359854,44.97765376661374],[8.695926887187829,44.977780013918434],[8.696088145623287,44.97801448696197],[8.69626098382844,44.978235494825846],[8.69654109357212,44.978555806373265],[8.696724588381612,44.9787858392895],[8.696956777172574,44.97909192095094],[8.697123355064182,44.979304503025915],[8.697292224916284,44.97952549965512],[8.697432989729991,44.979765039421515],[8.697507674238086,44.97985464381482],[8.697626362698832,44.979967471799895],[8.697792314612963,44.98006693080108],[8.697983601299024,44.980170953038154],[8.698156652928171,44.980279444842125],[8.69838000719494,44.98046457868345],[8.69851645161608,44.98059996201897],[8.698638876390842,44.980757822089785],[8.698713936690059,44.98088404663183],[8.698771172161067,44.98100120954864],[8.698864786851546,44.981140997561376],[8.69893633193433,44.98125370164336],[8.699178142659377,44.9814028747199],[8.699369527778265,44.98148890356111],[8.699587522660417,44.98164249334367],[8.699683466397378,44.981714776629154],[8.69973609946599,44.9817502296942],[8.699948170340368,44.98189677808],[8.700403682013766,44.98221242483592],[8.700550841907964,44.98231466610652],[8.700673334011498,44.98239992966286],[8.701076041672055,44.9826771130811],[8.702025397448786,44.9821349793431],[8.701646240853764,44.98141384740118],[8.702436163799012,44.98119086207781],[8.70256664002592,44.98123235260489],[8.703293778961738,44.98146307376006],[8.703858979239573,44.98164246531508],[8.7039660183939,44.98167643804431],[8.704120475734193,44.98192925044694],[8.704214178429533,44.98208261733031],[8.704346102871492,44.98229854495163],[8.704480501717173,44.982263371088855],[8.705248651267262,44.982062336886386],[8.705677796668459,44.98185639057971],[8.705744093569812,44.982144622186254],[8.706308002530685,44.98201554718244],[8.706510033086515,44.982191612775104],[8.706244959625282,44.98255999881237],[8.706377426821815,44.98278088734234],[8.706481460917455,44.98297469497629],[8.70656019260568,44.98315944094731],[8.706620431405119,44.98339363839358],[8.706695536045679,44.983591887771645],[8.706795717172383,44.98376767318965],[8.70692463636061,44.98392582452556],[8.707077035308291,44.98394394125585],[8.707195476151309,44.98396223808266],[8.707275859382765,44.98397595787469],[8.7073663029976,44.98396267592739],[8.70754773579399,44.98390462528588],[8.707740107347703,44.98380610076467],[8.707946504217244,44.983748110669545],[8.708109660376632,44.98370352702505],[8.708268725730099,44.983676924900315],[8.708384681339554,44.983636716756955],[8.708551373219944,44.9835966388843],[8.70866730573096,44.983556412390556],[8.70880161068988,44.98349374124647],[8.708939499730548,44.983422083426355],[8.70904091550898,44.9833548298983],[8.70914619114583,44.98331009549377],[8.709374751326136,44.98318465000536],[8.709492495719902,44.98312594627116],[8.709581370348898,44.98308163874463],[8.709694015398314,44.983037742650716],[8.709777182502437,44.98300562891235],[8.709918624632058,44.98293847540901],[8.710060161024165,44.98285330995929],[8.710154594888833,44.98275903004718],[8.710271134074041,44.982597291479166],[8.710398953670238,44.982404079052536],[8.710453492242712,44.982354715588684],[8.71064553415572,44.98231919719455],[8.710806044437705,44.982324102032145],[8.710800667390204,44.982288084197485],[8.71146716887723,44.98232577423366],[8.711572390408437,44.98242363381275],[8.711815133375785,44.98265071777657],[8.712299157326704,44.98268063546118],[8.71287393001419,44.98271639830302],[8.712951105784049,44.98287587288144],[8.7130524429118,44.983085914473804],[8.713671691142794,44.983141486712206],[8.713748937318991,44.9831629852758],[8.713804420571625,44.983177747101834],[8.713863908712954,44.98319394574463],[8.714138070614272,44.98326957717683],[8.714227776187817,44.983293758577275],[8.714268540335562,44.9833045548931],[8.71437739246778,44.98329330377851],[8.71457214986509,44.983272029369395],[8.715136363190538,44.983212660495425],[8.715354288650621,44.98296408739638],[8.715555724587261,44.98273210661341],[8.71593463790457,44.98281857548505],[8.715983325214635,44.982827691327905],[8.716658239146916,44.98306632350107],[8.716944845109765,44.983167658942556],[8.71723008591664,44.98328087916268],[8.717988221963218,44.98298569470424],[8.718118198089895,44.98274720184734],[8.71814499954055,44.982698021904746],[8.71837700114279,44.982590560886],[8.718662886551634,44.98257327239518],[8.718933168097827,44.98258267699162],[8.719096405988804,44.98252828551675],[8.719188076703496,44.98249645589616],[8.7193653635082,44.98243596554732],[8.719411212372133,44.98242063444799],[8.719780445632294,44.98229245748018],[8.720231641914191,44.98219121143477],[8.720271202416598,44.982182242469946],[8.721028719638365,44.98201734496044],[8.721115897088048,44.98199912097176],[8.721284183874069,44.98192863329469],[8.721317120953707,44.98191564283269],[8.72160222872221,44.98179791026553],[8.72198690940348,44.98140785639342],[8.7220955629401,44.98138047223072],[8.722586610985555,44.98126413653341],[8.72323738745539,44.98110818211984],[8.723286679020319,44.98108601721695],[8.724930951890395,44.980369578910064],[8.725017178008816,44.98041028996623],[8.725036282879852,44.980972943901456],[8.724767933735766,44.98105782149527],[8.724535236489656,44.98131381352879],[8.724328474226438,44.98145283775118],[8.72431546445518,44.981724913872796],[8.724300274707849,44.98204240138244],[8.724295653496075,44.98226294532853],[8.724720522280156,44.9826825485031],[8.726516503610563,44.98368157204715],[8.727358401761045,44.984158488399096],[8.72913892923587,44.985167074639975],[8.729596509604173,44.98542626918107],[8.730102924730325,44.984934883969245],[8.73018145593655,44.98485867807681],[8.730364634670382,44.98468093238518],[8.730596382337174,44.98445417822649],[8.731039218871583,44.984020877813656],[8.731897626804425,44.983712326127204],[8.733215336408849,44.98324932588034],[8.733595431201044,44.983115914805886],[8.733691901397092,44.98308205120057],[8.734100873768371,44.982941932703774],[8.734774514758696,44.982710941738404],[8.734942868165875,44.98265199530773],[8.735182065926576,44.98256842694136],[8.735656186470587,44.98240231763256],[8.736322616492433,44.9818592444393],[8.736547380297727,44.981679735739],[8.736605800541959,44.98170528751177],[8.736940186622359,44.981851670256844],[8.73728753419622,44.98191098431592],[8.737533866262293,44.98204207725219],[8.738444333931795,44.982129690924964],[8.73869791854668,44.98240931580716],[8.738844418789913,44.98244565602331],[8.73896019109629,44.982441422425815],[8.73933202150567,44.982172222067554],[8.739842175306714,44.98207436741862],[8.740513470835639,44.98211189976097],[8.740583219974942,44.98213887414086],[8.740852966376126,44.98224319717212],[8.740999318066276,44.98230654195313],[8.741094217032986,44.98230149188629],[8.741274656878042,44.98229247395592],[8.741323729344224,44.982289788208334],[8.741564934430487,44.982274806811745],[8.741654143141497,44.982269218589046],[8.74175568458769,44.98226275618846],[8.741807442271853,44.98225920761618],[8.741980789003684,44.98224735942306],[8.742175652391557,44.982235026627855],[8.742288731765571,44.98222812349879],[8.742383869990007,44.982260226669055],[8.74249487677423,44.98229923763297],[8.74252870845544,44.98231121089347],[8.74279032341741,44.98234637330002],[8.74292828213322,44.98233928971621],[8.743111958186365,44.9823304012947],[8.743214960926997,44.98232504092255],[8.743282190190842,44.98234742779261],[8.743853250524953,44.9825342646168],[8.743982419601691,44.98257760699879],[8.744025879261619,44.982601482177536],[8.744686582451324,44.98297649091432],[8.74531758779235,44.98342799299332],[8.745763696674537,44.98383855690798],[8.746163298571059,44.984276044952914],[8.746477908296239,44.98462271398212],[8.746594099497454,44.98480700143967],[8.746708363432045,44.98498839757308],[8.746967952614837,44.98562811057096],[8.747082397920046,44.98592092023154],[8.74720308870826,44.98660084537388],[8.747293073309073,44.987235660224584],[8.74732216733249,44.98764981235076],[8.747188180744702,44.988189632592814],[8.747101739718433,44.988558523669035],[8.747008815548595,44.988710505640256],[8.746956716120984,44.988796532526315],[8.74686894464186,44.988940589679736],[8.74675953127226,44.98912037250147],[8.74661047190757,44.98966015760273],[8.74633017170518,44.9902086466674],[8.746165983061521,44.99067188727716],[8.746150145461556,44.99075737772246],[8.74588793673568,44.9907027766487],[8.7457785139023,44.99097707973762],[8.745606314127619,44.99145829562602],[8.747364969683028,44.991354183407886],[8.747887285466655,44.99114652320972],[8.749008657629775,44.99070068118535],[8.749681994041733,44.99037807468648],[8.751551960556183,44.99156924398579],[8.751731060375256,44.9916833261706],[8.752917238572142,44.99275829153202],[8.753050088750658,44.99287868273513],[8.753657775429716,44.99342937079294],[8.754041186381773,44.993677314745014],[8.754150433952665,44.993747855100295],[8.75420251384639,44.993740914182595],[8.754438141869988,44.99371116375509],[8.755267910061873,44.99360152880718],[8.755334341747927,44.99359253687888],[8.755628056920289,44.99355394249263],[8.756879232520264,44.99338941175677],[8.756928611235292,44.99338297245463],[8.757034115267421,44.99332445841427],[8.758704474922641,44.99241391326754],[8.759700729939533,44.99156085205967],[8.760222448819384,44.991174868764325],[8.759514705293482,44.99082230674358],[8.758357590585105,44.99061730893661],[8.757556681771547,44.99049745203715],[8.757865893256383,44.99036873031956],[8.758038306491239,44.99027322234626],[8.758099924289425,44.990238700798855],[8.758074835154599,44.990076595585464],[8.758025424603519,44.98984770022861],[8.758006792242583,44.989761402330586],[8.758976276483994,44.98961491411022],[8.76026685666376,44.98936557607863],[8.760854194937613,44.989312790404085],[8.761196948853824,44.98934953159121],[8.76170138668004,44.989490107275564],[8.761935409858118,44.989553608946245],[8.762503896366175,44.98974383246311],[8.763029922701373,44.989942963391634],[8.763555771389376,44.99018711293775],[8.76395759659696,44.990512009561954],[8.76441101859255,44.99033739982766],[8.764786666685675,44.99018513659174],[8.765133685231032,44.99005082883059],[8.765402898688981,44.9899478634137],[8.765622519005516,44.98984929476543],[8.765937044051949,44.9899039586712],[8.766314957953657,44.989972243544315],[8.766664737388558,44.99004046968772],[8.76717732445051,44.99013603890729],[8.767519944457725,44.990208745204335],[8.767572079977398,44.990215411036075],[8.767629549114137,44.99022383137247],[8.767687113829027,44.9902440813269],[8.767776493785089,44.99027705718089],[8.76790854102848,44.99027704834625],[8.767986889491196,44.99033269821355],[8.768101940512345,44.9904173070897],[8.768425139847372,44.99073801523766],[8.768736824978935,44.991030396134505],[8.768990281569902,44.991291960880936],[8.769180590704588,44.99148588379155],[8.769275053789226,44.99159199960194],[8.769398840065735,44.99172936356628],[8.76963809263744,44.99197740335404],[8.769755330786882,44.992103667826],[8.76868331081711,44.994477988771074],[8.767333068691498,44.995339424525326],[8.767163051370597,44.99542010444044],[8.766893915056155,44.99550506119479],[8.766319843608079,44.99579646436718],[8.766185232653257,44.9958456895892],[8.765713903709896,44.99602476593059],[8.76545183101348,44.99612324836997],[8.765079748267507,44.99627102090243],[8.764715194063424,44.996414291459566],[8.764452912239458,44.99649576741878],[8.764368474734173,44.99652199680551],[8.763822794103861,44.996691507574575],[8.763973953755718,44.99773153504534],[8.764223394738647,44.999068826915135],[8.76398031478194,44.99994599657502],[8.763738591538756,45.000494628698725],[8.76268317898553,45.00172568531173],[8.763033263746301,45.00185309541928],[8.763292476406706,45.00194749512779],[8.763523143744724,45.002164020954034],[8.763743569077944,45.00222874729045],[8.763785668669815,45.00224121201824],[8.764117441107837,45.00228226327146],[8.764335837325127,45.00235691609439],[8.76478080306817,45.002472671847926],[8.765143745297907,45.00253643224921],[8.765269015439683,45.00254026085197],[8.765628637528655,45.00255124811633],[8.765775716480206,45.00255574204948],[8.766273371738261,45.002543248815364],[8.766797559881985,45.00244530102788],[8.767458315724298,45.00230712663426],[8.768418983218757,45.002034513694745],[8.769042247316998,45.00185637647382],[8.769216457120407,45.001806586125895],[8.769815734690189,45.00162769495302],[8.770040192714825,45.001560690309994],[8.770343763954523,45.00147237204976],[8.770762281860478,45.00135060936283],[8.770991737033219,45.00128355616456],[8.771733279225176,45.00105999798421],[8.772503676834209,45.00085897927348],[8.773082160075852,45.0007656099156],[8.773284220701193,45.000730039518565],[8.77378998442515,45.00064100605053],[8.774368748266198,45.0005746203027],[8.774658703211708,45.000543686042526],[8.774596154892317,45.00021949776153],[8.774624815472466,44.99988199286713],[8.774689736372801,44.99960755947786],[8.774844228981344,44.99933781712986],[8.775043706008912,44.999126658607615],[8.775000944100215,44.998906028020514],[8.775537141751094,44.99866853921769],[8.776492759037806,44.998233817129474],[8.777400432528344,44.997997049544324],[8.778307187228021,44.99789527670286],[8.779929172307174,44.998001950325026],[8.781263881416164,44.998274562455265],[8.781932625839419,44.99850512317272],[8.782490665824525,44.99869751254461],[8.782661247847834,44.998756321028694],[8.783219945284424,44.99894893222784],[8.783260638956532,44.99898951094047],[8.783366394167855,44.99912023775558],[8.783618283547336,44.999404276015184],[8.783990964149702,44.99979383147653],[8.784123444254586,44.999925280560326],[8.784273811374236,45.00007423961682],[8.784367956515746,45.00016635678969],[8.78460838457944,45.00040965546003],[8.784670933797472,45.00047299933966],[8.784843270051558,45.00061734505572],[8.785107025398625,45.00101843274375],[8.785166166716929,45.00110854705987],[8.78523671588898,45.0013247304514],[8.785316424208402,45.00153642914631],[8.785338968921423,45.00165800200486],[8.785324654907392,45.00177498481197],[8.785268703329201,45.00210346245162],[8.785202511430828,45.002418387294234],[8.785139459039952,45.00262981928076],[8.78504711970288,45.002931199127],[8.78492619995604,45.00324604234932],[8.784738327692613,45.003542760808685],[8.78449860056785,45.003924869649694],[8.784355181401644,45.0041046427492],[8.784197603661523,45.00446441380889],[8.784108341526634,45.00478831061371],[8.784017574696621,45.00509870880788],[8.783956873496136,45.00542265676742],[8.783909272253016,45.00563411719094],[8.783799853553827,45.006052495681786],[8.783723331278992,45.00626390215149],[8.783667823583633,45.00647083030828],[8.783546522192232,45.0067721547738],[8.783517565184589,45.00688463194266],[8.78336892157292,45.00718590346594],[8.783243216646996,45.00749623553679],[8.783142514822815,45.00770309651276],[8.783135301859113,45.00773375234012],[8.783121358068309,45.00779305838179],[8.782750270498056,45.00897609573676],[8.784664703348021,45.0097739034343],[8.784703642666669,45.00979018929019],[8.785109148276273,45.00996597807372],[8.785500829522608,45.010134879992144],[8.785631296132456,45.010190836883034],[8.787075162764507,45.01081486689662],[8.788992181636273,45.01164334363357],[8.790564004597025,45.01246091318991],[8.791468358538618,45.01307019225791],[8.793517761503145,45.013888573976814],[8.794138857309925,45.013651155526404],[8.79458406547821,45.01333668972094],[8.795047760116526,45.01300916206652],[8.795734491475837,45.01283034886149],[8.79619457710302,45.012705144131864],[8.796671763156237,45.01267448711602],[8.797291064073903,45.01294565421871],[8.797957876002654,45.01335190719691],[8.799433731169545,45.01443923094689],[8.800386763229824,45.01477847745763],[8.801100741480742,45.015319836430315],[8.801279748469712,45.01553733424841],[8.802384326384173,45.01687937024359],[8.803144533559209,45.01783038083289],[8.804031475438753,45.01796543855787],[8.805386650329984,45.018171782108546],[8.80586342196897,45.01827612888707],[8.807865938154329,45.018990655358515],[8.810010990376846,45.019804404687044],[8.810399201841012,45.01993723817467],[8.810698459629064,45.02003965675787],[8.812203875355301,45.02055519431622],[8.812603724499315,45.020712158203956],[8.814742695308725,45.021551783397626],[8.814974016181528,45.021654686353514],[8.816377530376762,45.02228043432318],[8.816417405222543,45.02230533824752],[8.816525655561868,45.02240758195348],[8.816539885207128,45.02236713770906],[8.816602914716201,45.022402694692055],[8.817008857086044,45.0226334026854],[8.817155885286295,45.02279566771036],[8.817292206582154,45.02295791721336],[8.817338046562824,45.023012009084596],[8.817534389657455,45.0232643749789],[8.817547613086395,45.023471429674736],[8.817469420859279,45.02373237393561],[8.817285814625796,45.02397061960436],[8.817215340983012,45.02405153193827],[8.816547319903592,45.023942427363856],[8.815971021801667,45.023806476351346],[8.815260701289052,45.023652294732386],[8.814821751058398,45.023543057966116],[8.81468007986017,45.02350797915205],[8.81408722370828,45.02333982349954],[8.813245578762766,45.023113226621064],[8.813175240622456,45.02312802591232],[8.812906236697293,45.02318489518103],[8.812991574898742,45.02299173735535],[8.812787690655513,45.0229643553408],[8.812614153825065,45.02292346951227],[8.812348648433789,45.02284669393755],[8.811914794992541,45.02270634742243],[8.811372370785088,45.022538728796],[8.810905232439625,45.02238491874192],[8.810675430800982,45.02230801294111],[8.810483936482603,45.022241931112525],[8.810007032095875,45.02207735651178],[8.809802231508733,45.02201302657369],[8.809603681132382,45.02195065739769],[8.809196813360673,45.021801462452885],[8.808637801682487,45.0216069882599],[8.808220592381359,45.02146674918749],[8.80768058197737,45.02128129779576],[8.806898656268606,45.02097842665312],[8.806482681735396,45.02082918411067],[8.806097281416061,45.02067099727011],[8.805666650196532,45.0205217466661],[8.805405967403754,45.02042678289818],[8.805327777007586,45.02040659162269],[8.805090132224212,45.02034521916211],[8.804879169874932,45.02021433325329],[8.804681397445856,45.020056462023945],[8.804295175462302,45.02002881136286],[8.804179317947826,45.02003760836422],[8.80367693994517,45.02011325658142],[8.802772582390558,45.02023772492613],[8.802363507606696,45.02032773974505],[8.802285531294727,45.02034489831925],[8.801072048037593,45.02051383699112],[8.80030635768581,45.020683529518045],[8.799309417037788,45.02085282877737],[8.798590049919024,45.021040584164986],[8.79833696831229,45.02112265972012],[8.798039759442009,45.02097209906632],[8.797532870032018,45.020737160426314],[8.796949978304074,45.02046607864799],[8.796430670004627,45.02027611438794],[8.795771497979581,45.020040876557196],[8.795199466779643,45.01992228024058],[8.794989389091723,45.01990484023314],[8.79471198392432,45.019881395197885],[8.794541636110425,45.01986744649517],[8.793551906150975,45.0198384777506],[8.793105063994732,45.01980408755981],[8.792954742034802,45.019792775214796],[8.792810882532782,45.01979708638376],[8.792104272068801,45.01981824221741],[8.791469375146065,45.01989809187692],[8.790948977716235,45.02001416693457],[8.790313743790604,45.02029206654516],[8.78994514718981,45.02043540871172],[8.789474794214254,45.0206325816237],[8.789055060116688,45.020874860069604],[8.788862443784971,45.02099503769463],[8.788508424225547,45.02121590755773],[8.788152231163306,45.021440310927304],[8.787719678018288,45.02170955372696],[8.787672986636363,45.02173257928969],[8.787172972952106,45.021978650621726],[8.786727995876996,45.02217587745722],[8.786650835616815,45.02219659612496],[8.786612454875195,45.02220691980423],[8.786029218608283,45.02236359843128],[8.785862525345781,45.022395492970546],[8.785190860031188,45.022524049699165],[8.784581474098465,45.02266692224796],[8.784098958082541,45.02281904504593],[8.783603193783014,45.02301614385125],[8.782853619320026,45.02320376080874],[8.782434227416811,45.02333798738103],[8.781812174853885,45.023471821812485],[8.781430907078436,45.02359712013378],[8.781328894483233,45.02361596565297],[8.780948263546701,45.02368624313026],[8.780262547757586,45.023765948253455],[8.779564207717188,45.023818602120734],[8.77906904123877,45.02385365015795],[8.778523247043834,45.02385259302214],[8.777698663387294,45.02373397989922],[8.777497584538677,45.02321146970911],[8.777549575005061,45.02289652372196],[8.777652423590256,45.022563645931946],[8.777546396686269,45.02235637345069],[8.77746340721487,45.02219417681961],[8.776564555672056,45.02159829333005],[8.776332262950117,45.02150616965608],[8.775994275424386,45.021372129774456],[8.775614402735398,45.02113734292964],[8.77545033466653,45.020902960420855],[8.77547658254554,45.02067796647272],[8.775553730288465,45.02042608397243],[8.775732476853554,45.02015637016807],[8.775974812847847,45.01985079394669],[8.776128117709993,45.01959904148083],[8.776230662615546,45.019338191957765],[8.776320488434827,45.019086313916034],[8.776385373638403,45.01871735779574],[8.776463003895351,45.01833942826413],[8.776565366711322,45.018024562134684],[8.776718846022167,45.01771880944514],[8.777139399889643,45.017278537814256],[8.777406971233441,45.017009012540555],[8.777674749569496,45.016577437514904],[8.777929866707828,45.01614585521393],[8.778198062700051,45.01570528140652],[8.778307118260225,45.01555924464756],[8.778580748900808,45.015192884032444],[8.779040672859418,45.014401610873776],[8.779220385915261,45.0138708604584],[8.77917177054647,45.01342442769032],[8.779135059108219,45.01341236706122],[8.778677076427712,45.01324867197434],[8.778271566377336,45.01309484670129],[8.777904175374278,45.012932101215675],[8.777511402328164,45.01276480864646],[8.777004752396618,45.01251626265923],[8.776612317288446,45.01226344322251],[8.776245138946788,45.01204669664791],[8.775891141555837,45.01170392552817],[8.775613439662948,45.01132530098235],[8.77535917715183,45.01101211531557],[8.77529773355012,45.010928602550386],[8.775222710136672,45.01064039649843],[8.775236763215341,45.01028935144904],[8.775249041786363,45.01022748567616],[8.775288537889091,45.010028402416],[8.775326108069644,45.00995410794342],[8.775416425530178,45.00977659685684],[8.775531877134902,45.009461757818485],[8.775684379041072,45.00918279202956],[8.775723632588802,45.009110974447104],[8.775800757751055,45.00885016132627],[8.775763875087144,45.00854401846402],[8.775659380687504,45.00838288333827],[8.775524225349614,45.008174480914114],[8.775233233268796,45.007948862533794],[8.77464873689355,45.007735865946806],[8.774616525469888,45.007719723162616],[8.7739028379225,45.007442131032796],[8.773282015625083,45.00719784226876],[8.77280914154353,45.007043577427666],[8.772699049089823,45.00700766126979],[8.772281910425026,45.00689300376293],[8.771748257720938,45.006780700876526],[8.771278951189649,45.006725762163946],[8.770720781917895,45.00668864068843],[8.770288337885159,45.006700195244186],[8.76976909833987,45.006686729733424],[8.769198191131537,45.006658566250884],[8.76867780310259,45.00669352016712],[8.768055371379328,45.00685428954123],[8.767648552062596,45.00704250283167],[8.767321245572159,45.00724466762504],[8.76724189379081,45.007294005662516],[8.767214032367658,45.00732479573971],[8.766937235520283,45.00763442280404],[8.766803633532495,45.00791583619611],[8.766741069081954,45.00804764318693],[8.766706356426011,45.008120810957074],[8.766615884471845,45.00852569332893],[8.766639787727463,45.00888583220549],[8.766701679116379,45.0092730372955],[8.766767342696697,45.00952550131137],[8.766793267989014,45.009621909817554],[8.76681466351898,45.009705060954104],[8.766952714488912,45.010083423918914],[8.766978849056718,45.01015308272206],[8.767024036579183,45.01027410208103],[8.76712847784768,45.01055188539957],[8.767178720606703,45.010650017737966],[8.767291630627858,45.010867543165695],[8.767163521309609,45.01116435677487],[8.7668836848197,45.01132581758434],[8.766540088634379,45.01155915815328],[8.766221845184212,45.01180156498954],[8.76596681277441,45.0121011041608],[8.765762794569703,45.01234073617248],[8.765733363509304,45.01237503968705],[8.765431273932773,45.0127271332496],[8.76490811745313,45.01341918812158],[8.764326542909368,45.013174956921034],[8.763997112638473,45.01304824905309],[8.763617110280357,45.012876415234444],[8.763072397637984,45.01263224941359],[8.762464457409894,45.01234292735588],[8.761729428474776,45.01209833840825],[8.761384228109666,45.01190745868312],[8.761354933116104,45.01189161532671],[8.761286267161925,45.01185436955692],[8.760874498281208,45.01164117832145],[8.760725613953454,45.01152044345631],[8.760602800920381,45.01142084911927],[8.760375728042241,45.01109630687682],[8.760174663992418,45.010618786312826],[8.76001164457021,45.01015035892006],[8.759861220148387,45.00970894997213],[8.759405066314383,45.00954595730526],[8.758922844250744,45.0095449404035],[8.758388682710747,45.00959115265018],[8.758313519113871,45.00959764872488],[8.757869354963958,45.00960121696541],[8.757311046323164,45.009586528152106],[8.756816055352404,45.00961248185544],[8.756593450237785,45.00962373082582],[8.756215565592841,45.00964408651265],[8.755800618686004,45.00966432569968],[8.754543244984717,45.00991366573819],[8.754834127077336,45.010148350135324],[8.755061739119661,45.01033787954906],[8.755116274266586,45.01037680013359],[8.755259092061392,45.01047872344426],[8.755390683162782,45.01057263333412],[8.75544713297187,45.01061441146543],[8.755524117021702,45.010671385542224],[8.755685170716896,45.01078738582864],[8.755732251136324,45.01082541878337],[8.756074064808498,45.011051223201484],[8.756125344610778,45.01107198849687],[8.756542658706309,45.011241233471296],[8.75692278011906,45.01137706909291],[8.756959068322303,45.01140467596124],[8.75747976996518,45.0117417233036],[8.757490431297724,45.01197145393669],[8.757439479956233,45.01223334446108],[8.757412953893677,45.012503339041395],[8.75690564460417,45.0124302486742],[8.756851541311569,45.012421985873125],[8.75648711172164,45.01236634278449],[8.756043078915571,45.01233838942269],[8.755649040151415,45.012337542532045],[8.755497396269503,45.012337221581014],[8.755126055919442,45.0123086875016],[8.755015293064675,45.01230016820201],[8.754533240276052,45.012254131692764],[8.754027522744359,45.01209101198053],[8.753622164424975,45.01191909026284],[8.753255268626976,45.011657248225546],[8.752762129150213,45.01124209481472],[8.752484361560633,45.01090843240662],[8.752068039911558,45.01034040902452],[8.751847230579306,45.010150333908165],[8.75163819212489,45.009970390402806],[8.75108122549529,45.00964511440851],[8.750307815233452,45.00949040889957],[8.74966131390738,45.00933595659829],[8.748735697694924,45.0091628785689],[8.747880439104232,45.009146724784614],[8.747726160218829,45.00929445205288],[8.74783426271669,45.00953087216032],[8.74802253894218,45.00986317019533],[8.748236456525937,45.01027772807797],[8.748374781869455,45.01056609316356],[8.748626505884149,45.01104374692237],[8.748827271466592,45.01140273018498],[8.74885341566099,45.011450195333836],[8.748987581283885,45.0118459009278],[8.74900295538494,45.01189103787824],[8.748506967589364,45.01213298565495],[8.74813832088727,45.01227621368915],[8.747794787055792,45.01248248863678],[8.74811090208392,45.01274423618946],[8.74815102631175,45.012815751208485],[8.748250087843054,45.01299643713982],[8.748210776269223,45.013248272423446],[8.748180761434794,45.013906451682836],[8.748171666867572,45.01411094140431],[8.74816910695457,45.01417525706868],[8.748611817248495,45.014401406047554],[8.748953865204294,45.01453718160436],[8.749460918981791,45.01469148047415],[8.749675198943507,45.01474239431623],[8.749917284241572,45.01480032981791],[8.750348500770599,45.014864274881305],[8.750868780925755,45.014874428220516],[8.7512369181639,45.01484822857787],[8.7516305193184,45.01479514943333],[8.75198578506937,45.01482287949412],[8.752328204906336,45.014868628508545],[8.752733966243788,45.01496852057237],[8.753177804019085,45.01504150398374],[8.75365959911849,45.01513241922272],[8.7537839311399,45.015185772458864],[8.754009730103219,45.015283268940216],[8.754077344416109,45.015312253051334],[8.754110718704217,45.015327070028754],[8.754071431208775,45.01536926377122],[8.754020861585962,45.01545432816681],[8.753969142687332,45.01553804157789],[8.753924152376513,45.01561024702743],[8.7537708276359,45.015852950814995],[8.753604438103828,45.0161856659194],[8.753592794198449,45.016218690378224],[8.753484312103717,45.01652169791112],[8.753462581743678,45.016581717987386],[8.753308492633272,45.016995469970624],[8.753152293827103,45.01718250341329],[8.753053365680922,45.01730097149135],[8.752658452342176,45.01764219356965],[8.752199460775802,45.01812729121734],[8.751932500046841,45.01859481485861],[8.751702102258074,45.01904440453983],[8.751510207911119,45.01939505844461],[8.751395232267283,45.01967275976903],[8.751279337213818,45.019952660825474],[8.750960162154247,45.02038406254014],[8.75058346104048,45.02068979459591],[8.750539820290102,45.02072522165489],[8.750145318215695,45.020967398701224],[8.750053692442576,45.02102276149955],[8.750022786184868,45.021038497580086],[8.749801759581255,45.021164687325346],[8.749255013600923,45.02138853376245],[8.748746366417677,45.02160345680346],[8.748225358962259,45.02173731798641],[8.747768273437968,45.02177231606939],[8.747005693103151,45.02200468752104],[8.746606275216411,45.022213553302166],[8.745910980219364,45.022577133333236],[8.744691471479861,45.023214805439004],[8.744271669093152,45.02342090066887],[8.743813605542151,45.02367192787758],[8.743330801366884,45.02391361579021],[8.743196866063677,45.023982489720176],[8.743144287853124,45.02400956438769],[8.742859506946333,45.02415591629035],[8.74249076642676,45.024299123780295],[8.741982811365682,45.02435197605612],[8.741449899460088,45.02430577040666],[8.740942551016552,45.02422361360486],[8.740346446625946,45.02411422642068],[8.739789106592028,45.02386090412707],[8.739396476495543,45.02367096829454],[8.73927840277319,45.02360072891735],[8.739016723296777,45.02344505657392],[8.738624344301156,45.02320112170825],[8.738041419711706,45.022992733640315],[8.737697813779972,45.02294956588251],[8.737457932689647,45.02291943537312],[8.736975668302929,45.02290932921586],[8.736543774638665,45.02298034254466],[8.736087496998085,45.023096319949545],[8.735401097746582,45.023310760890915],[8.73498410241982,45.023467526930446],[8.734855032315643,45.023516048199376],[8.734524365686138,45.02350678135001],[8.734487427158351,45.02350109810427],[8.734050056143108,45.02343401827477],[8.733928172510169,45.023415324616444],[8.733433695294908,45.02329714246666],[8.73294922024717,45.02321787783001],[8.732875688334985,45.023205863878474],[8.732817680742318,45.023212794669924],[8.732062888605649,45.02330297796822],[8.731863901056448,45.0233116910814],[8.731478847309155,45.02332857142819],[8.730729834289578,45.02335381626674],[8.730120761593367,45.02331637373923],[8.729460895297363,45.02327880675109],[8.728864338304943,45.02327739202993],[8.728471154032032,45.02321344466716],[8.728066348219045,45.02292442371547],[8.728015609817284,45.02284820360798],[8.727973527487043,45.02278498302145],[8.727814274577373,45.02254574380731],[8.727561761305598,45.02226607857831],[8.727207777322262,45.02196818016835],[8.726662514604202,45.021858860948754],[8.726522659949616,45.021949493862245],[8.726344217784064,45.02206513232325],[8.726078095769317,45.02222652659832],[8.72569623007537,45.02245065465125],[8.725394407770589,45.02267215451637],[8.725034340041635,45.02285419309785],[8.724652593023185,45.02305131135045],[8.724182064368483,45.02323921474959],[8.723800530802265,45.02339132750773],[8.723343028825905,45.023507232121624],[8.722958496862875,45.023613570089516],[8.722923567183111,45.02362320649231],[8.722646683028442,45.02368639651121],[8.722377165867442,45.02374790601036],[8.722232843082963,45.02396903306841],[8.721737768315684,45.02472755307732]]]}}]}
