{"type":"FeatureCollection","metadata":{"code":"006104","referenceDate":"2026-01-01","sourceDbfExportDate":"2026-02-18","upstreamArchiveUrl":"https://www.istat.it/storage/cartografia/confini_amministrativi/non_generalizzati/2026/Limiti01012026.zip","sourceManifestSha256":"70ac8256c4785dc6ed2814c32b6965ae76f9161b51abaa1660059e1c6cbd8ca6","license":"https://creativecommons.org/licenses/by/4.0/","attribution":"Istat, Confini delle unità amministrative a fini statistici al 1° gennaio 2026, versione non generalizzata.","modifications":["Converted from WGS 84 / UTM zone 32N (EPSG:32632) to RFC 7946 WGS 84 geographic coordinates.","Converted from shapefile to per-municipality GeoJSON without geometry simplification."]},"features":[{"type":"Feature","id":"006104","properties":{"code":"006104","name":"Montaldo Bormida","alternativeName":null,"regionCode":"01","regionName":"Piemonte","territorialUnitCode":"006","territorialUnitName":"Alessandria"},"geometry":{"type":"Polygon","coordinates":[[[8.606127433311677,44.71505835824646],[8.605764380248516,44.71553422967408],[8.606005070407008,44.71559357840771],[8.605852723018117,44.71571458659142],[8.605725651452163,44.71572813586432],[8.605602123821889,44.71573257962937],[8.60414596421252,44.71587972232953],[8.603762675674592,44.71552215479425],[8.60359248118037,44.7153511735285],[8.603461192716674,44.71522018781481],[8.603383133567693,44.71510994463919],[8.60297587278284,44.714534313924624],[8.602908254455475,44.71443140223298],[8.602030186356494,44.713095161237966],[8.601592284573847,44.71234195019816],[8.601458186523008,44.71214867204614],[8.601370008327352,44.71202159278151],[8.601046081621496,44.71150732957575],[8.60101664572042,44.71131367824612],[8.601011963077102,44.71093940136695],[8.601012017079206,44.71078251884099],[8.601015388085305,44.71074646617369],[8.601060562681107,44.71037759561112],[8.601028028410155,44.710364703077325],[8.60083103562939,44.71028677338262],[8.600707057087934,44.71023779464156],[8.599719731027262,44.709846260108655],[8.599072975006735,44.709641444142726],[8.598893423115571,44.7097038303669],[8.598663421873233,44.709820058738764],[8.598006754931932,44.71013281466423],[8.597493587652744,44.710405585314845],[8.59709487205132,44.710615742595486],[8.596759808684247,44.71080359027383],[8.596118596355945,44.71116960293108],[8.595991476330484,44.71124203299297],[8.595949789388909,44.71121033487029],[8.59584611742545,44.711142454682545],[8.595751660769993,44.711110612044955],[8.595667188045365,44.71111481060241],[8.595317939934718,44.71124410633839],[8.594603287887827,44.7114396376865],[8.593877743514172,44.71161259646397],[8.593412644971606,44.71109781037764],[8.59330320203528,44.710975439323555],[8.592988006262628,44.71062190200169],[8.592839179778407,44.710456602705456],[8.592838264473368,44.7103620735223],[8.592821289302128,44.71030882512341],[8.592811282925231,44.71027194989567],[8.592438128039761,44.70964497030123],[8.592180367161633,44.70972505900899],[8.591961705859703,44.70979631145895],[8.591822665022853,44.709876825259336],[8.59166705618695,44.71001129845561],[8.591516398258532,44.71011880089991],[8.591001180369862,44.71033748473393],[8.590874971296744,44.71039106588465],[8.590628785850868,44.71044870009257],[8.589797459741739,44.71039650657321],[8.589786283145576,44.710368291671514],[8.589742026440273,44.710287757624165],[8.58969123031797,44.710197766467374],[8.589548050679822,44.70993374591649],[8.5895077910643,44.70985952420514],[8.589486801215367,44.70981442783875],[8.589286663260026,44.70938610313176],[8.589127251958615,44.709110951609155],[8.589059413751343,44.70905220823534],[8.588893618833088,44.709011086412865],[8.58839635954885,44.70892828469925],[8.587791402293393,44.70884057565707],[8.587415597363492,44.708821224671006],[8.587190790142714,44.708811393719294],[8.587115880641226,44.70880312610957],[8.586735479952168,44.70876032756271],[8.586573929430129,44.70873779505177],[8.586141085122186,44.708677487679005],[8.58602892756227,44.70866405203819],[8.585631142415092,44.70861669550613],[8.584987026390046,44.708546840593506],[8.584420340730594,44.708512193986934],[8.584360829247892,44.70850855561199],[8.584257915050566,44.7085036825318],[8.583880218874635,44.70852481926094],[8.583099490678935,44.70779853659712],[8.583033737391862,44.70773882048296],[8.582926207901759,44.70756679823576],[8.58289802523661,44.70752196605034],[8.582823893959045,44.70718861685131],[8.582329603837925,44.70675018990646],[8.58206963232335,44.70664121919742],[8.581917090110469,44.706402107478766],[8.581806376398786,44.70610911007563],[8.581501845874307,44.70589195431634],[8.581280365196665,44.705859634145476],[8.581104262748768,44.705838281963096],[8.580974512686776,44.70582250462067],[8.581017803422405,44.7056685281256],[8.581271996520776,44.70476442662411],[8.581303492669406,44.70465148376123],[8.581321528908775,44.704396292460764],[8.58130342774958,44.704321279385454],[8.581257715684478,44.70413110459508],[8.581191583235556,44.70408909549909],[8.581024086422115,44.70398267152498],[8.581035007062754,44.703957935202126],[8.581119401758448,44.703829173862445],[8.581248531906198,44.703707953054575],[8.581370983000536,44.70359334598087],[8.58263602870849,44.70240973920893],[8.582934659874454,44.70213032091019],[8.583706792490904,44.701407848243434],[8.583023245812479,44.70068777621631],[8.583000938665178,44.70066258528071],[8.583139518826453,44.700537058514904],[8.583277717945881,44.70046104878046],[8.583507385658724,44.70044837216881],[8.583912539981636,44.70049487087134],[8.584159073274689,44.70071183085128],[8.584268237917819,44.70083826185094],[8.584311646878003,44.700887922243126],[8.584621237516256,44.70073150580371],[8.584889678461083,44.70086751239357],[8.58502684825586,44.70082300699837],[8.585202803643622,44.70064064095312],[8.585347713341568,44.70049418051307],[8.585541844296495,44.700293731988104],[8.585617593459991,44.70022836946816],[8.586362587598597,44.69958552788794],[8.587070851351678,44.69932702669878],[8.587053674573,44.69921045642833],[8.587034767383866,44.69907932571486],[8.587066201413338,44.6989263967613],[8.587170343828012,44.69887277145556],[8.587331790690179,44.69887302004202],[8.587373311017659,44.69887367149507],[8.58755126882006,44.69899568468098],[8.587657107334703,44.69901425710948],[8.587709978997157,44.699022872436274],[8.587895212671842,44.698996926286576],[8.587926323601005,44.69889349562955],[8.587844816460983,44.69876266939829],[8.587599992435939,44.69857725258308],[8.587465016415695,44.69847772248617],[8.587488434931915,44.6984012956641],[8.58757880936053,44.69833860434517],[8.587683398053956,44.698288751283634],[8.58776604419172,44.697853147011465],[8.587836750442232,44.69761483043164],[8.587771563279649,44.697574091546926],[8.587205340586276,44.697298313899005],[8.58689660944052,44.697147822510004],[8.586301937177852,44.696853096321945],[8.586160559897637,44.69677139863508],[8.58576891542062,44.69654508253878],[8.585846420462165,44.69640583175356],[8.585862118847961,44.696306864927315],[8.585787085889457,44.69615355103163],[8.58555887613688,44.69596817110905],[8.584949325151252,44.69560586758049],[8.584797496718963,44.69543877569266],[8.584676919547606,44.69519976539383],[8.584511162816568,44.69483007640398],[8.58434933437424,44.69465590583403],[8.584291895463403,44.69459336140296],[8.584177314821147,44.694468771367276],[8.583827773056845,44.69422923323511],[8.583598825412096,44.694070546888994],[8.583263564589922,44.69390728247624],[8.58314258678301,44.69384365846429],[8.5828671213863,44.693698794185636],[8.582319621184784,44.69339888994452],[8.582288048492442,44.69338159157293],[8.582105863786959,44.69321438681144],[8.582013332505667,44.69311033413056],[8.581982101233518,44.69307613579862],[8.581911813620533,44.692997615160195],[8.58174707119618,44.692870978211296],[8.581684117811697,44.69279423615844],[8.581557684733168,44.69271724079937],[8.580731916453331,44.69270521438068],[8.579863114889386,44.692864063187734],[8.579503028454353,44.692862737959956],[8.57935510733172,44.692735583336614],[8.579313714383245,44.69269999918432],[8.579292766333277,44.69265490006394],[8.578376788959977,44.692687359880786],[8.578317923986749,44.69260508827934],[8.57827079720083,44.69253851878559],[8.57826251663785,44.69251315812463],[8.578212244384359,44.692344775025916],[8.578213058500975,44.69228860028649],[8.578217209424013,44.692170010648645],[8.578241575282629,44.692116004242244],[8.578270144584641,44.69205248700029],[8.578519652927362,44.691824832346384],[8.578670586026954,44.69167211239631],[8.578754728927779,44.69158572145094],[8.578844047024859,44.69138842540077],[8.578909125171553,44.691114087275764],[8.578904117192423,44.69103923175088],[8.578895477633635,44.69087548290791],[8.57883934565854,44.690785249989155],[8.578773528175478,44.690726489766895],[8.578608276339367,44.69007321593182],[8.57855884065609,44.68965892332857],[8.578324381556268,44.68941498727973],[8.57827368319259,44.689171749255095],[8.578282235266764,44.68911667254427],[8.578338644168651,44.68875338125271],[8.57838374452213,44.688460973707485],[8.578400850149404,44.68841735802651],[8.57883856808048,44.68730133632636],[8.579104322083044,44.68687021251026],[8.579212997700173,44.68634846179813],[8.579244191371416,44.68569141529177],[8.578775577128996,44.68510904067167],[8.57838544067733,44.684639470598086],[8.578279330545056,44.68453555455947],[8.57809841508826,44.68435933100928],[8.578153453518036,44.68405796392021],[8.578050621233949,44.683719987727365],[8.577921213101899,44.68345844372438],[8.577476736864408,44.68324975432099],[8.577439667681817,44.68308757621481],[8.578337381718024,44.68260142506839],[8.578918670623233,44.68228733160856],[8.579218844654077,44.6818923239517],[8.579318873156867,44.68169410429508],[8.579482515011673,44.681362161756084],[8.579659024697866,44.68116783243852],[8.579825285284954,44.680984784789196],[8.580081511372956,44.6807026862942],[8.580158702033463,44.68027986398614],[8.580125842798104,44.67969909271742],[8.580079842017344,44.67964670228815],[8.579868107106225,44.67940555236428],[8.579663796623699,44.679130063479974],[8.5795736768059,44.67900837087652],[8.579390473973648,44.678661102668286],[8.579505109453791,44.67823841674839],[8.579659525714238,44.677442274279386],[8.58033320962741,44.677408745645664],[8.580361324040046,44.677390835979885],[8.580457679587465,44.67737319501663],[8.58143210905316,44.67751630096673],[8.582029654372482,44.677761560518924],[8.582457259420043,44.67784413574611],[8.583113575915869,44.67786904483855],[8.583626059658522,44.67800513346976],[8.583797553594593,44.678051594458616],[8.584211233413301,44.67827269582694],[8.584764222112302,44.6785682518575],[8.585333108338677,44.67885389542463],[8.585817333041861,44.67901769361023],[8.586216742922746,44.67901914140273],[8.586557602481387,44.67898875211177],[8.587032569316968,44.67894345084569],[8.587101198883497,44.678936018109994],[8.587273765505556,44.67891942291356],[8.587444381602154,44.67888856685916],[8.588271940936087,44.67874096958985],[8.588566191951484,44.678689050694075],[8.58893114304449,44.67862383417099],[8.590078221444736,44.67852090377171],[8.59014594357396,44.67851534745713],[8.590192705078717,44.67850805404289],[8.590524893935665,44.67845400481155],[8.591221184065635,44.67834847804074],[8.591408230062674,44.678214115373734],[8.591601772217556,44.67805276562512],[8.59164199237524,44.67794037091687],[8.591605471469173,44.67752613105175],[8.591629057541494,44.677421867269906],[8.591646166579249,44.67734623867389],[8.591968098059226,44.67731813228485],[8.591978833795102,44.677135866828486],[8.592036822415942,44.677131575468415],[8.592197591667277,44.677115312387066],[8.592293765309439,44.677105582029526],[8.59237846046512,44.67709701244852],[8.592466511611452,44.67708810638587],[8.592438935219688,44.6770442156335],[8.592380336910328,44.67695245983854],[8.592535884501112,44.676867793342275],[8.592926760401005,44.67675484548237],[8.593083141184955,44.67698847852683],[8.593163126060468,44.67710775137041],[8.593210285514504,44.67717807443213],[8.593227918831502,44.677202677876075],[8.593316858221375,44.6772756712741],[8.593493786459339,44.677367320280794],[8.593586381823929,44.6774164646261],[8.593734145246993,44.677567447144455],[8.593810645562403,44.677651034080526],[8.593864762481516,44.67767904856268],[8.59395187234362,44.6777242588434],[8.594035756429731,44.67776887693396],[8.594279046476814,44.67782374257858],[8.59462963883693,44.677878098274384],[8.594666681304721,44.67788094668202],[8.594964575439242,44.67794270245789],[8.59504727649184,44.6779624094745],[8.594542590969532,44.67848752230044],[8.59428126158152,44.678760038634614],[8.594092231648789,44.678961849668646],[8.594255945283797,44.67893998384406],[8.59449601628924,44.67894985332511],[8.594623377619977,44.678969354608185],[8.594684615067685,44.67897872112424],[8.59479691825273,44.678995924465994],[8.595189790090346,44.6790861176717],[8.595367267656734,44.67912724584637],[8.595849200124297,44.67923820671063],[8.596053505289941,44.67927277055185],[8.596281931796895,44.67928046601653],[8.596690713732862,44.679668770000355],[8.596705280191081,44.67971671797425],[8.596966202871585,44.68059698926982],[8.597018388751607,44.68063042029318],[8.597355669191662,44.68084552742232],[8.59750475437221,44.6809407611896],[8.597927909732766,44.681747135449214],[8.59797574296941,44.68183835799537],[8.597913388327148,44.68230176980257],[8.597641166409698,44.68239655458901],[8.597567415375144,44.682421406106634],[8.597363458850936,44.682493276513135],[8.596798329561944,44.68283429502131],[8.596117221711383,44.683452267156966],[8.595989514028334,44.6836227283039],[8.595944394812264,44.68374871516506],[8.595962162696157,44.683964816412164],[8.595963395612204,44.68418538017054],[8.595963396732719,44.68427925745306],[8.59596618835239,44.68480204797129],[8.596031605171406,44.684923813891224],[8.596212870588726,44.68511350578955],[8.596314601338273,44.68533892418224],[8.596377911822534,44.68633390742897],[8.596379691546085,44.68636092458201],[8.596014900403269,44.68647667256218],[8.595925907432362,44.68740504556341],[8.595893692087646,44.68774105669145],[8.595913262610285,44.68870955113097],[8.59592890182033,44.68950462876397],[8.595933780903337,44.68974872852066],[8.596013530995299,44.68994814317436],[8.596055118975526,44.690050727856544],[8.596092380289145,44.69007786958709],[8.596190379346009,44.69017076635606],[8.596304323153142,44.69027961766558],[8.596443846792086,44.69041359046287],[8.596554552223854,44.690518222346846],[8.596642467210772,44.69060250379707],[8.59676978486286,44.69072393142677],[8.596935704791326,44.69096758858903],[8.597124998244063,44.69142286935472],[8.597602982352866,44.69201040986898],[8.59762908463585,44.69204130178622],[8.597378336537593,44.692180412788666],[8.597410922449376,44.69220959014636],[8.5974851872713,44.69227890310812],[8.597562288910705,44.69239402308384],[8.597586719518109,44.69243816156769],[8.597633910860756,44.69263146556493],[8.597749588160216,44.6931579010007],[8.597762318118813,44.693192986817124],[8.597849383121156,44.69342991636759],[8.597894767418804,44.693515269570135],[8.597995730400083,44.693487471764456],[8.598125339256221,44.693451922770954],[8.598296853116787,44.69345702287195],[8.598489236975087,44.693515421034554],[8.598866209551831,44.69367012335931],[8.598908636373208,44.693688493244856],[8.599546865697222,44.69394754912174],[8.600347795177917,44.69430819140833],[8.600460530406991,44.69438311319055],[8.600542968882502,44.69443862593373],[8.600553317666858,44.69449725430243],[8.600564153040787,44.694553950654225],[8.600517371720139,44.69476565509391],[8.60047163927531,44.69504907004974],[8.6004935643858,44.69525415496061],[8.600497873901203,44.69531023162345],[8.600588534349635,44.69542773845037],[8.600667726724723,44.69553030162098],[8.600823486052692,44.69573447606376],[8.601041863908048,44.6959510655076],[8.601263659127714,44.69617237831598],[8.601300579154731,44.69620879500612],[8.601559875881952,44.69643709527356],[8.60161413366179,44.69648391610963],[8.601657237443657,44.696504486614195],[8.601767715162115,44.69655571387689],[8.601909751088195,44.6965889877135],[8.601951137711819,44.696591439283026],[8.602151109494647,44.696603239639934],[8.60231616539249,44.696617062443295],[8.602707741578705,44.69664985628503],[8.602767225816933,44.696654948802156],[8.602831771689985,44.69667087437972],[8.60293334101163,44.69669665034365],[8.603040656411432,44.69672417285062],[8.603145896678635,44.69677871236377],[8.603268904883802,44.69688180045246],[8.603389408546278,44.697026247556494],[8.6034569690163,44.697089516988505],[8.603507858478846,44.697125682582524],[8.603419944452897,44.697317397710016],[8.603324431021132,44.697525651690874],[8.603140264020535,44.697925604402954],[8.60307694249857,44.698132449508215],[8.603007028784248,44.69843377437007],[8.602987763079712,44.698654270741166],[8.603020227542933,44.69887044302303],[8.603060272495439,44.69912714883712],[8.603126547677801,44.69941545328041],[8.60316485857576,44.69964064910902],[8.603174733003451,44.699699206220416],[8.603216752796843,44.69989740050695],[8.603388323305952,44.70013204803571],[8.603484771154154,44.700232256448984],[8.603619003351177,44.70037142237011],[8.604059059900216,44.7007420327703],[8.604253247562054,44.70083723100856],[8.604712807315547,44.70129795742163],[8.604855259207987,44.70141844243195],[8.605141526820379,44.70165921407344],[8.605221042664496,44.701726816087664],[8.605356009769151,44.70184030313582],[8.605633842615292,44.70223345314284],[8.605774575735584,44.70243186659146],[8.605850263351922,44.70253969295094],[8.606059571055352,44.70279248668562],[8.606213347133485,44.70297756700485],[8.606660866716492,44.703415729806615],[8.606843990217216,44.70357388064087],[8.607271155698456,44.704106498763146],[8.607186813355293,44.70467785792322],[8.607231347201376,44.70491656186895],[8.607411850279888,44.70506123156116],[8.607472188347796,44.70513931504507],[8.607570409056274,44.705265249447145],[8.607641285216179,44.70535627307593],[8.60768557773771,44.705413323946196],[8.607906896798216,44.70582363334399],[8.607983511505621,44.70593972380285],[8.608097600051366,44.70611353019356],[8.60816889476615,44.70622062778429],[8.608203928663706,44.706324899321615],[8.608215635206713,44.70636035218055],[8.608268817265984,44.70655404546628],[8.608344607525337,44.70666684606814],[8.608451464180837,44.706788745616244],[8.608568777841306,44.707000690383396],[8.608778018544232,44.707271489788795],[8.608871503021843,44.70727180998652],[8.608895267903428,44.707316897010514],[8.608916906611764,44.70750152096027],[8.609084034821185,44.70792969483425],[8.6092760531466,44.708457968298525],[8.609405109272634,44.708813017330726],[8.609474891537722,44.70922736388953],[8.609461316629515,44.709546899424645],[8.609374805426588,44.70997420870177],[8.609313475239727,44.71013987683614],[8.609221704176086,44.710387791878404],[8.608982820493814,44.71086928590278],[8.608907361815104,44.711021381140874],[8.608716020194919,44.711430336816385],[8.608322096798316,44.711870102289154],[8.608201350092353,44.71210824130041],[8.608146550585639,44.712274593724935],[8.608168749263013,44.7125896181472],[8.608140985101054,44.712693178086205],[8.607933269924454,44.71305602357953],[8.60782237926749,44.713250240061704],[8.607810243258056,44.71341223669733],[8.607794097408368,44.713767698662224],[8.607675457046904,44.71404708866314],[8.607537453046398,44.71437004830796],[8.607479870620763,44.714572819799805],[8.607382682911258,44.71462158199185],[8.607284629232124,44.714652753180374],[8.607226542085444,44.714666048887445],[8.606553437661296,44.71478526678053],[8.60639701775903,44.71475321948445],[8.606127433311677,44.71505835824646]]]}}]}
