{"type":"FeatureCollection","metadata":{"code":"007040","referenceDate":"2026-01-01","sourceDbfExportDate":"2026-02-18","upstreamArchiveUrl":"https://www.istat.it/storage/cartografia/confini_amministrativi/non_generalizzati/2026/Limiti01012026.zip","sourceManifestSha256":"70ac8256c4785dc6ed2814c32b6965ae76f9161b51abaa1660059e1c6cbd8ca6","license":"https://creativecommons.org/licenses/by/4.0/","attribution":"Istat, Confini delle unità amministrative a fini statistici al 1° gennaio 2026, versione non generalizzata.","modifications":["Converted from WGS 84 / UTM zone 32N (EPSG:32632) to RFC 7946 WGS 84 geographic coordinates.","Converted from shapefile to per-municipality GeoJSON without geometry simplification."]},"features":[{"type":"Feature","id":"007040","properties":{"code":"007040","name":"La Salle","alternativeName":null,"regionCode":"02","regionName":"Valle d'Aosta/Vallée d'Aoste","territorialUnitCode":"007","territorialUnitName":"Valle d'Aosta/Vallée d'Aoste"},"geometry":{"type":"Polygon","coordinates":[[[7.099554965514228,45.81602623390792],[7.099256024333857,45.8168673176161],[7.098938703637593,45.81787012366002],[7.098987422890348,45.81870799774282],[7.099203073639412,45.819557644221625],[7.099519811193491,45.8200849662343],[7.099636533042366,45.820437938043305],[7.0994634524081155,45.8206060656136],[7.097983274754204,45.82097745028159],[7.0960313170788325,45.82159299380813],[7.0948981449298225,45.822357151316524],[7.093940428092994,45.82363728146606],[7.093032638389251,45.824585201640325],[7.092186375783259,45.82561513907793],[7.0913064210220185,45.826500504901325],[7.090420874429135,45.82754780015676],[7.089959367546237,45.82824211922485],[7.089648889473075,45.82903800756837],[7.089271349235292,45.82953571594704],[7.088591154207986,45.8298483581843],[7.087342896562332,45.83020549552429],[7.085884713671188,45.830676116710585],[7.084459584908378,45.83130926459845],[7.083184792287769,45.83206193454722],[7.082279272399482,45.83255977427791],[7.081001457558775,45.83302436395043],[7.079343765744552,45.8333025148539],[7.078696312982087,45.83340864037241],[7.078228400346628,45.833535775566745],[7.077947158284802,45.83347703351214],[7.077640783383899,45.83339987618718],[7.0772076043949195,45.83326657453735],[7.0769232013244165,45.83313577524963],[7.076129417782134,45.83242035423186],[7.075673003024567,45.83146760319521],[7.075267736945637,45.83052470833321],[7.0747742946605054,45.82952631487233],[7.074046616016989,45.82822693402016],[7.073161159257317,45.82702391219367],[7.072227044616826,45.825739065085095],[7.07139946044688,45.824726001083285],[7.070850012652001,45.823861669844206],[7.069698655763535,45.82290613148252],[7.068330788326475,45.82188393352103],[7.067262100219117,45.821145808274636],[7.065677187139609,45.820074888858215],[7.064650598561001,45.819238428056096],[7.063692721958308,45.81827712992638],[7.063116153950228,45.81745729463336],[7.06256874848556,45.816538928950614],[7.062031436084536,45.815701745028875],[7.061158458125001,45.81526390151833],[7.059995013379227,45.81503713949051],[7.058609791018086,45.81526562330627],[7.057113488567083,45.81572621568597],[7.05565359284157,45.816250413623465],[7.054286831154383,45.816686168969646],[7.053279973744266,45.81713705685035],[7.052222557889212,45.81756006775225],[7.051630957762584,45.817593223764966],[7.050868299523703,45.81763597245693],[7.049299464566163,45.81722215928511],[7.048160811742881,45.81665364898553],[7.047179112303667,45.81601582618817],[7.0465874112635625,45.815267652567194],[7.046169844024566,45.8146934595516],[7.045785873020164,45.814263861251845],[7.045136197039381,45.81333466330797],[7.044711155558076,45.812607340628624],[7.044195081551942,45.81227448211381],[7.043526612423497,45.811515962381364],[7.042861247886332,45.811036536878404],[7.042124652386672,45.81075388035845],[7.0409569409324595,45.810652860918374],[7.039256272264702,45.810335654607854],[7.038047869937268,45.80992787558225],[7.0368144092116856,45.809501642441404],[7.035634511876725,45.80938234846423],[7.034699033159158,45.80926724904854],[7.035339521195951,45.80862120842563],[7.036155755998685,45.80773517550154],[7.037076146005429,45.80681492530958],[7.038160849762866,45.80597848814853],[7.038683099942366,45.80545642576734],[7.039321183354223,45.80481931390152],[7.04030608400146,45.80389115112353],[7.041373804270462,45.8028023685326],[7.042571646978877,45.80167080999159],[7.043295116248657,45.80085513641474],[7.043780463113411,45.80022439686388],[7.0445478306824425,45.79925646871752],[7.045375423127737,45.79803752546252],[7.046107007239579,45.796987959738146],[7.046758579494526,45.79564899781634],[7.047406661450905,45.79440897754329],[7.048020218052553,45.79305134651236],[7.048590792435739,45.79181899073336],[7.049091696394497,45.79073845840277],[7.04997676239078,45.78934045835984],[7.050694009842155,45.788326617782886],[7.051727661794554,45.787093150619036],[7.052762207514921,45.78583268577713],[7.053491894454125,45.784828035544884],[7.053755264998254,45.78391444084412],[7.053765501093171,45.783806610806224],[7.053877164097055,45.782629412915085],[7.053961659134357,45.78231582376609],[7.0541065112276975,45.78177648618662],[7.054202293719372,45.7814198500604],[7.0547982579609965,45.77981887247852],[7.055206458208875,45.77880873204634],[7.055868558029168,45.77752390434778],[7.05625978410326,45.77663048890082],[7.05619418481548,45.77592731209467],[7.055903761659296,45.77503128836921],[7.055172189760427,45.77387573212936],[7.054362285496394,45.772754837254396],[7.053745503421279,45.771628246408675],[7.0532918017215165,45.770918509085845],[7.053187858007978,45.770755922974345],[7.0529892643231795,45.770445250824004],[7.05260014077247,45.769430538721195],[7.052319518863469,45.768255643152166],[7.0523069446774045,45.76713932938978],[7.052193121186742,45.76597629352914],[7.05216242718483,45.76591987930706],[7.051649193337222,45.764976929983916],[7.051052338940302,45.76402165399138],[7.050839461395937,45.76348698635769],[7.050794011674655,45.76294616143732],[7.050462433192641,45.762611274352246],[7.050282139267319,45.762505378184784],[7.049978701077892,45.76235619588761],[7.050559221147537,45.76193405781787],[7.051646596040918,45.761358571447666],[7.053152114381912,45.76059217072899],[7.054452579151047,45.759804266406455],[7.055755195894539,45.75895335803634],[7.056960603092429,45.75830782770966],[7.058142508477411,45.75759886192537],[7.059295524059614,45.756979403344175],[7.059976817375716,45.756243918242106],[7.060102501560933,45.75584917723448],[7.060207672272457,45.75551877145109],[7.060048596632558,45.7545439711695],[7.05981933454113,45.75373900724852],[7.059519912957413,45.75310387798617],[7.059079597098234,45.752098436932854],[7.059043356012951,45.752015678246956],[7.0587060232880265,45.75136189344988],[7.05861914602907,45.750901362623445],[7.058689310828952,45.750731546885405],[7.058693678539849,45.75060560897836],[7.058603943558973,45.74985702241878],[7.0584582548257355,45.74948222043231],[7.058167227875674,45.748733495774935],[7.057873753559517,45.74818538058994],[7.057848104597737,45.748137472941266],[7.057817054698591,45.74807948517604],[7.057656427087551,45.74795873234524],[7.057452040654918,45.747805083015976],[7.0574211152222635,45.747781834321316],[7.0573179378834086,45.74770428213139],[7.0572657660538916,45.747665068090015],[7.056928608879943,45.74747031334837],[7.056849887016222,45.74742397777218],[7.056217071225931,45.74666783824574],[7.056236407925329,45.74634825918239],[7.056250526016499,45.7461150320827],[7.056253013450666,45.74608334183343],[7.056259203023696,45.746004562609066],[7.056265766711775,45.745920968881954],[7.0562771418760315,45.74577606927224],[7.056000395976439,45.745278098533994],[7.055912606523569,45.74521874029994],[7.055697835656983,45.74507349242358],[7.055590787851658,45.74500109775204],[7.055069308290362,45.7446484192692],[7.05415358985483,45.74399376292048],[7.053813233729212,45.74342990292994],[7.053393271651744,45.742567682175526],[7.053029737853826,45.74156237970657],[7.052388592202683,45.74114642381587],[7.051321031148166,45.74079517227373],[7.050454321942308,45.74058236703077],[7.050189291260324,45.74039447672393],[7.0494005497758145,45.73983530386177],[7.048772011948791,45.739059514633965],[7.047855535547045,45.738062756809],[7.047042801239216,45.73740980279417],[7.045902776822702,45.736912723083876],[7.0449157016946495,45.73648232490583],[7.043408721230792,45.73583546910701],[7.041944382903234,45.735072305606266],[7.040433489428286,45.73380427529874],[7.039617440310659,45.73325021811575],[7.037981522309685,45.73261906702756],[7.03621716189972,45.731985683044726],[7.034217983067425,45.73108721044625],[7.033634500192671,45.73050111471012],[7.03413870079574,45.730050756810584],[7.034522235522508,45.729742325518664],[7.034491904470852,45.72950778642373],[7.033795664916151,45.728838733663366],[7.032751922745925,45.72745262899463],[7.031690654371424,45.726201237670864],[7.030308773679969,45.724566268165546],[7.030198996115902,45.7244563531295],[7.029104764130054,45.72335737050338],[7.0280956520096165,45.722088834955755],[7.027851146778744,45.72190460653044],[7.026768863658779,45.72108483834448],[7.024483890140908,45.71956018558814],[7.022770256991796,45.71823441679332],[7.021838069391199,45.71770522642888],[7.0206071862771005,45.71762988705576],[7.018668878352086,45.71793831583772],[7.016664416388379,45.71829955308142],[7.014770331151969,45.71844666799334],[7.012697307707098,45.71820358399837],[7.011335328459053,45.71747780611613],[7.010546688048232,45.71652798764259],[7.010365108144828,45.71548973181665],[7.010822632878057,45.71418357755694],[7.011427188135637,45.71307799642337],[7.01220623542887,45.71139939605139],[7.011940821054337,45.71018865333761],[7.010937121038552,45.70878505129533],[7.009877065415215,45.70788448875782],[7.0085705032126935,45.70669160972917],[7.007055328538187,45.70522503900802],[7.005580644486191,45.70370514475124],[7.00482574000674,45.702468257534285],[7.004536750594363,45.70199474090083],[7.004011577499206,45.70086945274665],[7.0030859687034726,45.70016921342336],[7.001827878191305,45.699427146803046],[7.000485090703433,45.69889958986982],[6.998521662385074,45.69812712510914],[6.9972749007662705,45.6974302031679],[6.996437976941737,45.696767444129534],[6.9958536305593775,45.69622615100646],[6.995217955630224,45.695683933995674],[6.994853434218238,45.695101476095985],[6.994785164749523,45.694137184314904],[6.9947326199473725,45.693092151748445],[6.994767674821151,45.692111683653394],[6.9949400533701995,45.69124162809239],[6.9950749102332805,45.69034389075466],[6.9955562597288035,45.68945225320292],[6.996453472640508,45.68878393681333],[6.997329133818294,45.68799821656395],[6.9987200894937285,45.68716751042962],[6.999923945050222,45.68690057231986],[7.001889522461373,45.6868809682997],[7.003012209198201,45.6867295953706],[7.004714014691358,45.68654331532058],[7.0062348507831045,45.68638986980006],[7.008827297859366,45.686075051292526],[7.009746186046318,45.68587506009367],[7.0110289915385255,45.685915401796095],[7.012127625281753,45.686078554928734],[7.012524513063242,45.686112467374606],[7.012336310785999,45.68526309766641],[7.012239837570719,45.68436133097068],[7.012244538201457,45.683866372224614],[7.012826099884264,45.68339944368438],[7.013979029600765,45.682753429554836],[7.014725497146227,45.682343370144565],[7.014938139047638,45.68214003609348],[7.015730946803362,45.681145722410484],[7.0162283435716395,45.68051529739935],[7.017353907182923,45.67991377214674],[7.019062011614844,45.679178333568096],[7.019691011928964,45.67882021691939],[7.019849179610656,45.67797686167415],[7.020388994848439,45.67687012546955],[7.021035380242384,45.676017240858585],[7.021758109762215,45.67518366702677],[7.022605823567927,45.67408223321334],[7.023260239558923,45.67336448403525],[7.023975456999962,45.67310684302112],[7.025177947804948,45.67286662026298],[7.026234374614954,45.67239883775438],[7.026561795508997,45.672215475539474],[7.026943382875882,45.67195203038868],[7.027335603359424,45.67175179430204],[7.0277522024722305,45.671587978209715],[7.028139967142684,45.67151365635033],[7.028321182625527,45.671471787445725],[7.0293434470646,45.67197547974733],[7.030581633288675,45.67254589348732],[7.032270443440751,45.67344808702241],[7.033913028857414,45.67420545656809],[7.035079603702923,45.67499061270387],[7.036830194170714,45.67596580455444],[7.038541713518672,45.676958329057946],[7.039722519960776,45.67770766344194],[7.041215306068478,45.67908342819248],[7.042344507486804,45.68020989069205],[7.042729220361786,45.68063223134198],[7.043568889001006,45.681553997360965],[7.044713834212034,45.68259972663761],[7.046553398017031,45.68398133897938],[7.048125416307896,45.68493530921423],[7.049550048452382,45.68569772310426],[7.050637905161661,45.686275615705235],[7.051353186813496,45.686655597316886],[7.052196873592406,45.68713802435318],[7.05312479878425,45.68778391368893],[7.0541114796947735,45.68747670058367],[7.055311980507921,45.68729913348371],[7.055533606789425,45.68734392000044],[7.057403526905475,45.687721766876514],[7.060150665656202,45.68849753752993],[7.062016208794699,45.688772223841084],[7.063375507615514,45.688831285033714],[7.065603153164822,45.688662025448764],[7.067077219418328,45.6883719501175],[7.068156259309422,45.68835241543477],[7.068619307340109,45.68834403017521],[7.07003534519195,45.68861999625553],[7.071294436913746,45.689352333011364],[7.072622978816175,45.6899328260895],[7.07441256654911,45.6901790401882],[7.075939690157003,45.69021377564398],[7.076543912336619,45.69019694709708],[7.076878865615059,45.69016658768536],[7.07760136918359,45.69007074747539],[7.078924677114082,45.69005699648215],[7.080659338887081,45.69003216917389],[7.08233156468918,45.69033027971829],[7.083707701870242,45.69065040262978],[7.084560687694941,45.6904937010458],[7.085240135239872,45.69015406113042],[7.085917364507044,45.690255424694996],[7.087003074865885,45.691182697242],[7.088501708814361,45.692431924127426],[7.0907512565105835,45.69409320273412],[7.091195398460332,45.694421153953876],[7.093021533031665,45.69548677328275],[7.095223676750124,45.69715129003683],[7.097325765266068,45.69847484444516],[7.099733302339855,45.700207093809034],[7.100723471964271,45.70131266929745],[7.102415370037199,45.7033209849061],[7.103731017183198,45.70506198969123],[7.104972068243655,45.706351715571145],[7.1052942898656966,45.70656580474365],[7.106417010815615,45.70731176792098],[7.108802185442561,45.70858441438408],[7.111795891369119,45.71010108966655],[7.114142479908817,45.71138196605567],[7.115429237450883,45.712087281837874],[7.116109039905693,45.71250352300854],[7.116475537548269,45.71267901538009],[7.117131219976113,45.71242137188101],[7.1172892993605394,45.712361334205575],[7.1176345791367295,45.71222265802309],[7.118391731488433,45.711866091692464],[7.119672044200245,45.711617160966135],[7.1200683490724135,45.71141767019869],[7.120364686942783,45.71126853565785],[7.122740222015701,45.71396329907756],[7.120472875145707,45.71490100253887],[7.11822002079759,45.715832636829894],[7.118323375020814,45.716581422288584],[7.118279428417165,45.717507784485804],[7.118201756211081,45.718289569170075],[7.118311457155711,45.718849438122966],[7.118057791562094,45.71892787966718],[7.117233740332381,45.71918270874519],[7.115942659073664,45.71974646776255],[7.114687967514726,45.72037381736661],[7.113551124952736,45.720553060907655],[7.111737566451479,45.72060410777389],[7.110494430589456,45.7212676041036],[7.109088742597204,45.72255845967487],[7.107538976325625,45.72392792664925],[7.1054625475421505,45.72528861927057],[7.104028149857595,45.72628191506926],[7.102910572348787,45.727406467283544],[7.101772708332641,45.728368656947765],[7.10044186117541,45.72933662292377],[7.099510956329662,45.72987917906678],[7.099322884528054,45.73011907884727],[7.0990745965881645,45.73099701771315],[7.099011631926762,45.73171604447809],[7.099113241301121,45.7328878322203],[7.0993552226627195,45.733710940977],[7.09978344437849,45.7339700911836],[7.101256139254687,45.73412959352175],[7.102099327868279,45.734364130771404],[7.103255276957721,45.73468485254062],[7.104767536673993,45.73519599744271],[7.106726075051337,45.73581354868418],[7.108712794358654,45.73635951143335],[7.1118531404942225,45.737383550977654],[7.112498613169884,45.73768224632144],[7.112902738193692,45.73789595435115],[7.112501719776166,45.73987850272096],[7.11249877382384,45.740818016682034],[7.112483262896364,45.74576472541816],[7.11271511783372,45.748823856459026],[7.112860313730562,45.75073939325397],[7.112865939478509,45.75081148678872],[7.112902579515996,45.751631173107505],[7.113005913881953,45.752379939050584],[7.113281984800746,45.75372562031286],[7.112622909459827,45.755730906396145],[7.112439884042015,45.756582962811365],[7.111941918871418,45.75724077450575],[7.111490510423301,45.75804339528606],[7.1114931280347795,45.758727490547805],[7.111576928894632,45.75967396703468],[7.111411365783352,45.76076931937149],[7.111060999408323,45.762005635812315],[7.11057413042635,45.76309567133514],[7.110082545250713,45.763942617341364],[7.109375001049391,45.765092002535965],[7.108176253449021,45.76631426290093],[7.10701614785829,45.7667720842041],[7.105993421483346,45.76697115298609],[7.105682268702154,45.76742502476403],[7.105662825725551,45.768378787426485],[7.10573731939982,45.769217091651],[7.105675906198187,45.769891129412734],[7.105462763073889,45.77086868501929],[7.105347236696829,45.77200085554903],[7.105474973630365,45.772786050287216],[7.105929956190224,45.77378366406121],[7.1065376117725405,45.7747423293173],[7.10655266464887,45.77476608181949],[7.107543053598826,45.77590758920935],[7.108683383903234,45.77679954676016],[7.109927529995138,45.77766622358692],[7.1107994983937335,45.778508720717134],[7.110911739255845,45.77937465056371],[7.110608236585973,45.779981679872215],[7.109779189719874,45.780913030750696],[7.108954093923418,45.78172744468973],[7.108253265438345,45.78266992226027],[7.107933275620161,45.78376270700824],[7.107557825727793,45.78459355361801],[7.1070678234755436,45.78538649903581],[7.106600514858159,45.78626983106976],[7.106901857075481,45.786868882222045],[7.107353536171793,45.787587422573715],[7.107604742542053,45.78852765905614],[7.10812540771635,45.78949036537389],[7.109088123229186,45.790316368132565],[7.110274670776277,45.79099306953456],[7.110858064004602,45.791623762054854],[7.110892874402984,45.79171729629151],[7.111070376610645,45.79219432488107],[7.111465633590541,45.793442966010474],[7.111826908950831,45.7945560380865],[7.112281562550532,45.7955716253482],[7.112418253244706,45.79609592067393],[7.112568127087883,45.79661144004169],[7.112955358835136,45.79733790451467],[7.112715364043759,45.79758596152363],[7.11249004585354,45.79778025129039],[7.112068173295034,45.79807929247682],[7.111301586518949,45.798678684729445],[7.1105796271992565,45.79909877077495],[7.1095263499985775,45.79942337551323],[7.108273333598443,45.7995646413603],[7.107208679546976,45.79984402152162],[7.105946223203801,45.80026413443321],[7.105261270091761,45.800729813391],[7.104580638353041,45.80144758294899],[7.103909792109809,45.8022555025136],[7.103706219232881,45.80294518637572],[7.103561806538968,45.8041668813852],[7.103842968047328,45.80460359327215],[7.104688902836665,45.805463692732395],[7.105069070201417,45.80639707477536],[7.1050502167360845,45.807332833447454],[7.10472048511702,45.808326435841025],[7.1040900113440495,45.80945906890426],[7.103364552815729,45.81035610722068],[7.102586091259293,45.8112972390414],[7.101965322255623,45.812141997219975],[7.101188924624074,45.813020167070846],[7.1005084001646175,45.8141069320146],[7.10006644754394,45.8149906543859],[7.099554965514228,45.81602623390792]]]}}]}
