{"type":"FeatureCollection","metadata":{"code":"007043","referenceDate":"2026-01-01","sourceDbfExportDate":"2026-02-18","upstreamArchiveUrl":"https://www.istat.it/storage/cartografia/confini_amministrativi/non_generalizzati/2026/Limiti01012026.zip","sourceManifestSha256":"70ac8256c4785dc6ed2814c32b6965ae76f9161b51abaa1660059e1c6cbd8ca6","license":"https://creativecommons.org/licenses/by/4.0/","attribution":"Istat, Confini delle unità amministrative a fini statistici al 1° gennaio 2026, versione non generalizzata.","modifications":["Converted from WGS 84 / UTM zone 32N (EPSG:32632) to RFC 7946 WGS 84 geographic coordinates.","Converted from shapefile to per-municipality GeoJSON without geometry simplification."]},"features":[{"type":"Feature","id":"007043","properties":{"code":"007043","name":"Montjovet","alternativeName":null,"regionCode":"02","regionName":"Valle d'Aosta/Vallée d'Aoste","territorialUnitCode":"007","territorialUnitName":"Valle d'Aosta/Vallée d'Aoste"},"geometry":{"type":"Polygon","coordinates":[[[7.678316707366631,45.7354600120501],[7.677750564099978,45.736029506601795],[7.676945587789688,45.73637121550065],[7.675630403712871,45.73654499271129],[7.674482273836773,45.736720692417215],[7.6731752304614735,45.737092551132655],[7.671891133072773,45.73758167409281],[7.6701458709550385,45.73800241004182],[7.668749456141052,45.73834617154855],[7.667844805395542,45.7385516468316],[7.667710729261928,45.738784097249976],[7.667179132188097,45.73897591046375],[7.667014897600606,45.7389398018404],[7.666271236806943,45.73877629415383],[7.665894520896664,45.73840287700022],[7.666017246875401,45.737567241312824],[7.666159041243718,45.73701084085044],[7.666158840974689,45.73647978652092],[7.666082657162588,45.73634387022845],[7.666000994837871,45.73619815821723],[7.6659862224329345,45.73617175371392],[7.665942919079626,45.73614242468191],[7.66559408171882,45.73590615432327],[7.665332974335821,45.7357050903517],[7.665089311571216,45.73551322505287],[7.6649183665826675,45.73541847292068],[7.664873655205973,45.73539369133985],[7.664080194649835,45.73524940701411],[7.6639321722804645,45.735216038856294],[7.663364253885598,45.735088014502445],[7.662430079748511,45.734915066963126],[7.6616240110230205,45.73476160539634],[7.661405345399878,45.73476805668832],[7.6604828423154165,45.73572032204774],[7.659364837561174,45.73624725419825],[7.657970345376004,45.736509890177615],[7.6567332939592205,45.736639371660004],[7.6559863070128324,45.73684708666577],[7.655801620515694,45.73689842616532],[7.654957081054115,45.73727551692433],[7.654617362463101,45.737505546722076],[7.654549540968453,45.73743791684512],[7.6544236987242105,45.73731243029334],[7.65438084829308,45.73726970719359],[7.654347883636454,45.73723683761851],[7.654323979893346,45.73721300268616],[7.654281535271873,45.73717067586452],[7.6523704148154295,45.7352648778955],[7.65221087034382,45.73441691362326],[7.652178093340566,45.733642464903696],[7.651760939831394,45.73281846515527],[7.6512176584480525,45.7318939870854],[7.650385392389161,45.7306960584824],[7.649380899606187,45.72918105822495],[7.648548493908629,45.72799210943327],[7.648238583924645,45.72752039461107],[7.648214146358835,45.72693506188683],[7.648106535700052,45.7266007484449],[7.647611774405086,45.7263338731713],[7.646011916258551,45.72606289601983],[7.644908330093097,45.72581120396716],[7.644554916621698,45.72573060557846],[7.643077249947575,45.72572205782381],[7.642103032822335,45.725620469249094],[7.641415576928968,45.72535127629655],[7.640746018553066,45.72487526383381],[7.640556410404482,45.7242159596351],[7.640267287582346,45.72342044439824],[7.638973773766187,45.72218093963685],[7.6376783537311566,45.72102239401811],[7.636636195712977,45.72001987267303],[7.636274391789259,45.7195745141469],[7.636650497308187,45.718903943531856],[7.6352378243362615,45.71781599125706],[7.634348805467198,45.71686027412907],[7.633555876013568,45.71565369527025],[7.632664945272847,45.714778958490086],[7.631693038152278,45.71406525739733],[7.630672173011659,45.71325195431935],[7.630042482275811,45.71273135971958],[7.628966549600133,45.71207039717583],[7.628075192807426,45.71128704963355],[7.627232818934118,45.710465425161885],[7.62672987174868,45.71001833751653],[7.626723346950114,45.70923519828994],[7.626541938742068,45.708773964112126],[7.626475232258958,45.70835012854053],[7.62679207296202,45.7080029058991],[7.627338926325083,45.70718140241995],[7.627445986113069,45.70648062475152],[7.627718930134934,45.70582685591283],[7.627868781549836,45.705477624813206],[7.628243485460692,45.7054551207776],[7.628341562026246,45.70548330203252],[7.6288848497694515,45.70554383515226],[7.629566857267397,45.705628520499694],[7.6298906968199285,45.705699909048725],[7.630323319784172,45.70567359514443],[7.630702216093974,45.70556112101149],[7.6314567345683075,45.70542166141205],[7.631649940016905,45.70525296575301],[7.632105965591958,45.705253910942126],[7.632528824701034,45.70528148148128],[7.633056465170052,45.7053418092342],[7.633762856305187,45.705431258144294],[7.634014861915443,45.705452280021284],[7.634327066402018,45.70537499800018],[7.635146921954326,45.705222783936044],[7.635673688001573,45.70507156059927],[7.636283310866626,45.70488082732514],[7.636756558582601,45.70460294785938],[7.637190168126192,45.704320096690225],[7.637908315162871,45.70379312753355],[7.638339417380619,45.70359573685602],[7.638841504703569,45.703187682525495],[7.639525981610008,45.70282847330972],[7.63959617134976,45.702791647798676],[7.639856867472274,45.70259399136783],[7.6401981500828935,45.702335265058935],[7.640968163491124,45.70161987645881],[7.641191714046963,45.701406511319725],[7.641493292107479,45.701104062276784],[7.641841549569663,45.700928199508255],[7.642359908839546,45.70079033850849],[7.643152500644332,45.70048472525918],[7.643483004928355,45.70036263834999],[7.644818292408878,45.69964042205596],[7.645378489940111,45.69944905282024],[7.645935765655187,45.699361151793006],[7.646788023702816,45.69897522252042],[7.647159953626412,45.698851678699896],[7.647298276549348,45.69880573996608],[7.648522115092102,45.698541215121814],[7.648564287142364,45.69852370420693],[7.649629889439524,45.698045768321315],[7.649898424774457,45.6978959239785],[7.65088207366389,45.69778603209144],[7.651679942401915,45.69772345103164],[7.65235799283907,45.69749279238033],[7.652434336768333,45.69746681821345],[7.652599449039995,45.697410275517285],[7.653237739045997,45.69703976579138],[7.654162185480528,45.696519604838265],[7.65494256216781,45.69611475778293],[7.655579960295645,45.69578024412996],[7.656071983548185,45.69561500639499],[7.65656252063724,45.69551277413943],[7.6573546249927835,45.695153044791795],[7.658040224711258,45.69500935539401],[7.658088367207012,45.69499926661699],[7.658167890055733,45.694982596863696],[7.659142896534862,45.6950300459342],[7.659985652656352,45.69523795122231],[7.660879775443294,45.695446450670154],[7.662317696995452,45.69547231385877],[7.663484274801436,45.69556696540415],[7.664699192350666,45.695788203160845],[7.664827174806997,45.6958076919266],[7.664971621460921,45.695827389173644],[7.665075505500077,45.695842666227946],[7.665902373646973,45.69596427390202],[7.665955718507425,45.69597239914674],[7.666030365919538,45.69598376233298],[7.6662352704862124,45.6960086617341],[7.666583220109959,45.69605267705645],[7.666752166231342,45.69607404867002],[7.666788504361288,45.69607864560071],[7.667528669741816,45.696172276377844],[7.668442710493715,45.69620196368077],[7.6687560526134515,45.696212139687184],[7.668806998574863,45.69621377841028],[7.66922533282945,45.69620554750811],[7.669557505880233,45.69619592453662],[7.6698271263409445,45.69618488993833],[7.6700717726771135,45.69617490687294],[7.6705547274514645,45.695307437841336],[7.670727595360264,45.69451738996752],[7.670712959881162,45.69442257356899],[7.670538306159949,45.69329106235141],[7.670355732424375,45.69286590290231],[7.670246557858404,45.69259461536695],[7.670212265054455,45.69250148362613],[7.670150030424599,45.69233247133884],[7.6698462630108075,45.691792772354106],[7.669823875697693,45.69175300676535],[7.669781833836119,45.691678313871414],[7.669706357569915,45.69154422447437],[7.669458303366022,45.69117231159296],[7.669450803854504,45.690947202030436],[7.668736669697134,45.69019180227291],[7.6682913266944555,45.68947555077397],[7.668236299832242,45.689087874525555],[7.668288493301896,45.68883593331119],[7.668308839677691,45.688737687256626],[7.668861965085299,45.688159087144264],[7.669234716534686,45.6879669966432],[7.669733061467017,45.68771017954449],[7.670355283949103,45.68746539994718],[7.670847433793203,45.6872911214607],[7.6712490389095915,45.687142775911326],[7.67144270613234,45.687100033097416],[7.671989810223621,45.68758690591412],[7.672503908500438,45.68784142598927],[7.673406601477707,45.68794126396476],[7.673812424653563,45.687901641483165],[7.674509974512847,45.68772971552915],[7.675125296147548,45.68723280215964],[7.675636842049847,45.686779699382214],[7.676378836850544,45.686356269329266],[7.6774308802925235,45.68622500328618],[7.678677032233869,45.686319778492255],[7.67979561090276,45.6863237894555],[7.680246234277289,45.68627500391958],[7.681282382665224,45.68626007673341],[7.681930681361547,45.68627629638975],[7.682468593488889,45.68624664966927],[7.682880710085701,45.68619738888516],[7.6831120162930135,45.68619107015069],[7.683975161593362,45.68607500517594],[7.684850290912841,45.68599507163109],[7.685485049428143,45.686308415655894],[7.686074577069616,45.6863601937475],[7.6865216503726055,45.686254039322975],[7.686978519769089,45.686145558308326],[7.687465130431267,45.68620516327357],[7.687719604424881,45.68662487608959],[7.687910277609124,45.686939351509366],[7.688156761687682,45.68738321092284],[7.688194364247037,45.687415352001025],[7.6886477976822,45.68780288112508],[7.689247861692736,45.68795379247644],[7.690274158075986,45.68800156436648],[7.691377474701005,45.68805021121222],[7.692468798148664,45.688062708352675],[7.6931221125727935,45.68813319273777],[7.6931160719878555,45.688165092991774],[7.692829276479116,45.68967798337649],[7.6927213669760865,45.69045083563137],[7.692738713951181,45.69136010930127],[7.692755182638687,45.69175632863777],[7.693461434467732,45.69231347000134],[7.693991564926759,45.69326461160544],[7.693871013465575,45.694028303758145],[7.693478734394109,45.694878899588595],[7.693402386077558,45.69540006836771],[7.693399249966206,45.69553504029096],[7.694415810871682,45.69600571738734],[7.69594103911721,45.696698200176534],[7.69708418625099,45.69725129464327],[7.697185369517771,45.69727920650755],[7.697410641989497,45.69734135146023],[7.6978858645337125,45.69747244516848],[7.6989220617316905,45.697758282892366],[7.699786301009636,45.698155157319945],[7.700393708678151,45.69854910167222],[7.700641378175411,45.698947946819644],[7.700638165776708,45.69964097662864],[7.699849273348687,45.699316966158094],[7.699389268016543,45.699212720821755],[7.698589105370507,45.69937461867813],[7.698183511010149,45.699694041114384],[7.698031185131348,45.70016933149223],[7.697999521980414,45.70097905535048],[7.697907615671766,45.7012716440746],[7.697851617569576,45.701449913351915],[7.697819220516687,45.701553051351794],[7.697406273485844,45.701954876474694],[7.697188359760832,45.70216690547741],[7.69655092175039,45.70251066575199],[7.696021958092749,45.703161695690575],[7.695550210534291,45.7035613342205],[7.694763881607113,45.70367836422982],[7.694424323608495,45.703917512642164],[7.694352912242614,45.70407163736086],[7.694113211575152,45.704589014215514],[7.69357534514126,45.7050689036041],[7.692350884823031,45.70579295606492],[7.691321580489068,45.70641123172248],[7.690913579817631,45.707378635542206],[7.6909121584460705,45.70799067064074],[7.690518427384461,45.708346203043014],[7.68987014466739,45.708599791007586],[7.6895366425047476,45.709127000081416],[7.689548462436456,45.709721195980016],[7.689557730510055,45.71042336653549],[7.689294766827388,45.71123041318844],[7.688931124071045,45.71194631310072],[7.688439255332128,45.71265172525163],[7.688114129946577,45.713368045735656],[7.6877142625743575,45.71398451703272],[7.687246349594551,45.71476220043295],[7.687370365912885,45.715501688121876],[7.68758346394777,45.716278220480206],[7.68760493747692,45.71700751610984],[7.687522177400116,45.717798638923675],[7.687657778672167,45.71859226860001],[7.687913013353346,45.71921624715106],[7.687760331701513,45.71970053171343],[7.687621119163554,45.72015798354908],[7.687335129477899,45.72029870113609],[7.6868178779313885,45.72043677862135],[7.686135352344453,45.72050093180864],[7.685379686400701,45.7209422746021],[7.684735416081017,45.72156491905446],[7.684107799823367,45.72202571852995],[7.683739208605158,45.72239950907464],[7.683673029547526,45.72302880617434],[7.683978358560106,45.72370738253791],[7.684292985373431,45.72399003364955],[7.684225592337422,45.72412426547525],[7.684002743891404,45.72431071599271],[7.68355979329675,45.72456663107782],[7.683369995606268,45.72498747937488],[7.683645051028391,45.7253146748871],[7.684015881710676,45.72594000876271],[7.684029119801377,45.72647119609547],[7.683708082899781,45.727007543697184],[7.683480146875528,45.727409958076414],[7.683585434047472,45.727852214930486],[7.683887432074371,45.7281257115866],[7.684235137875173,45.72864275724668],[7.683868405557104,45.72893555185735],[7.683456198844097,45.728975817751426],[7.683331062455776,45.729379397528774],[7.683239794281379,45.72998139928285],[7.683193781191945,45.73084494118708],[7.682952562400665,45.73126519290393],[7.682339778633704,45.731636161831716],[7.681344413619734,45.73242574246817],[7.680396811055674,45.73336888370186],[7.678316707366631,45.7354600120501]]]}}]}
