{"type":"FeatureCollection","metadata":{"code":"010063","referenceDate":"2026-01-01","sourceDbfExportDate":"2026-02-18","upstreamArchiveUrl":"https://www.istat.it/storage/cartografia/confini_amministrativi/non_generalizzati/2026/Limiti01012026.zip","sourceManifestSha256":"70ac8256c4785dc6ed2814c32b6965ae76f9161b51abaa1660059e1c6cbd8ca6","license":"https://creativecommons.org/licenses/by/4.0/","attribution":"Istat, Confini delle unità amministrative a fini statistici al 1° gennaio 2026, versione non generalizzata.","modifications":["Converted from WGS 84 / UTM zone 32N (EPSG:32632) to RFC 7946 WGS 84 geographic coordinates.","Converted from shapefile to per-municipality GeoJSON without geometry simplification."]},"features":[{"type":"Feature","id":"010063","properties":{"code":"010063","name":"Tribogna","alternativeName":null,"regionCode":"07","regionName":"Liguria","territorialUnitCode":"210","territorialUnitName":"Genova"},"geometry":{"type":"Polygon","coordinates":[[[9.174796615745732,44.43438529970468],[9.174610942931702,44.434552324050195],[9.174192415498567,44.434672062312295],[9.1739266984146,44.43475345571169],[9.173680869714083,44.43481576198106],[9.173355226228422,44.43486866029937],[9.172470494526017,44.434727079864025],[9.171672426518395,44.43466158563631],[9.170934033864008,44.43453882952703],[9.170494913787648,44.434439441981986],[9.169843141653054,44.43437848079649],[9.169638336469305,44.43431287819544],[9.169369256903352,44.43436584048304],[9.169098591242324,44.434401837766956],[9.169059702490427,44.43440866725555],[9.168977296468876,44.434391512781225],[9.168868554590945,44.43434952148991],[9.169062699837966,44.434312568501795],[9.169341154753324,44.43427811364155],[9.169457988007293,44.43425511011218],[9.169117737684177,44.43414612117981],[9.168791846926581,44.43411325498129],[9.168124872018963,44.434081317146045],[9.167495751992144,44.434267611334825],[9.166831621463565,44.43453536660881],[9.166373237458604,44.43467419160068],[9.16610738800139,44.43471269106784],[9.165736347966238,44.43465735314513],[9.16564940911965,44.43463174199628],[9.165585560189088,44.434613432808895],[9.165371673937832,44.43454985595743],[9.165182289152163,44.43422603021843],[9.165204116329656,44.43394443719053],[9.165208283221483,44.43389061769334],[9.165228880048993,44.43376152523771],[9.165268263675216,44.43352369110605],[9.165282042407247,44.433397632545834],[9.16503227472433,44.433291100474044],[9.164968340769498,44.43326252514059],[9.164764669560203,44.43316430842411],[9.164676060222414,44.432930364592735],[9.164689714934749,44.4327592930491],[9.164272990423546,44.43257083563217],[9.164060513261608,44.43240909107644],[9.164111044814977,44.43223930353209],[9.1641227545745,44.43220193848741],[9.16423507751627,44.43193169407903],[9.164309327057286,44.431526463733086],[9.164200386575443,44.43131441657557],[9.16411983197617,44.43115762298498],[9.163943609278661,44.431040840207736],[9.163842316619972,44.430761899709175],[9.163816173683013,44.4305942919546],[9.163800338459765,44.43051936072224],[9.163283395816508,44.430588151453506],[9.163188504294268,44.430600759582234],[9.163087276135187,44.43033983205873],[9.163224701823683,44.43006054988209],[9.163172742938542,44.42944843625317],[9.163196112552033,44.429346713205504],[9.163272050183553,44.42901616211488],[9.16343356727801,44.42872993460989],[9.163522117931878,44.428574688199895],[9.163785875438474,44.428547301801466],[9.164099584754988,44.428411809968566],[9.164375174371235,44.42812332580178],[9.164474645997329,44.42775406920622],[9.164625001435612,44.42760980818597],[9.165089412136359,44.42745609154576],[9.165427807591438,44.4271675130978],[9.165439456730287,44.426843396928504],[9.165424202134156,44.42588912578991],[9.165473260534206,44.42546592506773],[9.165623455144058,44.425267645892795],[9.165986757214545,44.424907007769164],[9.166123926974114,44.42454669847809],[9.166324214622668,44.42429432935896],[9.166373705549052,44.42426423371887],[9.16662518806952,44.42410483830983],[9.166938738975231,44.42392432551624],[9.167091837271201,44.42383341426579],[9.167377681058673,44.42366260263377],[9.167188294882546,44.42332977766327],[9.167099435670206,44.423005808178296],[9.167022523343855,44.42246575387062],[9.16732329661214,44.42221323682763],[9.167687006822385,44.42200563900785],[9.168138415949178,44.42171688718707],[9.168300818303566,44.421401550345365],[9.168350058967926,44.421050370528846],[9.168310913734548,44.42054177118544],[9.168334823392485,44.42011860589332],[9.168535448523512,44.41999227112656],[9.170899834979446,44.421487719663446],[9.171742014469896,44.42166651151773],[9.17219406160042,44.42160281194153],[9.172771914135165,44.42160193934416],[9.173362513707863,44.42166406346861],[9.174279567889728,44.42167167075191],[9.174908580819357,44.421976803179],[9.175047864846688,44.42234570358131],[9.175527031395129,44.42294815402451],[9.175904467172838,44.42313663121511],[9.176142204513468,44.42282116816317],[9.17646355595016,44.42106963305008],[9.176008060414844,44.41998099989441],[9.17616722583294,44.41860332998322],[9.176175259327149,44.41709535231549],[9.176639215888148,44.41630689274526],[9.176826245328447,44.41584746158867],[9.176992296288978,44.4156361370667],[9.177201626362276,44.4153697323372],[9.177640022591829,44.41496392574547],[9.178305021736866,44.41472881723338],[9.178686431013254,44.41450913768265],[9.179057335149196,44.414295507030864],[9.179910670415497,44.414042088041946],[9.180939372199479,44.4136353382844],[9.181716009854219,44.4134630520416],[9.181828188205143,44.41318378772625],[9.181601212803793,44.41289605925232],[9.181072131567312,44.41239274288331],[9.18032940345561,44.41184474812935],[9.180219360371627,44.4115815585218],[9.180190221949307,44.41151186475656],[9.18062488100473,44.41096765769291],[9.180765755187156,44.41079073212865],[9.18084806959385,44.41073563127477],[9.181031357905846,44.41061398599092],[9.18143005439441,44.41034854239923],[9.181768364372239,44.41013712424739],[9.1820944273884,44.40993335723546],[9.18216031978105,44.409895543690766],[9.182630258123707,44.409626481027],[9.182675332337853,44.409600372676245],[9.18271906183915,44.409574814732906],[9.182834118673005,44.40950904388096],[9.183623135560891,44.40879655754882],[9.184273912788191,44.40806178252502],[9.184460092435414,44.407359264054335],[9.184506432774766,44.406719947107014],[9.18449662528352,44.4066911168685],[9.184342156063279,44.40629712448522],[9.184129097760804,44.405937356193746],[9.183610286262054,44.405190958789184],[9.182669098310964,44.404913378943135],[9.183007253224705,44.40461574750317],[9.182981967942908,44.40456177170131],[9.18289184517605,44.40435485185922],[9.182755896902172,44.404054593296664],[9.182588350078952,44.403689113364614],[9.182673960589932,44.40295074739905],[9.183048145104326,44.40213089333334],[9.183623890748203,44.40151777836627],[9.184350398546492,44.40093142583224],[9.185703768145038,44.400028953248324],[9.186481009426132,44.39961355737167],[9.187069854197471,44.39918946290258],[9.187595212857396,44.39854940148277],[9.189033443202536,44.39722361792626],[9.189823005927966,44.39675416233209],[9.18983320766128,44.39669452469939],[9.189884621402312,44.39639394467424],[9.190148149503775,44.39654617264208],[9.190412983561453,44.396699154962995],[9.191958304933081,44.39695765016712],[9.192975872068356,44.39709998074804],[9.193603649449063,44.39708091265847],[9.194306052349841,44.396845646866254],[9.19525749705813,44.39666917044693],[9.195335071811446,44.39665483216591],[9.1954911483533,44.396660613286244],[9.196264383285973,44.3966892506819],[9.196991461079143,44.39679603273653],[9.19774395251836,44.3965246478741],[9.19807169788958,44.39643405750077],[9.197828910633495,44.39891025385478],[9.197955332742975,44.39916211358765],[9.198232836511194,44.3995307466626],[9.198535854408183,44.400016372078746],[9.198687608982194,44.40033120614329],[9.199040193804498,44.40061868248404],[9.199555938404133,44.40087886416404],[9.199808865821582,44.40140058418062],[9.199584450975886,44.40187812519378],[9.199159319002524,44.402419035075404],[9.198709429984115,44.40306802084559],[9.198196077391376,44.403702433928515],[9.198096639645446,44.403825320041356],[9.197771249374114,44.40415898826514],[9.197624642270172,44.40537461930211],[9.197463804553704,44.40609512138774],[9.197515311941272,44.4064731499903],[9.197729780144533,44.40676086791253],[9.198094927594473,44.4070393222317],[9.198636238634892,44.407416498855646],[9.199755914493652,44.40798172301797],[9.200398117151607,44.408475751050844],[9.200576776917794,44.4088445520981],[9.200776771172855,44.409024257058825],[9.201330058305523,44.40922134431376],[9.201733195092514,44.40958074475648],[9.202061413301054,44.41006631454591],[9.20294005211112,44.410366350830806],[9.203240784587482,44.410617894371676],[9.203367160447861,44.410842739100175],[9.203606232051493,44.410968352311556],[9.203896987570062,44.41105786133901],[9.204198420580381,44.4110573228573],[9.204447856175122,44.411002859514014],[9.204661559916168,44.41105649395242],[9.204762698052566,44.411245370905775],[9.204713243737151,44.411470529189025],[9.204777172889498,44.41179451475154],[9.204853664053116,44.41211847863124],[9.204955023490239,44.41237037497419],[9.205207798156891,44.4128200603078],[9.205661759626178,44.41333240205984],[9.205706399091044,44.413509015295766],[9.20572544484265,44.41358436549269],[9.20578893870266,44.413863625875784],[9.205915964221559,44.414187207977264],[9.206017205390665,44.41440309208782],[9.206168816127752,44.41465489660493],[9.206219775731395,44.4147116522231],[9.206370576983282,44.414879602656406],[9.206647510705626,44.41505015435629],[9.206961651849964,44.415085596995915],[9.207325813429138,44.41505792802812],[9.20765254755156,44.415102348760804],[9.20787882982731,44.415155953371375],[9.20823087673483,44.41525434348653],[9.208369300278191,44.415326112962106],[9.208482729373838,44.41543393929704],[9.208545981057812,44.41555986284365],[9.20852149936694,44.4157399627539],[9.208547100946618,44.41587495787051],[9.2086232767472,44.416208129482776],[9.208712219329648,44.416392307547405],[9.208901208024944,44.416554011551],[9.209243233620533,44.416566418031614],[9.209384468076566,44.41663619508214],[9.209554214517716,44.41673705240432],[9.209689332983919,44.41691417045915],[9.209722114155317,44.41695714299115],[9.209871271279631,44.417152664777596],[9.210240978703801,44.417840464161564],[9.210508028714631,44.418040621462005],[9.210765979144703,44.41823884940695],[9.2107129339086,44.418247710646284],[9.210559094466468,44.41828387338514],[9.21047216739235,44.41830434761816],[9.210248541474888,44.418356695086494],[9.210127792751619,44.41838496745367],[9.20950021669596,44.418531876328],[9.209357442714769,44.418565299191236],[9.208872603584839,44.418662202177266],[9.20824245749737,44.41879244546675],[9.208130011948679,44.41881061649428],[9.207675403158726,44.418901471513685],[9.207617347711071,44.41891293324332],[9.207261163993111,44.418983249531685],[9.206989853158523,44.41907742422517],[9.206635424790454,44.41920044973885],[9.20649576411315,44.41925921810177],[9.205918655124881,44.41949885876558],[9.205794100318183,44.41971536578076],[9.205735938967674,44.41971523107988],[9.205737377899371,44.419817497197904],[9.205620818863054,44.42002153417532],[9.205642539265316,44.420165538772025],[9.20565136175651,44.42022404047098],[9.205683539475949,44.420444550394095],[9.205684139173055,44.42061560243222],[9.205685710653102,44.42106526278006],[9.20568628549342,44.4212277864521],[9.205647427023226,44.42139292802684],[9.205619944016336,44.42151489128479],[9.205607062692836,44.421570056876774],[9.205514812259933,44.421965126220194],[9.205413989398822,44.4223896339608],[9.20539776822581,44.42242674582987],[9.205199363017272,44.422872545841436],[9.205119523626099,44.423052490349065],[9.205041621432212,44.423227559881674],[9.204962834255596,44.42331810239193],[9.204605853981088,44.42372832654125],[9.204159162368951,44.4236927840727],[9.20335614602477,44.4236199152338],[9.203237083782051,44.42360928952928],[9.20288656255896,44.423578007523126],[9.202779965597198,44.4235195640314],[9.202601272051353,44.42342210220165],[9.20241409837645,44.4233225232465],[9.202298792558967,44.42326074117834],[9.20207974472465,44.42314281181621],[9.20198544646502,44.42312405194032],[9.201929467798223,44.42311229237769],[9.201400917642875,44.42300896998673],[9.20082035658641,44.42287429688765],[9.200721930931715,44.42282793691727],[9.200721799225354,44.422789444608014],[9.200566177613196,44.42275495891252],[9.20050172061037,44.422725009794696],[9.200457662406349,44.422704600262826],[9.200092673939102,44.42248886867727],[9.200092444733674,44.422426089573975],[9.199883074732131,44.42242645615431],[9.199464145915485,44.422370921642425],[9.199413874007575,44.42236425729046],[9.199348831406342,44.422387184923906],[9.19923422191448,44.42242758977567],[9.198849249684745,44.42256330232512],[9.198503741555976,44.42289017791345],[9.19841097303189,44.42297819240403],[9.198368781618772,44.423085795597075],[9.198269689410749,44.42333832622524],[9.198219371374613,44.423466555461324],[9.198186648311387,44.42354943475661],[9.198007380641837,44.424008368239015],[9.197987815317925,44.42405929249476],[9.197876197584117,44.424230344464526],[9.197585281422414,44.424677845231045],[9.197443837218078,44.424892957816084],[9.197259282998392,44.42494200994092],[9.196939396427103,44.42495447178525],[9.196643940687837,44.42489009738346],[9.196265567295102,44.42473529618828],[9.195778651729734,44.42449793115625],[9.195463283023773,44.42431568666973],[9.195261893156827,44.42403134789935],[9.194995499433345,44.42388590480032],[9.194762611901346,44.423820796591755],[9.194396781632703,44.423758892382466],[9.193823261092023,44.42371222671333],[9.193696862483064,44.423684453106326],[9.193457497998839,44.423670566763576],[9.192114074483326,44.42349180154673],[9.191117017850774,44.42352205819713],[9.190565788089375,44.423684955558286],[9.190413184643765,44.42377572639344],[9.190234438831691,44.424004696315365],[9.190145127359992,44.42425785717302],[9.190156473216135,44.42456221610545],[9.190178378088975,44.4251672089544],[9.190178787173128,44.4252933848179],[9.190179589327588,44.425540794906865],[9.190181544518431,44.42614382493741],[9.190283394540925,44.42644458674411],[9.190490763756358,44.42695289668746],[9.190673442731601,44.42739651976389],[9.190818281460277,44.42775540356182],[9.190853260806339,44.42784000234809],[9.190849528962035,44.42807846388071],[9.190758473083996,44.42823169832834],[9.190415541490603,44.42857527928949],[9.190142148115504,44.42883656382946],[9.18986864694988,44.42906569157515],[9.189688034530375,44.42913840952395],[9.189386696341478,44.429205688949395],[9.189230871858552,44.429209669880684],[9.188985822086792,44.42919538117426],[9.188288444714827,44.429154713852895],[9.187978584296085,44.4291048551913],[9.187516644560127,44.42895574168048],[9.187404593734941,44.42892035539751],[9.186902092581148,44.42877913840103],[9.18581455055379,44.428453418619405],[9.183794545637307,44.428104126119266],[9.183462151001294,44.428109424792666],[9.182930681246196,44.428234141755034],[9.182691658062325,44.428334568271566],[9.182094575963555,44.42874046183696],[9.181530949084358,44.429217759948415],[9.180930665201508,44.42966891147794],[9.180579919934145,44.42986289140802],[9.18025036062768,44.43004515205254],[9.180084497750935,44.43015855942165],[9.179794596727573,44.430474630958194],[9.17887928460101,44.431910239945886],[9.178766066811308,44.432053967246645],[9.178521246201848,44.43236442904668],[9.178268500039614,44.432684883206036],[9.178139817710115,44.432718302592576],[9.178054595649266,44.43274044377731],[9.177954644390825,44.432766402537496],[9.177552501729762,44.43274002078927],[9.177426749273662,44.43270420490108],[9.176936195513292,44.43252491026953],[9.176887981094524,44.43251176339871],[9.176445724997453,44.432372285165165],[9.176409415183363,44.43236817744337],[9.176330665171863,44.4323598949052],[9.176260668160351,44.43235222360187],[9.175704418060223,44.43236926410374],[9.174917090346575,44.43242234589794],[9.174598337305497,44.43255146144349],[9.174519374167955,44.432827894098615],[9.174560575333985,44.432950549532215],[9.174589356121572,44.433040983922155],[9.174815056962258,44.43388028699571],[9.174849140054114,44.43416131103474],[9.174796615745732,44.43438529970468]]]}}]}
