{"type":"FeatureCollection","metadata":{"code":"012008","referenceDate":"2026-01-01","sourceDbfExportDate":"2026-02-18","upstreamArchiveUrl":"https://www.istat.it/storage/cartografia/confini_amministrativi/non_generalizzati/2026/Limiti01012026.zip","sourceManifestSha256":"70ac8256c4785dc6ed2814c32b6965ae76f9161b51abaa1660059e1c6cbd8ca6","license":"https://creativecommons.org/licenses/by/4.0/","attribution":"Istat, Confini delle unità amministrative a fini statistici al 1° gennaio 2026, versione non generalizzata.","modifications":["Converted from WGS 84 / UTM zone 32N (EPSG:32632) to RFC 7946 WGS 84 geographic coordinates.","Converted from shapefile to per-municipality GeoJSON without geometry simplification."]},"features":[{"type":"Feature","id":"012008","properties":{"code":"012008","name":"Barasso","alternativeName":null,"regionCode":"03","regionName":"Lombardia","territorialUnitCode":"012","territorialUnitName":"Varese"},"geometry":{"type":"Polygon","coordinates":[[[8.756804320481537,45.86952079524314],[8.755063669152804,45.86981408849654],[8.753827052497252,45.86976646977825],[8.75363798417081,45.86910009425884],[8.753523531525243,45.86866781453744],[8.753837437957236,45.86760643734084],[8.754162898842019,45.86684209425069],[8.754373684639765,45.86578948850489],[8.75476468032053,45.86476427255192],[8.755566211445021,45.86403694534361],[8.755865297572925,45.86330854096237],[8.756074070824258,45.862705968853966],[8.755988059503572,45.86203074917354],[8.755771731817095,45.86132824739774],[8.755517156204322,45.860625663298734],[8.754980205511036,45.859787450485555],[8.754867382753032,45.85907617254151],[8.754833559477442,45.85797804385681],[8.754862932991562,45.857249062333544],[8.754595078727174,45.85655546036131],[8.754302447599969,45.85572678317828],[8.754074979103127,45.85509625176137],[8.753742847218751,45.8542854962672],[8.753628884587206,45.85384422140241],[8.753323883035401,45.85299750538406],[8.752709116228452,45.85221313963807],[8.752171822647819,45.8514739351366],[8.751981791297785,45.8507624858207],[8.751547382626145,45.84997848683592],[8.751125470766313,45.849275527578385],[8.750819520501409,45.8485728196087],[8.750514523919247,45.847924120840034],[8.750426966296912,45.84724889183557],[8.750738800750055,45.84663753873816],[8.750793177587784,45.846453409871316],[8.750908804473788,45.846061876197616],[8.751103904196093,45.84563026757207],[8.75111909220867,45.84548439746954],[8.750976473342293,45.845422933129456],[8.750857076459441,45.84493503880002],[8.750400650038728,45.8446405603974],[8.750108168307289,45.84458255136165],[8.74989274956806,45.84433828999512],[8.749855066315856,45.844200570435376],[8.749859002280486,45.844060844837514],[8.749801687170033,45.844004798666546],[8.749656145912283,45.84397385087679],[8.749249777114679,45.84400651406639],[8.749203756777897,45.84398777283928],[8.749175802266961,45.84348528931512],[8.749130298531288,45.84341761295776],[8.749055019568264,45.84340169661934],[8.749123095414953,45.84304521552897],[8.749109636828852,45.842979812855695],[8.749069495196277,45.842781698109754],[8.748906620335392,45.84230432943119],[8.748891552290727,45.84225928253625],[8.74900249999877,45.84219652122156],[8.749343383786968,45.84200825696569],[8.749738539681177,45.84171644348528],[8.749817311808556,45.84165818860348],[8.750519063667848,45.84113769723803],[8.75015070056912,45.84065987416285],[8.750468070210463,45.84046973336395],[8.750322154285344,45.84031291670145],[8.750116406962247,45.84006539328503],[8.749998666327338,45.83991259537368],[8.74991554584817,45.83974227513816],[8.749916740116372,45.83962861636846],[8.749843710808486,45.83955028719635],[8.749717248563751,45.83943375670975],[8.749595970419847,45.839322002359594],[8.749530681916207,45.839353721394964],[8.749434648782271,45.839352448781014],[8.749355880185771,45.83930902814024],[8.749359585023585,45.839241045725466],[8.749540638823293,45.83906896419546],[8.749574547363874,45.83904250474106],[8.74983099851104,45.83892440255883],[8.749934434963516,45.83884899781416],[8.749872938509522,45.83876914938505],[8.749759377639943,45.83851688388471],[8.749820165556367,45.83837487677834],[8.75010991219365,45.837698613238196],[8.750297752470615,45.83722626624803],[8.750396048565296,45.83697921460002],[8.750232273814403,45.8364388213182],[8.750529069368772,45.83620546113151],[8.750697321458555,45.83592680775104],[8.750325590388815,45.83572798726657],[8.749981423890112,45.83559588167684],[8.749811040693931,45.83552744075305],[8.749730570547822,45.83549964706961],[8.748963817015959,45.83503194966784],[8.74842520667285,45.834544738550726],[8.74831748855212,45.83444301407655],[8.747938009465612,45.83408464370593],[8.747179547359336,45.83381294168376],[8.745006497005802,45.833421086756125],[8.745423407801583,45.833295992519524],[8.74625681650293,45.833045893064785],[8.74665711198874,45.83279478216444],[8.746777258742277,45.832661282294936],[8.746851183767706,45.83257916340334],[8.746935102148605,45.832529836923506],[8.747650817057385,45.832103901505896],[8.74886403440411,45.83145853925769],[8.749753270360141,45.831181467564235],[8.7500949140981,45.831056909622355],[8.75102952361579,45.83071617585117],[8.751739948162747,45.83020469011735],[8.752244040238434,45.82966572477594],[8.752784709016638,45.82967589642208],[8.753402239387352,45.8297852309897],[8.754095139726788,45.83022775442207],[8.755006775186422,45.8307967532152],[8.755501939631353,45.83091930680524],[8.755996287312703,45.83104187450369],[8.756486611891034,45.830799916514756],[8.757105270343919,45.830648219230966],[8.7577994470266,45.830892684129815],[8.757216656863664,45.83168351304287],[8.757343511516051,45.83211581821379],[8.757702580581661,45.83244959202247],[8.758009687013896,45.83289127458367],[8.758209793666085,45.833183266680955],[8.758257478074364,45.83325555246988],[8.758298824192227,45.83331822928027],[8.758367919686235,45.833423062413125],[8.7584828791325,45.833639323696936],[8.75914800746328,45.834567783151265],[8.759442591787597,45.83492842082866],[8.759736963914444,45.83525307644937],[8.7602634860322,45.8357672124319],[8.760530249194876,45.83623578892377],[8.76097992335614,45.8364707380761],[8.761404837108373,45.836570648974735],[8.76171188044948,45.836940301891],[8.761568780754835,45.83728202905035],[8.761065629038079,45.83750599134829],[8.760844394184852,45.83805455902686],[8.760932463742927,45.83853177255297],[8.76112738776416,45.83877415328902],[8.761316735103653,45.83900959787082],[8.761650030596904,45.839361315226085],[8.761842067002565,45.839622728553785],[8.761856192093761,45.83969156938267],[8.761904814333118,45.8399289049237],[8.761930419142832,45.84005497117087],[8.761940704254298,45.8405680213593],[8.762209407404427,45.84107261526735],[8.762734768449329,45.84168574168153],[8.763221041642415,45.84212778049449],[8.763900822411262,45.84277722099098],[8.764123130063364,45.843046663795484],[8.764362073711425,45.843318155695115],[8.764371915547404,45.84344132482327],[8.764386527842316,45.84362421552574],[8.764395292098312,45.84374122871732],[8.764384210177187,45.84417323975585],[8.764445367358677,45.8443623791975],[8.764574910433506,45.84475866144092],[8.764880995848245,45.845371325599],[8.765290382153493,45.84602021876359],[8.76527525679494,45.84665021187477],[8.76537387749744,45.847415460849476],[8.765473762644072,45.848162721858266],[8.76539367969324,45.848828580151746],[8.765442204582035,45.8495397359033],[8.765646152892536,45.85014317370631],[8.765591292297252,45.8508451021647],[8.76549848572488,45.85147495339163],[8.765058663948746,45.85192407450265],[8.764836402428095,45.852805675965996],[8.764830468475687,45.8541197374118],[8.76492728636402,45.85559601763542],[8.765370013731951,45.857424028706994],[8.765570810052493,45.858783509070186],[8.76552639856783,45.85987247782235],[8.765881757149485,45.86421145533215],[8.76609087650726,45.86628200245369],[8.766166596826766,45.86703818806577],[8.766318591986463,45.8686225959101],[8.764933186302303,45.86852524584805],[8.7638537925355,45.86860853098373],[8.762462590683286,45.86864164703147],[8.761223198138401,45.86923308521257],[8.760064122457855,45.86921266704695],[8.758699279336131,45.86910177565758],[8.756804320481537,45.86952079524314]]]}}]}
