{"type":"FeatureCollection","metadata":{"code":"013169","referenceDate":"2026-01-01","sourceDbfExportDate":"2026-02-18","upstreamArchiveUrl":"https://www.istat.it/storage/cartografia/confini_amministrativi/non_generalizzati/2026/Limiti01012026.zip","sourceManifestSha256":"70ac8256c4785dc6ed2814c32b6965ae76f9161b51abaa1660059e1c6cbd8ca6","license":"https://creativecommons.org/licenses/by/4.0/","attribution":"Istat, Confini delle unità amministrative a fini statistici al 1° gennaio 2026, versione non generalizzata.","modifications":["Converted from WGS 84 / UTM zone 32N (EPSG:32632) to RFC 7946 WGS 84 geographic coordinates.","Converted from shapefile to per-municipality GeoJSON without geometry simplification."]},"features":[{"type":"Feature","id":"013169","properties":{"code":"013169","name":"Oltrona di San Mamette","alternativeName":null,"regionCode":"03","regionName":"Lombardia","territorialUnitCode":"013","territorialUnitName":"Como"},"geometry":{"type":"Polygon","coordinates":[[[8.964009593111117,45.76265997542171],[8.963981660768878,45.76268585089047],[8.96367348360467,45.76267162849558],[8.96360031866513,45.762543155933166],[8.963391478832843,45.76247407258769],[8.96272448950512,45.7622534319891],[8.962645086516957,45.762227165355725],[8.96229963074981,45.76210089418756],[8.96207772543576,45.76235015781848],[8.961951041715139,45.76233359937937],[8.961735208542871,45.76230484740454],[8.959456098680615,45.762001211444044],[8.959512825088131,45.761842067305054],[8.959870840021464,45.7612874377188],[8.959989132711165,45.76110417949255],[8.959564885815604,45.760969024701865],[8.959307404095496,45.761364955176596],[8.959102379204786,45.761246349662194],[8.958793655806812,45.761067754413304],[8.959320930715535,45.76043789183939],[8.959437216937399,45.76000504156395],[8.959475671308375,45.759861904988384],[8.95852466495514,45.75964554273814],[8.95803384417746,45.75950166784186],[8.957817596116374,45.759438278009675],[8.958847120419273,45.75830455927497],[8.959413189421417,45.75734169289244],[8.959696390670244,45.75689176119959],[8.959085480681685,45.75672136368035],[8.95856551604345,45.756576330260444],[8.956804210377161,45.75622465218878],[8.955146218576203,45.75585499598765],[8.954416890661442,45.75558989953863],[8.954105053418582,45.755476550904184],[8.954658639840655,45.75461270794473],[8.955340932439432,45.753568892464735],[8.955740171533973,45.752713997779445],[8.95595923745206,45.75209302532361],[8.956923158529525,45.752048396323545],[8.95729596948423,45.752102546093916],[8.957618090628799,45.751184591708785],[8.957827698153865,45.750293599712954],[8.958252526445653,45.75006424136371],[8.959139546503499,45.75020856396247],[8.959635272888347,45.750276261919076],[8.961494687894005,45.75026789034878],[8.962169430524689,45.750583141630905],[8.962966338433887,45.75092543348951],[8.962606126581885,45.751249339147975],[8.963081185071823,45.75161851128811],[8.963813980675457,45.75169975955942],[8.964675762411062,45.7511329827594],[8.965190269251462,45.750750611079255],[8.965495826603743,45.750426680753655],[8.966088939009419,45.75026934628646],[8.966442156858788,45.75014793788827],[8.967265077606092,45.74998616510342],[8.967674528543279,45.749918778828636],[8.967882264676927,45.74988733482201],[8.96851638856602,45.75038705597976],[8.968648466094777,45.75056711158479],[8.969367887990927,45.750828323657345],[8.970159518688227,45.750585507799215],[8.97021192753994,45.75027049559577],[8.971180600218943,45.750270744035646],[8.971597684562854,45.75014933579107],[8.972247300762328,45.750271008115995],[8.973391941730599,45.75027128041499],[8.973590575877074,45.749942805794454],[8.973770763759667,45.74952881593905],[8.974555052037093,45.74942998784339],[8.974542420020793,45.7489529466379],[8.974593993180887,45.748619940564446],[8.975056877559972,45.74848501791764],[8.975146616545107,45.749061081361866],[8.974953555214325,45.74955608626796],[8.975609173928472,45.749682238476964],[8.975630390942394,45.749632749731816],[8.975670227732383,45.74953989397929],[8.975763597992106,45.749322248004525],[8.975943763948754,45.7489172500139],[8.976124005327556,45.74833224947584],[8.976304986422782,45.74816563029771],[8.976612739388987,45.74788231700826],[8.977062884680175,45.74745036716184],[8.97828414902666,45.747558607534515],[8.97854105929579,45.74813469915699],[8.978671895906785,45.748419940992925],[8.97877227771329,45.748638784836096],[8.97998072446019,45.748810027864785],[8.980327527575001,45.7486993402732],[8.980713617654004,45.74857612383146],[8.980785132279822,45.748479801834996],[8.981228095594435,45.74788316851786],[8.981510604885077,45.74783298413514],[8.982038086119832,45.74773927872897],[8.982474998857034,45.74831539054326],[8.982500517784,45.74897245223605],[8.983310413323979,45.7490985837919],[8.983593335308141,45.74890059495136],[8.984300640300747,45.74812663948152],[8.98469916470751,45.74821670457575],[8.985650390096474,45.74876586609038],[8.986190283885112,45.748972957784304],[8.986357377720953,45.749170989671406],[8.986114157495773,45.74974250561914],[8.98547000640198,45.75028246812],[8.984796873667515,45.75068042922918],[8.984473048302483,45.75087187369985],[8.984429687995831,45.75091928008999],[8.984267262708098,45.75109686131139],[8.984691011167758,45.751555946609756],[8.985030791821373,45.751940327613966],[8.985256540384086,45.7521950697177],[8.986029418144655,45.752838712263554],[8.986143515548408,45.75293323388041],[8.986889025267047,45.75381539566279],[8.986898541506395,45.75388542516487],[8.986966045300933,45.75438245158998],[8.986785866284777,45.75511147042838],[8.986682891772926,45.75560650500994],[8.986654359892723,45.755660235145704],[8.98651565402204,45.75592151187812],[8.986395374017507,45.75620861552085],[8.986296934950909,45.75644351831112],[8.986116817413643,45.75685752832568],[8.986026726196805,45.757190534413425],[8.986039525303944,45.75750556237316],[8.98593653313333,45.75791958052372],[8.985383722166931,45.757541479674046],[8.98458990992181,45.75710428649252],[8.984021362012312,45.7568032447185],[8.98386064220527,45.75677275466029],[8.983404191193738,45.756686159860145],[8.982952498244451,45.756505393810805],[8.982864209095487,45.756470059939765],[8.98276124452322,45.75681207487435],[8.98270017226111,45.757042649021926],[8.98266501531512,45.75726996519828],[8.982645353994831,45.757397095702906],[8.982580926025106,45.75778411270449],[8.982439291438373,45.758405128603215],[8.982040480139036,45.75899462048481],[8.981963453165424,45.75904725899693],[8.981715658869671,45.75921659346599],[8.98135132222405,45.75946556664808],[8.981116290949974,45.75962617568456],[8.980934379534748,45.75975048508629],[8.980660223621623,45.76010841851924],[8.980355989890736,45.760182429075456],[8.979740338941138,45.76004063397101],[8.979476616048192,45.75997989232056],[8.979417353855728,45.759966242862745],[8.97945948680394,45.7596252534944],[8.9794818544099,45.75944422233156],[8.979237460078544,45.75939772543957],[8.97915034988425,45.75938115724323],[8.979108981083941,45.75937215436196],[8.978067439315303,45.759308954099794],[8.97800906052531,45.75939619050891],[8.977778552678053,45.759731837848],[8.976576037876699,45.75971367630424],[8.975457345143015,45.75967744128453],[8.97534935677834,45.759771353200485],[8.974981393218503,45.76009136868142],[8.974553564365934,45.75977624884733],[8.974480457449149,45.75972224079527],[8.973688466947383,45.759874486628156],[8.973603582185355,45.75989079796348],[8.973451639279101,45.75992001691405],[8.972307014533563,45.760288762306416],[8.971860752146963,45.76061735789588],[8.971818209835803,45.76064868252858],[8.971565665386619,45.76052332088935],[8.97089299596875,45.76018940557246],[8.970875683586213,45.760278809851535],[8.970828511666427,45.760522424004215],[8.970768803799501,45.76063627149488],[8.97072138590441,45.760726686919355],[8.970591640452234,45.760974078970676],[8.970545334140914,45.76106237403259],[8.970223578687301,45.76158434151965],[8.970163582576484,45.76168687829095],[8.969876046624279,45.76217828362475],[8.968885834227693,45.762277024392326],[8.968076141954665,45.762159803361904],[8.967729177438889,45.76177268028299],[8.967620576055623,45.76175205950755],[8.967477191287461,45.76172483390453],[8.967111984686877,45.76165548951551],[8.966863657644767,45.76172352082662],[8.96668319772518,45.76177295881516],[8.966160232569617,45.76191622711888],[8.965735694632528,45.76222213140839],[8.96543107619407,45.7622042749286],[8.965093338250455,45.76187091064823],[8.964950674560322,45.76178819624833],[8.964615340791656,45.76209883918896],[8.96426436194903,45.76242397189664],[8.964244238461081,45.76249168612104],[8.964200161042266,45.76248344476046],[8.964009593111117,45.76265997542171]]]}}]}
