{"type":"FeatureCollection","metadata":{"code":"013233","referenceDate":"2026-01-01","sourceDbfExportDate":"2026-02-18","upstreamArchiveUrl":"https://www.istat.it/storage/cartografia/confini_amministrativi/non_generalizzati/2026/Limiti01012026.zip","sourceManifestSha256":"70ac8256c4785dc6ed2814c32b6965ae76f9161b51abaa1660059e1c6cbd8ca6","license":"https://creativecommons.org/licenses/by/4.0/","attribution":"Istat, Confini delle unità amministrative a fini statistici al 1° gennaio 2026, versione non generalizzata.","modifications":["Converted from WGS 84 / UTM zone 32N (EPSG:32632) to RFC 7946 WGS 84 geographic coordinates.","Converted from shapefile to per-municipality GeoJSON without geometry simplification."]},"features":[{"type":"Feature","id":"013233","properties":{"code":"013233","name":"Val Rezzo","alternativeName":null,"regionCode":"03","regionName":"Lombardia","territorialUnitCode":"013","territorialUnitName":"Como"},"geometry":{"type":"Polygon","coordinates":[[[9.095502998471268,46.0825386506388],[9.095275082772162,46.0825613467774],[9.09461625972877,46.08302089504333],[9.093920148539166,46.08367848919992],[9.093623001797612,46.08386773833381],[9.093338870398222,46.08411096383268],[9.092847941871403,46.08445337440855],[9.092240227015031,46.084561861772684],[9.091153795580137,46.084589736671106],[9.090196841135004,46.08469850914492],[9.089434265307723,46.08502311053606],[9.089343435807262,46.08484317195633],[9.088929064442679,46.08454649533211],[9.088412703901746,46.08415989130689],[9.08803709414324,46.08384517380088],[9.087907404073539,46.08361127529196],[9.087868541057391,46.08357528812282],[9.087570606527985,46.083296525466935],[9.08648270586848,46.08235232950409],[9.085537079506654,46.08140803555175],[9.084630317851554,46.08048169448703],[9.083969807661084,46.07987017309848],[9.083787804079483,46.07924928524653],[9.08372229201847,46.078682318493456],[9.08333340113211,46.078088602503975],[9.082815524659827,46.07770197476522],[9.081922499033322,46.07723460224319],[9.08080996285777,46.07701039133545],[9.079787806697455,46.076660102508455],[9.079373316841613,46.07620138956955],[9.078764703109567,46.075634794624186],[9.078427395786854,46.0748700118719],[9.078374957099603,46.07436603424032],[9.07836080978641,46.07352003602213],[9.07830822026079,46.07290806369125],[9.07839781167603,46.07225098188579],[9.078267845627938,46.07179206817889],[9.078013223532007,46.071180233690406],[9.077881023200652,46.070860817391285],[9.077633823829023,46.069776463711676],[9.077736151563236,46.06898437437844],[9.078012265435497,46.06848918587464],[9.07814648693663,46.06825507723354],[9.07833916200541,46.06735492968447],[9.078208586478064,46.06645500510572],[9.078065636126508,46.06594209274295],[9.07801201404157,46.06573513371855],[9.077948724234739,46.065546171836985],[9.077872431387084,46.06531672308739],[9.078736437578863,46.06514511488381],[9.080068368417008,46.06497768963634],[9.08111532536313,46.06476094292255],[9.082483985269494,46.06458896692116],[9.084048175248775,46.06440781626992],[9.086026149699904,46.06426235159962],[9.086853163340743,46.0639647244328],[9.088235664428371,46.06412566813211],[9.089283021679032,46.06418785741169],[9.090226259450958,46.06380910559316],[9.090845833268128,46.06318759166361],[9.091504699528947,46.06286306086639],[9.092499002397455,46.06213324240122],[9.093674915641632,46.06176328719686],[9.094293940639126,46.061555764402975],[9.094758248164279,46.060898376707165],[9.095481541782384,46.06048376512947],[9.09606318238832,46.06041128117237],[9.096877319863726,46.06020358018691],[9.097445164163204,46.05963609792244],[9.097702881042396,46.05914985356039],[9.097628863690533,46.05887092430634],[9.097520260466355,46.058452509792225],[9.0970408525563,46.05784990266985],[9.096704197852773,46.057314671991556],[9.097362439265195,46.056693107299004],[9.098149551398354,46.05586441415796],[9.098755338330974,46.05553988760772],[9.099789409159083,46.05546697392031],[9.100591936248842,46.05604228238341],[9.101460089951827,46.057139551610895],[9.10243292882487,46.058902718240766],[9.103637460713166,46.06008965383198],[9.104853971462704,46.06073655328377],[9.105734431266168,46.061428763119736],[9.107068072917288,46.06245354080016],[9.108399928175041,46.063163295860114],[9.10939647475048,46.063666361014256],[9.110690724694148,46.06433113210325],[9.112127756135578,46.065256749203485],[9.113512844427,46.06604738437782],[9.115104133992283,46.06648680474625],[9.117289879775683,46.066772588598056],[9.118892160359016,46.067040949356596],[9.119746019279793,46.067256047539836],[9.12100248871043,46.06828975707284],[9.122246062285429,46.06931445176658],[9.123061734676364,46.06978157431479],[9.123748770943378,46.07054584796584],[9.12350423231008,46.07106813498584],[9.123427467936295,46.07142822000783],[9.123273861870357,46.07213939508094],[9.123120798116572,46.073084586050435],[9.122851153481452,46.07394889186421],[9.121792227044324,46.07461602214768],[9.120786576603006,46.0752651146029],[9.119870142523416,46.076067093131364],[9.118928251438648,46.07707608592678],[9.117959765334748,46.0777520990165],[9.11705460406657,46.07779804147199],[9.115424846626421,46.07768269057139],[9.114041145342847,46.07772007768089],[9.114119176732713,46.07792701300837],[9.11472823182091,46.07852040351839],[9.113423275419425,46.07912471886329],[9.110736521688414,46.08016236508346],[9.108242469465191,46.0811997836314],[9.106628266267851,46.08185830223234],[9.104624018100905,46.082085157927935],[9.103278861894095,46.08205937792205],[9.101442463518076,46.08215102641147],[9.100318394390705,46.082107026409474],[9.098882889572772,46.08217127788049],[9.097758262623337,46.08251425701974],[9.096827204732971,46.08260503636579],[9.096475056622388,46.08255134544643],[9.096038052219583,46.08248871285538],[9.095502998471268,46.0825386506388]]]}}]}
