{"type":"FeatureCollection","metadata":{"code":"014029","referenceDate":"2026-01-01","sourceDbfExportDate":"2026-02-18","upstreamArchiveUrl":"https://www.istat.it/storage/cartografia/confini_amministrativi/non_generalizzati/2026/Limiti01012026.zip","sourceManifestSha256":"70ac8256c4785dc6ed2814c32b6965ae76f9161b51abaa1660059e1c6cbd8ca6","license":"https://creativecommons.org/licenses/by/4.0/","attribution":"Istat, Confini delle unità amministrative a fini statistici al 1° gennaio 2026, versione non generalizzata.","modifications":["Converted from WGS 84 / UTM zone 32N (EPSG:32632) to RFC 7946 WGS 84 geographic coordinates.","Converted from shapefile to per-municipality GeoJSON without geometry simplification."]},"features":[{"type":"Feature","id":"014029","properties":{"code":"014029","name":"Forcola","alternativeName":null,"regionCode":"03","regionName":"Lombardia","territorialUnitCode":"014","territorialUnitName":"Sondrio"},"geometry":{"type":"Polygon","coordinates":[[[9.683839513339906,46.165138484737724],[9.684105342322763,46.16568589446067],[9.684249584092717,46.16615303941979],[9.684294262655444,46.1662967637806],[9.684262432876523,46.16686396190615],[9.684096187174958,46.1670359517277],[9.683697550047317,46.1672723502051],[9.683533504999588,46.16762433262566],[9.682976988518254,46.167663657607626],[9.6823946924281,46.16771212848014],[9.681911229440168,46.167673984756945],[9.681759390278978,46.16766196898132],[9.681477196089123,46.167429638131],[9.681222875179193,46.167224161487916],[9.68097478588499,46.16706363957592],[9.680791731982255,46.166963651530615],[9.68019214787403,46.16663617264112],[9.679408683069509,46.166127830278505],[9.67875553435827,46.165681709545595],[9.67741648264497,46.16528464424736],[9.676352976999164,46.16517395289384],[9.675956890981679,46.16517629575062],[9.6756407104174,46.165178228880634],[9.675363510273643,46.16517989034215],[9.67491548642219,46.16518258773266],[9.673001636495192,46.165445875322746],[9.671540907840994,46.1656884624043],[9.670192216663315,46.16556138043384],[9.668375864829889,46.16532001200966],[9.666971057118271,46.16483320503279],[9.666826414801589,46.164722942552245],[9.666715708479412,46.16462724843919],[9.666590697372106,46.16454325227412],[9.66647571209078,46.16445559657441],[9.666244508503496,46.16427934339946],[9.666134514538104,46.16446776088684],[9.666079890168088,46.164561420210674],[9.66602406652251,46.16465714841897],[9.665968295687348,46.1647497550533],[9.66585437301514,46.16476139793031],[9.665668204111094,46.164764830323186],[9.664680831346823,46.16479676611699],[9.664579874750121,46.164802852164236],[9.664160670519754,46.16481419325274],[9.663454140812728,46.16488517136655],[9.661987301682137,46.164961192354525],[9.661048162909664,46.16502511161188],[9.660727327954122,46.16500448063654],[9.660490702125456,46.16491584343032],[9.660359180530603,46.164885103808906],[9.660386028307201,46.16480781149223],[9.660403693062907,46.16474984955078],[9.660419497957848,46.16472091559734],[9.660449642632894,46.1646679117063],[9.660494639330734,46.16458775596907],[9.66051525491774,46.164551033412366],[9.660548842972768,46.16450360406388],[9.660591891769869,46.164442752173024],[9.660660593738445,46.16429836330594],[9.660681482317967,46.16408223728193],[9.660709813866037,46.163947077304556],[9.660729260035664,46.16381194977517],[9.660740426568047,46.16366339603411],[9.660690622646863,46.1632901757615],[9.66068729562146,46.16307868701082],[9.660638734773842,46.16267397710677],[9.66064100179843,46.162592955809096],[9.662721542140241,46.161021385954214],[9.662790213299733,46.16096951256214],[9.66262098616454,46.1609557415523],[9.662274075202179,46.160927510666845],[9.661111545525463,46.16095962212597],[9.660955007655561,46.16096041934571],[9.660857852479436,46.16095881113574],[9.660796159488223,46.16095194338932],[9.660355972177321,46.16082737042578],[9.659712659917258,46.16064530818171],[9.659138877617462,46.160522615667404],[9.658762280437465,46.16043929899674],[9.658320011853872,46.160347344792704],[9.657410912243597,46.160141068625656],[9.656797111901515,46.159987094988864],[9.656469354262358,46.15992597691699],[9.656199548096321,46.15983752220625],[9.65592995805841,46.15976707304718],[9.655635777880654,46.159669762147594],[9.655144634057432,46.159551073820495],[9.654873694878772,46.15950313648798],[9.654682456304034,46.15941872451752],[9.654678846297731,46.15938724568932],[9.654658822700055,46.15924526744447],[9.654636377210826,46.15908603184026],[9.65457966585795,46.158685661534186],[9.654571998489725,46.15865420503233],[9.654146828568834,46.15849913683294],[9.654310479386051,46.15816970315139],[9.654826698404626,46.158288251445086],[9.654965458716832,46.15816176803895],[9.655094955714237,46.15804370495739],[9.655139967623168,46.15783487016788],[9.655179415133443,46.15765177428302],[9.654757697290682,46.15751469598216],[9.653563346451929,46.15707151052516],[9.652262603937181,46.15645794441846],[9.651265006978328,46.156013630922104],[9.650283974298048,46.15553321577857],[9.64963383296775,46.1553119121024],[9.649197084731842,46.15513438551423],[9.648680560773963,46.15505632662643],[9.647914954341354,46.154925654254846],[9.647011992081438,46.15488577620888],[9.646374816582254,46.15487139059454],[9.646760445103176,46.15454529588835],[9.647348325088721,46.15387597889162],[9.647096684861198,46.15340036651872],[9.647339807664071,46.153155965009965],[9.647767120094326,46.15314459370556],[9.648103540952288,46.15312464694263],[9.649214428764173,46.15288434798692],[9.650179263387995,46.15233885757048],[9.651914650802917,46.15124896209304],[9.65325345005535,46.15057531038528],[9.653982147211115,46.149779152106966],[9.653980298379437,46.14852815524579],[9.654055374023335,46.14721371705077],[9.654320138446735,46.146609194578964],[9.654974383035793,46.146092443577025],[9.65486227104082,46.145373070481334],[9.654376478352173,46.144808842942886],[9.654511218863028,46.14416007054473],[9.654917525467175,46.14348274010284],[9.655585135079168,46.141912898440914],[9.656562462673962,46.140260283382574],[9.657169311451103,46.139032770843116],[9.65787171065976,46.1382187297757],[9.659766676303295,46.13753280307975],[9.661573589368281,46.13706336083974],[9.663396190574803,46.136827795669134],[9.664619740939207,46.1362986702729],[9.664777551774455,46.136234752431044],[9.665484145278665,46.13594715678433],[9.665942754549299,46.13584289215272],[9.6666867999321,46.13567967526971],[9.666993813920628,46.135643827635064],[9.667167468447133,46.135682999889845],[9.66751241431911,46.135375629735094],[9.667501170815763,46.135315753469236],[9.667476464239199,46.13529688041757],[9.66740421800468,46.13508520463873],[9.667300276889945,46.13492682375115],[9.667276592163098,46.1348906004922],[9.667185566462011,46.134751387329935],[9.667311344344474,46.13464590031749],[9.6675540093394,46.13486182183519],[9.667635423309047,46.13493426289625],[9.6677063846342,46.13484601499959],[9.66799810796683,46.13445502146536],[9.668051146149539,46.13439731571201],[9.668164735841474,46.13445583591304],[9.66845121043841,46.134079147021495],[9.668579334317242,46.13391067258925],[9.66871347974275,46.13373427954415],[9.668795238174495,46.13375081150751],[9.669070777496165,46.133391766800884],[9.66913300935136,46.1334165129583],[9.669151786261823,46.133373157285455],[9.6690387997683,46.13330822551255],[9.669272632978426,46.133056733268084],[9.669318069351498,46.133018041052686],[9.669374022120115,46.13304384266514],[9.66969134796883,46.133041015553616],[9.669675138367817,46.13277696399348],[9.669798096898397,46.13257635905066],[9.669799605300355,46.13244877296819],[9.66981329454786,46.13231684943067],[9.669669051557602,46.132242741257976],[9.66961808523812,46.13220854222795],[9.66955432230095,46.13209047365108],[9.669553377188524,46.132012483809355],[9.669572063734702,46.131951589075776],[9.669609322996102,46.13186421147341],[9.669672443143511,46.131766060363596],[9.669941414527676,46.13147227966602],[9.670172289128578,46.13138019567328],[9.670881673865452,46.1309065166907],[9.67117633863791,46.13084092262522],[9.671526189834589,46.13040826052453],[9.67207029773974,46.12937903425716],[9.672666461991424,46.12883177719675],[9.673017590108222,46.12850945117647],[9.674394770933278,46.12786232603684],[9.675103012943753,46.12762818470312],[9.67550349585015,46.127495778883805],[9.676189490332941,46.127491722832275],[9.676735523522831,46.12720695896269],[9.677411360201502,46.12685449353376],[9.67814723919789,46.12669712453062],[9.67933791256867,46.125628046080436],[9.679661034199453,46.12514559715828],[9.68010050439198,46.12448948708254],[9.681034787444787,46.123628908903086],[9.681890603236727,46.12270580785511],[9.681736253812566,46.12173470601638],[9.681651601883244,46.1211682159588],[9.682090089212707,46.12092437835095],[9.682191495987512,46.12086797927785],[9.683075865207147,46.12121370194241],[9.684221210463765,46.12172887089626],[9.685079934505227,46.1220927210736],[9.68533653177548,46.1219675888582],[9.685378914878989,46.12194681253133],[9.68599324802462,46.12164616555868],[9.687353451954419,46.12070198658628],[9.688478087680458,46.11955219814754],[9.68990210734961,46.11854460369373],[9.691226153371437,46.117825599067885],[9.691966470319764,46.117002101256304],[9.692584820796972,46.1167733543113],[9.692767769890379,46.116785749515465],[9.693128848147891,46.11681502966468],[9.694454734881793,46.11624896317601],[9.696398206907103,46.115400130633745],[9.698793051016212,46.11443149845091],[9.700954121888774,46.11340126640113],[9.701977789109288,46.11312496949714],[9.70242263657662,46.112870230386285],[9.702961965954207,46.112542913269046],[9.703578046033137,46.11214312413843],[9.704481075108918,46.11192155381122],[9.70563781440493,46.11130241173153],[9.70683392608809,46.11072800817155],[9.708378803097503,46.11010643822029],[9.710425723346187,46.10928372728234],[9.711488758995737,46.108431092949544],[9.711943540991403,46.10757326111922],[9.71272686962133,46.107109360109014],[9.714081928712547,46.10683090642858],[9.71489155545547,46.10640284322118],[9.71603516003712,46.10578365936421],[9.717387923125681,46.10533418500998],[9.719165175499725,46.10469299954476],[9.72052908443094,46.10410840118214],[9.722326735065538,46.10404306453354],[9.722678739679553,46.10424785142414],[9.723496766506656,46.10446767976467],[9.723774348771746,46.10491592816643],[9.723832576233114,46.105410558105696],[9.723881996376592,46.10622026977071],[9.72411573922502,46.10727180747876],[9.724333466610377,46.108089429111466],[9.724620274173528,46.1092396286526],[9.724687478396975,46.110418222169926],[9.724622246255391,46.11136365900497],[9.723271506089377,46.11296522234407],[9.723012127004328,46.11391188527547],[9.72329187429004,46.114522122067235],[9.723739834102473,46.1151312922459],[9.723249991401941,46.115278392214975],[9.721818972960737,46.11570142153713],[9.720430217705433,46.11638519086127],[9.720046818536696,46.11675660177985],[9.718824939707119,46.117340300755636],[9.717520942163889,46.117582491498],[9.716166832676823,46.117951001917994],[9.714737261126954,46.11849094643932],[9.713653919692865,46.11878571951168],[9.713102445762464,46.11917616467304],[9.712843328596264,46.12015879980605],[9.712390546162966,46.121178639370946],[9.711807164019445,46.122109285843855],[9.71103956080485,46.122807060816754],[9.709832841729567,46.12357957232036],[9.708693098081635,46.12453166370478],[9.707951407429292,46.12523826972186],[9.706874255422079,46.126027936605524],[9.70577060146504,46.126772765006066],[9.704718800659185,46.127526274831645],[9.703471195453345,46.12815495973976],[9.70271087164877,46.128420635960566],[9.70197764727996,46.12852863866924],[9.7014137386165,46.129229611480504],[9.700229603000809,46.13078490077553],[9.699921623173575,46.13201979035077],[9.699042136181093,46.133601521501205],[9.698249587098537,46.1349191106128],[9.698202614854809,46.13501559571059],[9.697593532603836,46.13627318102674],[9.69683315878812,46.13757382212603],[9.696769240749461,46.13866322199224],[9.696517914645343,46.14029377083272],[9.696189341350907,46.14196078703663],[9.696323913467925,46.14339098489347],[9.695987831463142,46.144464032443324],[9.695133617622622,46.145522240481036],[9.694670988928097,46.146830068522846],[9.694607896699743,46.14799145517955],[9.694762098066713,46.148926539313976],[9.694658032052592,46.149917162182646],[9.69395942430652,46.15100141776049],[9.693875524610098,46.1511626496185],[9.693301917399792,46.152265420362845],[9.69269277154442,46.1532591211228],[9.692297311312174,46.153676916827536],[9.691913143396894,46.15408284631392],[9.690783719326141,46.15489967672146],[9.690025891508382,46.1553992678826],[9.689012049077942,46.15614338632862],[9.688512648558854,46.15653339618456],[9.688375212861242,46.15700223383986],[9.688369987045128,46.157231763901336],[9.688366985013568,46.157380289375155],[9.688347566897457,46.1574367731646],[9.688133422779856,46.15806249083142],[9.688116941795586,46.1581106794835],[9.687967801190347,46.158615584753015],[9.688100564655517,46.158875784590144],[9.688206846858046,46.15915415203211],[9.688261267798843,46.15929783796434],[9.688295757312586,46.1595203427098],[9.688313836633666,46.159637180473034],[9.688374023574344,46.160026198207134],[9.6883721449092,46.16007122000388],[9.688350656877004,46.1605283375061],[9.68834335965762,46.16068339404252],[9.68836879732835,46.16080592323738],[9.688386091963837,46.1608751658787],[9.688420419114944,46.16105462035371],[9.688464841554804,46.16126855735258],[9.688729441347935,46.1616491955898],[9.6887800531164,46.16172200126669],[9.688880307287503,46.16190977402564],[9.688930080878382,46.161999756901096],[9.688946883692092,46.162030133617236],[9.68898775781165,46.162104027498664],[9.688993701111338,46.16228877300398],[9.689009091806604,46.16243480157401],[9.689014106792888,46.162475558958015],[9.689034847904267,46.16262000005041],[9.689038591866924,46.162999982929364],[9.689142459315292,46.163311828979],[9.689493486235797,46.163758346166034],[9.689577693941027,46.16391500265271],[9.689632568236949,46.164082790078375],[9.689678396685753,46.164160827149544],[9.689722901554902,46.164765998720206],[9.689736028627276,46.16494450418273],[9.689701435074655,46.16499665793918],[9.689647211450513,46.1650539251763],[9.689311181941168,46.1649638133537],[9.689142955824458,46.164933798878195],[9.689006180580165,46.164874472937335],[9.688708110882372,46.164773155799196],[9.68850918440116,46.164688426483934],[9.688260688862457,46.16459540287982],[9.688045826163126,46.164561046918585],[9.687935206890216,46.16479728695296],[9.687665063796612,46.164632773060035],[9.687367154026106,46.164451330684],[9.686900782223734,46.16403212702354],[9.686830065060263,46.16396856025929],[9.686805526234151,46.16394412929473],[9.68676471724319,46.163903034268884],[9.686695283547127,46.16383339093447],[9.686624130454,46.163762022663555],[9.686161066929975,46.16329752190791],[9.685611168957287,46.16282381636755],[9.68499910231739,46.16255749319657],[9.683951922713318,46.16271675014932],[9.682998518314522,46.16312745836787],[9.682720489632635,46.163687132410246],[9.682904199677942,46.16389413471256],[9.682965227023665,46.163965523492784],[9.683036758510612,46.164049197626355],[9.68305981565038,46.16407565337724],[9.683135537307406,46.16416254064885],[9.68329865847952,46.16434971119789],[9.683839513339906,46.165138484737724]]]}}]}
