{"type":"FeatureCollection","metadata":{"code":"015081","referenceDate":"2026-01-01","sourceDbfExportDate":"2026-02-18","upstreamArchiveUrl":"https://www.istat.it/storage/cartografia/confini_amministrativi/non_generalizzati/2026/Limiti01012026.zip","sourceManifestSha256":"70ac8256c4785dc6ed2814c32b6965ae76f9161b51abaa1660059e1c6cbd8ca6","license":"https://creativecommons.org/licenses/by/4.0/","attribution":"Istat, Confini delle unità amministrative a fini statistici al 1° gennaio 2026, versione non generalizzata.","modifications":["Converted from WGS 84 / UTM zone 32N (EPSG:32632) to RFC 7946 WGS 84 geographic coordinates.","Converted from shapefile to per-municipality GeoJSON without geometry simplification."]},"features":[{"type":"Feature","id":"015081","properties":{"code":"015081","name":"Cologno Monzese","alternativeName":null,"regionCode":"03","regionName":"Lombardia","territorialUnitCode":"215","territorialUnitName":"Milano"},"geometry":{"type":"Polygon","coordinates":[[[9.27130029150501,45.54998939244974],[9.271298140101635,45.550080373955424],[9.271273313831786,45.55066818488123],[9.268714714216815,45.55127821206625],[9.268702124157308,45.55124802603539],[9.268570013788413,45.55108181626456],[9.26837090576545,45.55087185659803],[9.268295777499414,45.55079931173281],[9.268090780346016,45.55061725697544],[9.26799719990117,45.550519713371756],[9.267930501864011,45.550443566063066],[9.267829794050796,45.550363322866986],[9.267749382547724,45.55029994589883],[9.26762796585738,45.550215601571985],[9.267486505552814,45.55011618317248],[9.267382602862707,45.55004545217605],[9.267342101827218,45.55001731784886],[9.26730031808734,45.5499793780554],[9.267230794690015,45.54995144661089],[9.267200012311983,45.549933870241524],[9.26706479927114,45.54986565147295],[9.26700164219833,45.54983371933593],[9.266889575631058,45.54979697696414],[9.26679204622318,45.549765188018426],[9.266576598583669,45.54969446381162],[9.266523276248602,45.54967484891008],[9.266343109538122,45.5496497232152],[9.266307163769769,45.549653092405435],[9.266071573994282,45.54968571035034],[9.26579379171496,45.54978480879554],[9.26563714197189,45.54993234767868],[9.265581232512593,45.54996998508531],[9.265538610889456,45.550010948071986],[9.265454560750298,45.55010116209888],[9.265353963922232,45.55014408693697],[9.265287792118318,45.550200731267594],[9.265187712194793,45.55031767855734],[9.265170930634234,45.55043749458756],[9.265192318751211,45.55051511236233],[9.26521294053598,45.550589946084],[9.265177423307192,45.55073035501905],[9.265074921286818,45.5508555617907],[9.264918811303938,45.55092568121945],[9.264697053531364,45.55094097411355],[9.264495179937215,45.55088960731876],[9.264390223443561,45.55080265254523],[9.26429659533594,45.550655098850676],[9.264248635428292,45.550544397786076],[9.264193776367081,45.550506045153305],[9.264142686994585,45.550473831499666],[9.264032102797565,45.550403607967986],[9.263932947644763,45.5503610217734],[9.263826902139611,45.55031582579754],[9.263745114621022,45.55027747212915],[9.26364854879445,45.550251276035475],[9.263535304171276,45.550206415040584],[9.263462605138486,45.550160919465014],[9.263385286511413,45.55011377019849],[9.263270174336716,45.55009411530823],[9.263189720401103,45.550088540020894],[9.263051157973798,45.55012524685448],[9.262980630514113,45.550152189186356],[9.262893430492335,45.55017250636203],[9.262718240469354,45.55019513211353],[9.262549782162067,45.550175302136644],[9.262414463337231,45.55011354987078],[9.26234695613779,45.55006304697083],[9.262270495334107,45.550010323323946],[9.262236590271993,45.54994076897494],[9.262205678317553,45.54987735546776],[9.262142292808232,45.54980671661726],[9.262078600044504,45.54973912079347],[9.261931747434206,45.54958544859615],[9.261815641174373,45.54946998814631],[9.261691039344992,45.549282781592744],[9.261603968936184,45.549107712392875],[9.261497839404104,45.548800639401605],[9.261445564077285,45.548625795546215],[9.261385574789246,45.548459035163],[9.261362241497466,45.54839769591633],[9.261365854040703,45.54833990984186],[9.261375687644064,45.548278023050976],[9.26140824710097,45.54824096408873],[9.261475521677882,45.54820796344905],[9.26170204522867,45.548096843286295],[9.261769419089594,45.54806433100286],[9.262030522531186,45.54794772850316],[9.262214636234962,45.54783475856111],[9.262284815332432,45.5477855155603],[9.262449332472007,45.54766251714093],[9.262518218856561,45.547594896796575],[9.26255514645843,45.54753877131597],[9.262593265828306,45.54743349818366],[9.262577078754845,45.54728662095215],[9.26261462060319,45.54720565110456],[9.262732838668336,45.54722263520703],[9.262783548402389,45.54723164024267],[9.262968672664437,45.5472645154648],[9.262989526530939,45.54714633841111],[9.263043933449673,45.54686450777568],[9.263071018300865,45.54672278757102],[9.262890168494211,45.54674663277705],[9.262867914946243,45.54659860479218],[9.262840687230296,45.54642664811479],[9.262791774130113,45.54609211458588],[9.26276399778668,45.5459749693198],[9.26262146765516,45.545989123617765],[9.262481502135248,45.54600302251554],[9.262312872224935,45.54604439170765],[9.262101609104684,45.54608449841646],[9.261967931306621,45.54610078824233],[9.261854274859589,45.54611385644375],[9.261613478400355,45.546140946896706],[9.26149721658035,45.546153268220465],[9.261391939768123,45.546181138831784],[9.261356501597104,45.546190520716124],[9.261316578489149,45.54620016217854],[9.261148285638336,45.54626013497854],[9.261020581229058,45.54629345625453],[9.260855116442409,45.54633379893999],[9.260724448797536,45.54636354152725],[9.260604601445253,45.54638488649118],[9.260488917529125,45.54640239188277],[9.26039166454066,45.54641704231366],[9.260158254535172,45.54644930107328],[9.259915095802523,45.546481590538384],[9.25983581008854,45.54649872081168],[9.25978838956596,45.54649576650229],[9.259575539567873,45.54651276191378],[9.259521639781559,45.54651262694788],[9.259426828052348,45.54648691024126],[9.259396280041456,45.546471721908944],[9.259367790188803,45.54644696166471],[9.259269817795044,45.54632498562531],[9.259242029610094,45.54628563303178],[9.259215229889714,45.546235296889996],[9.259184963765863,45.546173807286856],[9.25915655267873,45.546117069629005],[9.259167146697651,45.5460228467554],[9.259192711299114,45.54593295812921],[9.259213449472274,45.545857672073836],[9.259247521941147,45.54578468612876],[9.259288829151837,45.545733647249854],[9.259335480055174,45.545671614024975],[9.259370275970507,45.5456192298365],[9.259390021201074,45.545595513101766],[9.259450181966228,45.54551328676482],[9.259535158193458,45.54543135595958],[9.25960539239748,45.54537502161928],[9.259720317459077,45.54528186128793],[9.259872770326036,45.54516537562114],[9.25993100250426,45.545117717505164],[9.260012193892333,45.54505145680619],[9.260052373430208,45.545021434100086],[9.260093686471073,45.5449922161945],[9.260157799549512,45.54494488751197],[9.260226944003643,45.54489056520449],[9.260261009085223,45.5448238833083],[9.26027550100467,45.544768388419335],[9.260250219050857,45.54471138825958],[9.260203774718203,45.54464454412742],[9.260018073589242,45.54451127322515],[9.259980904802951,45.544486292551454],[9.259921560669113,45.54444150057001],[9.259868895156508,45.54438798303189],[9.259811405404967,45.544271856016955],[9.259797095627139,45.54420510964384],[9.259746220945146,45.54401884293073],[9.259684841232502,45.543872046350124],[9.259604485785541,45.54379179364877],[9.259558995145857,45.543754823421565],[9.25947453535998,45.543705373507095],[9.259433937899162,45.5436143208979],[9.25940112132864,45.54353417880145],[9.259353081287399,45.54340847994612],[9.259341508956263,45.54326301294462],[9.259331956466912,45.54312779447057],[9.259358259267357,45.54300378103237],[9.259410747675112,45.542869330791156],[9.259483335205823,45.54277974120525],[9.259560541788327,45.54269159024879],[9.259708551528611,45.54262672157718],[9.259820009354474,45.54260772429728],[9.25996307811958,45.54260208007122],[9.260017175213012,45.542602479011016],[9.260188212966375,45.54258984091322],[9.260225657830798,45.54266242125625],[9.260252441035318,45.54270907579257],[9.260285924867237,45.542769883638485],[9.260394166360252,45.54295816345434],[9.260566475927556,45.543261106574725],[9.260704642739336,45.5435015519175],[9.26128936255217,45.54336519544249],[9.261336900410544,45.543255237655025],[9.261473011897682,45.54294604819973],[9.26154303231533,45.54278501899267],[9.261566262512751,45.54273315834725],[9.26160500442252,45.542646408232095],[9.261666713848662,45.54250729127599],[9.261891870557976,45.54257137688343],[9.261958798536682,45.5425907557466],[9.262163177794926,45.542582078808884],[9.262235315887997,45.542577856448915],[9.262288346057549,45.542570839880725],[9.262426490886247,45.54253718174388],[9.26246936781469,45.54252593180998],[9.262528358971965,45.542498186371276],[9.262634465961536,45.542448279965924],[9.262679748617305,45.54242662998601],[9.26273408008283,45.54240065216434],[9.262786587578907,45.54236947769418],[9.262851623274733,45.54233406637267],[9.262948263971074,45.54229028508175],[9.263008394911123,45.54224171189375],[9.263040425835392,45.54216919842664],[9.263146179972274,45.54204882747335],[9.263181948384501,45.54200871821061],[9.263200239351608,45.54198387811851],[9.263236614443912,45.541909373448064],[9.263305515378118,45.54176973585626],[9.263360771259189,45.54165113637887],[9.26337937570458,45.54160596301345],[9.26342230894823,45.54148627668076],[9.263419765223425,45.54139661837044],[9.263358108434387,45.541308506823285],[9.263223777401262,45.54120563894744],[9.263094149956244,45.5411636586333],[9.263027383900585,45.54115894730488],[9.262964767719943,45.54117478663357],[9.26292925629494,45.541186684082504],[9.262831703500037,45.541259733550206],[9.262797169049474,45.54128559387322],[9.262722362474678,45.541351256842354],[9.262676041856738,45.54140288459945],[9.262587936623953,45.54145700358011],[9.26252118543121,45.54148665261292],[9.262287283306952,45.54143625104113],[9.262160457697517,45.54141418350791],[9.262074996240417,45.54136226249996],[9.262048677911787,45.541338659058596],[9.262018428625165,45.541257448765926],[9.261983657747823,45.54114615824981],[9.261973017973721,45.54110852216445],[9.261948230036952,45.541003726416754],[9.26194450806116,45.54096628148912],[9.261963175160156,45.54090130494559],[9.26198071979256,45.5408701750057],[9.262058062607721,45.54081550600932],[9.262118795985863,45.54080247893148],[9.262167161631732,45.5407962013071],[9.26226062207532,45.540773304072744],[9.26234879672869,45.54074253576172],[9.262423516879513,45.5406831550775],[9.262511963766801,45.54068175921601],[9.262650293953268,45.54068673117593],[9.262724852275632,45.540673819605445],[9.262895370209016,45.54062660912408],[9.262972895200424,45.54051786063912],[9.263130020418714,45.54047469511494],[9.263116159478633,45.54037436597432],[9.263629771755824,45.54002405716071],[9.263967446850478,45.540083653873154],[9.264000540592193,45.5400515560758],[9.264068153939132,45.539945846002276],[9.26408348526109,45.53992187670442],[9.264106144218132,45.539883902793946],[9.264025344651456,45.53985091971426],[9.263803030392014,45.5397601435324],[9.263750547000623,45.539642967219784],[9.263729561637033,45.53959730011254],[9.2636765771681,45.53947781074311],[9.263736057725687,45.53940897812945],[9.263850937405628,45.53945694870385],[9.263903849576279,45.539479042930495],[9.26400723608373,45.539516015381864],[9.264085782909596,45.53953028954969],[9.264193188604901,45.539511931935365],[9.26423370888826,45.539466823839675],[9.264280205562507,45.53940420471335],[9.264272995866232,45.53930392241361],[9.264242391188956,45.53921838488581],[9.264077990311478,45.539043562724295],[9.264028640359346,45.539016777083695],[9.263793142555,45.5389385059309],[9.263618710239449,45.53894305720105],[9.26357025925541,45.53894138678919],[9.263443973836669,45.53893515951836],[9.263379813902631,45.538931995069596],[9.263098450857576,45.538927502027775],[9.263017289904711,45.5389273000797],[9.262873287438612,45.538931712636085],[9.262840513315655,45.53898319859477],[9.262724055036248,45.53918856320029],[9.262551102450278,45.53937418496534],[9.262527183940906,45.539399855195704],[9.26248818531961,45.53944441912549],[9.262438808831236,45.53949967225763],[9.262381261152028,45.53955786048468],[9.26231998156109,45.539601040759194],[9.262152109720786,45.53954924959898],[9.26175198541357,45.53943349250427],[9.261495218044136,45.53928151144561],[9.261434569250198,45.53924641195345],[9.261243129784482,45.539135621834255],[9.261248174270298,45.53908372449879],[9.261256074686662,45.539002430319165],[9.261284043817822,45.53889825270747],[9.261391886586487,45.538824183666485],[9.261451392564238,45.53878967777965],[9.26151119883119,45.538754481691726],[9.26157622411209,45.5387150620182],[9.261560945578688,45.53860526587191],[9.261555187380385,45.53855978761708],[9.261553916008817,45.5385112747268],[9.26156755052305,45.538419820474715],[9.26157646505541,45.53838968246017],[9.26158663550689,45.53832351025914],[9.261616685653873,45.538260614827145],[9.261667910338371,45.53820071504934],[9.261719600031006,45.538143613517484],[9.261747592673366,45.53811268918786],[9.26178639145711,45.538085579946916],[9.261841421890573,45.5380586774174],[9.261906490705629,45.53802940886595],[9.262172385196592,45.537994110580044],[9.26230929663263,45.53799728959583],[9.262404618385668,45.53800023995177],[9.262504413057666,45.53800489375471],[9.262513668583109,45.53805696621924],[9.262524716487661,45.538092901032975],[9.262640767560342,45.53812779067821],[9.262788896045052,45.53817230507747],[9.26295335003579,45.53822005629756],[9.263065169176004,45.53825317573945],[9.263172849634664,45.53828565562889],[9.263364007141371,45.53834106855756],[9.263408233867889,45.538357105515],[9.263637581424659,45.53841279086031],[9.263797258835247,45.53846154020548],[9.263977909560898,45.538461124688766],[9.264221917923882,45.53845949933042],[9.26452498437328,45.53846245597228],[9.264636807094842,45.538463547136075],[9.264789454786527,45.538462321200804],[9.264987112015753,45.538462066290364],[9.265054820765405,45.538461968613305],[9.265316831569455,45.53846147918487],[9.265411553252438,45.53846191622476],[9.26555189789952,45.53845404805741],[9.26574012345924,45.5384335037399],[9.265732711952433,45.538373020244855],[9.265719172909662,45.53827255921823],[9.26569391846703,45.53799839204865],[9.265688045384255,45.53794389968536],[9.265681095253871,45.53786495479906],[9.265663519353879,45.53766387559803],[9.265648107846523,45.53750869775194],[9.265630020434616,45.53732923221179],[9.265564330915804,45.53662498931813],[9.265554659165572,45.53651387907453],[9.265062746910893,45.53650386111217],[9.26506198629283,45.53647363815197],[9.26512048237438,45.53638167519033],[9.265102439439612,45.53629628151497],[9.265092188985633,45.53624579754308],[9.265079798171428,45.536187643315664],[9.265058691937817,45.53608730324433],[9.265046392339796,45.5360240136837],[9.264967990885703,45.5359715257441],[9.264884002612455,45.53595337272496],[9.264821757249543,45.53594563929717],[9.264612067076104,45.53590852230698],[9.264529274985733,45.535923363316954],[9.264467434626875,45.535953923854954],[9.264434874659617,45.535973090523285],[9.264392558687645,45.53599822137609],[9.26428531302549,45.5359421209825],[9.264226781184169,45.535885252541895],[9.26419475662337,45.53585137453597],[9.264099222913085,45.535771743256724],[9.263991176669936,45.53568015767457],[9.26387675010821,45.535603668938705],[9.263847616274242,45.535585599055565],[9.263775171561006,45.53554120200827],[9.263651105878527,45.53544649911128],[9.263601455836534,45.53541507390472],[9.263534574002133,45.535382482286394],[9.26349996980883,45.535369536647934],[9.26341335660751,45.53533861156555],[9.263354626447708,45.535317682647424],[9.263227928860692,45.53523509270962],[9.263184643751275,45.53520896329195],[9.263130062525013,45.53516915033092],[9.263079230755258,45.5351121555448],[9.263054090956796,45.53506224033324],[9.263007824339715,45.534969049752156],[9.262969700580435,45.5348524204903],[9.26296388638828,45.53481954392046],[9.262976589836105,45.53464661378614],[9.262983702586556,45.53460939593766],[9.263054323929978,45.53451197753608],[9.263178410845331,45.534388657722474],[9.263244295832383,45.53432345598648],[9.263346660839211,45.53423341984022],[9.263422666729683,45.534236701910906],[9.26350841298609,45.534247721296445],[9.263592369072306,45.53425523702638],[9.263678705299213,45.53426203521498],[9.263768704657823,45.53427160981513],[9.263839443828985,45.53428494897814],[9.263885704270358,45.53429367218524],[9.264127726212589,45.53434459993677],[9.264257141111825,45.53438157501673],[9.264419411686957,45.53442710594065],[9.264614031467778,45.53448049165714],[9.2646605151245,45.534494966625104],[9.26469784369308,45.534471433213895],[9.264722033255016,45.53445150366918],[9.264780616325641,45.53440323820444],[9.264804420572917,45.53435852865376],[9.2649484674008,45.53408924498222],[9.265039049828427,45.533915953017285],[9.265076315992511,45.53384653750061],[9.265013805481315,45.533737142948674],[9.264997741753234,45.53370835244292],[9.264858229376847,45.53357889566851],[9.264812327514703,45.5335381461653],[9.264764382537479,45.533495943203185],[9.264662645043046,45.53337987504947],[9.264618385970449,45.53334061764104],[9.264582481310807,45.53330877216073],[9.264520047163826,45.53325330805076],[9.264488890620902,45.53322563795012],[9.26441698220679,45.533202221578556],[9.264356785509401,45.533182513509274],[9.264287031489612,45.53315966723933],[9.264184272293909,45.53312593484074],[9.264092083871445,45.53309566943253],[9.264003716294598,45.53306630152871],[9.2639618728528,45.533052395237625],[9.263908622986072,45.53303485364228],[9.263841868747807,45.53301912272819],[9.263831426374558,45.53309266050765],[9.263771295273244,45.53323732348834],[9.26357997000096,45.53320269238444],[9.263482117393266,45.53318592047843],[9.263382450446743,45.53316868281521],[9.263161316380899,45.533128736186],[9.262917987570058,45.53308628120558],[9.262836351873178,45.53307226445679],[9.262790910109349,45.53305758022133],[9.262788709387884,45.533028610791455],[9.262789696311737,45.53299302723188],[9.262793384091049,45.532959880353275],[9.262802273539137,45.532921104830436],[9.26285009186132,45.53286340856732],[9.263004123904917,45.53281841765308],[9.263157464751231,45.53277548487111],[9.263289346133174,45.53273510724799],[9.263376190628948,45.53271027198058],[9.263512674439161,45.53267123545071],[9.263569704678854,45.532654542781465],[9.263667225521765,45.532624900381535],[9.263732624306824,45.53260502173264],[9.263672898849249,45.53255167605563],[9.263599637669538,45.53249119491769],[9.263595105055588,45.53246401309642],[9.263582412731845,45.5323657505245],[9.263560971613057,45.532261378395546],[9.263594837113471,45.532150047728216],[9.263736650412074,45.53200786507903],[9.263916211879167,45.531957234209955],[9.26417774845992,45.531976793907035],[9.264214496969258,45.531987234786286],[9.264280200860684,45.532005901369494],[9.264407292044698,45.53204252162658],[9.26464504277365,45.53210767990438],[9.26472817497081,45.53212995219188],[9.26483757283397,45.53215926088406],[9.26493383959898,45.53218280142646],[9.265009559441573,45.53219991777541],[9.265163588098263,45.532161225612256],[9.265204963601697,45.532141318170325],[9.265332611522577,45.53200798748998],[9.265386513905932,45.531885268374644],[9.265371039973163,45.531754428518404],[9.265351853878347,45.53164411615865],[9.265311140284421,45.53153151261142],[9.265243074516128,45.531353080099194],[9.265222120950806,45.53129033986274],[9.265207206121064,45.531160900142005],[9.265225577084609,45.53099379819415],[9.265258940809714,45.53095230581796],[9.265296929252107,45.530894252389984],[9.26548933652791,45.53076887206759],[9.265583561838582,45.53067774294288],[9.265931920237016,45.530420225043365],[9.265979397298269,45.53031516270687],[9.26599358492066,45.530220989977614],[9.265999041406534,45.53018477308964],[9.265946932416028,45.5300172941276],[9.26588094423445,45.52995857160813],[9.265750837731593,45.529945488841506],[9.265632714711158,45.52993466433813],[9.265499406451724,45.52992561221751],[9.265358267981716,45.52982061750997],[9.265306770620695,45.529782212459175],[9.265236334168508,45.52971144743618],[9.265135721598702,45.52961031882538],[9.26507483179652,45.529548892676516],[9.26503993469733,45.52950288806564],[9.264960323954432,45.52939847107418],[9.264928792284795,45.5293573192111],[9.264797352307179,45.52916806009568],[9.264744545377644,45.52908806378016],[9.264679283900325,45.52902268706639],[9.264596985744372,45.528940238703065],[9.26450637480914,45.52887653989945],[9.264406781748058,45.52885246661733],[9.264311587856133,45.52883252447179],[9.264224378481883,45.52882210403569],[9.26425515801117,45.52874984498161],[9.264276005384973,45.52869517722787],[9.264307642114359,45.52862496032289],[9.264337895601852,45.5285533559404],[9.264388649755976,45.528433230520335],[9.26446483910338,45.52825159303273],[9.264549624679004,45.52805192529412],[9.264613454568869,45.52790019994693],[9.264680418420701,45.527738515689705],[9.264744690473261,45.527584013299],[9.264794203488895,45.52745983736209],[9.264832256816613,45.52736606666158],[9.26488500771391,45.52723335913768],[9.26492584378258,45.52713202013016],[9.264943398363068,45.52708680382385],[9.264955247742858,45.52705628063249],[9.264995796457608,45.52695134272554],[9.265007970043238,45.526920332716806],[9.264918602958565,45.526747547963474],[9.26483645009447,45.526586267811695],[9.26480032359242,45.5265166182765],[9.264787742143884,45.52649236248546],[9.264761288315585,45.52644136238778],[9.264736624251654,45.52639243558852],[9.264711171704631,45.526341935418955],[9.2646504778864,45.526226141936576],[9.264613030199135,45.52615728929532],[9.264563767801526,45.526138357079574],[9.264463675739972,45.526099955246764],[9.264254006509473,45.52601814254698],[9.264006873905306,45.525924020640936],[9.263525947679527,45.52573951680859],[9.263076604400277,45.52556878190151],[9.262670368324933,45.5254148321656],[9.262298517214102,45.525271937289254],[9.262043940434012,45.52517549693343],[9.262058411503041,45.525018773530675],[9.262063057830622,45.52497448647195],[9.262067533430507,45.52493176599537],[9.262080299809652,45.52479430884376],[9.262086697360035,45.5247272989929],[9.262099147338613,45.5245986618363],[9.262114938537756,45.524431504008376],[9.262131224734482,45.52427692767357],[9.261981088032456,45.52428118667531],[9.261826609996056,45.52428509538645],[9.261654479917386,45.52428982561833],[9.26160295634196,45.524291924766],[9.26147793427185,45.52429393832159],[9.26145994052953,45.5242218212989],[9.261398605123645,45.52412868868181],[9.261365710883554,45.52407387074651],[9.261246195101299,45.523949086466615],[9.26115512076388,45.523855188221006],[9.261120362604066,45.52381783120617],[9.261052920273924,45.523741331986926],[9.261019140604143,45.523689031778964],[9.260997723020006,45.523651411113384],[9.260940031855629,45.523525000948794],[9.260936276403742,45.52328823198632],[9.261024892232701,45.5231484413635],[9.261069176209306,45.523016789977454],[9.261052819316756,45.522866752903184],[9.26103886522987,45.522826198826664],[9.261025001558416,45.522800761890956],[9.260981267556579,45.52274587768996],[9.260932512870284,45.522697644152544],[9.260890647267953,45.52265772087917],[9.260736647654324,45.522529184818055],[9.260633410325848,45.522459346836506],[9.260508774388533,45.522358817900056],[9.26036165833995,45.52223985180211],[9.260300634157831,45.52219085385828],[9.260193334384287,45.52210892635046],[9.2601399480904,45.52206928647027],[9.260025501239681,45.5219843093034],[9.259870950534985,45.521868744803726],[9.259809728068056,45.521823502305615],[9.259637708230363,45.52169638019684],[9.259588694117715,45.52166006052664],[9.259483921974002,45.5215824237276],[9.259407279469896,45.52152545879709],[9.2592104368609,45.52134582866186],[9.259130805329226,45.5212428908889],[9.259193230568409,45.521149329507836],[9.259348707714805,45.5210776527763],[9.259451801536281,45.5210391612766],[9.25952261786105,45.52101323475128],[9.259589846966964,45.52098104706498],[9.259648623736677,45.520948294379714],[9.259559903319111,45.52088237929647],[9.25951781352796,45.5208558523602],[9.25951629517242,45.52078627727375],[9.259505728786877,45.520717720064],[9.259506195696318,45.52066748653963],[9.259506971520363,45.520594206784935],[9.25948385338605,45.5205429890093],[9.259449262736046,45.520477872576976],[9.259343398058094,45.52035616600434],[9.259298200666072,45.52030444474603],[9.259259556956234,45.5202310555368],[9.259219241900745,45.52015449271606],[9.258805136769256,45.52013924678211],[9.258731663602255,45.52009126360747],[9.258620709247385,45.520018810233005],[9.258596997561432,45.51989705105148],[9.258503896671648,45.51965459466007],[9.258480058900345,45.5194766859305],[9.258433535718332,45.51936354107107],[9.258454254908678,45.51906504539732],[9.258469133712286,45.51899300827644],[9.258629047490468,45.51903981753333],[9.258746397838785,45.51907338244379],[9.258860762926645,45.51910175135863],[9.258946744822905,45.51911910684069],[9.259029167813084,45.51913574843935],[9.259162805072924,45.51915837474795],[9.259265224924173,45.519175715198145],[9.259481325523103,45.51921419481417],[9.259564164394883,45.51922904656195],[9.25973682988556,45.51925633969444],[9.259775388802337,45.51926456813622],[9.259974444686426,45.51934156260962],[9.260099277853767,45.51938984661025],[9.260165577893082,45.51942771720338],[9.260390881130476,45.519546701635306],[9.260634300139431,45.51961815175212],[9.260914397980912,45.51956951483052],[9.261081500646771,45.51954064183054],[9.261122540600796,45.51937403025588],[9.26106530950421,45.51919863678534],[9.261041952207357,45.51912218435559],[9.261239031452982,45.51895521693954],[9.26128666128073,45.518914596720364],[9.261392017355586,45.51884235402856],[9.261528375686838,45.51879477260761],[9.261569531724776,45.51878791674325],[9.261651703049367,45.51877423139561],[9.261775083920956,45.5187627639443],[9.262048847644888,45.518737318400795],[9.262277511222775,45.51852076612828],[9.262244694151063,45.51835882782794],[9.262182498279781,45.518048435055576],[9.262003421787366,45.517868830953645],[9.26193180890215,45.51769796871052],[9.26191509165325,45.51760425688808],[9.261862037689523,45.51730684144172],[9.261832832534491,45.517143115189285],[9.261789671186948,45.51690169452098],[9.261897997795565,45.516802546510085],[9.262025971790765,45.516747987136775],[9.262131330119807,45.51663538634941],[9.26213113810576,45.516509372136156],[9.262101994333621,45.51641713711525],[9.262082822497339,45.51635646230667],[9.262084063609063,45.51623051590788],[9.26210946784092,45.51614938190692],[9.262160287795815,45.51615921061499],[9.262270445818679,45.51618051631237],[9.262384888824018,45.51613975119656],[9.262384885311823,45.516009236883896],[9.262368693893738,45.51588325850592],[9.262427958723718,45.51584736365185],[9.262540256412306,45.51577934523827],[9.262732029634355,45.51577890522098],[9.263100173405373,45.51577356184154],[9.263506306876478,45.51578163311679],[9.264121813122532,45.515771204209145],[9.264180177035799,45.515796683712345],[9.264285611202927,45.515842713646265],[9.264316653492605,45.515856262305526],[9.264360699331885,45.51589972216284],[9.264494862444698,45.516031403902225],[9.264893384275876,45.516050487228306],[9.265001410863228,45.51605559323382],[9.265124414304628,45.516061406069355],[9.265252877273163,45.51606561649883],[9.265857168073225,45.516095715587745],[9.266097200600083,45.51609116830136],[9.267079182375097,45.516072559378735],[9.267211584029786,45.51607004986785],[9.268088114948752,45.51604999028667],[9.268256672670082,45.51653564919732],[9.268344639502894,45.51679196974634],[9.267574538869704,45.517014299826684],[9.26665713777504,45.517277490750196],[9.266906962638737,45.51742412314771],[9.26696985980136,45.517461047238534],[9.267543035360914,45.517797474664455],[9.267638272375645,45.51779725156889],[9.26918205480365,45.51782962587279],[9.269545499166275,45.51886388190315],[9.270341122381259,45.51889335890483],[9.270915756260912,45.518914652414445],[9.27097867119997,45.51893251350151],[9.271442761958983,45.519059442498246],[9.271479843839913,45.519147333897656],[9.271597883520554,45.51952054793049],[9.271636281232507,45.51964202917231],[9.272491146607926,45.519599475572086],[9.273005993071097,45.51957575701881],[9.273170272951273,45.51909552968245],[9.273208161323533,45.519094989915665],[9.273484295542056,45.51907090016844],[9.273778670098308,45.51904521784799],[9.273912470551293,45.51903353949301],[9.274214134835555,45.51901250114367],[9.274313669040495,45.519005570744106],[9.274411642756554,45.51899634062311],[9.27521705876419,45.518742371069415],[9.275574949411613,45.518611661864384],[9.2756388440035,45.51858788789818],[9.275682727489881,45.519713344338285],[9.277962576668457,45.51986083917854],[9.27791422527841,45.52093209013642],[9.277893319022937,45.5214001803999],[9.278002961881553,45.52139991631768],[9.278136026379165,45.52140215771881],[9.278531886640897,45.521362117585205],[9.279052083584311,45.521371295582234],[9.27941317165012,45.52136295370925],[9.279456820598918,45.52136285593575],[9.279726622622986,45.52134862370841],[9.279617815246088,45.52157362245149],[9.279404057714904,45.52192412097744],[9.279348245062248,45.521989141027],[9.279160033005633,45.522165000219495],[9.278923203161987,45.52235884950645],[9.278609412220426,45.52257579923295],[9.27843815964198,45.52283001994606],[9.278376979142292,45.523207004650835],[9.278363633564148,45.52328926492735],[9.278382734813787,45.52350892263893],[9.278628808143642,45.52351363334314],[9.278714260856447,45.52351224933544],[9.279939608563778,45.52349242998228],[9.280090779924512,45.52298799687897],[9.280300838799995,45.52297264151651],[9.280345560324566,45.52296936158274],[9.280465962306971,45.52296006943049],[9.28171051617972,45.52286659091683],[9.282207481779741,45.52282690614835],[9.282157936832313,45.52324464182109],[9.282180971296077,45.523509404500224],[9.283077389929035,45.52344417890457],[9.283504210782883,45.52341613330518],[9.283875019353095,45.52338881489152],[9.283947004301936,45.52338352965631],[9.284894243767413,45.52331816256398],[9.284891358938456,45.52274660164029],[9.284890927328709,45.52266108685085],[9.284888565003193,45.52219303273617],[9.285245234705922,45.52217202069741],[9.286002276302513,45.522127307754126],[9.286704004894544,45.52217954269232],[9.287080456988635,45.52220532870933],[9.28714752731776,45.52220993251691],[9.28757783203638,45.522240353895576],[9.287948130106509,45.52230337120336],[9.288359538438453,45.522373346706175],[9.288339738004924,45.52350753634773],[9.288406141577948,45.52350287086513],[9.288747287851319,45.52347050609726],[9.28897167644456,45.523447430531114],[9.289824381631826,45.52336876811037],[9.289939390562445,45.52336792088848],[9.290731127954345,45.52336196340053],[9.291432402640595,45.523356936938896],[9.29150856141774,45.52335639067135],[9.291609037272385,45.52335566976564],[9.291701879040273,45.523354998869905],[9.29202679528937,45.52335416870286],[9.292019978553142,45.52451533339772],[9.293224084746496,45.5245932479876],[9.293256367255433,45.525880308587595],[9.293456314629067,45.525872395306116],[9.293621667265544,45.52586587666125],[9.296828351522095,45.52573607078929],[9.29688493983447,45.525006836631015],[9.297099883012429,45.5250143382819],[9.297484505827281,45.52502778405107],[9.297552655380175,45.525218569348134],[9.297822441015436,45.52583246931455],[9.298031863820755,45.52585949978147],[9.298095950653945,45.52586775668707],[9.298306185126119,45.52589421386329],[9.298560446814935,45.525925054338096],[9.299586385453539,45.525956880308605],[9.300032138471634,45.52597071612884],[9.300199036207808,45.52597477819554],[9.300588473454157,45.52598724764325],[9.300808426156808,45.525995632842935],[9.302356790845884,45.52605460670374],[9.302558824503171,45.526057850429154],[9.30277508656038,45.52606134322031],[9.302998193843358,45.526064947061194],[9.303063251927346,45.526065979724095],[9.303064327373765,45.52625361732663],[9.303075277218907,45.52859549031441],[9.303082306804473,45.52868805870102],[9.305287957334409,45.528771731812874],[9.305460377510895,45.528760306655506],[9.309403436170602,45.52880797141084],[9.309161593282052,45.53006402730488],[9.30778088940882,45.53159416312623],[9.307613195315263,45.531777004768855],[9.307482267792325,45.53192062757412],[9.307180547225215,45.53277193310286],[9.308642682394657,45.53285324122925],[9.308709489892477,45.53505014614072],[9.305826178652046,45.535149816342575],[9.30548063961195,45.53567247331015],[9.305271364218736,45.53663118249498],[9.305242470788807,45.53665133661365],[9.30507363373159,45.536648411334596],[9.304903415738478,45.53664543998598],[9.304603722108752,45.536848018520814],[9.304525603363953,45.53691995460113],[9.304412091577841,45.53790478342924],[9.30440218193832,45.53801044378499],[9.304392965799105,45.538096513244874],[9.304384094139923,45.53818732355241],[9.304381106050341,45.53821677943923],[9.304372638401272,45.53827327476072],[9.30436949271182,45.53830272206562],[9.304297320206324,45.538307990951274],[9.304100830907364,45.53832233535047],[9.303636625547355,45.53835622338066],[9.303400242964996,45.53837535496614],[9.302377459772236,45.538493980045075],[9.301484681997547,45.53853038723288],[9.300724934568729,45.538549073333144],[9.299793836767403,45.53857192614683],[9.296178442473398,45.538705142698575],[9.295668567339353,45.538908224467995],[9.295500981697419,45.538974964532656],[9.29534680383828,45.539653608701656],[9.295325906003152,45.539745519600096],[9.295283363126993,45.5400423446015],[9.295276736356453,45.54008795487277],[9.295226852539699,45.54036354997528],[9.2952004132567,45.54050957881423],[9.295192530725162,45.54055218146287],[9.294739105995996,45.541371033133025],[9.294219941450901,45.54139303613707],[9.29413939520131,45.54139645874694],[9.293263361360088,45.5414335794403],[9.293197397145837,45.54143557418403],[9.293037034411286,45.54144042769606],[9.292595945097386,45.54145376200203],[9.292502779584293,45.542133610303694],[9.292475322085444,45.54224214621245],[9.292470604141108,45.54227321918708],[9.293637310894685,45.54247132354303],[9.293646236808055,45.54268299947239],[9.293658676567002,45.54297614314377],[9.293661571534408,45.543044301702324],[9.293547664727546,45.54304211377249],[9.29202113648059,45.54301282677171],[9.291868378825297,45.54282054477274],[9.291678683141527,45.5425818105504],[9.28945878223887,45.54263888029112],[9.289372202180017,45.542641092482384],[9.28924334149931,45.54264591756984],[9.289052797981185,45.54265414169446],[9.28906181528095,45.54288800087905],[9.288118692769924,45.54306262167473],[9.28806345407883,45.54339337655782],[9.288031202570327,45.543586351687146],[9.287998720019711,45.54378078285607],[9.287989479447633,45.54383603580757],[9.287909162282888,45.54424721622502],[9.287548432031185,45.54425547959553],[9.287354375423332,45.544259913077056],[9.287222327442079,45.544262936486206],[9.287155163530265,45.544264478002226],[9.287042736373593,45.54426702792991],[9.286999642821154,45.54369097964085],[9.28696832345417,45.54340323024849],[9.286902371348056,45.54340835369775],[9.286744637746631,45.54342058434875],[9.286604755650293,45.54343536950374],[9.286530133936242,45.54344326161545],[9.286443683067318,45.54345654887806],[9.28601307002469,45.543521667744],[9.285334841253844,45.54362423522611],[9.28521533832318,45.54364331799023],[9.28453640073584,45.543751707090394],[9.284494957771978,45.54375831808263],[9.284400701317567,45.54377420294376],[9.284005549690912,45.54382840486212],[9.283423362042603,45.54392694262454],[9.283385066745018,45.54393341578885],[9.28168253734936,45.54430748772477],[9.281399060260368,45.54493505488995],[9.281284324839254,45.545074588464054],[9.28080563540596,45.545656806563215],[9.280723526509016,45.545747612193516],[9.280537972205337,45.54597548894039],[9.280399219076292,45.5458971341991],[9.280106456783871,45.54573183589654],[9.280016364514386,45.545680957724024],[9.279941870291683,45.54563892620804],[9.279746002977705,45.54553067226315],[9.279654125803615,45.545496103604485],[9.279365031983582,45.545387294099434],[9.27932832339079,45.54537560507181],[9.279289671104381,45.545363311412366],[9.27921294780111,45.54534460392978],[9.279042617740359,45.54528853753939],[9.278509817456664,45.54511320356668],[9.278307463306803,45.54505855980982],[9.27814464032846,45.54500301025162],[9.277653360679778,45.544835403899036],[9.27756028145546,45.54480362950492],[9.277113686276614,45.5453040541984],[9.277091560977475,45.54532884639805],[9.276219047658843,45.54590182594443],[9.275953490732904,45.546077388146976],[9.275776896973754,45.546194114659876],[9.27572263544706,45.54623024719918],[9.274383191907967,45.54615245553709],[9.274315536927178,45.546148120188484],[9.27412091392948,45.54613509298471],[9.274123438403151,45.546654485227094],[9.274124109400173,45.5467925356287],[9.27412458875612,45.54689115732928],[9.274124730229772,45.54692026372802],[9.274125890092646,45.54715888902696],[9.274122847667744,45.54751522679223],[9.274115694589991,45.54835393767594],[9.274112641772696,45.54847595978208],[9.274004006508617,45.54848324303584],[9.273895319978148,45.54849052720931],[9.27328308903456,45.54853160806257],[9.27313494947151,45.5485294375643],[9.273096190591433,45.54854424066403],[9.273012529927978,45.548550010494836],[9.271993640975584,45.548624445016664],[9.271570233218855,45.54865583185301],[9.27136603786788,45.54867239120035],[9.27135253524164,45.54887604526057],[9.271344598213139,45.549031113672804],[9.271332237365176,45.54927267746834],[9.271320673617227,45.54955159375415],[9.271318704824125,45.5495939826169],[9.27130029150501,45.54998939244974]]]}}]}
