{"type":"FeatureCollection","metadata":{"code":"016021","referenceDate":"2026-01-01","sourceDbfExportDate":"2026-02-18","upstreamArchiveUrl":"https://www.istat.it/storage/cartografia/confini_amministrativi/non_generalizzati/2026/Limiti01012026.zip","sourceManifestSha256":"70ac8256c4785dc6ed2814c32b6965ae76f9161b51abaa1660059e1c6cbd8ca6","license":"https://creativecommons.org/licenses/by/4.0/","attribution":"Istat, Confini delle unità amministrative a fini statistici al 1° gennaio 2026, versione non generalizzata.","modifications":["Converted from WGS 84 / UTM zone 32N (EPSG:32632) to RFC 7946 WGS 84 geographic coordinates.","Converted from shapefile to per-municipality GeoJSON without geometry simplification."]},"features":[{"type":"Feature","id":"016021","properties":{"code":"016021","name":"Barzana","alternativeName":null,"regionCode":"03","regionName":"Lombardia","territorialUnitCode":"016","territorialUnitName":"Bergamo"},"geometry":{"type":"Polygon","coordinates":[[[9.565430100597345,45.74205740199643],[9.565134349920728,45.74204986902258],[9.565065925291403,45.74203669641309],[9.56470760957298,45.74195747104634],[9.564413913273743,45.74199046009114],[9.563986560822864,45.74168645899196],[9.563623202088031,45.74134623835511],[9.563207619456234,45.740925240109604],[9.563119815054781,45.74074117342931],[9.563085000291286,45.740667712457885],[9.563060056971823,45.7406151278058],[9.563036824682916,45.74056600001044],[9.562981613540764,45.74018823901656],[9.562876166447548,45.73992774174447],[9.562927200250444,45.73984707205763],[9.563053258122753,45.73964780936416],[9.563205047969731,45.739404035096676],[9.562972146711461,45.73925216630882],[9.562445691406651,45.73929983775101],[9.562174908207112,45.73921120419584],[9.562126018054416,45.739145978567144],[9.561979983234929,45.738951578333804],[9.561925050498777,45.73860082036171],[9.56194857644098,45.73838468260065],[9.561920084972249,45.73810579619075],[9.561774704800275,45.73771048715823],[9.561679873683495,45.73734485067728],[9.561641397207715,45.73716178413816],[9.561586664226613,45.73690133595187],[9.561505658954209,45.73651470542076],[9.561475341090617,45.73605582403904],[9.561407841292185,45.73573213242138],[9.56132773953309,45.73543550858242],[9.561208744168377,45.73510305553025],[9.561165314276488,45.73461723423652],[9.561163150715759,45.73440122356423],[9.561029754902497,45.73391584400974],[9.560948217272175,45.73347520543883],[9.560933029966002,45.73324126700996],[9.560878199762008,45.73289950306216],[9.560718851164138,45.73238724628898],[9.560546994408872,45.73191104923386],[9.560336401314482,45.7314170520108],[9.560253187226193,45.731257329026896],[9.56013967615382,45.73103982909893],[9.559956423750819,45.73070770751157],[9.55976122729991,45.73046563754324],[9.559359049478294,45.73008957445892],[9.55920282408838,45.72990120578861],[9.559079613852521,45.72977592294195],[9.558930302352998,45.72962365549759],[9.558926801252746,45.72927264389645],[9.559154091814923,45.7290285051831],[9.559413578230153,45.7287499954876],[9.559651607266957,45.72849503374232],[9.558993518041317,45.72822824185806],[9.55909389603757,45.727984724098086],[9.559091201043312,45.72771472362782],[9.558845069099307,45.72751791594762],[9.558893507032682,45.72722065936685],[9.558967899850446,45.726950263727225],[9.55903019427185,45.72675194702302],[9.559220219711223,45.7260258947074],[9.559286125127247,45.72602310228295],[9.55956944735986,45.726044594086105],[9.55975485099173,45.726074190439476],[9.559874698821462,45.72608122956089],[9.560408068151736,45.7260633618264],[9.560647837663721,45.72608506457842],[9.560811961698231,45.72611017593625],[9.561194929421069,45.726083887998186],[9.561516462911145,45.726109313233366],[9.56182515377297,45.726134801618386],[9.56210792798997,45.726184657604584],[9.561994123545903,45.72678006781528],[9.562386027868218,45.726770512996325],[9.562703242129672,45.72678692926101],[9.562723973340372,45.726351315951895],[9.562729119401125,45.726242565588194],[9.562832793878169,45.725723467275586],[9.56294006432145,45.7253577263561],[9.563018423102251,45.72509054872892],[9.563105000663517,45.72463919055839],[9.563133603811272,45.724234855564845],[9.563142763366102,45.72410537093854],[9.563153031364761,45.72396022936845],[9.563248388779444,45.723738581040834],[9.563459550517681,45.72308167907619],[9.56357965128806,45.722708053318314],[9.563604079402024,45.722295458834445],[9.56352594952595,45.72210518670614],[9.563392694033562,45.72184654990994],[9.56330384112257,45.72167409266208],[9.56335497425048,45.72134340153784],[9.563364487509103,45.72129228771358],[9.563439185262897,45.72105321194363],[9.563513403425771,45.72085456195726],[9.563641979461428,45.72064801738108],[9.563977332631525,45.720432826630336],[9.564159337183838,45.720316035573816],[9.564332768571962,45.72004975722171],[9.564418649726349,45.71979557438259],[9.564462826677918,45.72006437647694],[9.564493719314635,45.72034576248803],[9.56450521859266,45.72045114550914],[9.564584316539419,45.72064876768997],[9.564613573514004,45.720684623593606],[9.56480548165065,45.7209177065408],[9.564938766484634,45.72104036746033],[9.565000084092068,45.721096795358044],[9.565194451933774,45.72125784650409],[9.565519865770716,45.72143176072085],[9.565929339299808,45.72156194042108],[9.566174906612307,45.72164002165201],[9.566470930114683,45.72176759238672],[9.566768897366252,45.72192509925399],[9.567144900528588,45.72225627175139],[9.567326526244168,45.72242637698602],[9.567559915718505,45.72263224416638],[9.567767530022648,45.72282922556256],[9.567949253207583,45.723008324699414],[9.568208605631275,45.72324106654496],[9.568660088892589,45.72340982809806],[9.569238892099436,45.72346095676882],[9.56957325624748,45.72348629450845],[9.569894593999598,45.72349368746247],[9.57019052195373,45.72352821230774],[9.570512136164792,45.72356260722268],[9.570820815540234,45.72358806956693],[9.5711300196488,45.723667521507025],[9.57142604114128,45.72371105607697],[9.57174710491041,45.72369144011361],[9.572350404785961,45.72362541382437],[9.572864671749924,45.72364984053435],[9.573097256966635,45.7237746860669],[9.573549680121507,45.7240334332895],[9.573989174151706,45.72428324917566],[9.574221856641053,45.72441708640809],[9.574441699189457,45.72455100662502],[9.574739917096583,45.724810525237935],[9.574820440679689,45.72514313947265],[9.575183393046737,45.725447345035775],[9.575608371603433,45.72553519730122],[9.575943028346819,45.725587520886805],[9.575888497147089,45.72653288038939],[9.575805479071152,45.727208350681934],[9.575897530359855,45.72812012720062],[9.575901865759228,45.72816307149665],[9.575919915463679,45.72834184231683],[9.576320063644122,45.72851085022768],[9.57664356222796,45.72872522054707],[9.577045382266672,45.72905623068481],[9.57745028311463,45.72913523877733],[9.577640888612555,45.729467326743254],[9.577671802908187,45.7297897252054],[9.577684047103192,45.72991713418244],[9.577661699722915,45.730241269945886],[9.577588906698091,45.730664636020855],[9.577578347390924,45.73072761746693],[9.577540427100221,45.73095286379877],[9.577491899703448,45.73123213600639],[9.577365789348253,45.731466786471984],[9.577162213885352,45.73166582682962],[9.576986720984866,45.73186472589781],[9.576832034085378,45.73205452336553],[9.5767442938412,45.73227098772143],[9.576657664417292,45.7325954494378],[9.576519905797687,45.73294717231972],[9.576162544250732,45.73319200235185],[9.576035988383476,45.733381656828236],[9.57592234045145,45.73358024236781],[9.575705974309049,45.733788339906106],[9.575489884125366,45.734023459567354],[9.575274834180533,45.734357562304034],[9.574673705954638,45.73464860964915],[9.57419928235179,45.73475899619445],[9.573763299636017,45.734860212151204],[9.573470745181698,45.73515869844273],[9.573280079586102,45.73536666322115],[9.573074922779375,45.735500854413225],[9.572960952513572,45.73557535118147],[9.57274401576264,45.73572945565563],[9.572553897479736,45.73599142649565],[9.572504697072022,45.73620767539547],[9.572352193798086,45.73637946496151],[9.572041565280394,45.736620369207124],[9.572010308147329,45.736644581167674],[9.571931569133568,45.73670577467228],[9.571754070063808,45.73702618777793],[9.571732161997508,45.737147087763226],[9.571705952379855,45.73729173709918],[9.571645162360172,45.73763407416156],[9.57153443390833,45.73772216242202],[9.5714285205571,45.73780625355101],[9.570942108471975,45.73800669686104],[9.570608941949411,45.73810738596832],[9.57043468162187,45.73819375086386],[9.570097327950275,45.73836190304548],[9.5700921632129,45.73839803000204],[9.570061522445632,45.73862320031543],[9.569883861490817,45.738849104044036],[9.569680207037415,45.73904813119477],[9.569439395781297,45.73925486331656],[9.569374349508271,45.73931065562762],[9.56933013227724,45.73930637829396],[9.569277069181524,45.739302145019785],[9.568988480253804,45.73928557296923],[9.568667691573586,45.73934118010681],[9.568605443455489,45.73953950140569],[9.568492488799366,45.7398100775172],[9.568467537735087,45.73990311118223],[9.56840577447865,45.74013452305805],[9.568229654048068,45.7405134142073],[9.568027931360696,45.74090144571665],[9.56775991174721,45.74109179399475],[9.567465260016187,45.741192264470875],[9.566994090418556,45.74127336940726],[9.566897369826542,45.74130636732372],[9.566644672697251,45.741403338619506],[9.566234890075592,45.741558385951],[9.565915357179154,45.74173997090374],[9.565430100597345,45.74205740199643]]]}}]}
