{"type":"FeatureCollection","metadata":{"code":"016063","referenceDate":"2026-01-01","sourceDbfExportDate":"2026-02-18","upstreamArchiveUrl":"https://www.istat.it/storage/cartografia/confini_amministrativi/non_generalizzati/2026/Limiti01012026.zip","sourceManifestSha256":"70ac8256c4785dc6ed2814c32b6965ae76f9161b51abaa1660059e1c6cbd8ca6","license":"https://creativecommons.org/licenses/by/4.0/","attribution":"Istat, Confini delle unità amministrative a fini statistici al 1° gennaio 2026, versione non generalizzata.","modifications":["Converted from WGS 84 / UTM zone 32N (EPSG:32632) to RFC 7946 WGS 84 geographic coordinates.","Converted from shapefile to per-municipality GeoJSON without geometry simplification."]},"features":[{"type":"Feature","id":"016063","properties":{"code":"016063","name":"Castel Rozzone","alternativeName":null,"regionCode":"03","regionName":"Lombardia","territorialUnitCode":"016","territorialUnitName":"Bergamo"},"geometry":{"type":"Polygon","coordinates":[[[9.630591726432861,45.55831562644722],[9.630540721681271,45.55832625920892],[9.630180109177832,45.558412949080115],[9.630134259315634,45.558426253537846],[9.629325881820316,45.55863224350408],[9.62898477520599,45.55871955841825],[9.628817375402301,45.55876240874118],[9.628325323394616,45.55893208583476],[9.627662013729084,45.55912988510983],[9.626925962979875,45.55934302151222],[9.626315197666285,45.559531073459894],[9.626206403939362,45.559571057608586],[9.626161237576197,45.55959507787348],[9.625559482450793,45.55980287689245],[9.625468758754332,45.55983078008064],[9.62536739966016,45.559865704633985],[9.625293252095592,45.55989439363647],[9.625250324024563,45.559913256287],[9.62504741477134,45.55998951020752],[9.624827561583007,45.560037878483804],[9.624595940437763,45.56011124359096],[9.624404664449038,45.56015999485685],[9.62417126897032,45.56022364766587],[9.624113955596501,45.56024340308481],[9.624044898414056,45.5602671830937],[9.623291035180694,45.560526535412926],[9.623321692219712,45.56061317155236],[9.622971835746213,45.560724712840646],[9.622661352674308,45.56082802750892],[9.622376899549078,45.560917913064955],[9.62212877745434,45.56099807874131],[9.620952966439413,45.56139005340491],[9.621103975160743,45.56082929521119],[9.621602663529195,45.55896224007307],[9.621610807186489,45.55893734205376],[9.621654840921172,45.55879642678615],[9.62167045013562,45.5587455678036],[9.621681923961127,45.55870604114674],[9.62170511563396,45.55863459599034],[9.621732511251034,45.558550027815606],[9.621786824841557,45.55838732799508],[9.621806256986213,45.558325412890376],[9.621867927870017,45.55812234105703],[9.621889556572388,45.558059783903595],[9.621912331494533,45.558000550894754],[9.621939370101305,45.55790620856043],[9.621950046017012,45.55783968395436],[9.621962706561918,45.55778000644354],[9.621987357104201,45.55770567743827],[9.622019913092107,45.557628911099386],[9.622038698733155,45.55759658593187],[9.622055125251773,45.55754670265022],[9.622140489790963,45.557277988339074],[9.622160587865519,45.55723120480844],[9.62217433610249,45.55719291144994],[9.622205097265306,45.55708011100323],[9.622233937090252,45.556992911011136],[9.622266577492383,45.55689379451267],[9.622327295023634,45.55670922384226],[9.622346261376396,45.55666313502059],[9.622377799677066,45.556582486554156],[9.622409390589969,45.556497327362166],[9.62177257775483,45.55645688192644],[9.62150362101394,45.55644305457633],[9.621395625538334,45.55643492007875],[9.62092587910346,45.55639610468972],[9.62086299402988,45.5563902906743],[9.619945405846698,45.55633942176005],[9.61987844588897,45.556333546507624],[9.619630417002558,45.55632136448607],[9.61911442846729,45.55627786889343],[9.619046545256937,45.556272727242714],[9.618701951475845,45.556247333561465],[9.618568068156089,45.556241325835174],[9.617402950579073,45.556168033626726],[9.617136228183064,45.55614858435926],[9.617030891699347,45.55614154840051],[9.616994312321605,45.55614215102915],[9.616738136347859,45.55612518216529],[9.616545944944425,45.556110468702926],[9.616183664087812,45.556080003480574],[9.616120555786338,45.55607584425253],[9.61579796795733,45.55605473093322],[9.615307005566972,45.55602819783465],[9.615138649043402,45.556019753366144],[9.615020467697152,45.55601380994284],[9.614525548191589,45.555990913214934],[9.614297570369228,45.555985389538826],[9.613539289074215,45.55595726262611],[9.613438602166523,45.55594944139252],[9.613249332076931,45.555936956959265],[9.613083602209452,45.555929647495745],[9.612891817253633,45.55591563678678],[9.612643924764008,45.5558967150732],[9.612364909340995,45.55587409011384],[9.6122211854887,45.55585502126202],[9.611991085617618,45.555824492219784],[9.612009352786938,45.55569671886543],[9.61202482576224,45.55561724124478],[9.612040037192456,45.5555279556704],[9.612302360427519,45.554287467833625],[9.612324367419172,45.55418339573933],[9.612372810463375,45.55396170459738],[9.612422110801653,45.55373652541997],[9.61254660663236,45.55310477286122],[9.612789521172179,45.55312618958793],[9.613122031653399,45.55315931057308],[9.613164406123486,45.55297842553362],[9.613253217090291,45.552618091755214],[9.613264865693758,45.55257135061349],[9.613275196892262,45.552522339274354],[9.613154512046327,45.5524963718956],[9.612985085528063,45.5524661654258],[9.612772619277768,45.552436613542],[9.612490938202008,45.55240644138745],[9.61194724235135,45.55234358095718],[9.611696938318309,45.55231464111529],[9.610947427891213,45.55222816004255],[9.610326135903312,45.55214636179684],[9.609694349405501,45.55205593015944],[9.60918290859243,45.55197902006998],[9.608602109258529,45.55189168586663],[9.607848251599165,45.5517764042138],[9.607812552673202,45.55177107651866],[9.607776671308896,45.55176546264914],[9.606401586897634,45.55155514204094],[9.60632806188362,45.55154367612876],[9.606182165382178,45.55151077206403],[9.605875978153245,45.55146572326525],[9.605865144672808,45.551396909990295],[9.605863016168612,45.5513562013695],[9.605858621145078,45.55127505399075],[9.605811050320638,45.551209257383576],[9.605749381168456,45.55107850463322],[9.605778745756686,45.550914037193266],[9.605825908250395,45.55085123058096],[9.60584038613029,45.55078217954199],[9.605849279054548,45.550597658263605],[9.606305776547686,45.550679150437595],[9.606350914331715,45.55051235695279],[9.606406566174643,45.55024313221814],[9.606417335748338,45.5502178090566],[9.606451379934583,45.55019386010864],[9.606492052632541,45.550179923846535],[9.60661935455483,45.55016913878834],[9.606750555937259,45.55016238425531],[9.607064121946248,45.550168836342976],[9.607219299733508,45.550173429307705],[9.607374440643119,45.55017828328857],[9.607497302482749,45.55018347164766],[9.607614648760844,45.55019278379755],[9.607866020055853,45.55021365115887],[9.607977019301309,45.550221250504606],[9.6081482540443,45.55022981622574],[9.60844127417578,45.55025194575685],[9.60870341250858,45.55026854052638],[9.609092864335778,45.550301521933314],[9.6093693569345,45.55033888600148],[9.609422388500748,45.55034302171276],[9.609466839936106,45.55034746510911],[9.60952926711318,45.5503533697563],[9.609681740734704,45.55037439174734],[9.60983529741723,45.55039853112227],[9.609965591791418,45.550422794508265],[9.610023856376735,45.550433400765876],[9.610093704974517,45.550440822656086],[9.610165698337994,45.550449798332465],[9.610221144888325,45.55045818817797],[9.61028613474725,45.550471099552084],[9.610348548155027,45.550481629472166],[9.610469453688385,45.550495366197325],[9.610553284264867,45.550505602425226],[9.610604450975238,45.55051141365216],[9.610744680583595,45.55052676599361],[9.610885532383326,45.5505427809143],[9.610942751471935,45.55055394135907],[9.61102281828214,45.55056795981709],[9.611108171950008,45.55058501839857],[9.611161847515904,45.55059664864383],[9.611273460479605,45.55061229745517],[9.61133715388238,45.55062021057672],[9.611382594600085,45.550624998074376],[9.611464956388692,45.55063313524511],[9.611586602186518,45.55064183522984],[9.611703378451432,45.55065277632334],[9.61204384033106,45.55067356152453],[9.612183768376495,45.550674043956086],[9.612208417995664,45.55062113951009],[9.612215105917425,45.55058696352854],[9.612260079990508,45.55034098801144],[9.612320118282312,45.55004074620295],[9.61235331177071,45.54985316878125],[9.612394512524656,45.54960560311634],[9.612427550514024,45.54939903424203],[9.612444751445874,45.54928305508831],[9.612465333231482,45.549132881651694],[9.612472456632702,45.54910580425304],[9.61260144934469,45.54912633977419],[9.612725408826954,45.549146291875246],[9.612819883119725,45.54916473232854],[9.612905833878546,45.54918112118846],[9.613069556769572,45.54921233861858],[9.613145371557394,45.54922659353753],[9.613244600929299,45.54924391898676],[9.613439169905819,45.54927686951127],[9.613801014167372,45.54934082077897],[9.614575598884896,45.549476689233884],[9.6149036180093,45.549539900876674],[9.614962128327525,45.54955083633359],[9.615230976546936,45.54961036729385],[9.615544455135677,45.54967273009794],[9.616179634787652,45.549791553576895],[9.616357586728629,45.54982289746123],[9.616549175162271,45.5498569577978],[9.616733911400129,45.54988307086274],[9.616913688060341,45.549907724337615],[9.617129129777535,45.54994059275083],[9.617305608632268,45.549970691967744],[9.617456571808479,45.549997508430835],[9.617607994775915,45.550023364495],[9.617685619877186,45.55000713350297],[9.617743213841763,45.54988731580646],[9.617775749117863,45.549805141944596],[9.617815411003573,45.549707995859364],[9.617849857449512,45.5496131921422],[9.617885924423486,45.54950249276506],[9.61791293400271,45.54940582912686],[9.617939211171468,45.54930090736338],[9.617958601880247,45.54921160369317],[9.617983256595378,45.54911400766054],[9.61802108696516,45.54898670162298],[9.618036236708193,45.54893967999108],[9.618067553089181,45.548883955963355],[9.618088271410793,45.54883866840286],[9.618112621225723,45.54876132638809],[9.618129856954821,45.54868817325573],[9.61814398971165,45.54862645836633],[9.618153549304122,45.54858931323438],[9.618177060618887,45.548516017219555],[9.618199853045809,45.54843569615529],[9.618216178939893,45.5483683797218],[9.618242772584624,45.54825140372589],[9.618261080464217,45.548177919825875],[9.618274059770608,45.548116184154566],[9.61828413480171,45.548075940751005],[9.618299397879145,45.54802153758675],[9.618310059166328,45.547980903961026],[9.618337521425014,45.547875416698595],[9.618355595233952,45.54782500378597],[9.618368926826697,45.54778618291541],[9.61837895324901,45.54775191557419],[9.618390409898788,45.54771022450828],[9.618396421661103,45.54768368471401],[9.618408393336283,45.5476480746805],[9.618453806785912,45.54751853925412],[9.618512327685291,45.54734706975983],[9.618580027776291,45.54717754876124],[9.618608608435975,45.5470958541924],[9.618640740388491,45.547013022449455],[9.618725083637774,45.54703552916914],[9.618843314307432,45.54708850719175],[9.618979716807821,45.547174752692634],[9.619082709621443,45.547244617132364],[9.619278452320074,45.54738827172137],[9.619394584707868,45.547460036777345],[9.619459738657898,45.547502005602695],[9.619518682577482,45.547539696557934],[9.619577330600986,45.547566655311954],[9.61970976061891,45.54721203377829],[9.61982485865947,45.546857483612534],[9.619920499494024,45.54656264309703],[9.619964549776503,45.54647403961375],[9.620052869065514,45.546478953684534],[9.620122012318056,45.5462944011232],[9.62018704075694,45.546092165746025],[9.62026135980132,45.54586114935513],[9.620308672602137,45.545690396826615],[9.620347826625203,45.54557929278536],[9.6203688363066,45.54550731322116],[9.620408204695833,45.54542736340549],[9.619506084598468,45.54526457755467],[9.619344684619902,45.545231398102466],[9.619246855325603,45.545199360797675],[9.619262869856346,45.54511776566123],[9.619353122492432,45.54489334133925],[9.619473495340197,45.54458539645017],[9.619627302902265,45.54417519067027],[9.619650950857936,45.54412201365696],[9.619821575264487,45.544155129128534],[9.619862889755247,45.54416391952197],[9.619920772976272,45.54417404665445],[9.620008839434478,45.54419148082766],[9.620168300753594,45.54421878856981],[9.620240390472715,45.54423360898033],[9.620356423289614,45.544254761493974],[9.620442958866375,45.544272743710586],[9.620644730274853,45.54430927209999],[9.620761827740425,45.544334018846904],[9.620879137892356,45.54435480384482],[9.621023438242428,45.544383722979184],[9.621199278152302,45.544413145499576],[9.621240872163437,45.54443832123056],[9.621238575607535,45.54447067368108],[9.621206567414397,45.544553567626764],[9.62119652098621,45.54459511721358],[9.621182117474886,45.544636510471584],[9.621162852995312,45.54470178300717],[9.62112828526733,45.54480818364895],[9.621096007728458,45.54493644443533],[9.621067433283983,45.54504038217739],[9.621047753538814,45.54510286661396],[9.621028166781343,45.54515634946745],[9.620993081074815,45.54529137628877],[9.620949729269281,45.54542608798762],[9.620943163066057,45.545457987479345],[9.62094260482611,45.54548872917797],[9.620959735152296,45.54552626054282],[9.621005071577223,45.54554851676544],[9.621077177585924,45.54556464171177],[9.62133682809611,45.54561519197297],[9.621401831526669,45.545627053734655],[9.621437785834564,45.54563486909562],[9.62155383983087,45.54565764046619],[9.621702840641287,45.5456826626987],[9.621846870757805,45.54570996206452],[9.622086336411614,45.545748893004095],[9.622172499479985,45.54576768603143],[9.62241673882499,45.54580965064193],[9.623151634963326,45.54592726557193],[9.623080690573559,45.546285383072494],[9.623283966932664,45.546329774517375],[9.623804662978467,45.54641883315528],[9.624437920145489,45.54652716652818],[9.624396908774349,45.54664987818712],[9.624368482783341,45.5467349307664],[9.62431429754508,45.546897156189424],[9.624259741659356,45.54706064375758],[9.62424660157468,45.54710029777397],[9.624256277724047,45.54712718779952],[9.624315628541243,45.547144678356965],[9.624651647330008,45.54721421987024],[9.624762841167076,45.54723728458398],[9.62520449419868,45.547325148920464],[9.625167016100846,45.54746892110651],[9.625147100853631,45.54753293769442],[9.625126075586396,45.547600830812705],[9.625043703546998,45.547866633093896],[9.625036408711612,45.547901957201006],[9.62502705091685,45.547947643824806],[9.625018700557769,45.547974422690075],[9.625008618162228,45.54800674668888],[9.624997978265162,45.54804078394003],[9.624972124037214,45.54812379553718],[9.624962722023296,45.548153940250266],[9.6249095306165,45.54832489151497],[9.624839880084641,45.548548138978326],[9.624794852355118,45.548692852414355],[9.6247413559463,45.548882617484345],[9.624731506765519,45.54891867562113],[9.624704115312586,45.54901957347224],[9.624684161817054,45.54909306919524],[9.626022814984148,45.549280882992534],[9.626962237913022,45.54941267389957],[9.62753719406742,45.54949340670809],[9.627667049320241,45.54951213556519],[9.627638875283763,45.549601091294925],[9.627521917166748,45.54997037073456],[9.627451951753395,45.55019127758075],[9.627411108739176,45.5503201271464],[9.627350820139744,45.55050903058563],[9.627851108716696,45.550635414802095],[9.628190421586309,45.550722730968445],[9.628453890352313,45.55078740088836],[9.628517740904288,45.55080343152674],[9.628686618072951,45.550845887341],[9.62872753683185,45.55085619337641],[9.628810787561154,45.55087715766642],[9.628858193724101,45.55088904813492],[9.628921763197576,45.550902829828416],[9.629050314787321,45.55093160857468],[9.62912251992833,45.550914685874666],[9.629190247770772,45.55089928106694],[9.629294723561102,45.550882053589326],[9.629364715490084,45.5508743771209],[9.629460219327733,45.55086827023298],[9.629551432900803,45.55086803760205],[9.629642073285055,45.55087383877109],[9.629702365930731,45.550880977304224],[9.630185075140052,45.550959504926816],[9.630670360861176,45.551039186422045],[9.630741965313945,45.55104968235742],[9.63085037120592,45.55106312538658],[9.630958746934665,45.55107386816011],[9.63107334344752,45.55107953586779],[9.631149968465449,45.551080732714425],[9.631226315109526,45.55107995081373],[9.631341558353277,45.551074723390514],[9.631378809738624,45.55107208721217],[9.631468126327139,45.5510625924393],[9.631512263117353,45.55105703781394],[9.631600379329692,45.55104331907345],[9.63173050491642,45.551017126499936],[9.631857234096035,45.55098510187304],[9.631949927588595,45.5509568658296],[9.632068942953918,45.55091102200202],[9.632156811585057,45.550875251592984],[9.63227895453955,45.5508227294496],[9.632301845098294,45.55085329637676],[9.632321139819023,45.55090593581271],[9.63230159588513,45.551162394315455],[9.632250528845281,45.55181813444687],[9.632227559020551,45.552134738958216],[9.632188549231843,45.552471720613354],[9.632163843055968,45.552833709037856],[9.632260163063362,45.55282448272757],[9.63243832440018,45.55283286478146],[9.632564218549609,45.55285170000322],[9.632643030057409,45.55286485515252],[9.632627483675954,45.55296368289822],[9.632602277197885,45.55311504032533],[9.632550190637097,45.55342780600186],[9.632530631310123,45.553545252137525],[9.632678601652056,45.55356063639423],[9.633068061871779,45.5536011274914],[9.632962586646887,45.55405464533847],[9.632848441909095,45.55453494422791],[9.63279432526917,45.55475883033009],[9.632740080094809,45.554982717109795],[9.632598100381738,45.55554039892333],[9.632476501631453,45.55600777707336],[9.632382106896893,45.556368457155656],[9.632004864020312,45.557835351448006],[9.631962323047594,45.55788086210694],[9.631923559626708,45.557922863944036],[9.63183169053527,45.55801241414811],[9.631805125517277,45.55803744539343],[9.631758965134226,45.55807808842151],[9.63167903768247,45.558146072539856],[9.631565616043602,45.55820950723613],[9.631377841739866,45.55825061704419],[9.631101895882917,45.558288956224125],[9.631046577603085,45.55829196214776],[9.630778416172182,45.558293173203126],[9.63073625410941,45.558292505906536],[9.630591726432861,45.55831562644722]]]}}]}
