{"type":"FeatureCollection","metadata":{"code":"016010","referenceDate":"2026-01-01","sourceDbfExportDate":"2026-02-18","upstreamArchiveUrl":"https://www.istat.it/storage/cartografia/confini_amministrativi/non_generalizzati/2026/Limiti01012026.zip","sourceManifestSha256":"70ac8256c4785dc6ed2814c32b6965ae76f9161b51abaa1660059e1c6cbd8ca6","license":"https://creativecommons.org/licenses/by/4.0/","attribution":"Istat, Confini delle unità amministrative a fini statistici al 1° gennaio 2026, versione non generalizzata.","modifications":["Converted from WGS 84 / UTM zone 32N (EPSG:32632) to RFC 7946 WGS 84 geographic coordinates.","Converted from shapefile to per-municipality GeoJSON without geometry simplification."]},"features":[{"type":"Feature","id":"016010","properties":{"code":"016010","name":"Antegnate","alternativeName":null,"regionCode":"03","regionName":"Lombardia","territorialUnitCode":"016","territorialUnitName":"Bergamo"},"geometry":{"type":"Polygon","coordinates":[[[9.799584112846212,45.500757571570155],[9.799052679114356,45.50181441212912],[9.797563800567316,45.501527772852015],[9.798008160303361,45.500759575293166],[9.794907123669482,45.50011511590065],[9.794404180799745,45.500757691947555],[9.793962300423578,45.50119280678894],[9.791230504526684,45.50074821618679],[9.790870635067064,45.500701194931835],[9.791801379894004,45.4986154955547],[9.78904427456101,45.49823853387581],[9.78922605320167,45.49750818556604],[9.786663609029162,45.49731884630462],[9.786901773853147,45.49603904998806],[9.785915604719472,45.495991827270224],[9.785867067230754,45.495263069394404],[9.784752836303626,45.495207721883354],[9.7843833165142,45.495327280447654],[9.784051468786686,45.49539256779356],[9.783615997160283,45.495368549059265],[9.783026694326395,45.495327592705266],[9.782360598446799,45.495287141320006],[9.781144469336558,45.49526847642945],[9.78063208420803,45.49523595942607],[9.780436382304584,45.49518904963834],[9.779938707173077,45.49506971277457],[9.779336246382483,45.495001821051574],[9.779079280299664,45.49498605686994],[9.778811202440137,45.49496953616744],[9.777837256213015,45.49487716266858],[9.778170811233474,45.49214754588251],[9.776516957730056,45.49193377393181],[9.776985265195147,45.49062544416095],[9.774844948117082,45.49039694738598],[9.774909019813203,45.48946939819862],[9.773703984052398,45.489315548748365],[9.773456431013583,45.489929298220055],[9.772441849864089,45.4896661388745],[9.772613389387654,45.488998748449234],[9.772659019399939,45.48882093500301],[9.772704710503648,45.48864311751931],[9.772745399835383,45.488484737664926],[9.770332539109281,45.48796996241425],[9.770358740248776,45.48791264629745],[9.77043799206931,45.487739471175445],[9.771500677753533,45.48541488787738],[9.771818373903628,45.48431459319714],[9.770001436072972,45.48526298606612],[9.769748548615857,45.48642582716106],[9.768915264774627,45.48631441902265],[9.768471298973413,45.487513080678326],[9.768406470799595,45.48768791623874],[9.768310309152433,45.48794758159704],[9.766135924006713,45.48755230324145],[9.766089430603097,45.487546001022515],[9.76552656467989,45.487444214462315],[9.76536180266402,45.48733009823331],[9.76472582891314,45.48689161649384],[9.765030264142515,45.48480135135313],[9.766799352107117,45.48503258887222],[9.76736454351507,45.48236445207884],[9.769352718942992,45.48272013150573],[9.770116047047958,45.48051871018525],[9.772103803943132,45.48084733841062],[9.772962000349235,45.482785778389484],[9.773936865132477,45.48295918806341],[9.77568168113095,45.48236228496499],[9.776612230684373,45.47997699727309],[9.77662957408398,45.47993253953913],[9.77664627349558,45.47988973159669],[9.776664364611564,45.479843356922046],[9.776843552389538,45.47938401789517],[9.779947091034224,45.47990293707375],[9.780618500640587,45.47996192852301],[9.781154713452516,45.480009047326845],[9.781292661196058,45.47913756364099],[9.78363928479302,45.47950853462428],[9.7836390076147,45.479341048850614],[9.78363743749504,45.4784464789669],[9.78409083946862,45.47700318884618],[9.785487907820396,45.477182614814105],[9.786002079331617,45.47551387188454],[9.785554199618693,45.475507957249455],[9.786064098754945,45.47353319527723],[9.786370873799408,45.4735130920816],[9.786428525001831,45.473161461504425],[9.786948676547516,45.46998962639153],[9.788326571118212,45.47019711933323],[9.789692103044665,45.47040273415929],[9.789514441509013,45.472339214467],[9.7888783526076,45.472595642811214],[9.788909849925487,45.4739365945874],[9.788833110075178,45.474855226065536],[9.79012531335462,45.47485530927018],[9.790478390220699,45.474600832142],[9.790926612898389,45.47268948507753],[9.790183919935272,45.472640611996994],[9.790380150788323,45.47203619512521],[9.792543451954778,45.47121109056974],[9.792297519984293,45.47283300694676],[9.79161776487635,45.47271170337228],[9.791130516846819,45.47446130475558],[9.791446210183693,45.47452932340944],[9.791579907165444,45.474558117963326],[9.79176464493884,45.474597903663756],[9.791440356436288,45.47558416279014],[9.793116054423393,45.47575982009346],[9.793117305885195,45.47600543488938],[9.794339493222488,45.47613109466057],[9.79439119977885,45.47571012490493],[9.794397510897243,45.475667037335],[9.79443852114087,45.47538385198657],[9.796710620822408,45.4755116439167],[9.796197552027412,45.47616561845953],[9.79683619117865,45.47625776117819],[9.796460781021889,45.47685444427794],[9.796703827748406,45.47684728464741],[9.797253795490365,45.47683101211851],[9.798713480779345,45.476910828899776],[9.800815375403056,45.47716613645379],[9.802382395736782,45.477596197260375],[9.803383086285377,45.47778718568602],[9.80420403627158,45.47793443046809],[9.804768241940527,45.47802047118703],[9.807681211399537,45.478620980139745],[9.810437219321186,45.47897950742096],[9.811820852836382,45.479104694959325],[9.81298818599021,45.47931242332966],[9.814346779324449,45.47947376051371],[9.815655247970215,45.479707460639794],[9.81683523878796,45.479906046400465],[9.817810184650344,45.48007909820191],[9.818990476999234,45.48029566908872],[9.820157573243534,45.480485315383575],[9.821606426355121,45.480690933849104],[9.82255540727559,45.48083712744979],[9.823503738488078,45.48093830024527],[9.824349831295871,45.48104921776],[9.826994601580433,45.48133162821399],[9.829725271489517,45.482018375897674],[9.829588248559485,45.48227141497078],[9.829476125907048,45.482479264455726],[9.829377078781532,45.482705011334154],[9.829266169689374,45.4829938524776],[9.829129526572627,45.48327386472562],[9.829045111912707,45.4836255215328],[9.829056862988635,45.484426534550025],[9.82903707087021,45.484822738883864],[9.829006075015286,45.48532701158113],[9.828974815071973,45.485813313501374],[9.828954256449464,45.48615549195352],[9.82879305838966,45.486507704721866],[9.828681082117795,45.48672454888069],[9.828508809712956,45.48719386217467],[9.826944230470643,45.49220980553139],[9.826476498157213,45.494355451862155],[9.826389913476062,45.494731393354584],[9.826348177476376,45.49491243856769],[9.826267558056253,45.4952628391949],[9.826225930986903,45.49544377104412],[9.826207430588923,45.49552411958043],[9.826165559587004,45.49570616300656],[9.825995065378384,45.49644712820813],[9.825272635867151,45.498684624697674],[9.825172718857052,45.49906686130403],[9.825160641610061,45.499113064153924],[9.82515216395537,45.49914466003271],[9.825130673305987,45.49922771318782],[9.824733973749252,45.500745276510365],[9.823069131060622,45.50030271993053],[9.81647436503322,45.499215922314676],[9.81100288594186,45.49855823695558],[9.80960187640486,45.498389790932265],[9.806153108165677,45.49797507656948],[9.805061171858798,45.50128617129509],[9.803572805570925,45.50103562480827],[9.802394182468584,45.50096289112383],[9.800583872876702,45.500741572049265],[9.799584112846212,45.500757571570155]]]}}]}
