{"type":"FeatureCollection","metadata":{"code":"016003","referenceDate":"2026-01-01","sourceDbfExportDate":"2026-02-18","upstreamArchiveUrl":"https://www.istat.it/storage/cartografia/confini_amministrativi/non_generalizzati/2026/Limiti01012026.zip","sourceManifestSha256":"70ac8256c4785dc6ed2814c32b6965ae76f9161b51abaa1660059e1c6cbd8ca6","license":"https://creativecommons.org/licenses/by/4.0/","attribution":"Istat, Confini delle unità amministrative a fini statistici al 1° gennaio 2026, versione non generalizzata.","modifications":["Converted from WGS 84 / UTM zone 32N (EPSG:32632) to RFC 7946 WGS 84 geographic coordinates.","Converted from shapefile to per-municipality GeoJSON without geometry simplification."]},"features":[{"type":"Feature","id":"016003","properties":{"code":"016003","name":"Albano Sant'Alessandro","alternativeName":null,"regionCode":"03","regionName":"Lombardia","territorialUnitCode":"016","territorialUnitName":"Bergamo"},"geometry":{"type":"Polygon","coordinates":[[[9.786728569973292,45.6979072490045],[9.785885476173576,45.69954821742274],[9.785171771480973,45.7008672363927],[9.781187918930243,45.70165965339766],[9.780478122269063,45.7014304127963],[9.77992542387087,45.70139823800194],[9.779628739063694,45.701310251987856],[9.77911235050407,45.701124756341834],[9.778840620254474,45.700982607472056],[9.77837523317483,45.70076975556548],[9.778142042997434,45.70062734153393],[9.777959727361079,45.70044856014382],[9.777672919347088,45.700144478973634],[9.777561063319672,45.700072737692324],[9.777284092750499,45.69989511965707],[9.776999659793105,45.699762028442805],[9.776931775944632,45.69973731297438],[9.776602252350711,45.699617546218974],[9.775915148973942,45.69936434721408],[9.775334181072253,45.69915226780823],[9.774856609295762,45.698984500100224],[9.774366551057113,45.69884380134631],[9.773770874090847,45.698496788470635],[9.773266124687593,45.69822117998076],[9.773161823281118,45.698167894365305],[9.773072901464372,45.6981234811214],[9.772684062980757,45.697928098596435],[9.772232306292974,45.697769139823905],[9.772030164298819,45.69770036157897],[9.771895184873964,45.69765441528123],[9.77176772933658,45.6976102793704],[9.771372572645985,45.6978289719587],[9.771267755449575,45.69775508336769],[9.770866751381414,45.69747238040505],[9.7704731302963,45.69720181157039],[9.770269884863684,45.69706209210772],[9.77023131196789,45.6970355791689],[9.77010452859325,45.69698781132732],[9.769972979611639,45.69693823029124],[9.769722419151186,45.696845751925316],[9.76865629467446,45.69645212792938],[9.767279068507985,45.695797892377186],[9.767208222504117,45.6957642270698],[9.76706602895423,45.69569767826323],[9.765702699867838,45.69514694444983],[9.765270742593676,45.694971620254364],[9.764393250600344,45.69467147063381],[9.764316449122733,45.69463146807583],[9.763565433268324,45.694244960510375],[9.763395355928568,45.69413177648015],[9.763009723685501,45.6938751355237],[9.762852583097624,45.69377267969331],[9.763067852637132,45.693546222652046],[9.763326030811195,45.693229468225454],[9.763469301603827,45.693053261641545],[9.763510008270782,45.69300322840692],[9.76202822130444,45.69244693343758],[9.761300023536817,45.69317549351221],[9.761247541027885,45.693228184968305],[9.76115113537561,45.69332499507748],[9.760586798182052,45.69406851434729],[9.760431921562779,45.694274857360114],[9.760053824809283,45.694599131191396],[9.7589868585995,45.6939140677292],[9.758977309060377,45.69388386762547],[9.758978553190351,45.693850319504726],[9.758989371191705,45.693805192095205],[9.759001459229358,45.6936553286912],[9.75900389273461,45.69356842734584],[9.7590248003849,45.69349488562831],[9.75905881604883,45.693426828338254],[9.759100734171778,45.69335153945256],[9.75914160768786,45.693278126967975],[9.759186983145646,45.69317550290197],[9.759264825790316,45.693063275157044],[9.759285694343353,45.69302228341212],[9.75934681731688,45.69293496496717],[9.75955841323718,45.69280283001671],[9.75961106525902,45.69274919491713],[9.75965693034183,45.6926753341115],[9.759803063713127,45.69239630898016],[9.759894271893245,45.69225555821551],[9.759945497796485,45.692138414347866],[9.760002409039224,45.69202191579756],[9.759683448612606,45.692183117361544],[9.759544839541448,45.692102890032956],[9.759363766046864,45.6919752718012],[9.75927270103534,45.69189802781885],[9.759208404038166,45.69183508104392],[9.759114545091192,45.69172976294786],[9.759071260856228,45.69168119753888],[9.759024916006666,45.69164031397154],[9.758948098119268,45.69155292921868],[9.758902215138658,45.69150572753569],[9.758860145947033,45.69144061671086],[9.758820024582057,45.69136729405716],[9.758797809255821,45.69132672266492],[9.758777885199304,45.69129526831311],[9.758659893180681,45.69133701300501],[9.758550438859984,45.69137987099677],[9.758438336009062,45.691423768963126],[9.758379059119793,45.69144706334171],[9.758326438167922,45.69146792918315],[9.758214666956698,45.69151225406839],[9.75810212461226,45.691556837785036],[9.757987337086048,45.69159581345583],[9.757871706447673,45.691634947618496],[9.757809741696732,45.69165591751038],[9.75775613444154,45.691674060572964],[9.757714153053087,45.6916490304319],[9.75764575673277,45.691555611482904],[9.757312551778368,45.69111906081538],[9.757258562217451,45.691048325477134],[9.757189543864799,45.69096104534904],[9.757168694148426,45.690934678730684],[9.757131776974845,45.6908879920632],[9.757069524687196,45.69080927003241],[9.757007273859417,45.69073054795702],[9.756945023207296,45.690651825845514],[9.756898860597381,45.69060075663789],[9.756833244051153,45.6905988754339],[9.75676214570616,45.69062515546614],[9.756648549157465,45.690667138094284],[9.756552139841407,45.69070259908454],[9.75646080425675,45.69073545215384],[9.756413573676454,45.69074156143145],[9.756332394838793,45.690752061040065],[9.756242887569568,45.69076363821911],[9.75595894153026,45.69080327965544],[9.755874621645571,45.69086587684891],[9.755787554500431,45.69093029232458],[9.75569623519364,45.690995121096975],[9.755605900720816,45.691059089101095],[9.755515566054155,45.69112305793437],[9.755427038962662,45.69118574562294],[9.75533077939772,45.69125239433629],[9.75523737184905,45.691182002363746],[9.75515280679358,45.69111759863637],[9.755066331295351,45.69104778716005],[9.754982142533489,45.69097982098131],[9.754897955296387,45.69091185742997],[9.754813765646647,45.69084389023143],[9.754729578793755,45.690775924751804],[9.75464538956456,45.690707958325014],[9.754559545102625,45.690638658040854],[9.754471808410804,45.69056816317372],[9.754387384177997,45.69050034302022],[9.754344744313098,45.690466087411274],[9.754292241688912,45.69042443069938],[9.754198683955435,45.69034686878108],[9.754151430660428,45.6903077074884],[9.7541062011612,45.690270719124],[9.753998839874274,45.690184241002676],[9.75388642976454,45.69008624980308],[9.753853221616987,45.69004266089],[9.753743798150321,45.689967337388836],[9.75371128992367,45.689944959725516],[9.75366872292478,45.68991577986132],[9.753582877241255,45.689849076488585],[9.753497185353442,45.68978204710544],[9.753411496214758,45.689715015839006],[9.75326414299947,45.68959974329906],[9.753234106192012,45.68956655718018],[9.753076051210803,45.689459185696705],[9.7530367449046,45.68943855831346],[9.752763342158149,45.689227084014874],[9.752707411139422,45.68918424664249],[9.752620722941845,45.689117850518656],[9.752534032381268,45.68905145434388],[9.752447343286022,45.688985056292786],[9.752396112665048,45.68894581875203],[9.752359746753013,45.688919258207655],[9.752270839214848,45.688854324668675],[9.752170716076916,45.68878113191285],[9.752131662640116,45.68875219386241],[9.75202717605231,45.688673452777465],[9.751927749278725,45.68860636770296],[9.751878546515881,45.68862813337418],[9.75184166554425,45.68865204924552],[9.751741906999394,45.688590281197186],[9.751691196657633,45.68855051156411],[9.751652175260165,45.68851990797976],[9.751395522821594,45.688318617145676],[9.751368258207425,45.68829705490207],[9.75096969352666,45.6879818409525],[9.750876078257475,45.687907198338614],[9.750800152403533,45.68784665894558],[9.750756694703682,45.687812008619694],[9.750715189058885,45.68777917802386],[9.750630028442986,45.687711815345516],[9.750591173460755,45.687681084289224],[9.750534067603894,45.68763591243839],[9.750459697576241,45.68757709165965],[9.750374524781225,45.68750973246898],[9.750340041621158,45.68748245774241],[9.750298238084593,45.68744776937297],[9.750052575876037,45.68723092723407],[9.7499311472553,45.68724811226377],[9.749536339612755,45.68730398382541],[9.749354602509698,45.68732970338078],[9.749277949362785,45.687305116262195],[9.749190105039848,45.68727694003477],[9.749125765065966,45.6872592621298],[9.748904497865004,45.686339588507956],[9.74889765022124,45.68629636357204],[9.748882475086448,45.68626088445751],[9.748868148920954,45.6861675719618],[9.74880962842308,45.68591211425315],[9.74953057244512,45.68584132288585],[9.750274610833955,45.685782427449254],[9.75077299411351,45.68559913069151],[9.751092808736187,45.685507035202065],[9.751552660637891,45.685323989253526],[9.75205079583125,45.685122696716746],[9.752638208708579,45.68487579876035],[9.75325191205017,45.68467374043381],[9.753929803621512,45.68447125431475],[9.754479401883689,45.68427860787598],[9.755016526795293,45.68411304560713],[9.755630187411281,45.68391097385391],[9.756244476800617,45.68375389264479],[9.756884428050416,45.683596636312394],[9.757106351788229,45.68352773222445],[9.757447048007704,45.68342186581088],[9.758228301067213,45.68327261544781],[9.759461312243008,45.68304628300191],[9.75958839289104,45.68302224199214],[9.759673637992737,45.68300649521205],[9.759765337768838,45.682989562331876],[9.759866143522451,45.68296638431744],[9.761250286937257,45.68264663693317],[9.761968698976258,45.68259685040246],[9.762672958773503,45.68244812902122],[9.763146437828519,45.68232796846559],[9.763633262376974,45.682243700397144],[9.763881801459979,45.682254630107124],[9.764301398507355,45.68220274556014],[9.764990517461353,45.68211128916896],[9.764859526683727,45.681539358345944],[9.764972071674787,45.68153555349461],[9.765407777754735,45.68146962996586],[9.765869024341134,45.68139453628831],[9.76621423389448,45.68128421919788],[9.766546952812403,45.681200971272155],[9.767034131547884,45.681143708715126],[9.767601052648587,45.68122539564346],[9.767652532333457,45.68123404519985],[9.767754612597082,45.681246871319686],[9.768249874058359,45.68119402988934],[9.768293146827402,45.68118924114711],[9.768423732268895,45.681195364636],[9.768627259169453,45.681205015227974],[9.769268379356944,45.68113769383485],[9.769576018802095,45.68109962109469],[9.770011467529459,45.68101567099654],[9.770600487268723,45.68089468267521],[9.771458644814658,45.6807358914016],[9.772085659121235,45.680578638062755],[9.772571712815378,45.68044034356745],[9.772897193909612,45.680336358371456],[9.773147051047495,45.68025645104394],[9.773824567902912,45.68003584026518],[9.774437868195232,45.67981567970085],[9.774833409464748,45.6796329739573],[9.775178331750409,45.679485872130286],[9.77537832967918,45.67939741615708],[9.775480827618313,45.67934913013465],[9.77586692222451,45.679157902590354],[9.776276159801581,45.67903812470482],[9.776813542545659,45.67889944531772],[9.777723600843398,45.678785250237425],[9.779966465878825,45.67848193325375],[9.779477408173776,45.677477190585876],[9.780306166099344,45.677471501363094],[9.780774137065428,45.67746832829034],[9.78044457303349,45.676394075667965],[9.780209259657092,45.67562701542181],[9.78016661314338,45.67533028495106],[9.780135296860713,45.67492545575045],[9.780091426427298,45.6745387220964],[9.780150354757723,45.67416028190807],[9.780314256366516,45.6739431387154],[9.780465800052756,45.6737620985242],[9.780733146683879,45.67359825862923],[9.78117947343382,45.673379182791244],[9.781546499977866,45.672998630998286],[9.78421918186791,45.67316026801528],[9.783957116212505,45.67370208618478],[9.783819519650368,45.673964051331794],[9.78382454550233,45.67432404389145],[9.783930913230835,45.67458433499705],[9.784154177914955,45.67506642345979],[9.784462101796096,45.67573132479818],[9.78450018431933,45.675813551816944],[9.78379832861224,45.676124385649004],[9.784168747704227,45.67690492423911],[9.783823878092921,45.67703330320869],[9.784339176280957,45.678073848900496],[9.784623137079834,45.67817991933478],[9.784877765050863,45.678943240726035],[9.786288306676003,45.67880752885179],[9.78659531616979,45.67872439942927],[9.787029937606837,45.678586398373874],[9.787439525181265,45.678493563576794],[9.787925647162588,45.67836419958295],[9.788361047890403,45.67828019871269],[9.788757897773781,45.67819644345479],[9.789037619514822,45.678181166218934],[9.790079386469028,45.6781242705648],[9.790176374320723,45.678522723647404],[9.790193231886406,45.678591735543606],[9.790210637263922,45.67866299116499],[9.790219936830342,45.678701066233124],[9.790249312370122,45.67882122809144],[9.790256945133802,45.6788524506208],[9.790277212281307,45.67890916622671],[9.790337157132369,45.67907691481299],[9.790444931350473,45.67943619679883],[9.790527029246034,45.679795642838684],[9.790127444946963,45.6796992536122],[9.789658529917736,45.67996803229252],[9.789228686071242,45.67970546619831],[9.788934279529446,45.679770506709296],[9.788540171962508,45.680052256460264],[9.788168972261937,45.68013583486835],[9.787756343863522,45.68001266875147],[9.78746114935591,45.68002369937651],[9.787284426270242,45.680240940958505],[9.787584166403333,45.680553887337396],[9.787946961295214,45.68078541901434],[9.78804025011299,45.681027778282434],[9.787798301534261,45.68117346899017],[9.78746384718007,45.68113076063724],[9.787081320981931,45.6813224149771],[9.786891102559677,45.68149475264207],[9.78666188047746,45.68163133980039],[9.786359041770487,45.68201146204788],[9.785987546644154,45.682077023733775],[9.785791425843962,45.68182634862881],[9.785646915741374,45.681593335292135],[9.785262364127455,45.68164097638031],[9.78508550129004,45.68184919298746],[9.785147424814085,45.682087298483864],[9.785166929181713,45.682163664596544],[9.785077264042094,45.68217779292094],[9.784821023059628,45.68222005204726],[9.7846384662486,45.682423818325354],[9.784618717010018,45.682446460631546],[9.784573523882017,45.682428762081145],[9.78436055205787,45.68234922661788],[9.783831463062853,45.68216384794585],[9.783577445529884,45.68236359607993],[9.783772802985398,45.6825602705043],[9.783621598221101,45.68276833577697],[9.785495468738679,45.68306204621106],[9.787032030080672,45.6833029252955],[9.788227828267146,45.68338555275065],[9.788574703542142,45.6834094837219],[9.788632763111423,45.68388612693334],[9.788636449923315,45.684154261507985],[9.788636647755085,45.68418287118634],[9.78865390688638,45.68449778404563],[9.788658080291366,45.684794775597084],[9.788645476960152,45.684957873616966],[9.788625729640037,45.685209345503004],[9.788656354939729,45.68556016588089],[9.788647170112645,45.68579190154631],[9.788645788030312,45.68582048521971],[9.788637345438664,45.6860373274269],[9.788638392803492,45.68687410042068],[9.78863840364611,45.687027392174215],[9.788639482616022,45.687114770463054],[9.788644087471647,45.68743238886958],[9.788492407595466,45.687604444063176],[9.78842041168866,45.68796496895901],[9.788655919353772,45.689187445468555],[9.788678476243856,45.68934477861324],[9.788687759700316,45.68941079700219],[9.788704434922233,45.689528579580305],[9.78877000476431,45.68998781042383],[9.788903235735216,45.69032892651897],[9.78899755779329,45.6906433050054],[9.78905297145445,45.69093094778023],[9.789071374436132,45.69132684827974],[9.789165952466934,45.69165923460988],[9.789259140120585,45.69189260578382],[9.78949422137538,45.69217001143011],[9.78980585953423,45.6924108668305],[9.790388459261607,45.6927398780377],[9.790865642581705,45.69288057842775],[9.79149860352733,45.69313721500561],[9.791885895762395,45.69327855188047],[9.792375677115766,45.69340116862904],[9.792800868846212,45.69349722537626],[9.793240196340864,45.693683194476996],[9.793526289588476,45.69393323138969],[9.793954672579783,45.69425428106927],[9.794355475111923,45.6944405126915],[9.79465224774949,45.694537456292316],[9.795205756200318,45.6946236160016],[9.795527231963968,45.69464838309542],[9.795672838438152,45.69495338437],[9.795816659478383,45.69513240583185],[9.796668369585227,45.69542338592751],[9.790818114282954,45.698029321057035],[9.79001809493764,45.698385633396995],[9.789199345049846,45.698218874013804],[9.78813738868516,45.698002605363534],[9.786785779665255,45.69779589893905],[9.786728569973292,45.6979072490045]]]}}]}
