{"type":"FeatureCollection","metadata":{"code":"017087","referenceDate":"2026-01-01","sourceDbfExportDate":"2026-02-18","upstreamArchiveUrl":"https://www.istat.it/storage/cartografia/confini_amministrativi/non_generalizzati/2026/Limiti01012026.zip","sourceManifestSha256":"70ac8256c4785dc6ed2814c32b6965ae76f9161b51abaa1660059e1c6cbd8ca6","license":"https://creativecommons.org/licenses/by/4.0/","attribution":"Istat, Confini delle unità amministrative a fini statistici al 1° gennaio 2026, versione non generalizzata.","modifications":["Converted from WGS 84 / UTM zone 32N (EPSG:32632) to RFC 7946 WGS 84 geographic coordinates.","Converted from shapefile to per-municipality GeoJSON without geometry simplification."]},"features":[{"type":"Feature","id":"017087","properties":{"code":"017087","name":"Lavenone","alternativeName":null,"regionCode":"03","regionName":"Lombardia","territorialUnitCode":"017","territorialUnitName":"Brescia"},"geometry":{"type":"Polygon","coordinates":[[[10.401170283625644,45.80192802258047],[10.400629059547008,45.80189866021259],[10.400112223144676,45.801814985711516],[10.399620426234229,45.80170399721006],[10.399247500435504,45.80153538341905],[10.399060715225701,45.801449836562064],[10.398772743505505,45.80125535225849],[10.398732586716955,45.80122413076797],[10.398339638622454,45.800918623122136],[10.398025508094458,45.80070644665059],[10.397593312452575,45.800405723558114],[10.397561031049893,45.80038628357003],[10.397316326535258,45.800238921515934],[10.397109916908827,45.80011462031931],[10.396719276301605,45.79993038079689],[10.39640010454791,45.79981628123461],[10.396121784192761,45.79971505302739],[10.395613900756906,45.79946685306379],[10.395131621925067,45.79922072243804],[10.39468819384756,45.798983112598314],[10.394252480203363,45.798706148378955],[10.393940354726475,45.798407201467896],[10.393703197952966,45.79818507844785],[10.39360957819133,45.798102428224155],[10.393321597927223,45.79784770267835],[10.392813629532736,45.79760187553336],[10.392098962486296,45.79732256576502],[10.391647586805487,45.79722685919789],[10.391522092230323,45.79719274857829],[10.390830694786143,45.797032002131125],[10.390558344617574,45.79694530664231],[10.390144022820673,45.79684234843513],[10.38989355581718,45.79660236985451],[10.389773259998854,45.79641767384725],[10.389690890649991,45.79629120835097],[10.389626010803898,45.7961915934636],[10.389432178710157,45.79621252683205],[10.389164262104226,45.796226625541664],[10.38830786505392,45.7962915933173],[10.387930691437393,45.79632020382174],[10.387402855691215,45.79630862569339],[10.387104970330535,45.796231227414836],[10.386831067432833,45.79608155653051],[10.386489680853307,45.79580667392037],[10.386069350331208,45.79546074853991],[10.38590561997037,45.795334347553656],[10.385793863696872,45.79524807030302],[10.38557186433343,45.795115756518356],[10.385324545288523,45.79500174091837],[10.384908240636396,45.79481777299735],[10.384635216244554,45.7947040864227],[10.3843739571208,45.794545241226245],[10.384019290831283,45.794252502521594],[10.383984614224968,45.79421035183232],[10.383740700140027,45.7939138645533],[10.383447477112513,45.79350338456756],[10.383220340956102,45.79316410415784],[10.383085031120368,45.79289573010691],[10.382483749608774,45.791993927919165],[10.381899143453893,45.79176698995732],[10.3816742490534,45.79151768849702],[10.381587531675978,45.79113171252349],[10.382288846419492,45.79108543913539],[10.382258402296475,45.791033453780386],[10.383183497775253,45.790984525490316],[10.38334874476205,45.790910923666885],[10.38368858787554,45.79075059098405],[10.384224570431678,45.7905864947215],[10.38565247179869,45.79013497900926],[10.385798022455687,45.790020146097845],[10.386042410814,45.789925103591926],[10.386122184220373,45.78982926782074],[10.386308923673779,45.78958965217283],[10.386592841603404,45.78951553794805],[10.38702195438403,45.789403520429495],[10.38706503560556,45.78925752728349],[10.389178920193576,45.78927617889367],[10.3898537106107,45.789280410226226],[10.390016640683111,45.789278733881446],[10.390107889793589,45.78927425727257],[10.39047382742477,45.789242468500575],[10.391782268961073,45.78912145129799],[10.392554056907725,45.789047834527175],[10.393735011914986,45.788938033727106],[10.394326949589558,45.78869587465885],[10.394558968416058,45.78860095406756],[10.39526801727291,45.78830583832073],[10.395620740558794,45.788163548230244],[10.39687283763927,45.78764865182365],[10.397398213504726,45.78743259626041],[10.397410053786711,45.787339327859044],[10.397473167580799,45.786842175183416],[10.39768278608207,45.78529622466886],[10.397797736734622,45.78450323785946],[10.39788439811566,45.783871962552446],[10.397959252703563,45.78344105342939],[10.398164264265095,45.78215069806117],[10.398242776457838,45.78170108528707],[10.3983714600824,45.780920782414434],[10.398425489039402,45.78055347505059],[10.398441445785249,45.78041788126808],[10.39846542259807,45.780260920501355],[10.39843901253503,45.77964507865678],[10.39842246568105,45.77938664430724],[10.398415056685085,45.77914845781049],[10.398245757619051,45.778393529926824],[10.398168880180554,45.77801764487444],[10.398268881019558,45.77779183381179],[10.39845829953055,45.77741400322019],[10.398684521102815,45.77697925087952],[10.398850812444882,45.77664280024547],[10.398913004781482,45.77653170726856],[10.399096176975446,45.77611121638155],[10.399816746022903,45.77443944295796],[10.399878897224411,45.77432533465784],[10.40003997006666,45.774003491329616],[10.400303432601108,45.77349801007743],[10.400964645061677,45.772218291868796],[10.401154810763744,45.77185684668032],[10.40126119550976,45.771647515876076],[10.400992019668983,45.77068177593203],[10.400588975963702,45.76988902437094],[10.400198908600753,45.76967752647282],[10.399136946246081,45.76910660370842],[10.399150137238305,45.768622000453995],[10.399154894544314,45.76807262193672],[10.398962369580694,45.767942071611216],[10.398779379894435,45.76782157598369],[10.398174295583178,45.76741791784724],[10.398113347520697,45.76719456686677],[10.39789373735252,45.76623703758036],[10.3978479072542,45.76607352673444],[10.397807131922347,45.76592804738783],[10.397657411556908,45.765567687802495],[10.397540381173686,45.76535653910255],[10.39749526967716,45.76527744575102],[10.397462478444826,45.76522301682519],[10.396321922389225,45.76322920191559],[10.39626555700433,45.763137485196125],[10.395946848868592,45.76257348459575],[10.395644896799196,45.762044183400114],[10.394662892786709,45.76034565766511],[10.39460711337305,45.76019563841116],[10.394581313739172,45.759979241333454],[10.394588020829842,45.759838657101454],[10.39463497426909,45.75965359465522],[10.395080650752808,45.75887079930331],[10.395928868911765,45.75726332831953],[10.396129093786618,45.7568838641899],[10.39627265136566,45.75660370596312],[10.396393621723785,45.75637482216425],[10.396412406402519,45.75633405295074],[10.396512246164614,45.755993709422505],[10.396557550548067,45.75584738855296],[10.396679787900414,45.75545259432397],[10.397064713935944,45.75525348813573],[10.397126439686787,45.75521874620595],[10.39727395843513,45.75507137197946],[10.397660973569815,45.75466248718866],[10.397836765274857,45.75455321950957],[10.397608133648545,45.7541509773734],[10.397552583430333,45.75403784817955],[10.397445586909049,45.75381994714855],[10.397336449776157,45.75356925887472],[10.39736454778803,45.75345053843364],[10.397263042443516,45.753133489217454],[10.39753163236779,45.752863446843484],[10.397809843537855,45.752589028715285],[10.397867589579247,45.752523255293795],[10.397951159449029,45.75244692290822],[10.398139868848888,45.752400653467824],[10.398271082096368,45.75238278748046],[10.398460699571002,45.752250390311524],[10.398778601422265,45.752161226262146],[10.39902242333581,45.75201987917274],[10.399123264938492,45.75194535957318],[10.399195636818064,45.75188510384307],[10.399309992099589,45.751766908667],[10.399466671870211,45.7515967282687],[10.399549893440406,45.75145723132207],[10.399659937890236,45.75130912492291],[10.399754441641358,45.751176609219364],[10.399796225213526,45.75114053503786],[10.400187633835085,45.75093389505349],[10.40035640042379,45.75087344708723],[10.400553037872145,45.75079901194305],[10.400793100984426,45.75071154183761],[10.400916912978973,45.750643174532456],[10.400955047920172,45.75063602825402],[10.40140866296369,45.75048278799588],[10.401637648979492,45.750389484467355],[10.401837648967582,45.75022508778995],[10.402039772232872,45.750066974262474],[10.402150463634927,45.75008095661162],[10.4033180476,45.750228441059306],[10.404102694287202,45.7503496079332],[10.405913190323613,45.75066345684832],[10.40596393210966,45.75066173423805],[10.407107334458875,45.750670157683615],[10.407344684293212,45.75071812434796],[10.407597581478921,45.75066137258065],[10.407801883319825,45.7506134908911],[10.407856115055342,45.75057753936724],[10.407969553608577,45.750454703262974],[10.408334754687594,45.750073318729484],[10.408718167814563,45.7499152893732],[10.409151055340418,45.74973339934251],[10.409632488242424,45.74952296111429],[10.409713742627915,45.749491301652796],[10.410245251894207,45.7492529433881],[10.410389516704237,45.749186608493325],[10.410514841307757,45.749126825853516],[10.410680376901608,45.74893726788931],[10.41073537948645,45.74888484838708],[10.410962147853855,45.74879767675983],[10.411215595290688,45.7487002490008],[10.411288663722873,45.748678201596654],[10.41171321124552,45.74855009827235],[10.411794717537667,45.74852807227747],[10.412237251465344,45.74840842778705],[10.412335739420788,45.74831550540015],[10.412448784874007,45.748245638520515],[10.412544601139231,45.74816705577341],[10.412594110593954,45.74810690319064],[10.412690364215493,45.74804618151994],[10.412891616943453,45.74793354956763],[10.413067294711658,45.74781825435758],[10.41312522372538,45.74775502712166],[10.413276515436067,45.74768468627848],[10.413395239864652,45.747671309291185],[10.413578012029818,45.747669047707355],[10.413799571581052,45.74768715166335],[10.413969272725172,45.74771965844562],[10.414245953353745,45.74776649478395],[10.414545647798272,45.74765508933556],[10.41467721848186,45.74760469361548],[10.414717028551093,45.747590522058886],[10.41481266676556,45.74755512729681],[10.414820452599495,45.74744197617117],[10.41482352295168,45.74717426299732],[10.414830178489854,45.74701790846271],[10.414837445846196,45.746479245819565],[10.414264735703364,45.74565108474919],[10.414553099703328,45.74551455332648],[10.414798602136953,45.74539983625997],[10.415011239663732,45.74533993029645],[10.415164897572668,45.745298911965236],[10.415402129534067,45.745235583598884],[10.415941936152043,45.745088949123435],[10.416016862595203,45.745071800892156],[10.41666511703429,45.744895974600176],[10.416877456264066,45.74465092656995],[10.41715164989739,45.7443236579003],[10.417462139995704,45.74432999628536],[10.418084066986136,45.74434268937198],[10.418388485940882,45.74424895391842],[10.418443752380952,45.744245375712524],[10.41849807023663,45.7442152109452],[10.418603951342527,45.744182608354535],[10.418978924546819,45.74406990077045],[10.419102832395827,45.74363492446231],[10.419183431468259,45.74334233084872],[10.41988507969511,45.74290082073945],[10.419950783924648,45.74284054191394],[10.420407485205892,45.742600831891316],[10.420630656393369,45.74253905178709],[10.42106621157253,45.74233128318056],[10.421332566471959,45.742204225178355],[10.421507147060687,45.7421154559225],[10.42153962041316,45.74204309925841],[10.421597247681559,45.74180907183775],[10.421582479483918,45.74177471947609],[10.42159337125155,45.741736375445676],[10.421595498829845,45.74170877945388],[10.42167603569272,45.7413837115893],[10.421763391980019,45.74101690296931],[10.421813618735152,45.74084132883933],[10.421880921704949,45.74062850374433],[10.42193512036892,45.74044940579165],[10.422091171140965,45.739987026076555],[10.42226690780916,45.739749214590354],[10.422501897272761,45.739442897766835],[10.422644471292516,45.73925082679388],[10.422842567649367,45.73898864070943],[10.423077555392949,45.73876091788855],[10.423376316341635,45.73846436720312],[10.423476905748696,45.738061735419805],[10.423582328790618,45.73789965788787],[10.423747850689672,45.737652394452155],[10.424176035028115,45.737005009815704],[10.423610404829024,45.73683874048256],[10.423457582576907,45.73681382247231],[10.423318413079054,45.73678847312057],[10.423030776709577,45.73673608056413],[10.422660452256228,45.73695523432577],[10.422497218487395,45.73703007396321],[10.422375575858183,45.73708584388425],[10.422077531832086,45.73699054826394],[10.422025846709385,45.73692853242447],[10.42121071741475,45.73675293393241],[10.42078482335272,45.73666118409898],[10.420632395833248,45.73662834657022],[10.420331488940636,45.73656952364659],[10.421262993712006,45.73486819385927],[10.422077152155994,45.73338832426297],[10.422005824324556,45.733022491253024],[10.421898407612,45.73231539071759],[10.419766424496217,45.731393175942166],[10.419852393508863,45.73132211149973],[10.419936171871235,45.731252858188206],[10.420164294486305,45.7310233092182],[10.420302565754842,45.73089775656793],[10.420455994655118,45.73072628200939],[10.420708843507084,45.730505956341474],[10.42090093220274,45.73035687147294],[10.421063386215357,45.73021958601121],[10.421289381500003,45.730012914342225],[10.421429888299762,45.72986827771266],[10.42156785133601,45.72973130527418],[10.421705391127306,45.72957717333337],[10.421789463027203,45.729459917111406],[10.421882237531774,45.72936350645319],[10.422004412479904,45.729247665948904],[10.422195590623643,45.72906792344102],[10.422322484039539,45.72891792956195],[10.422504744766037,45.72881088123495],[10.422621073276684,45.72867797526437],[10.422634053259571,45.72854635633578],[10.422679447398053,45.728406709991965],[10.422745178067151,45.72831635996407],[10.422833214019567,45.72824857620147],[10.423114546949021,45.72807932111352],[10.423261652786449,45.72798032423957],[10.423429370743206,45.727837254228945],[10.423506052278558,45.72775056564818],[10.42360362642499,45.7276293234314],[10.423705134623985,45.7274489775705],[10.423784878227488,45.72726889389388],[10.42386947526334,45.727065896518084],[10.423933882577172,45.72692411346061],[10.424012692077428,45.726814535857294],[10.424069563990713,45.72674941322945],[10.424155418422965,45.72670380849985],[10.424544402770662,45.726359455355635],[10.424783596849238,45.72613793434412],[10.424933805296115,45.72603496681189],[10.425010953649108,45.725982081241284],[10.425065813403924,45.725898505374666],[10.425174798139757,45.7257288586909],[10.42520147032487,45.725641373431955],[10.425195756053144,45.72552331763452],[10.425142944711322,45.725264887192154],[10.425099801699277,45.72509301424184],[10.425279002174044,45.72451923369322],[10.425401670176765,45.7242890725415],[10.425510269926933,45.72406767362117],[10.425604783077745,45.723933614603204],[10.42575052005363,45.72379277398686],[10.426013549643766,45.72356271791443],[10.42619191485708,45.72335758497325],[10.426330922058442,45.723208685456655],[10.426499847441189,45.72302763015238],[10.42657032155929,45.72294913122241],[10.426823972186643,45.72307677701972],[10.427102079373558,45.723316217781786],[10.427418057491474,45.7235742214201],[10.427687978385428,45.72375897487246],[10.427799104361528,45.723850465666004],[10.427988961735501,45.72396239416664],[10.428319928645447,45.72414162150889],[10.428711081157633,45.72427961832644],[10.428968064565906,45.72435736646171],[10.429049967348975,45.72436497186844],[10.42939748054459,45.724397241064075],[10.429619222881428,45.72442542000666],[10.429666622116645,45.724437852804265],[10.42989650038621,45.72449815061359],[10.430129633102336,45.724573809464395],[10.43038266123131,45.724671675822385],[10.430454165583265,45.724603463983634],[10.431495559973989,45.72359643474285],[10.431253102685835,45.72350000543434],[10.43189283511145,45.72320431095511],[10.4336048651099,45.72241295050516],[10.435554809521692,45.721838473451825],[10.437092253120161,45.72202040950399],[10.437578417559491,45.72238340802335],[10.438549146072218,45.72311239823384],[10.43865210588764,45.72414206784061],[10.438824659223807,45.72442912505301],[10.438989527496934,45.72470339499085],[10.43910183199469,45.72477342891725],[10.439163088146515,45.724815276184394],[10.4391693667037,45.72484758213077],[10.43911916389351,45.724905370007015],[10.439050681204572,45.724991965841696],[10.439060610203766,45.72537858915397],[10.439032115572314,45.72564567021443],[10.439032995983544,45.72567995234788],[10.439125304729272,45.72588453976734],[10.439132757373862,45.7259625552158],[10.439125106865085,45.72610270566314],[10.439165509280986,45.726191634445314],[10.439198065397576,45.726276334463115],[10.439231104404202,45.726296624637136],[10.439478143348111,45.72638304320612],[10.439640341339741,45.72644958556401],[10.439863544057555,45.72656108303244],[10.44028451682118,45.72664149991837],[10.440374842711549,45.726663223132874],[10.440368055598551,45.72671665672324],[10.440464927671837,45.7268361410061],[10.440592809899442,45.726993874751926],[10.440725640612001,45.72708173088824],[10.440838612438204,45.72713746132547],[10.44097030479089,45.72718152442517],[10.441112246838777,45.72720136640342],[10.441152834644969,45.72722094962589],[10.441647832880276,45.728353022159126],[10.442121431595586,45.729540088527024],[10.442157407904707,45.729592189337644],[10.442410104747955,45.7299220379365],[10.442642659166252,45.73016805450041],[10.442687560774178,45.730215554599226],[10.442732786685989,45.730234769944985],[10.44317607068275,45.730562902581056],[10.443275022541616,45.730636149626385],[10.443321343709286,45.730650064706595],[10.443243672893244,45.730894977816895],[10.443363427461122,45.73115022263105],[10.443188261789684,45.73144512509322],[10.442916283359406,45.73190301327861],[10.443261594018885,45.73234245516644],[10.443345030613115,45.732444082482104],[10.44351544749281,45.73250475129644],[10.444296152021332,45.73277018607644],[10.444739665212811,45.733211712055365],[10.444980235588353,45.73346000847732],[10.444658879847161,45.73385546541775],[10.445058351380572,45.73430425809331],[10.44630252552474,45.73570457073209],[10.446410982204723,45.735823827526175],[10.446687758539884,45.73580841446919],[10.447608435096909,45.73556276501901],[10.44787057315322,45.735441567797125],[10.448458456447238,45.73509474741089],[10.4487571959893,45.735008799328014],[10.449325107550841,45.73487656460258],[10.449773124408091,45.734842310720545],[10.449999686658803,45.73483720281914],[10.450175964310878,45.73484640512247],[10.450362248352933,45.734869755426416],[10.450469057649535,45.73489697687663],[10.45056519831569,45.73494105725399],[10.450704311701918,45.735036400607605],[10.45082250783667,45.735109210349776],[10.450895922728227,45.73514876363781],[10.450965787689002,45.73516787607349],[10.451102673844742,45.73517471503258],[10.451422199511333,45.735142068881416],[10.451691892588057,45.73507720210355],[10.451866384027989,45.7350392691299],[10.452052170244817,45.734964027871115],[10.452169938563186,45.73491268415658],[10.452345715658309,45.734792155052475],[10.452630396758709,45.73482547370713],[10.452826772464897,45.734848459435646],[10.453244577690878,45.73489961605409],[10.453426023119482,45.735271926737994],[10.453465737790703,45.73548146666008],[10.453489062319935,45.73560453349334],[10.453528992101738,45.73583264656366],[10.453533193056613,45.735994536087844],[10.453559814119174,45.73624709732569],[10.453569291429256,45.736337008449986],[10.45360352409326,45.73660806492366],[10.453599692009101,45.7367224152468],[10.453650636015373,45.73685037083879],[10.453691648774127,45.73691114457657],[10.453997800437419,45.73745084424195],[10.454078837576688,45.73762486086136],[10.45414272715808,45.73792410823232],[10.45415784384036,45.73811324824547],[10.454113345330207,45.73836386674328],[10.454124274973987,45.73858878433602],[10.454116307551832,45.738871079733606],[10.454082742743628,45.738953675560154],[10.454043890653693,45.73902918301983],[10.453859807448692,45.73927443142386],[10.453743082332814,45.7394950151225],[10.453639853775279,45.7397106565047],[10.453567393739492,45.739933061920155],[10.453541876417132,45.74012865955349],[10.453578769712886,45.7402401243675],[10.453684050799625,45.74036500320119],[10.453755621606438,45.740422207107095],[10.453816029328516,45.74047048740989],[10.45382010176555,45.74049663698362],[10.453745636396983,45.74053487961018],[10.453705982644617,45.74055524457722],[10.453647891416148,45.740675055760256],[10.453617583793639,45.74081832954276],[10.45361487711932,45.74097554539671],[10.453618213785445,45.74110409772334],[10.453717118622913,45.741245736177746],[10.453808360353467,45.741354115016414],[10.453967979123203,45.74147592578085],[10.453992732086865,45.74150888676034],[10.45405318981384,45.74156166310519],[10.454157746569098,45.74168994400791],[10.45421031958673,45.74174277563659],[10.454280974781136,45.74177710536286],[10.454344721019107,45.741793386347936],[10.454608187849765,45.741831678478064],[10.454767532144256,45.741858181888766],[10.454888673427345,45.741883220275746],[10.454930301507071,45.7418918241101],[10.45498198779908,45.741909995502986],[10.455119483291167,45.7419994944545],[10.455175265740646,45.74202440920269],[10.455245892091948,45.74204027800897],[10.455291111751183,45.74203912586781],[10.455370972542633,45.74204725325216],[10.455441316684745,45.742077238824564],[10.455417546018253,45.74212440897958],[10.45542494709172,45.74216063300466],[10.455490299321728,45.74218451658493],[10.455541017512942,45.7422589012009],[10.455595467257407,45.74229583082209],[10.45567778225607,45.74233950697315],[10.455718720049957,45.742348193123014],[10.45581678507437,45.742363279862154],[10.455910091249269,45.74255083793736],[10.45595792821975,45.74260237899463],[10.456087030976388,45.74270813122081],[10.456256872193626,45.742784219291785],[10.456346689175415,45.74284049047906],[10.456472342096358,45.74295639417245],[10.456544315504196,45.7430091663722],[10.456894526327329,45.74318838009829],[10.456993616315314,45.74325514447459],[10.45703937018191,45.743310554994494],[10.457107471428566,45.743424446803495],[10.457231462751295,45.74370017143278],[10.457276169771916,45.74374348910395],[10.45733747639671,45.7437879181036],[10.457541043317244,45.743883303780734],[10.457690667455651,45.74394848665075],[10.458005925148647,45.74415007797693],[10.45807588666375,45.744212361747024],[10.458197816593106,45.74435091210144],[10.458267253285776,45.74439697397276],[10.458511653932714,45.744500774435835],[10.458715934952707,45.7446006943065],[10.458892952941243,45.744670629239366],[10.458979440764248,45.744710415354284],[10.459159075867527,45.74480280949645],[10.45924882031054,45.74484175273423],[10.459292187592801,45.74486661704169],[10.459342161268841,45.744917076272316],[10.45940733553284,45.7450057117737],[10.45946504758331,45.745053173819976],[10.459536957720047,45.74508801529436],[10.459651949949336,45.74511802183276],[10.459748165705896,45.74515810609658],[10.459942938336146,45.745338405576945],[10.460143599206255,45.74554085247675],[10.46017401271395,45.74556241671165],[10.460587807354239,45.74574840295264],[10.46105121524363,45.74594738036809],[10.461197761212539,45.7460103027884],[10.4613936096681,45.746096068420044],[10.461483423851224,45.74615281262167],[10.461548657835928,45.74620069941811],[10.46160546778544,45.74622431974928],[10.461660720722367,45.746240003252026],[10.461705815932378,45.74624528575061],[10.461795524720314,45.746253651657334],[10.461901933115529,45.74628613298746],[10.46197653883708,45.74631232463979],[10.462131988880646,45.74637566294793],[10.462333906897715,45.74639886559601],[10.46242628135098,45.746389177244836],[10.462649253573947,45.7463211745245],[10.462733952016276,45.746292754498874],[10.46289199887462,45.74625026290429],[10.462982643485088,45.746232441514444],[10.463058334685462,45.74623117866395],[10.46311180184119,45.7462341985837],[10.463156088221167,45.7462641171081],[10.463198762298845,45.74632974451141],[10.46323732954694,45.74641881043002],[10.463275694393978,45.74650740728426],[10.463311972770637,45.746582621434165],[10.46332779892047,45.74666921358245],[10.463339388933155,45.746750144474966],[10.46337101853921,45.74684128659682],[10.4634402386266,45.74706470918547],[10.463533929334266,45.74740979727404],[10.463578693713472,45.74743779233136],[10.4636557140657,45.74749478874274],[10.463748360419359,45.74758248467414],[10.463833081435684,45.74769015589259],[10.463983492468302,45.747758650704654],[10.463945787033879,45.74789837655549],[10.46400768699835,45.74823505082773],[10.464270106204227,45.748521414540114],[10.464456631210052,45.74870339610307],[10.46451541371206,45.7487836048148],[10.464632540154778,45.74883779115454],[10.464749870294899,45.74894054315658],[10.46487275428882,45.74901575332998],[10.46487409540186,45.74907099123051],[10.464881606156283,45.74912017527153],[10.464938687225722,45.74921049549199],[10.465118728550168,45.74942408895509],[10.465229605364941,45.7494624323957],[10.465238127247076,45.749560602969694],[10.465369582934523,45.74971895027549],[10.465415312433668,45.74977403457199],[10.46572114569863,45.750133860623244],[10.465692520869325,45.75031290304203],[10.46570796832587,45.75055726590602],[10.46573356001459,45.75096210907756],[10.465849692671421,45.75096191500071],[10.465928678947861,45.75100704945594],[10.466056990328136,45.75108036961926],[10.466333344275744,45.75124447162892],[10.466421938548969,45.75131892316023],[10.466521133523935,45.75137201461624],[10.46671133759675,45.751467537404835],[10.466881685417853,45.75161992095703],[10.46699180523157,45.75171193522967],[10.46720675903252,45.75186672470682],[10.467334913880439,45.75193515889667],[10.467410273274119,45.75200065463846],[10.467567530299789,45.75213732609076],[10.467649430647722,45.752215273966655],[10.4677391555712,45.7523126170002],[10.46770819820515,45.75235098917899],[10.467687722453395,45.75239682786122],[10.467765579602448,45.752614776684034],[10.467720043320925,45.752675080343735],[10.467654950852666,45.75276128215186],[10.467686800547721,45.75288885544131],[10.46775742055828,45.75294064870143],[10.467913611099165,45.75298855928562],[10.468035705833298,45.7529674675023],[10.468058856439338,45.753104036277904],[10.467955647607168,45.75323931266682],[10.4679359836017,45.753282769242254],[10.467922082524291,45.75332436959788],[10.467899401974035,45.75346363352853],[10.467860751544467,45.753631806240094],[10.467806897282342,45.75375611534249],[10.467757462725702,45.753855247274636],[10.46769885014618,45.75395163305085],[10.467730012181324,45.75401469735349],[10.46775691755494,45.754047180293675],[10.46781539037478,45.754117775659495],[10.467833353520078,45.75414428623826],[10.467846524264544,45.75418515167695],[10.467883779952325,45.75434966673381],[10.467914660363341,45.75462850193383],[10.467967811289851,45.75476564825807],[10.468003657354373,45.75486706772429],[10.468299200887309,45.75559944154733],[10.4684886867905,45.75608851632648],[10.46857509545132,45.75608072688123],[10.46872099330833,45.75620698655372],[10.468871057008998,45.75631851215908],[10.469205499011935,45.75652051139582],[10.469249448752416,45.75653104231199],[10.469404587912837,45.7565287227727],[10.469488884892751,45.75653451501052],[10.469549319204468,45.75654304259053],[10.469648366130217,45.756557017504186],[10.46969409870042,45.75655782424602],[10.469885818380904,45.756543206348766],[10.47015233101178,45.756531378908335],[10.470234057256185,45.756620325202995],[10.470564869675439,45.75678703811415],[10.470692382463206,45.756755081794786],[10.470759668317617,45.75673352084465],[10.471052980651605,45.75663953074214],[10.471219172698737,45.75664018067796],[10.47128182552826,45.756858372287674],[10.471337950578842,45.75707988822461],[10.471273717322918,45.75720638476176],[10.471263977131667,45.75727570568418],[10.471288967318069,45.757376609543186],[10.471387802625442,45.75741704353202],[10.471484410169957,45.75745656644853],[10.47150352255568,45.75754878909255],[10.471537529499374,45.757712873082],[10.471790008620507,45.75777734058751],[10.471832105366634,45.757746053254344],[10.471940842103109,45.75779022323026],[10.472073938210794,45.758003937824306],[10.472103340793472,45.758033611693655],[10.472157202283563,45.758021500950655],[10.472197614950918,45.75807323878071],[10.47220582015702,45.758137037824405],[10.472212352791749,45.758178655245835],[10.472258096356303,45.758272952144154],[10.472324079317525,45.75839240642292],[10.472342527078867,45.75842058417871],[10.47238179448217,45.758446121868715],[10.472431370618123,45.75846075270839],[10.472490437069617,45.75846220643113],[10.472584292066845,45.75845898398576],[10.472620720531147,45.7585102824803],[10.472681920750228,45.758533939674955],[10.472753577000399,45.75861874848443],[10.47285722131633,45.75884067704554],[10.472919470349437,45.758951565348035],[10.472925832736326,45.758991428862494],[10.472940087709029,45.75908073101179],[10.472969989839793,45.75924704925919],[10.473026401199045,45.759451729097805],[10.473066484221416,45.759541193211284],[10.473359464202124,45.75965060878967],[10.473469812842863,45.75969720472596],[10.47356113957893,45.75973829442402],[10.473802300818365,45.759858310582935],[10.47396058251601,45.75993708111954],[10.474040239315386,45.759982281364316],[10.474227313605752,45.76009552748141],[10.474381565305949,45.76013432378942],[10.474536405101396,45.76028035681422],[10.474642775401172,45.760407209082544],[10.474647354607601,45.76046753092453],[10.474665448578145,45.76050490357894],[10.474698120632477,45.76052820340114],[10.474741711891932,45.760532681089835],[10.474933361606823,45.760552366681154],[10.475270466667883,45.76064064977982],[10.475304247062802,45.76066402962275],[10.475407424251129,45.76075990566148],[10.47543741439205,45.76077657481985],[10.4754802641474,45.76078642627955],[10.47561865973119,45.76080461137358],[10.475676881268466,45.76088204469814],[10.475718083667324,45.76091856421143],[10.475752369567429,45.76097182903985],[10.475754925906733,45.76100049955858],[10.47592657572542,45.76104450099057],[10.475931470512728,45.76112185360763],[10.475968048639512,45.761147924346204],[10.476014298094695,45.76116769556103],[10.476126673304757,45.76119931781158],[10.4763657698534,45.761266599742065],[10.476401760250564,45.76128987868932],[10.476371243492101,45.761464189206045],[10.476357293088771,45.76154387084465],[10.476531826144262,45.7617740785872],[10.476565230124411,45.761801666290935],[10.476684314418376,45.76187349243392],[10.476754990319561,45.76190954505044],[10.476805644791142,45.76193247228035],[10.476958264702594,45.761989770231516],[10.477018339730698,45.76201569793988],[10.476864517372638,45.762188350855446],[10.476644848277937,45.76243979264986],[10.476569542345734,45.76252997296886],[10.4764301525991,45.762689720601514],[10.476383340809056,45.76273983900124],[10.47580715210342,45.763118450233556],[10.475595543234846,45.763218618392294],[10.475363679020484,45.763336921543385],[10.475444461956199,45.763397387790775],[10.475481781177072,45.76342459400509],[10.475579408118186,45.763595077112335],[10.475548349923454,45.763932026971354],[10.475590504764552,45.76411343347998],[10.475591240570575,45.76420229780534],[10.47559706388319,45.76432364327829],[10.475472427058868,45.76441302893918],[10.47542134319264,45.76455141887577],[10.47539066540511,45.764642390078556],[10.475153847264865,45.764942492645254],[10.475077240633947,45.765035453779234],[10.475029034953389,45.7651360444387],[10.475022610943718,45.76535923180378],[10.47483038059721,45.765658082854465],[10.474726404682643,45.76583084527448],[10.474727951305836,45.765891967676936],[10.474757278277544,45.76615418711829],[10.474329248855126,45.7663692506217],[10.474047301116975,45.766573120762324],[10.473860051051314,45.766606646295905],[10.473717578724626,45.766632153799684],[10.473365844521261,45.76669826538891],[10.47310159063114,45.766789395104695],[10.472980544773622,45.7669091912645],[10.472953988640606,45.76693547306412],[10.47278282944319,45.767017714931974],[10.472485394944952,45.76736550543924],[10.472196052075972,45.76747743323843],[10.471922601282785,45.767631297215836],[10.47176910906617,45.76773601889327],[10.471526479234123,45.76789705447608],[10.471131677239836,45.7681339188244],[10.470700003458719,45.76842133688554],[10.470300175861594,45.768669847047576],[10.469990307614903,45.76887475049973],[10.469763770773403,45.76901769964956],[10.469155036180021,45.76939087208892],[10.468619245961133,45.76971221304795],[10.468358409477357,45.76987263883183],[10.468086194786522,45.77003573046351],[10.467887550133767,45.77008426820771],[10.467812381071289,45.770101511116366],[10.4675116212476,45.77017050133058],[10.465331195799623,45.770603292831034],[10.465029085199236,45.770661046446506],[10.464783767233808,45.77071866509075],[10.46431781089705,45.77082406161175],[10.463268645585726,45.7710466388369],[10.462725394004117,45.77110466673685],[10.46244464834894,45.77113070920418],[10.461732477597806,45.77120578208913],[10.461545926859536,45.77128240748277],[10.461038149135831,45.77130714763156],[10.46077620729964,45.77144753443403],[10.46050138190233,45.771489589809924],[10.460283705921917,45.7714746771024],[10.46001316595037,45.77151043897983],[10.459765227744994,45.77155473216016],[10.459626947901002,45.77168604735384],[10.459563711669803,45.77174609847596],[10.459434054840411,45.77177876271528],[10.459315335511947,45.77181655253927],[10.4589760034466,45.77169303716273],[10.458806990918948,45.771635307150085],[10.45864381239647,45.77160715726377],[10.458022714778345,45.77150790504594],[10.457809428275437,45.7714768202],[10.456233997103999,45.771291282592216],[10.455621474278132,45.77122420280306],[10.455420951684804,45.77116602951659],[10.455019086088276,45.77126683616658],[10.454379343547007,45.7714236397933],[10.453505732187924,45.771199289514215],[10.45267771674742,45.770992057262085],[10.452593382340373,45.77079785774992],[10.452040679286492,45.770655542711275],[10.4516454325894,45.7707012864927],[10.451041052005051,45.7708752725862],[10.450622004847496,45.7709664441547],[10.450145707326687,45.77107293122862],[10.44972347546734,45.7711614306883],[10.449134715587878,45.771293885851215],[10.448700692660859,45.77135183844225],[10.448412372427553,45.77140255959449],[10.447884024365846,45.771490507515175],[10.447391872220788,45.77156669839977],[10.447006019919447,45.77162890361424],[10.446335697910495,45.77174368283059],[10.445110803167525,45.771947373118415],[10.444107066628304,45.77211693196068],[10.443531437907199,45.772293620035775],[10.442743362184666,45.7725285863391],[10.442499010791991,45.772683254245685],[10.442160388393901,45.772900650104965],[10.441926927431332,45.77304631352352],[10.441573590749986,45.773270868958754],[10.441444660476881,45.77333626641012],[10.44132355017292,45.77342412999381],[10.44124011690744,45.773487684047254],[10.441087679406966,45.773680126589525],[10.441019147540759,45.773826857673896],[10.440671979727144,45.774433756474295],[10.440639637156382,45.77449029408646],[10.440861280761126,45.774908167839584],[10.44100651828407,45.77485848772945],[10.44139895888998,45.77476781326705],[10.441853611013551,45.774714443520864],[10.442607887957436,45.77466682037382],[10.443070458257525,45.774656207472376],[10.44311635252479,45.77465708942867],[10.443273117272732,45.77466010075371],[10.443232495764974,45.77472883083743],[10.443175124459161,45.77481291181628],[10.443152057371643,45.77490845842004],[10.443069149020893,45.774992861955454],[10.442994291935808,45.775059297191866],[10.442903343967847,45.77516165069303],[10.442823210977407,45.77535318219537],[10.442634643143636,45.77562943023192],[10.441846103140696,45.776885263544216],[10.441592045458737,45.77725007586953],[10.441550807100091,45.777432771855885],[10.44153944969443,45.77758652231294],[10.441574638147214,45.77781210648497],[10.4417658793724,45.77810941409057],[10.441801426358596,45.778164675703614],[10.441909170750025,45.778247407254476],[10.442296137521433,45.77862006122106],[10.442557578819379,45.778859663773275],[10.44289408727977,45.779041171703284],[10.443169637965353,45.77923415966647],[10.443587988047081,45.779607509017964],[10.443639986980195,45.77985335589328],[10.443661478692315,45.78009242366822],[10.443697628064253,45.780306293060015],[10.443790937352178,45.78055874636035],[10.443854848549158,45.78066152839375],[10.443913104256952,45.78073742548263],[10.444048560091506,45.78091390051183],[10.44409321186736,45.781127662271544],[10.44410747994189,45.781284662253434],[10.444074995403795,45.7814100935189],[10.444095278208412,45.78160274149351],[10.444102839686455,45.78189556676037],[10.44407479205599,45.78225909311591],[10.444068809295775,45.782284366381],[10.444021077005731,45.78248600629952],[10.44397326260161,45.78261164029118],[10.443866673733995,45.78276778266884],[10.443802152063313,45.78290553575907],[10.443775051374818,45.7831737859509],[10.44378242713696,45.78345946690509],[10.443793386360003,45.783554583449565],[10.443865438808839,45.78370846786158],[10.443850742720967,45.78379796815851],[10.443810198203712,45.7838758781432],[10.443812964178429,45.783983006238465],[10.443848529737224,45.78404209675323],[10.4438771181376,45.78416079747113],[10.443878808806891,45.78422627463311],[10.443838891626012,45.78432799270379],[10.443806553043835,45.784393890958874],[10.443834219683925,45.78447688831644],[10.443861118091275,45.7845301298643],[10.443942208126941,45.78496768491016],[10.443922646218244,45.78500127998307],[10.44388812163932,45.78503075911172],[10.443809410268418,45.78509796624194],[10.443578654448125,45.78525685394227],[10.443462786950848,45.785383359316455],[10.443369836646673,45.78547502740393],[10.443182104778337,45.78558694746674],[10.442980519718471,45.785689519405246],[10.442874957012293,45.78581944660523],[10.442843875801021,45.785934148797104],[10.442797959188958,45.78600141534337],[10.442765648866956,45.786068492026374],[10.442666384316182,45.78617929387888],[10.442546463400497,45.786280833687854],[10.44243274420435,45.786358479059125],[10.44219663318185,45.786442421942],[10.442007544961875,45.78650196377273],[10.441755739000824,45.786505151055245],[10.441530300127566,45.7864746482593],[10.441374504955627,45.78650519151392],[10.441157943404892,45.78655555577792],[10.441079111043093,45.786666098472814],[10.44101957158238,45.78673352714365],[10.4410010017589,45.78680520939011],[10.440982173461217,45.78686736309265],[10.440914971262846,45.78690154956527],[10.440827481008037,45.78694075328706],[10.44072600273164,45.78696584915756],[10.440645070513723,45.78699544723062],[10.440587137996271,45.787124780603854],[10.440520684117184,45.78718753480401],[10.44041338287275,45.78725080401974],[10.44032551101379,45.787275727967355],[10.440102277365309,45.787330935743455],[10.439979896683749,45.787337239851475],[10.43983796342433,45.78737712906785],[10.439668667258111,45.78741260155394],[10.439535376091118,45.78752382947186],[10.439496380378216,45.78759576885558],[10.439408888027618,45.78763497151103],[10.439324594754014,45.787666510153265],[10.438963209663783,45.78790921382339],[10.438726054401148,45.78821702040128],[10.438692802696316,45.78851274489507],[10.438677091614805,45.78896065820544],[10.438653796910168,45.789113361312815],[10.43838718914469,45.789335814871535],[10.438215835053082,45.7895265722665],[10.438162163074935,45.789586321706075],[10.438168764070888,45.789843435072285],[10.43825999069855,45.79021379253984],[10.438170575937145,45.79044353731289],[10.437932916159752,45.79073230287033],[10.437674025504146,45.79123674104003],[10.437444243220991,45.791386749867144],[10.43739893979349,45.791524824349175],[10.43734164183821,45.79168781078573],[10.437292444076888,45.79183957935132],[10.437394894412,45.79211630540764],[10.437483142804126,45.79235466886903],[10.437615246291527,45.792904626264466],[10.437677576614867,45.793124918183736],[10.437715506909818,45.79326481555917],[10.43781482478466,45.79363112091648],[10.437948223175386,45.79411061268828],[10.438034367956622,45.79444924341766],[10.438108461692604,45.79471302257421],[10.438237836885888,45.7951579657157],[10.438296236827908,45.795370827084426],[10.438258888298382,45.79550504835071],[10.43818553059434,45.79574504963128],[10.437977376257571,45.79643952011198],[10.437412493842942,45.7965813694354],[10.436964586232955,45.79667701454105],[10.436552267332985,45.79665519532968],[10.436256654327602,45.79666790766172],[10.435746262805058,45.79683633497432],[10.435480289819202,45.79700168805937],[10.434965760604953,45.7970081523433],[10.43434602064266,45.79692592616202],[10.434012247442347,45.796957121388886],[10.433602233927465,45.79702527178745],[10.433157086825519,45.79722886987856],[10.43269931020314,45.79744163615798],[10.432278741362733,45.797599926064564],[10.431935564561487,45.79776623969559],[10.431489278558319,45.79792482923528],[10.431169763152152,45.798009847311874],[10.430286529093262,45.79819191585935],[10.429683322298063,45.79825347639062],[10.429143270995345,45.798269229172504],[10.428537993281504,45.798249795720395],[10.427971768557843,45.798247878681245],[10.427340522460621,45.79821976724625],[10.426822533575372,45.79809123239214],[10.426395716821142,45.79800655242073],[10.425891508682982,45.79791384062314],[10.42537857519357,45.79798324784867],[10.425061111651686,45.79814921996084],[10.424666000354224,45.79829814998308],[10.423948400435652,45.79841511567861],[10.423289579951755,45.79831530705882],[10.422951922852048,45.7981935022004],[10.422599782770584,45.79800889133883],[10.422197363664992,45.79786988202825],[10.421798123935291,45.79785684205409],[10.421348577533957,45.797889441098015],[10.420940143229998,45.79802053242003],[10.42067503356118,45.79822184136607],[10.420564763034132,45.79843923302619],[10.420405985579187,45.79877424357283],[10.420282372125795,45.798973791268274],[10.420068023399734,45.79914746275959],[10.419761593433899,45.7992412815551],[10.41937885829555,45.79937204876132],[10.419218471265443,45.799644052653925],[10.419043424856355,45.79984425773255],[10.418753702751705,45.800090862543534],[10.418313139308005,45.79997032287466],[10.418028506793217,45.7999108511989],[10.41766921928029,45.799951310660695],[10.417337269964001,45.800054435851614],[10.417096282590842,45.800192449990476],[10.416870430105101,45.8004202670354],[10.416694662269967,45.800593452728066],[10.416391613333047,45.80082222791013],[10.416075248069014,45.80103317488077],[10.415720967523573,45.80127157683737],[10.415272985943313,45.80136713855469],[10.415162548325803,45.80136885681103],[10.412468755484038,45.80141084029364],[10.411962034998284,45.8012190936568],[10.411559593705164,45.80108004720869],[10.411068716620498,45.80100511574991],[10.410448711550336,45.800913766966346],[10.410111066981083,45.80079192404446],[10.409252878684109,45.79992943653902],[10.408111339196589,45.8000785373883],[10.40761503575839,45.79978761877045],[10.407093482415931,45.79957025246282],[10.406964822114599,45.79951663291606],[10.40664254090785,45.79949359677406],[10.406309413827715,45.79955168903892],[10.406086462407103,45.79989646486909],[10.406071161042098,45.80031068509956],[10.405895586390004,45.80049286690763],[10.40557895729433,45.80069477380064],[10.405300471198691,45.80087822083991],[10.405059873399422,45.80103417740544],[10.404781609898912,45.80122661395933],[10.404337226826303,45.80146610830265],[10.40394115566776,45.801578977164],[10.403557461220066,45.80167370282838],[10.4029049873308,45.80182571821687],[10.402353835322195,45.80191349632625],[10.402152385497265,45.80191335705099],[10.401932714454544,45.801913204311475],[10.40165889844663,45.80191301433695],[10.401170283625644,45.80192802258047]]]}}]}
