{"type":"FeatureCollection","metadata":{"code":"017169","referenceDate":"2026-01-01","sourceDbfExportDate":"2026-02-18","upstreamArchiveUrl":"https://www.istat.it/storage/cartografia/confini_amministrativi/non_generalizzati/2026/Limiti01012026.zip","sourceManifestSha256":"70ac8256c4785dc6ed2814c32b6965ae76f9161b51abaa1660059e1c6cbd8ca6","license":"https://creativecommons.org/licenses/by/4.0/","attribution":"Istat, Confini delle unità amministrative a fini statistici al 1° gennaio 2026, versione non generalizzata.","modifications":["Converted from WGS 84 / UTM zone 32N (EPSG:32632) to RFC 7946 WGS 84 geographic coordinates.","Converted from shapefile to per-municipality GeoJSON without geometry simplification."]},"features":[{"type":"Feature","id":"017169","properties":{"code":"017169","name":"Sale Marasino","alternativeName":null,"regionCode":"03","regionName":"Lombardia","territorialUnitCode":"017","territorialUnitName":"Brescia"},"geometry":{"type":"Polygon","coordinates":[[[10.140111291352204,45.72717365448635],[10.139072176070504,45.72726503663463],[10.13813602241587,45.72736435919842],[10.137251651609862,45.72748118723288],[10.13630173853261,45.727535636641484],[10.135659838788156,45.72756902482166],[10.13489072084762,45.72766667902641],[10.134018268606177,45.72773834871961],[10.133069620008596,45.72785576440816],[10.132302131357156,45.72803440046473],[10.131918487844619,45.72812819526362],[10.131393842423654,45.72824141304764],[10.130753021756785,45.72832875435027],[10.129995481153987,45.72836325615995],[10.129510470617841,45.72853006462213],[10.128940950039443,45.72896773966623],[10.128598202919655,45.72917813512785],[10.127971840571467,45.729346334297745],[10.126896462006822,45.729554959840655],[10.12571738234809,45.729719601204344],[10.124640208872389,45.729838231236634],[10.123574944402561,45.729911720009525],[10.12257484070055,45.73002955362164],[10.121668310717428,45.730326482300164],[10.121044614779994,45.730629624032275],[10.120408968587622,45.73097789440203],[10.120004070539206,45.731296894047354],[10.119687500760739,45.73153401114843],[10.117200521299912,45.73185537913646],[10.116198218535768,45.731865176739554],[10.115450415914674,45.73174646951267],[10.114917285498274,45.731436663485546],[10.11336937911733,45.73050667282892],[10.11095346393181,45.72922508116015],[10.10943011921212,45.72823181026237],[10.10796106902128,45.727381996391834],[10.10778570041024,45.72726253080562],[10.107570262893379,45.72711576421997],[10.107434146695356,45.72673005319616],[10.107466802884058,45.726432716854205],[10.107447559359459,45.72610887936889],[10.10735299280726,45.72587578200126],[10.107238355716454,45.72587343504302],[10.107057362906906,45.72586967703752],[10.106637426345277,45.72608077357338],[10.106408814910145,45.72621799568149],[10.10615416488923,45.726337477724016],[10.105820255586588,45.726349705835176],[10.105444448443286,45.72619133007391],[10.104873314046467,45.72585936962065],[10.10475833595908,45.725792066366566],[10.10471265390897,45.72576567489091],[10.104633159475856,45.72571974554484],[10.104557810655738,45.72567621258148],[10.104179448073495,45.725456540174555],[10.1040977505342,45.72540924022141],[10.104038410107044,45.72537458811614],[10.099503269932168,45.72255382757507],[10.09752208186728,45.721785302039734],[10.099288569034343,45.720742214221175],[10.101171653878222,45.71962597289387],[10.102758175106844,45.71180701840022],[10.098844126921609,45.69892859643208],[10.1043542834563,45.69699429814704],[10.104827028244221,45.69682771416585],[10.104861781570664,45.696809896569654],[10.104907331652146,45.69678645160598],[10.10524970608897,45.69661354353236],[10.105347921969086,45.69657000475159],[10.105545926262591,45.69646328623528],[10.106963890194706,45.69574519391397],[10.107371807946254,45.695588222988356],[10.107667189422893,45.6954067820926],[10.107714442116245,45.6953778973727],[10.107774756749793,45.69517928086979],[10.107730008603353,45.69486470251292],[10.107764095039101,45.69463935303154],[10.108170580477006,45.6944103897791],[10.108279633112941,45.69440481609725],[10.108516929200253,45.69438901956922],[10.108812296817257,45.69438615299648],[10.109169725737901,45.694274680794024],[10.109394818899421,45.69396646015237],[10.109687311944876,45.69381961525794],[10.109955378171367,45.69373599502433],[10.11032741632395,45.693714369707486],[10.110335999217185,45.693664820216604],[10.110374204741829,45.69344386459666],[10.110175255061264,45.69316676771862],[10.11054069726056,45.69281218356654],[10.110766313319713,45.692530978366364],[10.111017796003903,45.692258498604836],[10.11127017025105,45.692031023854604],[10.111462409130745,45.69194810706935],[10.111577166014053,45.69190508601879],[10.111673741298377,45.69186399785755],[10.112098956596942,45.69172595314355],[10.112532141631753,45.69155072673535],[10.112653594421156,45.69119851076559],[10.112839951807075,45.69088166497065],[10.113143312924047,45.69063568036688],[10.11352550888934,45.690478937041824],[10.11393569254677,45.69043893716717],[10.114305562573819,45.690309317637364],[10.114636725317634,45.69017107822365],[10.114981461500184,45.69006870705704],[10.1155849583584,45.69006281505978],[10.116664640050097,45.69010627580959],[10.117165956223392,45.690128361566906],[10.117694193666638,45.690213205839136],[10.118094586627704,45.69032630436372],[10.118443237931926,45.69042189823816],[10.11903126099983,45.69056984653889],[10.119269293705656,45.690629795183774],[10.11930279158431,45.69037744342285],[10.11945150764303,45.69010595095988],[10.119574595243222,45.6898436554379],[10.119582588236204,45.689609409457454],[10.11977015829346,45.689355545588334],[10.119971098214062,45.689128556545995],[10.120184358287444,45.68887444010276],[10.12045389259396,45.688992613676795],[10.120586052769065,45.68905055928443],[10.12288515742359,45.68906398289099],[10.122761925086442,45.689965273531755],[10.123845033763946,45.690179642123724],[10.123745468770707,45.69037167775166],[10.123573001479786,45.69070435972642],[10.124555007306169,45.691000731890725],[10.125225978492102,45.6911561386027],[10.125886621456146,45.69143765447474],[10.126520520410658,45.691665419622474],[10.127375230160656,45.6920170333872],[10.12780171001686,45.69214783224728],[10.128136650769488,45.69219853471698],[10.128562021837887,45.69227533195923],[10.129012001284607,45.692297889983244],[10.129664703844943,45.69218343401975],[10.130190465849667,45.692142213861416],[10.130971032971564,45.69199948089911],[10.131366021661943,45.69184255123413],[10.131657716597704,45.691659658005264],[10.131974196037927,45.69143150326891],[10.132962687255882,45.69077364994322],[10.133317680318278,45.690545090562765],[10.133556732436334,45.69029970767533],[10.133836333361652,45.69015291073333],[10.134258785689072,45.6900857098581],[10.13462969717928,45.6900100256857],[10.134948884223315,45.689916842565594],[10.135319611629663,45.689832161603675],[10.135727768576823,45.68969309576126],[10.136251316892276,45.68954386727397],[10.13702745635559,45.68918511224604],[10.137459445001735,45.688955792418476],[10.137713703399312,45.6888272481375],[10.138014388400732,45.68845522790329],[10.137801818972498,45.68810631382455],[10.137550754261667,45.6877577817769],[10.137062197002805,45.687096582591856],[10.13664239489016,45.686659717350096],[10.136297979023212,45.68614110175703],[10.135982563425882,45.685784210762804],[10.13561468097216,45.68537382977951],[10.135390580021955,45.6850880318559],[10.135125413942172,45.6846766282863],[10.135066961048109,45.68432617646517],[10.135189167184091,45.684018926665274],[10.135261294479086,45.68377519860952],[10.13542053702922,45.68339557877665],[10.135541464706716,45.68302533415857],[10.135788778162867,45.68255484379474],[10.13597461325112,45.6822199550359],[10.136094260126756,45.681786735183145],[10.136203415519077,45.68147061756792],[10.13633497991459,45.68099226362587],[10.136482131520081,45.68064876235847],[10.136589642763633,45.6802516634621],[10.136646375973191,45.679882056172325],[10.136510520262506,45.67951438397505],[10.136348978538354,45.67914694911079],[10.136203210815644,45.67892337857422],[10.135705220363885,45.67826678761209],[10.135873202276631,45.67827672045886],[10.136421919769269,45.67830916572952],[10.136886103474554,45.678403554066385],[10.137467430596931,45.67857779115875],[10.137675765410915,45.67871971906045],[10.137986405073065,45.67884263828174],[10.138384202101886,45.6788296783451],[10.138616217929666,45.679083576349036],[10.138368944659309,45.67934287761841],[10.138021214933925,45.67929233158561],[10.137689992492511,45.67942164421872],[10.137565803448174,45.67962990959211],[10.137506912159852,45.67989151646165],[10.137485843496842,45.68010531738266],[10.137504087816858,45.680386581836885],[10.137690754744588,45.68072675939853],[10.137849390783472,45.68095019889516],[10.137969664407045,45.68118301671775],[10.138130830735816,45.68153244393388],[10.138305040999427,45.6818907544126],[10.138455205693637,45.68233028432594],[10.138551283573209,45.682635362310165],[10.138595098061643,45.68289594680401],[10.13870346238048,45.68317389771209],[10.138873844932496,45.68334320789364],[10.139195727311872,45.68338501358901],[10.139656276939977,45.683299402841165],[10.140119384595009,45.68333977890002],[10.141368942883268,45.683514443492165],[10.141103014087028,45.68371700358406],[10.140253957803697,45.68427452949987],[10.140737406551258,45.68468374163685],[10.14116676124859,45.684958465358505],[10.141532118389472,45.68524284138335],[10.141958396675431,45.68536459315145],[10.14243160660099,45.68526984920132],[10.142750387190464,45.68515865818533],[10.143041827086673,45.68559678649153],[10.142879882229224,45.6858414180401],[10.142615199670635,45.68608709592588],[10.142402053612996,45.68634125238363],[10.142161775277863,45.686523678072305],[10.141744645076853,45.68685187517322],[10.14134054939755,45.687188935978405],[10.140748249486963,45.68774389960645],[10.14048409742035,45.68801657070361],[10.140005864594666,45.68849838990021],[10.139523811341292,45.68879122494684],[10.13903935114782,45.68896706604521],[10.138721454897178,45.689123253886514],[10.138507366590614,45.6893323971433],[10.138592633536687,45.68973659031493],[10.138716034609853,45.690122393420005],[10.138824987857692,45.69042734243298],[10.138913519589314,45.69099349687019],[10.13906426460121,45.69146004375498],[10.139250066489682,45.69175521161421],[10.139370395610555,45.691988026996],[10.139606281692895,45.6922197075002],[10.139920867464433,45.69253160014921],[10.140095828714552,45.692925881637855],[10.140102962125336,45.69327684259385],[10.140177606788471,45.69378914266855],[10.140212236057573,45.69422984141548],[10.140483132042545,45.695550248558696],[10.140571062049334,45.69557187822574],[10.140754272739397,45.69561954278371],[10.14116923117216,45.69581342989198],[10.141664156303696,45.69615050318051],[10.142030872380168,45.69649786958327],[10.142399610205409,45.69694422138558],[10.142586546899393,45.6972933827973],[10.1427995486991,45.697660293860594],[10.143077827345717,45.69808054211579],[10.14351081003934,45.69852624824229],[10.143870748773672,45.69917069679038],[10.14409715319539,45.69956447640194],[10.144468313484941,45.70012779473039],[10.14546783531794,45.70000977437455],[10.145605456197144,45.700458432828746],[10.145751871602549,45.700708988475014],[10.146020478550247,45.70128234456205],[10.14635460834066,45.701918049361566],[10.146754266878547,45.70261610042045],[10.147074289048097,45.703188938608136],[10.147472281576242,45.703805987948456],[10.147979807634679,45.7041249150789],[10.148232854545805,45.70456341461209],[10.148593283109367,45.70522585164423],[10.14905923066607,45.70602223620861],[10.149508823284867,45.706647773487084],[10.1501659769248,45.70737020796587],[10.150728831383061,45.707877601459934],[10.151186490888465,45.708269017841545],[10.151763124332394,45.70882124544902],[10.152187649282405,45.709474030788215],[10.152558034415035,45.70999233364078],[10.153071013804151,45.71057220283956],[10.153305947217472,45.71108440951589],[10.153366906795576,45.711217268478975],[10.153430609060534,45.71146413320273],[10.153506471496078,45.711755909012034],[10.153336632981462,45.71224366215159],[10.153154297109813,45.71274955093611],[10.153201516595175,45.713172091309055],[10.153447981552848,45.71328657973496],[10.153924368335362,45.713335779986885],[10.154684310011453,45.71342710766989],[10.155260675595537,45.71334028181963],[10.15626337851426,45.713366138727665],[10.157470693218029,45.71334489792783],[10.158344005261183,45.71332705051417],[10.15938338646959,45.713262514098126],[10.160059895358662,45.713048618736906],[10.16106930670619,45.71277734294243],[10.161975738297073,45.7124980940939],[10.162742545278764,45.71230129117028],[10.163759187403045,45.712380931940636],[10.163891943938273,45.712586606912666],[10.164324617094756,45.713005230192095],[10.164846097465766,45.71336895473867],[10.165434444796505,45.713857986699246],[10.16599915960308,45.714446284054006],[10.166359275403975,45.71508166291457],[10.166433443263626,45.71555792938007],[10.16602274453585,45.715580131951974],[10.165505540442425,45.71542339756095],[10.165156629762198,45.71532795030215],[10.164638307206527,45.715117212053414],[10.1646298045979,45.715945373156146],[10.164627248555966,45.7164404326622],[10.164406858426098,45.71696473592089],[10.163991157594594,45.71736500016076],[10.163570005454266,45.71750429776879],[10.160383714261378,45.71751871775213],[10.16034293698697,45.71865322083856],[10.160297700761493,45.71895071769919],[10.160044849747036,45.71915130033499],[10.15957231811532,45.719291104882466],[10.159124344852666,45.7193766478947],[10.159510679176531,45.720038786959805],[10.159848244279763,45.72082743233279],[10.160196621766422,45.72089589595819],[10.16044574301283,45.7211363933954],[10.160425466639893,45.72139761891314],[10.16011154556823,45.72175183783198],[10.159654065570306,45.72199951052987],[10.159104015814556,45.72212209198805],[10.158632384678933,45.72230689746541],[10.158150489047907,45.7226178004291],[10.157705674598295,45.72285634144696],[10.157088967713303,45.72286258963279],[10.156503168845212,45.72312054562577],[10.155969122413516,45.723395965778316],[10.155659245700393,45.72394814414454],[10.15545121248275,45.724454294648325],[10.155653976324693,45.724938281795616],[10.156335068315627,45.72556144817179],[10.156766328674186,45.72590811231682],[10.157044717167695,45.72569826601336],[10.157582869393591,45.72562081203727],[10.157983753247658,45.72574276063864],[10.158327138512812,45.72556827182515],[10.15874908152473,45.72546498544362],[10.159175302798438,45.72556866311155],[10.159690936389593,45.72564444617984],[10.160137839070135,45.725504882692505],[10.160751004679927,45.72532764560633],[10.161470332413815,45.72531133892077],[10.162111813390158,45.725259800154866],[10.162449221522863,45.725418379392245],[10.16226004778667,45.725591330655384],[10.162019855674167,45.725782792312906],[10.161747990533483,45.72630759517512],[10.161539098304086,45.726768751318936],[10.161468899614384,45.72710250442762],[10.161193692166602,45.72746532687423],[10.16082536768078,45.72767608005021],[10.15959913882795,45.72803956303824],[10.158883313029186,45.72822684964446],[10.158217760175246,45.72835961085653],[10.158174545000936,45.728756072382815],[10.155514770898819,45.72878299883918],[10.154975843402163,45.72882444938233],[10.154497652771513,45.72869427615676],[10.154069906264644,45.72851859444677],[10.153593018060283,45.72845139109467],[10.153043844505705,45.72861894833667],[10.152350552429876,45.72865294902773],[10.151269920479713,45.728600838835014],[10.15089157001205,45.72832564111357],[10.15069477446622,45.72812959206766],[10.150368191647571,45.72787186287272],[10.149922265695741,45.72743531052901],[10.149341658238002,45.727324157220565],[10.149113149289425,45.72746146199488],[10.148793587921798,45.72754567346834],[10.148108537832657,45.727354547765],[10.147025014017899,45.72715842416749],[10.145928630342963,45.72696239948447],[10.145256988503503,45.726798127325374],[10.144895934171451,45.7267387397554],[10.144292233559268,45.72675378478502],[10.143571779884404,45.72671600311534],[10.143056552370787,45.72665815386763],[10.142503142728277,45.72661869300464],[10.142315462179683,45.72671056275394],[10.142070520845678,45.72683002782032],[10.141944313842869,45.72696414247135],[10.14185670998695,45.72705721533227],[10.141525372741635,45.727195534488324],[10.14080439091352,45.72713073458317],[10.140111291352204,45.72717365448635]]]}}]}
