{"type":"FeatureCollection","metadata":{"code":"018012","referenceDate":"2026-01-01","sourceDbfExportDate":"2026-02-18","upstreamArchiveUrl":"https://www.istat.it/storage/cartografia/confini_amministrativi/non_generalizzati/2026/Limiti01012026.zip","sourceManifestSha256":"70ac8256c4785dc6ed2814c32b6965ae76f9161b51abaa1660059e1c6cbd8ca6","license":"https://creativecommons.org/licenses/by/4.0/","attribution":"Istat, Confini delle unità amministrative a fini statistici al 1° gennaio 2026, versione non generalizzata.","modifications":["Converted from WGS 84 / UTM zone 32N (EPSG:32632) to RFC 7946 WGS 84 geographic coordinates.","Converted from shapefile to per-municipality GeoJSON without geometry simplification."]},"features":[{"type":"Feature","id":"018012","properties":{"code":"018012","name":"Battuda","alternativeName":null,"regionCode":"03","regionName":"Lombardia","territorialUnitCode":"018","territorialUnitName":"Pavia"},"geometry":{"type":"Polygon","coordinates":[[[9.069773962715523,45.28936854370716],[9.069646622548552,45.28952164910079],[9.069508197055933,45.28972877530745],[9.069419096824046,45.289863847021984],[9.069355509846723,45.2899989022741],[9.069113080428595,45.28990003577724],[9.068857908333358,45.289783165408814],[9.068793968177017,45.289648187311],[9.068702815917073,45.28940519621634],[9.068587735584252,45.28913523120428],[9.068421581595356,45.2888292754884],[9.068255407814881,45.28850532648689],[9.068153268513226,45.288397377933926],[9.067732281292786,45.288244600659006],[9.067285854176356,45.28815484621547],[9.066890591126986,45.28820009654135],[9.066788815387962,45.288398183957824],[9.066674167989797,45.28848826834744],[9.06643189548923,45.288515416629785],[9.066113232859063,45.28863260714236],[9.06597309956841,45.28874971268476],[9.065590592185343,45.28878593706634],[9.065182477108207,45.28874117145493],[9.064481062131055,45.28870554751074],[9.063868878786849,45.28861589297983],[9.063141936129288,45.288544271001925],[9.06265277582586,45.288517415344764],[9.062491423259882,45.28850852477312],[9.062335103423834,45.28848399297227],[9.062194237983908,45.28846185323521],[9.061177769547522,45.288302230941056],[9.061342981241387,45.287762066657834],[9.061533834526667,45.287374905201986],[9.061728642333767,45.287136122440785],[9.0619656713377,45.28691555882403],[9.062057313283407,45.28686700823199],[9.06216962631197,45.28680749602419],[9.062348062125599,45.28672639540208],[9.062500957494018,45.28660029121014],[9.062526219244313,45.28639323538833],[9.062500581864011,45.28625823181218],[9.062525833582399,45.286042179910005],[9.062551209542546,45.2859161453729],[9.062588038913772,45.2857091011798],[9.06161902070348,45.285516637345665],[9.061553108652127,45.285503516329676],[9.061084533358754,45.28541046309982],[9.060011702784097,45.285197382705576],[9.059809571601253,45.28586359699408],[9.057896744739981,45.285738561986406],[9.057744431908038,45.286422738538164],[9.054722027711259,45.286118170172045],[9.054262859602217,45.28599238750302],[9.053739956205442,45.28587561016191],[9.053153317400508,45.28579486330174],[9.052617680852478,45.28571410794571],[9.052120287360452,45.28561532248029],[9.051838145421597,45.285576894863546],[9.051724913041278,45.28556146276173],[9.05116378644917,45.28547169804759],[9.050564369227144,45.28534594433201],[9.050156265517304,45.28527411787029],[9.049288965460715,45.28504946034536],[9.049057679282486,45.285009858910946],[9.04881713974869,45.284968666801866],[9.048447321469588,45.28492382498811],[9.048205089810471,45.28495993068316],[9.047822654225389,45.28509510818889],[9.047593193925152,45.28516722934273],[9.047197907314052,45.28517638944713],[9.046828029698998,45.28505951710743],[9.04649633892632,45.28485262856925],[9.045960437183053,45.28442076919606],[9.045501086225565,45.28402489801808],[9.04539900656208,45.28392592508524],[9.045271385145243,45.283790958074974],[9.044992934783252,45.28491624193013],[9.044315862980719,45.284808478124404],[9.044443075491275,45.28442136970158],[9.043116764759683,45.284178850806875],[9.043413109730638,45.2833441431188],[9.043529097084333,45.28301749201432],[9.043624520884665,45.28275192006787],[9.043822090634471,45.282171255275614],[9.04387133991724,45.28202562661879],[9.043996094586412,45.281656424294894],[9.044068586165206,45.28144204587031],[9.044183088783829,45.281135963852066],[9.044221050109282,45.28075788599925],[9.04433438069412,45.280460801228735],[9.044550879295471,45.280127652197564],[9.044639961077525,45.27991157910206],[9.044614244785839,45.27965055150738],[9.044728702716496,45.27926344739668],[9.044906868665782,45.27884031487181],[9.04508353931698,45.2785432043364],[9.045185137243426,45.27804807612345],[9.045248596549587,45.27769699479683],[9.045312030425047,45.27728290300618],[9.045501821444368,45.27697678954851],[9.045731133167394,45.276760658630444],[9.045756354110871,45.27640059615745],[9.04584537603525,45.27612151247423],[9.04593319356107,45.27584242739196],[9.045958409125998,45.27550937199195],[9.04609826681548,45.27504123537703],[9.046289301863037,45.27477112235624],[9.046340096112218,45.27452805606376],[9.046517167997004,45.274266945294066],[9.046631637773562,45.27392483917162],[9.046758808232612,45.27356473462847],[9.046835071156442,45.2732766573634],[9.046935028101858,45.27227746294973],[9.046565345452036,45.27225064128338],[9.04717450135905,45.270810170639166],[9.047605471267788,45.26928875998196],[9.047757663903573,45.2688386069822],[9.047871646821418,45.26843350698166],[9.048074751397712,45.2679023294161],[9.048201336669322,45.26730819213363],[9.048315189917169,45.26675905945859],[9.04842906392204,45.26623691492269],[9.048581667702123,45.265795775417615],[9.048669879322246,45.265552709786625],[9.050506168303329,45.26593897371549],[9.049832962401403,45.267289480788044],[9.050380642605825,45.26722622998932],[9.050851796926562,45.26712700734415],[9.051450844070676,45.26705473152662],[9.052011699185773,45.267045481396124],[9.052674618989599,45.26710817011734],[9.05335038107889,45.26727889494663],[9.053783941139141,45.267458709982506],[9.054051720533295,45.267548601308796],[9.054447082846407,45.267746441197104],[9.054353397373232,45.2675036387566],[9.054127614735757,45.26691847718076],[9.054210824997114,45.26681830587811],[9.054450375114582,45.266530044750326],[9.054507779458737,45.26646098932584],[9.05455111183815,45.26640891833299],[9.054928547812167,45.26595491302251],[9.056828251651877,45.266368051083106],[9.057427526987398,45.26653879074275],[9.057746229941031,45.26656563726997],[9.058039379546145,45.266520471252015],[9.058408956597322,45.26643927920416],[9.058727583912765,45.26639409838682],[9.059275749351377,45.26643883264246],[9.05968371882116,45.26650163072198],[9.06007894147259,45.266555419041865],[9.060395814980746,45.265619107004795],[9.060637258637087,45.265294930227284],[9.060891532801119,45.26503375573483],[9.06110786850613,45.264718587419345],[9.061247280709722,45.26434044849156],[9.061348964960443,45.26407935466051],[9.061412126420887,45.263899285130385],[9.061067407012262,45.26374646050244],[9.060710350244669,45.26360261769416],[9.060238624292717,45.26351285056339],[9.059932732505999,45.263513011485436],[9.059499334979815,45.26350424107315],[9.059014927655353,45.26346848905391],[9.058687112103597,45.26342523738143],[9.05860698990386,45.26341468374504],[9.05832651960758,45.263360813755895],[9.058000602369418,45.263272993565074],[9.057893041745569,45.26324402726618],[9.05838713790167,45.26147949563184],[9.058678431518405,45.26044416773188],[9.059391788000168,45.260452813130904],[9.060156453862927,45.260380388223055],[9.060615228576264,45.26031713416171],[9.061188693662096,45.260226829428255],[9.061520022073514,45.260181633065905],[9.061799932182362,45.26009146409958],[9.06196556514512,45.26002836374953],[9.062156008758219,45.259713225218654],[9.060829689094923,45.25936288196817],[9.061173033153278,45.25862458048267],[9.059872372410235,45.25839121943761],[9.059553676561176,45.25832837542882],[9.059502586426458,45.25822039193828],[9.058406526253815,45.25823895082984],[9.05913003719724,45.256541804688766],[9.05980565071132,45.256671991175565],[9.059896237704487,45.25643791766129],[9.06064674360278,45.256563579818675],[9.061128638447869,45.25542914736138],[9.063257296206467,45.25571603517226],[9.063255236228779,45.25494191433808],[9.063241799969758,45.25431181329173],[9.06338199442053,45.25432073260237],[9.063534952422348,45.25432964374143],[9.063840797432269,45.254329473197345],[9.064070181267716,45.25432034862811],[9.064325037332749,45.254284201080736],[9.064618098116487,45.25422102588181],[9.064821881329987,45.254121896334965],[9.065051142111603,45.25400473986317],[9.065279191132461,45.25387858839714],[9.065648670227262,45.25377036642113],[9.065586434581054,45.254031441907614],[9.065535690144952,45.25422949918228],[9.065434062024456,45.25450860831102],[9.065294149474134,45.25476972627906],[9.065167056962247,45.25505784582082],[9.065180030719043,45.25526488155384],[9.065232381019083,45.255417862254404],[9.065334600107496,45.2556518542184],[9.065372982586249,45.25577785446928],[9.0654369415168,45.25599383817103],[9.065539230661368,45.25626383417388],[9.065730800378622,45.25661478071323],[9.065439404685108,45.25709202683048],[9.065528971746762,45.2573980154543],[9.06820570723512,45.25763949387962],[9.067011490011534,45.259521509015485],[9.06945922173392,45.26001511744325],[9.069712716921577,45.25887177310746],[9.07231143660881,45.25906820425686],[9.07168981545238,45.26011275310663],[9.072263512055065,45.260220420556614],[9.071998402652985,45.26130976222305],[9.071501260784336,45.261247063932636],[9.071336705729463,45.262165302242295],[9.072432997323531,45.26227264030266],[9.072344072658096,45.262506728768564],[9.072726919452503,45.262551485087336],[9.072676685701447,45.262830566615015],[9.070535064139087,45.26261587031066],[9.070738127963402,45.26223769923429],[9.068049231392571,45.26201429782425],[9.068047288750165,45.2613931873903],[9.066504786775237,45.26117805694472],[9.066087200529946,45.26274455260413],[9.070855452042421,45.263380796823384],[9.070678323756745,45.26411002795433],[9.072310010071995,45.264217016589065],[9.071930745158006,45.26575651929293],[9.072453397898068,45.26579219136451],[9.073011195049254,45.26432459942162],[9.073686833514047,45.264378179079024],[9.07385052425541,45.26344191007472],[9.075482353681794,45.26366587833852],[9.075419773689847,45.26423301566889],[9.078064865482789,45.26466331711572],[9.07806543026946,45.265360913771595],[9.077706482792415,45.26649085207933],[9.078066255600987,45.26655361727766],[9.078179740952509,45.26651751743004],[9.078948341763004,45.266661020924566],[9.079239173615925,45.266687826739734],[9.079352896795232,45.26682276585835],[9.079684363713955,45.26685853750376],[9.07988764843585,45.26637232142073],[9.08048686429127,45.266452923278756],[9.080181741111213,45.26702922970592],[9.080964608348971,45.26713361246933],[9.08117040230986,45.26716103980913],[9.081478131673189,45.267202063789775],[9.081659094790524,45.26722619630631],[9.081520669534653,45.26749964566195],[9.081381035350782,45.26777547659566],[9.081939951936185,45.26752303398832],[9.081974177068274,45.26745556386221],[9.082346700788685,45.26672161116903],[9.08335392435155,45.266864893817164],[9.082947301556716,45.26774733904355],[9.082909422483384,45.26799940863494],[9.082947970165726,45.26820640530915],[9.08291022389351,45.268467592405614],[9.082821685799743,45.26850798697257],[9.082515379569067,45.268647933591126],[9.08237540655605,45.268837067067174],[9.082324582770697,45.26905298402061],[9.082529198359069,45.26939503291572],[9.082911538442707,45.26934076050357],[9.083204892714038,45.26943956098205],[9.08353674825971,45.269727364060046],[9.083205734422206,45.270015651882616],[9.083078540531087,45.270213772062974],[9.083070739504786,45.27039603919499],[9.083066208909806,45.27050181640539],[9.082851855191752,45.271033065015764],[9.082786956030665,45.27130951297111],[9.082763200955903,45.271411205703544],[9.08305691963609,45.271771063183195],[9.08337422973521,45.2719058499485],[9.083553049594563,45.27213975098505],[9.083440370291859,45.272445889629346],[9.08332597848712,45.272689000923954],[9.083135323823116,45.273076199651356],[9.083148511672123,45.2733822462716],[9.083352751889867,45.27355311859341],[9.083837591499318,45.27381382056301],[9.08364677754758,45.274111002551884],[9.083545111679577,45.27432711549786],[9.083392503381356,45.274579250818086],[9.083074362142748,45.274975557320104],[9.082768329821702,45.27493977533433],[9.082360443792965,45.27499406653733],[9.082131470537561,45.275345287792184],[9.081889804723186,45.27573252092977],[9.08157232910711,45.27662389112154],[9.080042208020677,45.276462949568646],[9.079864348582007,45.276913144033394],[9.079494658860902,45.27694040820427],[9.079367637404289,45.27728255760621],[9.079291698005123,45.277687661105446],[9.079139250886008,45.27807484519364],[9.080414322699829,45.2781549571692],[9.08033832354448,45.27851506291439],[9.080274942685996,45.27876714998971],[9.080147833148331,45.27904628801309],[9.080007915492239,45.2792804175271],[9.079549275076019,45.279532779460105],[9.079115778967843,45.27954207754371],[9.078963008323504,45.27974916609928],[9.07881024338745,45.28001920271667],[9.078619398053087,45.280307379020776],[9.078403147817824,45.2806765938812],[9.07831422888513,45.2809196823155],[9.078442109502259,45.28118964803047],[9.078480662369289,45.28140565981254],[9.078493802353412,45.28169369639097],[9.078443225855485,45.281999767991074],[9.078379831469531,45.282251853869454],[9.078252729613695,45.28254898266557],[9.078148257999128,45.28278310346943],[9.078046555783729,45.28299919321303],[9.078079911136888,45.28321520861312],[9.078011586723191,45.28335928706183],[9.078080133389507,45.28337723327829],[9.07832527051578,45.283440074884886],[9.078085911021315,45.283800290706345],[9.078081010074586,45.28401633312406],[9.077439911641259,45.28491690828361],[9.07721034312307,45.28488105959864],[9.076891469000051,45.284809268303704],[9.076445054440477,45.284719550497606],[9.07608798498924,45.28469278179675],[9.075744944414849,45.28472901391262],[9.075592237885283,45.28495414928816],[9.075516130108621,45.28526025521421],[9.075312456637269,45.28551243190738],[9.07476398860782,45.285386770687545],[9.074202718625783,45.28523410982185],[9.07366708439407,45.28515345317104],[9.073348363983515,45.28519865757204],[9.07324669229538,45.28547777216047],[9.0731194560301,45.28567588073797],[9.073031613144181,45.285864967911095],[9.072878953007118,45.286135099754446],[9.072700902031308,45.28650427995925],[9.072561017046318,45.28680141033495],[9.072484879025318,45.28709849918579],[9.07235902711242,45.28746764565613],[9.07230855105921,45.28788174352563],[9.072270827490975,45.28830482934413],[9.072144837135655,45.28856594714224],[9.071636022860577,45.28956541882584],[9.071304338498638,45.28945761594969],[9.070985434934514,45.28937681217373],[9.070462428294428,45.289251114555725],[9.069990610624043,45.28925140465529],[9.069773962715523,45.28936854370716]]]}}]}
