{"type":"FeatureCollection","metadata":{"code":"018031","referenceDate":"2026-01-01","sourceDbfExportDate":"2026-02-18","upstreamArchiveUrl":"https://www.istat.it/storage/cartografia/confini_amministrativi/non_generalizzati/2026/Limiti01012026.zip","sourceManifestSha256":"70ac8256c4785dc6ed2814c32b6965ae76f9161b51abaa1660059e1c6cbd8ca6","license":"https://creativecommons.org/licenses/by/4.0/","attribution":"Istat, Confini delle unità amministrative a fini statistici al 1° gennaio 2026, versione non generalizzata.","modifications":["Converted from WGS 84 / UTM zone 32N (EPSG:32632) to RFC 7946 WGS 84 geographic coordinates.","Converted from shapefile to per-municipality GeoJSON without geometry simplification."]},"features":[{"type":"Feature","id":"018031","properties":{"code":"018031","name":"Casanova Lonati","alternativeName":null,"regionCode":"03","regionName":"Lombardia","territorialUnitCode":"018","territorialUnitName":"Pavia"},"geometry":{"type":"Polygon","coordinates":[[[9.2142474228272,45.10764574071237],[9.213866632715806,45.10779948697935],[9.21358785657156,45.10803404714053],[9.213246140923369,45.108439767408065],[9.212980665917488,45.108836330115565],[9.2127029496854,45.109358940436614],[9.212349198109415,45.109836689867755],[9.212071396199232,45.11023329128668],[9.211691416190293,45.110612069834474],[9.211374309192552,45.1108016768572],[9.211095043759967,45.11091022519659],[9.21073952719644,45.11102790992682],[9.210503956232836,45.11111193822784],[9.210460612764603,45.1111274372082],[9.210294766175299,45.11120617046366],[9.210156065196935,45.111272016132304],[9.210015722113644,45.1113532972533],[9.209860727360898,45.11144358437084],[9.209749171093874,45.11150717063073],[9.209703304206483,45.11152489738936],[9.209284362655463,45.111678698318244],[9.208645649508053,45.11191394037083],[9.20854291981444,45.111635049435364],[9.2084911231336,45.111374098633135],[9.208423507912151,45.111145741400044],[9.208413894506204,45.111113196908406],[9.208272948747444,45.11080738907148],[9.208105782218064,45.11028560116847],[9.207939071649179,45.10988084213838],[9.207836538759542,45.109655967833284],[9.20759273536225,45.10902630645881],[9.207483290045822,45.108832656152174],[9.20722171900777,45.108369847610994],[9.206827449332723,45.10787547831774],[9.206316822923467,45.10749832811806],[9.206265741008842,45.10748597185592],[9.205744321227224,45.107359840868845],[9.205693569447522,45.107357223657125],[9.205172860741792,45.1072933584346],[9.20479134160172,45.10724902449863],[9.204155545932883,45.1071871495945],[9.203706715620145,45.10718795102789],[9.203572185629744,45.107188190901645],[9.203197178863626,45.10722936122886],[9.203041944674181,45.1072591711787],[9.20294006802314,45.107278746537844],[9.201753213945011,45.10723640944737],[9.20241960730137,45.105182770709554],[9.202544589364507,45.10457945093002],[9.20226473976909,45.10452593181942],[9.201832393803937,45.10447268072022],[9.201347982230327,45.104077468126114],[9.201181652438185,45.10376269864702],[9.201014856806507,45.10332190593847],[9.200924775642854,45.10300700181506],[9.20084746408429,45.102710086778075],[9.200757605653989,45.10245819535301],[9.200706011815104,45.10224224006845],[9.200410630881644,45.1013695991737],[9.200066737581572,45.10116318667946],[9.200281690761726,45.10083875800683],[9.200178318738459,45.100352832965946],[9.200177029148563,45.0999837753141],[9.200251853744016,45.099578560924265],[9.200352040552993,45.09914631285967],[9.200401616174114,45.09878614335559],[9.200501616309111,45.09830889467099],[9.200639242503733,45.0976875243995],[9.200726757774618,45.09727329176759],[9.200954070942347,45.09685881134346],[9.201194523632886,45.096570333032574],[9.201435253827768,45.09635388231213],[9.201650141924517,45.09602042932537],[9.201852139668487,45.09564199702053],[9.202382832451818,45.09476789721989],[9.202470141126335,45.09429964643707],[9.202519316381663,45.09383148207911],[9.20259404899393,45.09339925784135],[9.202579602969637,45.09291319456182],[9.202590643658052,45.09243608241145],[9.202576420693596,45.09201303202497],[9.202588002270652,45.0916889509374],[9.20254872875258,45.091364961833754],[9.202433613674737,45.09115811682866],[9.20226756990431,45.09091537547945],[9.20221585893709,45.09067241349535],[9.20222718693228,45.09027632394428],[9.202213508427626,45.09000628652713],[9.202237885764639,45.08970919256085],[9.20244017168766,45.08941178155898],[9.203062913993469,45.08943768497251],[9.203062116542732,45.08921262554229],[9.203048331021142,45.088906601923334],[9.203052414535838,45.0887597134119],[9.203059605797273,45.08850150597344],[9.203147407587194,45.08817729088608],[9.203235402474961,45.0879070905985],[9.203119711196374,45.08752922040463],[9.203055236477748,45.087268287679734],[9.20299056332399,45.08694434363277],[9.203027731612998,45.086674214869674],[9.203115595921457,45.086368011274146],[9.203330506116712,45.08606156167462],[9.203571184159436,45.085845087241246],[9.203900942395657,45.08567347304814],[9.204471979786517,45.08545640551692],[9.204916136764473,45.08529357990093],[9.205386011815175,45.08522072602958],[9.20591920776058,45.08508474442575],[9.206490588328917,45.08496668408026],[9.206972897623643,45.08482179315214],[9.207353682834377,45.084704073730016],[9.207479980339038,45.08467036668807],[9.207896846267863,45.08456451627669],[9.208369073417364,45.084396158416354],[9.208760636915498,45.084188411993736],[9.209090304340878,45.08399877034273],[9.209781635372229,45.083682439763194],[9.210409604221313,45.083411240611376],[9.21095447606992,45.083005151975534],[9.21283663204655,45.0835507622308],[9.213025926672625,45.083307373440284],[9.21318979456743,45.083064013788494],[9.213252569151441,45.08285684718442],[9.213556790480483,45.082667258110625],[9.21401464016004,45.08278341180957],[9.214307531682065,45.0829539075091],[9.214549375074899,45.08307046418369],[9.214816543414699,45.083159982628615],[9.215121800014442,45.08324043231611],[9.2152823941012,45.0828690585852],[9.215499682122374,45.08236653218615],[9.215675279756683,45.081862117174275],[9.215762831940767,45.08149287178806],[9.215749151263468,45.08123185088066],[9.215735477885953,45.0809798254436],[9.215733377623708,45.08042173044823],[9.215757919335253,45.080187626483514],[9.21428446132346,45.08018140419428],[9.214250378004131,45.08126168046656],[9.213665882487915,45.08125376016627],[9.213157293458448,45.08115569344471],[9.212753062637995,45.08102058663679],[9.212648412365132,45.080985616010075],[9.212592199229507,45.080941044733414],[9.212342623243698,45.08074315618914],[9.211961375382975,45.080725870697506],[9.211555129022276,45.080816644632975],[9.211338133049974,45.08054698429839],[9.211705817241702,45.08033025652025],[9.211945948340595,45.07998775893103],[9.212084705890257,45.079717438316216],[9.2121485896335,45.07963067462993],[9.212350186333547,45.07935688015849],[9.212743923828741,45.07932014378478],[9.212786932844583,45.07933105666043],[9.21320174391249,45.07943631886946],[9.213774069521918,45.07959727784664],[9.214142579007264,45.079605584775926],[9.214536101166392,45.07962285793688],[9.214917317020468,45.07964013399688],[9.21529862742398,45.07967542030987],[9.215769163446522,45.079683528709445],[9.216111063182117,45.079700893960386],[9.216580937418243,45.07963699126024],[9.216999831118684,45.07953717899848],[9.21744393938045,45.079383300984446],[9.217710239128294,45.079247771133076],[9.218001524706152,45.079004161440466],[9.218318261467758,45.07876951675009],[9.218597486505937,45.078687977223915],[9.218939842786382,45.078615293504534],[9.219244736645853,45.078605711304],[9.21976552910743,45.078577702240864],[9.22042578663146,45.0785764298231],[9.220556869619196,45.07941333534899],[9.218613685255985,45.07960611020729],[9.21873447698632,45.08129820739349],[9.220411544829474,45.081376006490004],[9.220273211325665,45.08164631742146],[9.22009622919075,45.0818806981714],[9.2199445628691,45.082088039797675],[9.219742421542222,45.08238548010829],[9.219628847943422,45.08259274889809],[9.219502715375901,45.082836027285985],[9.21941525414397,45.0832232671661],[9.21917491338714,45.083502787007205],[9.218986219416207,45.083692187564246],[9.21876979388287,45.08389063732091],[9.218543239951673,45.084143121307385],[9.218493180600005,45.08435024754397],[9.21848175133837,45.08468334476685],[9.218317854050099,45.08501671372248],[9.219194875263211,45.08540210642358],[9.219752636334903,45.08504996737233],[9.220948911253542,45.08553376687791],[9.22078465247259,45.0857771203094],[9.222121785259953,45.08642716370073],[9.222337818077762,45.086530259423746],[9.222921009173403,45.08608803304948],[9.223017014814719,45.08601577457756],[9.224313054537967,45.08504107889878],[9.22544607784396,45.085439632928434],[9.225483709006884,45.085452875889345],[9.22604129869444,45.085073717292566],[9.227020671578941,45.08531481049814],[9.227196675033346,45.084837367301354],[9.227781745257602,45.08498023779231],[9.227757858710078,45.0853673580017],[9.227682506246877,45.08559255034466],[9.227582396986307,45.08597982240651],[9.22744516082894,45.08661921932697],[9.22700597941793,45.08802436409317],[9.228201148273198,45.08819300811932],[9.228139065705648,45.088562210831945],[9.228909978899678,45.088632448520066],[9.229248426713475,45.088663284913984],[9.230362495105064,45.08876477801062],[9.230325454369353,45.089034914413844],[9.230212196457273,45.089314182832126],[9.230086020671184,45.08953947993986],[9.22991345295397,45.08978409181268],[9.229694163235772,45.09005336596177],[9.229555175544181,45.090251698170306],[9.22942071197437,45.0904242679108],[9.22936551413049,45.090495115697905],[9.229125120886254,45.09075664455852],[9.22899897241955,45.09099095473907],[9.22888537134404,45.091180201905],[9.228772138200755,45.0914684840254],[9.228546160664802,45.09216207276664],[9.228458944080153,45.09260331833109],[9.228472864987959,45.09290933931427],[9.228550953822674,45.09336828194186],[9.226062665921235,45.09371530556117],[9.22626950740502,45.09460604948763],[9.22608161778799,45.09529955930405],[9.225733393996782,45.097235607189596],[9.225198894155547,45.09705663951648],[9.224817313389236,45.09697636722689],[9.224219740832241,45.096914528661834],[9.223507987083282,45.096906928326504],[9.222937124679781,45.09687203969648],[9.220817634043474,45.09628488658426],[9.220710630433505,45.09625524533716],[9.220103214313479,45.09694053981761],[9.219900744066733,45.09716597328089],[9.21985070384531,45.097373099602],[9.219864719546754,45.09771514358874],[9.219929982956407,45.09816510113855],[9.220020505263951,45.09857001010335],[9.220175180667674,45.0991278092029],[9.220292461878207,45.09988373349986],[9.220784808922382,45.10231324190741],[9.216871757526375,45.10256829163468],[9.216916181958013,45.104229002939114],[9.215938512794116,45.10441089718761],[9.21558260606894,45.10441156956098],[9.215188285159153,45.10433130815458],[9.214616088809176,45.10427836886448],[9.214006218474484,45.10434252561683],[9.213485533838083,45.10446952566851],[9.212952476964698,45.10468656582966],[9.213232648138938,45.10483006046024],[9.213716711318174,45.10510821295835],[9.214073598070417,45.10536859112085],[9.21434137379416,45.10559313019088],[9.214774683468857,45.10589836428442],[9.215182758260475,45.10624866206327],[9.215336334208073,45.106509477621024],[9.215582356729705,45.10770624006059],[9.214615986187415,45.10762703710198],[9.2142474228272,45.10764574071237]]]}}]}
