{"type":"FeatureCollection","metadata":{"code":"018041","referenceDate":"2026-01-01","sourceDbfExportDate":"2026-02-18","upstreamArchiveUrl":"https://www.istat.it/storage/cartografia/confini_amministrativi/non_generalizzati/2026/Limiti01012026.zip","sourceManifestSha256":"70ac8256c4785dc6ed2814c32b6965ae76f9161b51abaa1660059e1c6cbd8ca6","license":"https://creativecommons.org/licenses/by/4.0/","attribution":"Istat, Confini delle unità amministrative a fini statistici al 1° gennaio 2026, versione non generalizzata.","modifications":["Converted from WGS 84 / UTM zone 32N (EPSG:32632) to RFC 7946 WGS 84 geographic coordinates.","Converted from shapefile to per-municipality GeoJSON without geometry simplification."]},"features":[{"type":"Feature","id":"018041","properties":{"code":"018041","name":"Cava Manara","alternativeName":null,"regionCode":"03","regionName":"Lombardia","territorialUnitCode":"018","territorialUnitName":"Pavia"},"geometry":{"type":"Polygon","coordinates":[[[9.079155978752933,45.15918601484863],[9.078786943041196,45.15926625980536],[9.077930724331578,45.158318757449706],[9.076917799418743,45.157366320424146],[9.076490080286218,45.1571447028105],[9.076090574427646,45.15672136327404],[9.075861751343984,45.15609113867644],[9.075732649992426,45.15542554467601],[9.075390382743686,45.15518371500937],[9.075299908210818,45.15508226003224],[9.074491466711828,45.1541756834497],[9.0731377589398,45.15400005875273],[9.071164415623727,45.15382482468422],[9.067837194932663,45.153529285245874],[9.067865269552522,45.15343487510635],[9.06799901768485,45.152984771633854],[9.068055327744311,45.152815538820015],[9.068107042823925,45.15281436567861],[9.068240164400526,45.15281745210935],[9.068338069900296,45.152819702501546],[9.068376083559366,45.15282058351884],[9.068711512154637,45.15282834600091],[9.068841004152727,45.15283132769498],[9.069449688572492,45.152845316872465],[9.073150118714766,45.15293028438431],[9.073037907160513,45.15279155561483],[9.07232792197208,45.15191380386294],[9.072037624481597,45.15155488573871],[9.070050645684454,45.15137082919915],[9.069662173295631,45.15133384662956],[9.069871698360851,45.15050665432506],[9.069975870419649,45.15009525745809],[9.070452147704634,45.14823757283255],[9.07120732201137,45.14834804855443],[9.071523622886508,45.147520415293144],[9.07159615588995,45.14733061504212],[9.071633752539407,45.14724923595744],[9.071683661216154,45.14710185861201],[9.071721600346777,45.147002679329624],[9.071789683489182,45.146824865688956],[9.071891103548397,45.146826996506924],[9.078560829450968,45.14696779713913],[9.07864812552665,45.14650114950751],[9.078965777967925,45.144802090535386],[9.079072530401177,45.144230745492465],[9.080411439600162,45.143500011382415],[9.083192601858597,45.14229385916038],[9.085464151331504,45.141889938168376],[9.085730262824649,45.14184262921487],[9.086902076880172,45.14163427144978],[9.087121251248755,45.14163745580417],[9.089272689593239,45.14166893325584],[9.090366486296608,45.14183644719669],[9.091565679730428,45.14207568448754],[9.092301504863052,45.14222286772599],[9.093598656089245,45.14233883956175],[9.094641702853144,45.14226766769541],[9.095201122875887,45.14222950272576],[9.096077975521697,45.142065984367086],[9.096233467923216,45.142038439670614],[9.096207655675874,45.13922074696086],[9.097319128967316,45.13668528054868],[9.0969398553668,45.136508108265495],[9.096255062682701,45.13618813111531],[9.095949616633735,45.13604538244175],[9.09481176009013,45.13543507143488],[9.095483239242455,45.134115111032536],[9.096915202351756,45.1343673535617],[9.097187647583912,45.13363660316662],[9.09621778263236,45.132757817153795],[9.098448298615867,45.13221920593897],[9.1008047841858,45.13149407831045],[9.101687819232517,45.13086713859554],[9.104441128766396,45.12849419363656],[9.10633424240934,45.12773956503015],[9.108267964174505,45.12623198093405],[9.10936853030219,45.12537866401357],[9.112649425733572,45.121882419775176],[9.112727191476283,45.12179926783963],[9.112785464086848,45.121666534644305],[9.112819071087554,45.12158998130597],[9.11300423505871,45.12116844683326],[9.113858911539571,45.11922154488323],[9.113913282797904,45.11909368848291],[9.113987572324787,45.11892452480044],[9.114821231566658,45.11702927164733],[9.114978739052184,45.11608788197393],[9.115029060918198,45.11578739270714],[9.116289336255079,45.11494179149923],[9.119811134561065,45.110769716967916],[9.12069521321746,45.10972220543173],[9.120531902945439,45.109452475619065],[9.1199331863743,45.108463668146356],[9.120064650337984,45.108216903516734],[9.120177270986316,45.108017629316045],[9.121260254938154,45.10607277826827],[9.117934330263239,45.10531948496622],[9.11744200318661,45.105179680950556],[9.11742648607394,45.10408691636398],[9.117472420019077,45.10394273380568],[9.117500360435344,45.10385503599647],[9.117616773580073,45.103486999710434],[9.118376170186437,45.10285981388924],[9.119382093694451,45.10215952773683],[9.120131667889664,45.10122332501651],[9.120996968346239,45.10007469246546],[9.12271997575128,45.09962516006385],[9.125780475631672,45.098622658280306],[9.126893444279892,45.09633500202138],[9.128030661319565,45.09337216260292],[9.1288312548678,45.09336226593169],[9.129848838721212,45.093757181902475],[9.130955330321436,45.09430501979556],[9.131155955184836,45.094351923784785],[9.131606800508974,45.094472772515964],[9.131699827785612,45.09450270511107],[9.132277806906451,45.094645562389594],[9.133992776045371,45.09450854195097],[9.13586665722292,45.09454124867882],[9.13689004363271,45.09455905999243],[9.138956422132548,45.0945728433541],[9.139177658226616,45.09457430680577],[9.140525382389603,45.09498673642512],[9.140637178133726,45.0950283868617],[9.141874205523457,45.09548921601601],[9.143182902990182,45.09583864935469],[9.143755785551642,45.09622500242635],[9.144406443273535,45.09705234030477],[9.145285146008872,45.09790637450015],[9.145706152387138,45.0985359630778],[9.146153609488662,45.09956158506052],[9.146157942705717,45.099628001772054],[9.146312325289289,45.101991841099746],[9.14636957927133,45.10450325081701],[9.145825833657158,45.105611144069236],[9.144699796866767,45.107691967158246],[9.143421662590415,45.109980017912946],[9.141750420557587,45.11270961062874],[9.142424778630485,45.11294280991941],[9.143213340477505,45.113094855337835],[9.144333116951541,45.113507525193526],[9.145537790341756,45.11400338885351],[9.145682157081966,45.11406395488172],[9.146356892237465,45.11443216921303],[9.146967385637053,45.11469243137213],[9.147882896350604,45.115210501766974],[9.148569214848177,45.11666068220514],[9.149163887073785,45.11755741313956],[9.14929074153676,45.1177475964032],[9.149487162842648,45.118043467936936],[9.150314156698157,45.11918285337394],[9.151533964268769,45.12026493002488],[9.152335455302504,45.122396211906256],[9.152377248881615,45.12343488228393],[9.15238269357685,45.1235820065236],[9.152387568441474,45.1237137664643],[9.15236030428074,45.125699990409345],[9.1523390298633,45.12724654519235],[9.152335100212113,45.1275311381868],[9.148323581384771,45.1272922970018],[9.144099247143776,45.12962801277635],[9.143596388083848,45.13037443875076],[9.142869665746375,45.13231973771928],[9.14188186851448,45.135543084468644],[9.141815144518361,45.13633349244989],[9.141739987729505,45.13753971502718],[9.141732578238628,45.137658913155946],[9.142081300777443,45.13848179053873],[9.142356579792194,45.13913129001351],[9.14244073792888,45.13932987975799],[9.14128702436244,45.13964594946988],[9.13722418224916,45.14075884126731],[9.136897147272716,45.14044913401227],[9.136553116762808,45.14019421700169],[9.13579730186614,45.140073518642275],[9.134887063095505,45.14000164838289],[9.134354172942595,45.13975909542668],[9.132461936726937,45.138271840072],[9.131739253602344,45.13761610032299],[9.131120270655419,45.1372520498569],[9.130725097193869,45.13713090325882],[9.12971186896712,45.13704696174475],[9.129595661808432,45.13706469651049],[9.128750640380153,45.13719393201487],[9.128338526614236,45.13718224714686],[9.128003719569518,45.13704995297762],[9.127908911619194,45.13701251126311],[9.127789901687487,45.13754763860816],[9.127112915393335,45.1383338327885],[9.127087740392803,45.13836306234627],[9.126556377662077,45.13877706572223],[9.126298767323629,45.13876518328298],[9.125972120953225,45.138583163139096],[9.125228176979792,45.138548023056394],[9.125027528458698,45.13849905575403],[9.124048824978765,45.13851229057433],[9.123844839454998,45.1385939810077],[9.123379662232932,45.13878043005574],[9.122980965335797,45.13713934716008],[9.121864538204026,45.13694542190055],[9.12150925148306,45.13689186489919],[9.120736548753838,45.13693403463148],[9.120201323036605,45.13696325523507],[9.119812955202221,45.13700082957867],[9.119770885456765,45.13700491097174],[9.119783355758308,45.13740040962596],[9.119810941582958,45.13802585095042],[9.119801109127309,45.138147416736764],[9.120985576788486,45.1383396526583],[9.121016600436656,45.13864778515986],[9.12066323022805,45.13876220167791],[9.120583700213146,45.13878794684168],[9.11990295714323,45.1390083511147],[9.119773685577586,45.13905020516866],[9.119648228119544,45.13909082274664],[9.118973685493854,45.13930921299354],[9.118975113961277,45.139382675333174],[9.119015863698156,45.14012613237951],[9.119199790734807,45.140489245780664],[9.11914937223817,45.14065702265286],[9.118861895452614,45.14071723754616],[9.118557536720042,45.14081338064023],[9.118438724182903,45.140621831521734],[9.117944999322209,45.14078488623807],[9.116764862728932,45.141174643024094],[9.117713609820278,45.14179663648305],[9.11847836796314,45.14342516176338],[9.118275657187745,45.14359309694592],[9.117479790226568,45.14384134088958],[9.11726362768255,45.14390876432327],[9.11661857425137,45.14410996465741],[9.116227032858818,45.144722202935775],[9.116196921185677,45.14476929895352],[9.115425033291132,45.14452802239664],[9.115373517342729,45.1445121045359],[9.11519821659884,45.14445712628128],[9.115144676667718,45.14444039030387],[9.114707012305974,45.14430358721353],[9.114419385865736,45.14438060440887],[9.113730959842112,45.14464826529421],[9.1136812136919,45.1446675937579],[9.113258944878307,45.14498888601472],[9.112884744627648,45.14527358590153],[9.11237195498497,45.14529425989241],[9.112229787780269,45.14543561290572],[9.112058646179493,45.14533492143741],[9.111488961109025,45.145395984777686],[9.110777468898824,45.14580013404859],[9.109610619020499,45.14644675437562],[9.108073438646153,45.147144152933876],[9.106222288954369,45.14756951563393],[9.104199523845642,45.147631883898526],[9.102434095044584,45.14821847036456],[9.101978886892267,45.14858197989033],[9.101837332359596,45.149086404363345],[9.101724928637328,45.14974987422456],[9.101070310890558,45.15037810451453],[9.101270521710926,45.15080153403438],[9.101299711694987,45.15120494670667],[9.10132885733598,45.15156802282188],[9.100817020559349,45.152163549390394],[9.10079521063918,45.15228047263916],[9.100647654126826,45.153071453948236],[9.100790997910856,45.153555457031416],[9.10096228804706,45.15373683909833],[9.101646708047666,45.15405899638345],[9.101505566817751,45.154805474828876],[9.101505924956882,45.15500721300523],[9.100566073829748,45.155290436195614],[9.101708954180555,45.157004054235784],[9.099728916242798,45.15725795899225],[9.09894354823381,45.1562702145142],[9.098430715000118,45.15631099417114],[9.098573517187013,45.1565025059659],[9.097719287711392,45.15688650993871],[9.096835627360802,45.156715795905455],[9.095667273358094,45.15670669686129],[9.095481892285775,45.156600940936755],[9.092358665476725,45.15478803773907],[9.092101606895481,45.154415058976625],[9.091620604945156,45.15420588487579],[9.090932502774349,45.15390664364484],[9.088922415659693,45.153111433282064],[9.08899347492607,45.153000434868744],[9.08878683354239,45.15288983716509],[9.088360344728166,45.152661567421184],[9.086697851835616,45.15177170880438],[9.085291960220657,45.15361104656718],[9.085151317918834,45.15365114779402],[9.085028045396244,45.15367803044692],[9.084962552588886,45.15370441991396],[9.08409744465653,45.156398033908495],[9.083741194727581,45.1563680437285],[9.083953851226502,45.15565178684432],[9.080918593179133,45.155280791379205],[9.0808919783178,45.15661720418901],[9.081035816152811,45.157580309723386],[9.080181125709645,45.15771204219226],[9.080767245563848,45.159103494513715],[9.080182879768323,45.15896271049019],[9.079155978752933,45.15918601484863]]]}}]}
