{"type":"FeatureCollection","metadata":{"code":"018141","referenceDate":"2026-01-01","sourceDbfExportDate":"2026-02-18","upstreamArchiveUrl":"https://www.istat.it/storage/cartografia/confini_amministrativi/non_generalizzati/2026/Limiti01012026.zip","sourceManifestSha256":"70ac8256c4785dc6ed2814c32b6965ae76f9161b51abaa1660059e1c6cbd8ca6","license":"https://creativecommons.org/licenses/by/4.0/","attribution":"Istat, Confini delle unità amministrative a fini statistici al 1° gennaio 2026, versione non generalizzata.","modifications":["Converted from WGS 84 / UTM zone 32N (EPSG:32632) to RFC 7946 WGS 84 geographic coordinates.","Converted from shapefile to per-municipality GeoJSON without geometry simplification."]},"features":[{"type":"Feature","id":"018141","properties":{"code":"018141","name":"Sant'Alessio con Vialone","alternativeName":null,"regionCode":"03","regionName":"Lombardia","territorialUnitCode":"018","territorialUnitName":"Pavia"},"geometry":{"type":"Polygon","coordinates":[[[9.22414535824904,45.23761862617283],[9.223943573932019,45.23814110205713],[9.22372878002048,45.23860059217289],[9.22366612029765,45.23887077038939],[9.223603627877532,45.239176931923296],[9.223425994640781,45.23936631297588],[9.222891155958573,45.23943936497186],[9.222496568375869,45.2395391486739],[9.222091036975147,45.239683970834854],[9.221518386391974,45.23986511929556],[9.220494012602144,45.238552886150714],[9.218945475975934,45.23675555490285],[9.21855223798171,45.23719738502778],[9.218260160435516,45.237449987910686],[9.21791756009344,45.23781069695633],[9.217561474313467,45.23798241517874],[9.21701376964718,45.238019461574616],[9.216453065241405,45.237993517325464],[9.216006937615068,45.23794034813384],[9.215599239523529,45.23794111846893],[9.215357586799904,45.2380496037901],[9.2152315002618,45.238400881229545],[9.215067587569036,45.23885128099299],[9.214906881590013,45.23984172954384],[9.213530739685451,45.239817321296655],[9.212141320168058,45.239639875010454],[9.211873189843443,45.23948734280227],[9.21168057729279,45.2390826455574],[9.211538834537512,45.23865982454853],[9.211397087360211,45.238228025194225],[9.211217183327149,45.237814288502285],[9.21110149977512,45.237535450689094],[9.211011581662857,45.23733758811438],[9.210502370069827,45.23744653827837],[9.209903682056913,45.23748366253861],[9.209024416810806,45.237431271177975],[9.211370669677502,45.23322340338786],[9.211427922005935,45.233120725560426],[9.211832942122843,45.2323942972935],[9.21434511819846,45.233073688274445],[9.213601998779458,45.235352442837005],[9.213564777995845,45.23561355302892],[9.213807404058228,45.235766128215985],[9.214100513880522,45.235792587401065],[9.214495193232745,45.23571983893157],[9.214749495259923,45.23558432424306],[9.215067111641893,45.23534969337927],[9.21561540468526,45.23547468137807],[9.21593414184877,45.23553709099414],[9.216328919539603,45.23549134336342],[9.216544555187662,45.23524788734381],[9.216390797944468,45.23501414552172],[9.21596841214969,45.234492846656885],[9.215724873563722,45.2341062444753],[9.21546843021433,45.23366566935095],[9.215276119010369,45.233341962406406],[9.214943447317387,45.23296454151075],[9.214832344424709,45.232859551129145],[9.214572729634892,45.2326142191868],[9.214176279953923,45.232209890427505],[9.213777224756717,45.23171324423412],[9.2133958568937,45.231329167690085],[9.213167703186905,45.231064387038536],[9.21310159179068,45.23098767307843],[9.213263988431244,45.23071961489423],[9.213301720841686,45.23065739674561],[9.213826542758351,45.22979102852282],[9.214542863372873,45.22860856288962],[9.214561039419555,45.22857857153491],[9.21451685482166,45.228556396360325],[9.213191119500854,45.22789096877419],[9.212871392231818,45.22757901632438],[9.21279517209425,45.227504644284956],[9.212762998509065,45.22746805524297],[9.212609181513104,45.22729321168167],[9.212194368138453,45.226821694237664],[9.210198078212628,45.22779754147665],[9.209902633623432,45.22713196974307],[9.209480792967367,45.22672767095853],[9.208828393096246,45.22597275097069],[9.208010739582196,45.22530812865176],[9.208659268166258,45.22500990102942],[9.209040852915999,45.22485617384663],[9.209320381555255,45.22466662888421],[9.209347538145858,45.22450307725749],[9.20935774942568,45.22444149948863],[9.209063708920384,45.224153984182955],[9.208795658487455,45.22400144509082],[9.208808256833764,45.22397349017793],[9.208862883890998,45.22385222912036],[9.208909351427225,45.22374915983613],[9.209073571717346,45.22348781910776],[9.209086294688825,45.22345605446752],[9.209110388630279,45.223395860040284],[9.209307748245152,45.2229029170812],[9.209351248642573,45.222794209950294],[9.209285954201421,45.222353251533114],[9.209588712358824,45.221659574093934],[9.209753380734153,45.22141622382185],[9.209980721679434,45.22089372359211],[9.21017073985193,45.22061432336452],[9.20974971345734,45.22040810695397],[9.210856304921347,45.220100044478095],[9.211719758623483,45.2194953620007],[9.211425730272293,45.21919884282225],[9.212568754632901,45.21843159128599],[9.213229169696682,45.21793528491766],[9.213597526915072,45.217664541035056],[9.213812378849376,45.217331090344956],[9.214001691197687,45.21687166491068],[9.214165353262656,45.216466283233345],[9.214328838812827,45.215916887056366],[9.214809866593445,45.21514183793042],[9.21580201238829,45.214824884142004],[9.216247057484084,45.21474301998126],[9.216603214958287,45.2146343332344],[9.217009874904953,45.21450753905121],[9.217530793007974,45.21429050727353],[9.217784856387443,45.214119000118295],[9.217988047114828,45.2139655827766],[9.218268562713023,45.21405506562134],[9.218562183598447,45.214243537469855],[9.218647995651317,45.214303857595745],[9.218906970406035,45.21448590022529],[9.219379135400514,45.214737039623564],[9.219774841252656,45.214970330939586],[9.219888284253289,45.21504087406529],[9.22010675937787,45.21517672465977],[9.220439046768854,45.21547312895953],[9.22070743629029,45.215715659759695],[9.220925209456883,45.21604828659214],[9.221092142232365,45.21639902358963],[9.221310088010938,45.21676767185474],[9.22139319205889,45.21692004623904],[9.221476819936427,45.21707338721328],[9.221683841804998,45.21729156203159],[9.221732601812532,45.21734294923541],[9.222103482420998,45.21773828926058],[9.223481318386677,45.21528719747697],[9.224695274576233,45.21318745275942],[9.22556729055899,45.211691494028706],[9.226059416773465,45.21064633710954],[9.226378276393781,45.210771727862436],[9.227086265802095,45.20948310870331],[9.229012324628986,45.210370416329496],[9.229533206572235,45.210646359653055],[9.23072198705674,45.21127611027172],[9.231359737681945,45.21152686565966],[9.231870360333332,45.21183187258956],[9.232150983255497,45.211939331538716],[9.232427084403303,45.211038619718494],[9.232755029870164,45.210362839512996],[9.233532669630291,45.210568277965805],[9.233394655433708,45.211072650238364],[9.234631378280008,45.211430172797655],[9.235854682568833,45.21161668659898],[9.235553398438066,45.21209602744679],[9.235475117347178,45.21222057466324],[9.238495310034995,45.212889420920824],[9.240215739234513,45.21327287837818],[9.24128697325844,45.21362168048676],[9.241743518647553,45.21326065867902],[9.24196173694357,45.2136652537183],[9.241849559893964,45.21415156991701],[9.24173705363641,45.214646901750974],[9.241278509999237,45.214629860089616],[9.241089817824841,45.215188362374036],[9.24192826816097,45.2153120607347],[9.24217313899691,45.21534820884135],[9.242452883063294,45.215239604394995],[9.242835012156602,45.21525678493263],[9.242734014901414,45.21546404422099],[9.242671854269073,45.215824232561594],[9.242635135042752,45.216175370615645],[9.242623516980984,45.21643643586625],[9.242688779892003,45.216805350478424],[9.243046241617273,45.21701163398963],[9.243513320088395,45.2172446730606],[9.24176444314799,45.21798651198764],[9.243216689989605,45.218154468606684],[9.244491224308788,45.21836777092347],[9.244860215523474,45.21837599462158],[9.245267732905111,45.21836610513172],[9.245419422789691,45.21809574261819],[9.245737747304988,45.2180770468922],[9.246094334905846,45.21807627910571],[9.24642398229617,45.21791354164985],[9.246628626935689,45.21811114914353],[9.247151728630877,45.2183260401352],[9.247826551072174,45.21827957803799],[9.248119536095539,45.218287938101724],[9.248439035500608,45.21853928875352],[9.248644096612088,45.21883588659874],[9.248977195686749,45.21928523638706],[9.249156685397113,45.21955489957729],[9.249323251136625,45.21977957288604],[9.249502468391361,45.21998620884601],[9.249669076211918,45.220219896622936],[9.249975832252431,45.2204712437425],[9.248960505165531,45.22131055601178],[9.249892999255446,45.22192961574974],[9.250506836785396,45.22248635704702],[9.250903118026537,45.222809557389],[9.250459013095242,45.22319759534888],[9.250193185106564,45.223486225650504],[9.249801416285177,45.224009165444336],[9.250451891525906,45.22438580695158],[9.249940001101516,45.224880808560684],[9.24946296102425,45.225342163059224],[9.250100398502559,45.225466791881765],[9.250509028714706,45.22560991066854],[9.251171550329454,45.22591451439024],[9.251402397596655,45.226175047511646],[9.251289326349243,45.22644533352664],[9.251125295324062,45.22679675369601],[9.251000048167956,45.22728310649989],[9.250874875757319,45.22769745092411],[9.25068546904909,45.22807593352119],[9.250522870965591,45.22876937937459],[9.249967411453081,45.22992276427648],[9.249575418025213,45.23058973540014],[9.249091594589311,45.23064478838986],[9.2486977239507,45.230609642270224],[9.247985083708699,45.2307822332063],[9.247514888386933,45.23104429395329],[9.247120558311343,45.231180164966254],[9.246611666030836,45.23133429506264],[9.246216592097467,45.23129914388905],[9.24578407333895,45.231444089661565],[9.24542780409316,45.23154387116415],[9.244930242408799,45.23137391680988],[9.244725117808924,45.231068298020496],[9.244431554161926,45.23093390863667],[9.243871960984372,45.23078207471616],[9.243349947854588,45.230846199083274],[9.242675394444067,45.23099166743766],[9.242089590866268,45.23103791123857],[9.24127395340333,45.230958633924516],[9.240623793899651,45.23085197598494],[9.24012602631706,45.2306279854387],[9.239997824667576,45.230430225924934],[9.238101312857134,45.230812261886605],[9.238087577539341,45.23057823909487],[9.238226111046709,45.2301908875195],[9.23835212392092,45.229866572826424],[9.238172351915953,45.22952490462371],[9.237842168302274,45.22976862141916],[9.237762893798843,45.22984647177284],[9.237575740985626,45.230030216775496],[9.2370793022736,45.230121266680506],[9.236645787328126,45.23002315123709],[9.23653019277654,45.22979835429609],[9.236580173304063,45.22956421731396],[9.236693563289004,45.22925792288924],[9.23657800743178,45.22904212205039],[9.236496136407826,45.22905985095991],[9.236158016577074,45.229133009588764],[9.235969148689747,45.229376447602995],[9.235665089579273,45.229782131384944],[9.235282615606062,45.22971091192529],[9.235179229381517,45.229351069488736],[9.235012335885832,45.22913537276891],[9.234695040920945,45.22932505897637],[9.234568565419488,45.2295413590463],[9.234162444517922,45.22991124392896],[9.233716473400749,45.22988516801277],[9.233396605263005,45.22954375998767],[9.2334207792286,45.22922865582814],[9.23316550815035,45.22910315444171],[9.23297503563481,45.229256572434856],[9.232810185390917,45.22943692727148],[9.232632761215772,45.22966234410157],[9.232429808419258,45.22987877863283],[9.23216331908753,45.230131365321455],[9.231820118860366,45.23031210000171],[9.231325160502756,45.230475128087306],[9.231065939153439,45.23047565281646],[9.230955736924669,45.23047587571524],[9.23074344527474,45.23033321235994],[9.230661928298174,45.23027844047992],[9.230839520564128,45.23008900654539],[9.23077415073087,45.229675110825895],[9.230430705088118,45.229801826157605],[9.230235741421293,45.22996347155269],[9.230049825605512,45.23011764959271],[9.229796199702237,45.23040620838781],[9.229568098214743,45.230703710565095],[9.229301844434785,45.231019301000124],[9.228984744549999,45.23136198123053],[9.22875987815978,45.23155270864309],[9.22868663944154,45.2316148625641],[9.22859116050756,45.231695835507686],[9.228299146281962,45.23193944911994],[9.227930576676467,45.23215622540197],[9.22761420440238,45.23239088969223],[9.227462312638151,45.23263423980313],[9.227446785978827,45.2326914864355],[9.22740682438916,45.2328390367518],[9.227374451654015,45.23295848797942],[9.227388225770428,45.23321950125599],[9.22744029204486,45.23349844858873],[9.227464197990082,45.233787739851145],[9.227467153216605,45.233822446671624],[9.22749382338296,45.23413744895423],[9.227545964105756,45.2344343883567],[9.227572902822285,45.234803403888414],[9.227587395677084,45.2352444530323],[9.227563296045137,45.23558654483673],[9.22750071913075,45.235865720388695],[9.227336094217039,45.236118091698316],[9.22698040577094,45.2363798396801],[9.226746575374086,45.23655130394822],[9.225834733598882,45.236625132907314],[9.225963683782814,45.2370209371774],[9.226067196769364,45.23741679072608],[9.226144763328639,45.23770468411751],[9.225712588988827,45.237651543209005],[9.224998831415338,45.23758092562013],[9.22448914847738,45.23756393535146],[9.22414535824904,45.23761862617283]]]}}]}
