{"type":"FeatureCollection","metadata":{"code":"018163","referenceDate":"2026-01-01","sourceDbfExportDate":"2026-02-18","upstreamArchiveUrl":"https://www.istat.it/storage/cartografia/confini_amministrativi/non_generalizzati/2026/Limiti01012026.zip","sourceManifestSha256":"70ac8256c4785dc6ed2814c32b6965ae76f9161b51abaa1660059e1c6cbd8ca6","license":"https://creativecommons.org/licenses/by/4.0/","attribution":"Istat, Confini delle unità amministrative a fini statistici al 1° gennaio 2026, versione non generalizzata.","modifications":["Converted from WGS 84 / UTM zone 32N (EPSG:32632) to RFC 7946 WGS 84 geographic coordinates.","Converted from shapefile to per-municipality GeoJSON without geometry simplification."]},"features":[{"type":"Feature","id":"018163","properties":{"code":"018163","name":"Trivolzio","alternativeName":null,"regionCode":"03","regionName":"Lombardia","territorialUnitCode":"018","territorialUnitName":"Pavia"},"geometry":{"type":"Polygon","coordinates":[[[9.037340954561309,45.274945480765766],[9.037085884618955,45.27481954298382],[9.036665079857606,45.27466665077588],[9.03634508880573,45.27455874234196],[9.035962521396389,45.2743788281857],[9.03554171856626,45.27421693573437],[9.035006177148977,45.27407308713997],[9.034585361616841,45.27388418397922],[9.033730898428766,45.27340734773895],[9.033386442756553,45.27298440030037],[9.033257584060218,45.27269639184718],[9.033155399242917,45.27234536502223],[9.033053053713358,45.27171528992971],[9.032989063012625,45.271265237162055],[9.032821821955615,45.27073421225583],[9.032632260193374,45.27038405875902],[9.032553828226021,45.27023920021018],[9.032362425972671,45.26990620991948],[9.032170962398412,45.26945619259812],[9.032081128857744,45.26924364652552],[9.032084505568854,45.26920715169181],[9.031952268660627,45.26882612010685],[9.031919115179019,45.268727095755665],[9.031773450379559,45.26831302676871],[9.031951925844314,45.26833097008247],[9.03228335654643,45.26833989098775],[9.032445132897065,45.26832188624914],[9.03253840653044,45.26830841777129],[9.03273366401417,45.268192710673986],[9.032882469934997,45.26807878991941],[9.033022621742635,45.26796172454567],[9.033136033160412,45.26779067034157],[9.033225158720839,45.26761060898141],[9.033760634862347,45.26775446610923],[9.034091782295611,45.26729530006132],[9.034193493376792,45.266818191724084],[9.035289860520885,45.26701588683486],[9.035606961033265,45.266412707390586],[9.03457427775454,45.266133974389234],[9.034891043760274,45.26493667585629],[9.035763366596857,45.26514170342682],[9.035961837228744,45.26518832202587],[9.03611457472728,45.26481020961126],[9.03624186011656,45.26455814506782],[9.036305143306683,45.26446569568096],[9.036445239708954,45.2642610233674],[9.03669359907653,45.26390939621086],[9.037004850557429,45.263477787719964],[9.037463283968293,45.262820524397874],[9.037666218463992,45.26250540385634],[9.037703823720282,45.26217234541131],[9.037486624263654,45.26199238215897],[9.037129638006066,45.261848484469205],[9.036811001493362,45.261866598735466],[9.036479625050614,45.26188469637919],[9.036912429322923,45.26100242702556],[9.037842532073176,45.261101136596636],[9.038198114567656,45.26036290034863],[9.038388380156468,45.259588698114335],[9.03748336790726,45.25946297658092],[9.037508345737642,45.25930094378357],[9.037597006676338,45.25904887126023],[9.037800694545968,45.258670758302564],[9.037965667988868,45.25821161716242],[9.038105189112498,45.257788507420585],[9.038257462454244,45.25739239866535],[9.038346369034885,45.256933283226324],[9.03835600531732,45.25687240810862],[9.03845983964747,45.256213184604626],[9.03837012426436,45.25605118918944],[9.038258894882631,45.255953577092846],[9.038144556887678,45.25585323666301],[9.038115071712953,45.25582623923952],[9.037732558982881,45.25554731545423],[9.03756539008558,45.25543776441769],[9.037349635022766,45.255331366063764],[9.037128823528334,45.25521295641151],[9.03703091216984,45.25516044810799],[9.0367758953897,45.254980495537275],[9.036864646046894,45.254872455844115],[9.036994196372396,45.25475032538901],[9.037017514753495,45.25472840992495],[9.037068308778544,45.25469251877756],[9.037192359836906,45.25460482070828],[9.037323244740264,45.254512289151855],[9.037666841935081,45.25433214046498],[9.038035884889101,45.254151982267565],[9.03823970942152,45.254007899710516],[9.03863507175234,45.253850239966056],[9.039189599924324,45.25362943895429],[9.039697600006692,45.25342716126075],[9.039947359891524,45.25332770993309],[9.040570056339597,45.25307994576869],[9.040621044175433,45.253061908390144],[9.04076504680479,45.25301093274765],[9.040799327392806,45.252998781948534],[9.040987105691954,45.25292128268372],[9.041105055347987,45.25287265365421],[9.041216016938533,45.25281833175836],[9.041270677227939,45.252791572084305],[9.041372568443311,45.25271952750563],[9.041538193517637,45.25264745697335],[9.041741692577755,45.25264738278235],[9.042009372631874,45.25271929235676],[9.04218822035467,45.25277322209453],[9.042366710658914,45.25287218902382],[9.042723591865629,45.252935066772416],[9.043093155840516,45.25292591290475],[9.043322081520792,45.2528268122068],[9.043411607843431,45.252802443486026],[9.04365334664411,45.25273666810565],[9.043857254548898,45.25272759386287],[9.044201296626056,45.25265545351959],[9.044366937038289,45.25263737814043],[9.044532581741482,45.252592314140266],[9.045029117588316,45.25248409122986],[9.045347245188852,45.252420953772074],[9.045614826582094,45.25236685155588],[9.045772069835959,45.252340653612606],[9.045837209482727,45.25232980765266],[9.045915937427926,45.252316696810205],[9.046048084586783,45.2522946798809],[9.046273251716764,45.25226892012125],[9.046456669413999,45.252246158212756],[9.046774361512878,45.25216834986479],[9.047092881094215,45.25207820099619],[9.047487894323767,45.25201502674424],[9.04794662081865,45.25196082052408],[9.048481831292698,45.251951598464224],[9.048851399286283,45.25192443370639],[9.049259128847918,45.25184323672887],[9.049563682560848,45.25172609770362],[9.049729263576596,45.251645004769394],[9.050136935736942,45.251500811979405],[9.05051912440053,45.25134761487387],[9.05082479966729,45.25117645830176],[9.051028573133191,45.251023337837],[9.051296011632415,45.25082518888012],[9.051576299508385,45.25075303780983],[9.05181836723572,45.25069893256249],[9.051995570853782,45.25066284770784],[9.052275789714555,45.25051868720686],[9.05251780727679,45.25041056591266],[9.053117990066372,45.25004121928692],[9.053588905701549,45.24984297101405],[9.054022000904114,45.24964473778732],[9.054327680018787,45.249491546046684],[9.055028197936016,45.24958118910225],[9.05574179056772,45.249544839637906],[9.056188217121491,45.2495626131514],[9.056543847735506,45.24958044880935],[9.057244705346852,45.24957110355577],[9.05752487778802,45.24937291467669],[9.057843939942899,45.249462772456994],[9.058238641814722,45.249534578734654],[9.058710231620777,45.24960636305338],[9.059118023898824,45.24961514883677],[9.059398568000175,45.24980403635041],[9.059628265245754,45.25010995523068],[9.059999332089046,45.25040682312898],[9.060151230651613,45.25055977195381],[9.060342566865689,45.25073968813139],[9.060457368033742,45.250856652714],[9.060483000490557,45.25098266146262],[9.060495919319392,45.25115367648416],[9.060547110209416,45.25136069263658],[9.060751261243029,45.25158561975664],[9.061044575909365,45.251792487723606],[9.061262638121939,45.25199040009153],[9.060919142655113,45.25254868484606],[9.060601253767153,45.253214965144444],[9.05909718005474,45.25294569939225],[9.058729673868653,45.253783021881645],[9.058130621489177,45.25372933179559],[9.057939967392167,45.2542245008512],[9.058080151633844,45.25422442965105],[9.05838605849114,45.25426027708061],[9.058806649906934,45.254296063799416],[9.059380180488498,45.25432277523513],[9.059864669781467,45.2545115552345],[9.060008897809231,45.25461727986217],[9.060159266312478,45.254727497332816],[9.060287010187428,45.255006461908394],[9.060312856864035,45.255357505867565],[9.059896237704487,45.25643791766129],[9.05980565071132,45.256671991175565],[9.05913003719724,45.256541804688766],[9.058406526253815,45.25823895082984],[9.059502586426458,45.25822039193828],[9.059553676561176,45.25832837542882],[9.059872372410235,45.25839121943761],[9.061173033153278,45.25862458048267],[9.060829689094923,45.25936288196817],[9.062156008758219,45.259713225218654],[9.06196556514512,45.26002836374953],[9.061799932182362,45.26009146409958],[9.061520022073514,45.260181633065905],[9.061188693662096,45.260226829428255],[9.060615228576264,45.26031713416171],[9.060156453862927,45.260380388223055],[9.059391788000168,45.260452813130904],[9.058678431518405,45.26044416773188],[9.05838713790167,45.26147949563184],[9.057893041745569,45.26324402726618],[9.058000602369418,45.263272993565074],[9.05832651960758,45.263360813755895],[9.05860698990386,45.26341468374504],[9.058687112103597,45.26342523738143],[9.059014927655353,45.26346848905391],[9.059499334979815,45.26350424107315],[9.059932732505999,45.263513011485436],[9.060238624292717,45.26351285056339],[9.060710350244669,45.26360261769416],[9.061067407012262,45.26374646050244],[9.061412126420887,45.263899285130385],[9.061348964960443,45.26407935466051],[9.061247280709722,45.26434044849156],[9.06110786850613,45.264718587419345],[9.060891532801119,45.26503375573483],[9.060637258637087,45.265294930227284],[9.060395814980746,45.265619107004795],[9.06007894147259,45.266555419041865],[9.05968371882116,45.26650163072198],[9.059275749351377,45.26643883264246],[9.058727583912765,45.26639409838682],[9.058408956597322,45.26643927920416],[9.058039379546145,45.266520471252015],[9.057746229941031,45.26656563726997],[9.057427526987398,45.26653879074275],[9.056828251651877,45.266368051083106],[9.054928547812167,45.26595491302251],[9.05455111183815,45.26640891833299],[9.054507779458737,45.26646098932584],[9.054450375114582,45.266530044750326],[9.054210824997114,45.26681830587811],[9.054127614735757,45.26691847718076],[9.054353397373232,45.2675036387566],[9.054447082846407,45.267746441197104],[9.054051720533295,45.267548601308796],[9.053783941139141,45.267458709982506],[9.05335038107889,45.26727889494663],[9.052674618989599,45.26710817011734],[9.052011699185773,45.267045481396124],[9.051450844070676,45.26705473152662],[9.050851796926562,45.26712700734415],[9.050380642605825,45.26722622998932],[9.049832962401403,45.267289480788044],[9.050506168303329,45.26593897371549],[9.048669879322246,45.265552709786625],[9.048581667702123,45.265795775417615],[9.04842906392204,45.26623691492269],[9.048315189917169,45.26675905945859],[9.048201336669322,45.26730819213363],[9.048074751397712,45.2679023294161],[9.047871646821418,45.26843350698166],[9.047757663903573,45.2688386069822],[9.047605471267788,45.26928875998196],[9.04717450135905,45.270810170639166],[9.046565345452036,45.27225064128338],[9.046374139156288,45.27223275299135],[9.046004408060814,45.27218788512946],[9.04545618328904,45.272125093256584],[9.044831403928189,45.27199032315491],[9.04416835907186,45.27182855724556],[9.043696562508309,45.27166671357472],[9.043339493053415,45.27151382147096],[9.04319946425322,45.27177491253573],[9.043072161270295,45.27201800732731],[9.042855733496278,45.27241414467265],[9.042615061008473,45.2728643050012],[9.042347636150378,45.27326047924406],[9.042042017378726,45.27373765063856],[9.041597622737134,45.27457496121832],[9.040258780499435,45.27425139174276],[9.038970954957744,45.27398178551789],[9.038627086375257,45.27446797665368],[9.037925797827132,45.27433319378178],[9.037288307484152,45.27425240014939],[9.037340954561309,45.274945480765766]]]}}]}
