{"type":"FeatureCollection","metadata":{"code":"018123","referenceDate":"2026-01-01","sourceDbfExportDate":"2026-02-18","upstreamArchiveUrl":"https://www.istat.it/storage/cartografia/confini_amministrativi/non_generalizzati/2026/Limiti01012026.zip","sourceManifestSha256":"70ac8256c4785dc6ed2814c32b6965ae76f9161b51abaa1660059e1c6cbd8ca6","license":"https://creativecommons.org/licenses/by/4.0/","attribution":"Istat, Confini delle unità amministrative a fini statistici al 1° gennaio 2026, versione non generalizzata.","modifications":["Converted from WGS 84 / UTM zone 32N (EPSG:32632) to RFC 7946 WGS 84 geographic coordinates.","Converted from shapefile to per-municipality GeoJSON without geometry simplification."]},"features":[{"type":"Feature","id":"018123","properties":{"code":"018123","name":"Robbio","alternativeName":null,"regionCode":"03","regionName":"Lombardia","territorialUnitCode":"018","territorialUnitName":"Pavia"},"geometry":{"type":"Polygon","coordinates":[[[8.631666440318702,45.33838136379007],[8.629561121967104,45.33828754670231],[8.628642202210987,45.33828456269801],[8.628157290683111,45.338273989074025],[8.626656970728712,45.338278017013224],[8.627419887806537,45.33708219666622],[8.62592847841556,45.336702230154586],[8.626776703204209,45.33584452728953],[8.626210330958127,45.335450219634666],[8.624876669601475,45.33369508229441],[8.622036679779937,45.33297911590788],[8.621374408776049,45.33277889607875],[8.620330637940746,45.33243337525037],[8.619808727372343,45.33223361280867],[8.619463549744907,45.33226846621674],[8.619219677038089,45.33247467581445],[8.61905168158623,45.33278916471299],[8.618960992295792,45.333049898361914],[8.61865253020149,45.33337291484672],[8.618017920581579,45.333685844195436],[8.616786406642916,45.33447695845792],[8.61528570375001,45.33544093934816],[8.6148762060334,45.334075868931635],[8.61233373333269,45.331911436489584],[8.611813358501777,45.331495605401365],[8.611305744790757,45.331079836043045],[8.610837039040721,45.33062815444383],[8.610278462694355,45.33020319189453],[8.609833717442456,45.329868631357485],[8.609415521261806,45.32944414308426],[8.608844743570934,45.32893811003104],[8.608387966796036,45.3285584847373],[8.60782880665285,45.32822352394677],[8.607749904216236,45.328192851641646],[8.607104548423605,45.32794197675239],[8.606885084165201,45.32786519839456],[8.606454938625987,45.32771470774944],[8.605692056401397,45.327316024443675],[8.604904633178073,45.32683623031745],[8.604168095129614,45.326320604131304],[8.603457064907252,45.325814057722766],[8.602541721897953,45.32532480697368],[8.601614125421023,45.32482649118931],[8.600672285845151,45.32442714980647],[8.599782712777369,45.32391095996882],[8.599047167925848,45.323440302954566],[8.598602543010998,45.323105698701845],[8.598221463258612,45.32286131512862],[8.59808321349328,45.3225637891177],[8.597689389221612,45.32231935799797],[8.596709700528427,45.321982861271614],[8.595997036976712,45.321719306007125],[8.594965790711903,45.32140060394482],[8.594151687908507,45.32110967040519],[8.593272716769778,45.32085450305299],[8.591033781554742,45.32009038694526],[8.590664168531935,45.31998105392729],[8.590103704786653,45.319853024002526],[8.589784609825202,45.31986988934343],[8.58910879001283,45.31986746008926],[8.588445720728176,45.319811057941465],[8.587477771282966,45.31957353712937],[8.586701661586032,45.31932768662305],[8.585938111874134,45.319054888295256],[8.584996348618192,45.3186734104504],[8.584387306023613,45.318374156042694],[8.583522517805294,45.317938931214044],[8.58290006671525,45.31756761393031],[8.582226661255715,45.31718709193315],[8.581515206503534,45.31683343351811],[8.581045069006155,45.31657067396287],[8.580638941356677,45.31628114051336],[8.579953547594894,45.31580154798528],[8.579560579254736,45.31545804327502],[8.57919314374676,45.31511463306582],[8.57881276139882,45.31479818090475],[8.578058682975822,45.314336334538325],[8.57744204350975,45.31389298287678],[8.577175944105745,45.313648972010895],[8.577101220996699,45.3135644122456],[8.577021470796296,45.313474128704925],[8.57696055806473,45.31340520236978],[8.576943928270836,45.31333561550311],[8.57691109720727,45.3131980185982],[8.576786671141402,45.312774479421115],[8.576355065355253,45.31248483523348],[8.576178075048599,45.31226815947355],[8.576128595349557,45.3120609338451],[8.576117389216616,45.31185387004006],[8.576055158295253,45.3116465979412],[8.575993237841066,45.31139432697237],[8.5758804556301,45.31112387503175],[8.57578039675097,45.310853470224636],[8.57557912630189,45.310474662107396],[8.575453169057452,45.31025815587003],[8.575109352761423,45.31022987124823],[8.574024294910602,45.310378856742],[8.573925083597166,45.310000425369594],[8.572290704086553,45.3102013578932],[8.571989744537278,45.30956113281421],[8.571249613874441,45.309594359010575],[8.570743715622939,45.309016371162905],[8.570414155026599,45.30879009878663],[8.569263971368422,45.30906479628391],[8.56863722325874,45.3076042190333],[8.566590041578571,45.30841558309738],[8.566220877389968,45.30831517208836],[8.565639339776746,45.30595459193927],[8.565413868312945,45.3054136493132],[8.565150958253911,45.304764553495204],[8.565039520461527,45.304323058244115],[8.56490272848311,45.303863453468736],[8.564804414056109,45.30337700786588],[8.564643000396742,45.302800304435856],[8.564570417718764,45.302286950467575],[8.564574413991966,45.30176489052625],[8.564616391423167,45.30146800983619],[8.564641826967307,45.30128807234474],[8.564799372949233,45.3007035882206],[8.564880701105585,45.30007379540756],[8.564941455131338,45.29973026128915],[8.564948125027541,45.29969233296063],[8.564964012070694,45.29960260756051],[8.564975561396745,45.29953738109864],[8.564987316582675,45.29947108334561],[8.56505481879723,45.29898526901418],[8.565121537462051,45.298598464942735],[8.565175645369731,45.2981936026809],[8.56531946816787,45.297735084792436],[8.565526537410772,45.297339819305385],[8.565771387549772,45.2970076883718],[8.566093794543237,45.296540833265105],[8.5660538163476,45.296529123504634],[8.565949191792315,45.29649847924098],[8.565813927253004,45.29645884656866],[8.565626067711692,45.29600806374553],[8.565704931695667,45.29570230767251],[8.565783836685101,45.29538755652389],[8.565798257543113,45.29517159156333],[8.56586379903218,45.29493779188763],[8.565865721953939,45.29468577624452],[8.565829862921541,45.29437058872756],[8.565755081469934,45.29414526964339],[8.565078696221882,45.2942057062608],[8.564723162569608,45.292332051612924],[8.564474055748164,45.29155698570371],[8.56438671858182,45.29130461062852],[8.56421004624561,45.29106089161568],[8.563996014015384,45.290700023210675],[8.56379461509756,45.2903572136721],[8.5636316601954,45.28998752552962],[8.56352122883606,45.28942000910337],[8.563422675338856,45.288969563353966],[8.563348808095897,45.28862724033653],[8.563261893545599,45.28832085254898],[8.563048220596656,45.28791496539828],[8.56274625981479,45.28738273721715],[8.562456590810038,45.28691354850068],[8.562154571602507,45.28639031541272],[8.561902864427061,45.28595727303831],[8.561625952768745,45.28548814903361],[8.561489648509458,45.28497454515728],[8.561415979368125,45.28460519627048],[8.561380150920112,45.2842900069164],[8.561267628581218,45.28400152919306],[8.561103250318936,45.28382088064915],[8.56065829857787,45.28364813101364],[8.559971725545754,45.28339344558345],[8.559259855223596,45.28311167105653],[8.558103360795746,45.28262112869674],[8.558131082155821,45.28233319121909],[8.558248221343865,45.282027587635056],[8.558416146533913,45.2817491883301],[8.55867343473723,45.28145314103627],[8.558917865240005,45.28117503656004],[8.559085618346318,45.28091464573552],[8.559806813863796,45.2799812443049],[8.560719362851014,45.279030565924316],[8.561002900675021,45.278635599631095],[8.56129954865851,45.27819566651881],[8.561609046714,45.277737787948496],[8.561867572580756,45.27727969497802],[8.562164111930368,45.27684877409315],[8.562486985056793,45.27630992278184],[8.562885383597395,45.27569033984538],[8.563259993667703,45.27505267050439],[8.56358374420093,45.27439681425039],[8.56380316219925,45.27404659594],[8.56394552821943,45.27376809050281],[8.564024370649822,45.27346235232347],[8.565911433692236,45.27342452265386],[8.566220002537786,45.273083653440075],[8.566506965992392,45.27222960159417],[8.56666358952791,45.27175311922154],[8.566780907917341,45.271411503707206],[8.566839852120278,45.271233827033505],[8.566885278261292,45.27109682094806],[8.567065596175194,45.27085447669674],[8.567411300106967,45.27049573376666],[8.567706558874725,45.270226799457596],[8.568026543435526,45.27005698881361],[8.568448156313455,45.269932560721365],[8.569379821478838,45.26979204506311],[8.569966951585352,45.26969524339849],[8.570413766880817,45.269606907140414],[8.57074603025015,45.269500146460366],[8.571218347858208,45.269411902895634],[8.571754755959873,45.26927889829062],[8.572041370503111,45.27015310660307],[8.572366807147343,45.270955451924785],[8.57280717282,45.27173123873961],[8.572970514453047,45.27204688402165],[8.573146558792892,45.27237159062753],[8.573297121417575,45.27269622154961],[8.573780249582335,45.27286904584812],[8.574072459627065,45.273005152993456],[8.574338490164086,45.27323118038953],[8.575946297829462,45.2728681124341],[8.57632701525999,45.27310355705302],[8.57663027333029,45.27346473423861],[8.57707002390171,45.27379942692171],[8.577223080332855,45.27359494310964],[8.57747321607216,45.273260842059265],[8.577576730679025,45.2730541824348],[8.577680137720046,45.272865533406936],[8.577924276960156,45.27260539696271],[8.57895541111139,45.272807230404055],[8.579530852539044,45.27256632247506],[8.580004139799856,45.272352025223356],[8.58038782870722,45.27218241515245],[8.5801095031923,45.2718933461167],[8.581080335702127,45.271464833776385],[8.580865406460427,45.271221017358336],[8.582513686279585,45.27070495823293],[8.583521994639352,45.27053761905981],[8.584479637555118,45.27032506745818],[8.58484973196552,45.270272417796605],[8.585039627071167,45.27045312439925],[8.586010593095725,45.270159606553435],[8.587171450207752,45.26988475826604],[8.587523493047057,45.27056113738322],[8.588889109021935,45.27034102535698],[8.588675319442205,45.26993520336563],[8.590945705316681,45.26964628433193],[8.590917646858804,45.270055750366346],[8.594841253746369,45.27038478973024],[8.595156807391115,45.27082698310852],[8.596265450674995,45.27083090744322],[8.596827549710301,45.270661853722196],[8.59736378328531,45.27054673935734],[8.597925611972256,45.27035968617085],[8.598513651171379,45.27012770494583],[8.598960706535095,45.27000327345597],[8.599356519086996,45.26991464397579],[8.59996736245234,45.27000680370235],[8.60060385223112,45.270135034248085],[8.601152434984945,45.27007395877728],[8.601561614417445,45.269895351518834],[8.602071932284225,45.26978010571989],[8.60245543976735,45.26962841211079],[8.602775316728188,45.26945850372361],[8.602967589383201,45.26930614492857],[8.603274785919623,45.26912719495046],[8.603605831138799,45.269182340783715],[8.603793779528136,45.26965107375132],[8.603995518062105,45.269912812452745],[8.604567853055,45.27010382696351],[8.605039499908697,45.27010545893315],[8.605599909542843,45.2701794030119],[8.606109431519783,45.27023517485346],[8.606861068194322,45.27024676156369],[8.606666377970093,45.27075017618031],[8.607749499668653,45.2708169116444],[8.60732219132053,45.27177859384136],[8.607767814683823,45.271861147556514],[8.608872642465979,45.27056872138858],[8.609328977927094,45.26908505344406],[8.610602205288997,45.2692514267075],[8.611544900903814,45.269344654551425],[8.611979119747094,45.269229105627126],[8.612539938681431,45.26918149316959],[8.61317779170944,45.26911164773064],[8.613751344050085,45.26912258581736],[8.614580035096704,45.269053378664914],[8.613535671050768,45.27085013190343],[8.614541760132653,45.270997563869564],[8.614582017901244,45.271014261587176],[8.61666438211952,45.271877854956465],[8.616226025934425,45.272605503279294],[8.61777811093366,45.273087786379804],[8.618578184894888,45.27348651608778],[8.619099011717328,45.27376730418493],[8.619095940785744,45.27422636028526],[8.618428335661042,45.27498025826537],[8.619063867985668,45.27520741524583],[8.619948590466166,45.274454235353886],[8.62000607569202,45.27539058914944],[8.621671466220821,45.27604421535865],[8.622400659102805,45.27566856488267],[8.62380411316239,45.27743747398816],[8.625220773345578,45.277154085494224],[8.626051233238993,45.27688677362151],[8.626893623919178,45.27668248530522],[8.627570502916804,45.276504678164585],[8.6280941642194,45.276362351660985],[8.628675328923977,45.277111373498876],[8.629248696506247,45.27716723248769],[8.629511628698436,45.27790620061269],[8.629141374441579,45.27798602048002],[8.62945612244455,45.278599136937856],[8.629812935926356,45.27862730024926],[8.629803210941173,45.27815918775439],[8.630364433982953,45.27812500308662],[8.631485441350744,45.27820964613704],[8.63163575751806,45.27665287876157],[8.633429280991178,45.27723474003494],[8.633362389178712,45.27772059855064],[8.634584818102665,45.277958547619015],[8.63435942772362,45.27930805481805],[8.636307864360532,45.27960232159382],[8.636367372726282,45.28026860029174],[8.635844976483886,45.28027595089344],[8.636159636699574,45.2809160545994],[8.636346109033985,45.281663759886385],[8.637277384054586,45.281522689402],[8.637801010241455,45.28138933429023],[8.638579391004534,45.28129278553789],[8.639229986325462,45.28117783664889],[8.639842603814374,45.281080737563244],[8.640327510898599,45.28101925522659],[8.640773708295002,45.281029673559935],[8.641129330151996,45.28118382032639],[8.641663874994249,45.281338508570656],[8.64200734540442,45.28146560642056],[8.642388933288743,45.28161083365553],[8.642637485808956,45.28169463589048],[8.642787217215417,45.28174511832026],[8.642846924092577,45.281765247826094],[8.642919737614838,45.28178492049601],[8.642962468789488,45.281796465262104],[8.643521188609304,45.28194738933462],[8.643865342608017,45.28196647403244],[8.64445106854774,45.28209431964373],[8.645074969280815,45.28223127786489],[8.645584217246801,45.28235887997562],[8.646080279708949,45.28248643895527],[8.64651346637982,45.28254177584631],[8.646883167762388,45.282551934432526],[8.647487117889666,45.28385899039417],[8.647612596351046,45.284183445246825],[8.647444400149062,45.28457898043253],[8.64723892337954,45.284812377209846],[8.646879717980998,45.28516232303013],[8.646521875482625,45.285359244112826],[8.646163668204638,45.28554716596184],[8.645460047451133,45.2859140499108],[8.646336870655126,45.28640284081712],[8.646887517305816,45.28602648258244],[8.647475074746461,45.28580326249645],[8.648050193137681,45.28558899802513],[8.648663693325842,45.28535684846957],[8.648873624022876,45.28596615497192],[8.649026969678491,45.28641112815592],[8.64882143709678,45.28665354251089],[8.648628617803748,45.286904990771106],[8.648410171156854,45.28717435285481],[8.648165788064643,45.28751565990492],[8.64787112614908,45.28780279717294],[8.64749921612245,45.288143690614824],[8.647062746956928,45.28861042195679],[8.647060959343074,45.288898460819645],[8.646994531343795,45.28933031443092],[8.646928354608523,45.28971718750231],[8.646870684264526,45.29012191151909],[8.646861701200159,45.290185042554086],[8.646768860066125,45.29076084496387],[8.647215860636003,45.290654216101615],[8.647586228132235,45.29056534299593],[8.647892564891198,45.29052128765399],[8.648313212525073,45.29054957277502],[8.64865697565564,45.29064064814669],[8.649025424865119,45.2907948086214],[8.649457237197913,45.291084179009005],[8.649978210317107,45.29139183296072],[8.650676595177647,45.29188004309633],[8.65124892122978,45.29213383406065],[8.651323928725684,45.29237709004602],[8.651309693099195,45.29262009155701],[8.651269720914357,45.29289901763731],[8.651433474818784,45.29323256179562],[8.651700515057096,45.29335939784752],[8.65200659471176,45.29342334017653],[8.652323938812245,45.29346930674554],[8.652427265854428,45.29353722132484],[8.6526541846909,45.293686349382966],[8.65243367354882,45.294360781095506],[8.652380747938125,45.294738682342825],[8.65223732922829,45.295251324561754],[8.652016996782494,45.295826742467725],[8.651809595284616,45.29637519313367],[8.651743448752137,45.29682505991658],[8.651506772546075,45.297985511670724],[8.649991127150823,45.2976478330766],[8.64983637353512,45.29792640750926],[8.649720081738534,45.298169076752146],[8.649552553468952,45.29844761159648],[8.649346394562452,45.298789036877636],[8.649139708082728,45.29921146423956],[8.648907801661023,45.29958881270375],[8.64862476733084,45.29998399549851],[8.648776357114118,45.300218504045574],[8.649016653175892,45.30055228748981],[8.649371393831574,45.30094043411202],[8.649980218244915,45.30149138286794],[8.650462689186984,45.301852911248076],[8.650831140318227,45.30215109690477],[8.65136430307831,45.30250378124382],[8.651910997006508,45.30279349236582],[8.652521625420619,45.30305638923478],[8.652928686969442,45.303237643284575],[8.653539459980086,45.303482542135455],[8.65408649450837,45.303655219603925],[8.654558150003027,45.3037016651251],[8.65495340197966,45.30372986691134],[8.65545058090161,45.30377636694696],[8.65575020224876,45.30379528140412],[8.655849831781891,45.303800079670395],[8.656049064976633,45.30381417388765],[8.656903693114854,45.30380774828109],[8.657962658715867,45.30376590728991],[8.658114452614361,45.30374978919442],[8.658339198917426,45.303725151442066],[8.65886886853008,45.303669601557516],[8.659248110957224,45.30435458077365],[8.659550654363722,45.30468155588075],[8.659970162611351,45.30513440810111],[8.66000783936831,45.305176231159756],[8.660061060609445,45.3052348791657],[8.660679478248362,45.305916339764316],[8.660599012457661,45.30657320967935],[8.660570878202272,45.30691081520696],[8.660551315004549,45.30713741789122],[8.660503004937102,45.30769809474129],[8.660540746278906,45.30777667698342],[8.660599138487399,45.30790109560828],[8.660868310258904,45.30847329400779],[8.661731740033483,45.309150955226514],[8.66281583114348,45.30927311389675],[8.662936228930842,45.30928667797807],[8.663044371923712,45.30929886186471],[8.663195276930123,45.30966835424116],[8.663137034197119,45.30996408765377],[8.663123147507656,45.31003421740496],[8.663081146590569,45.310244827073156],[8.663066506077124,45.31031663695899],[8.663024763408673,45.310522990578285],[8.662523247007192,45.31119661037538],[8.662025033048664,45.3113121612749],[8.661752319799588,45.31212147143016],[8.661328021042669,45.31267830930924],[8.660789744064301,45.31309077698513],[8.660018375302231,45.31415063989093],[8.65932641650169,45.314724666055255],[8.658483538021548,45.314866160973764],[8.658409918080814,45.314931373116366],[8.657663057547243,45.31559282682535],[8.65695574299716,45.31652684057176],[8.655810955894658,45.31824515512622],[8.657197522669174,45.31877583821455],[8.657286490563791,45.31880517440105],[8.658061941951665,45.319275577082486],[8.657711758061803,45.32021967934094],[8.65684825650135,45.32172031474613],[8.655910676860028,45.32279764086888],[8.655092927609815,45.322984205063],[8.654836061267345,45.32326247573471],[8.654972424676636,45.32391997674409],[8.655322929581617,45.32503720508198],[8.655711406839238,45.325680669916245],[8.65633674380578,45.32619243190457],[8.656116980706772,45.3266598465807],[8.655757383943673,45.32710883030969],[8.655424058305066,45.327386741114545],[8.655042347124464,45.327277743911814],[8.654456834815543,45.32700605144437],[8.653448686165433,45.326948821131616],[8.652556699863398,45.32706421334715],[8.652333039474556,45.327093167208716],[8.65152876827498,45.327196729462386],[8.651201826295088,45.32723902919545],[8.651051248991461,45.32732516373165],[8.650497500223365,45.3276419252087],[8.649806052324772,45.32802686161865],[8.648374101447649,45.32859854791006],[8.647222292043121,45.32913507976675],[8.646452618683902,45.3295059711839],[8.646418802490436,45.329522199557786],[8.646275127854748,45.32959121225315],[8.646172583158702,45.329633267855044],[8.645872893778284,45.32975383646045],[8.64550751781353,45.32990389246639],[8.645352092997724,45.330272473033276],[8.64536448692829,45.330460188128214],[8.645375742310396,45.33062831982354],[8.645387001251992,45.33081266035417],[8.645340717903323,45.33091240884074],[8.645288503081826,45.33102335733714],[8.645205926569696,45.33119915123228],[8.644718116672637,45.33171970644288],[8.643080327155454,45.33247071899604],[8.642107006055925,45.33264584886267],[8.642009186752022,45.33271880292281],[8.641738615561133,45.33292498499939],[8.641668550216838,45.333025049823995],[8.641493176782369,45.33327587083326],[8.641122068503305,45.333688768037675],[8.639105666500653,45.334627563380145],[8.638731222369227,45.335310472428645],[8.638291074718419,45.3362902317125],[8.638130043877798,45.33709200616166],[8.6380275026998,45.337594573872956],[8.637031892437804,45.337609425188475],[8.636316636907011,45.33754348129963],[8.635502986300741,45.337280606001265],[8.63445988712388,45.337012600820245],[8.634190031249108,45.336943252441216],[8.633232840962641,45.336940182791864],[8.632057925307457,45.33705342838769],[8.631813287621469,45.33738568086733],[8.631666440318702,45.33838136379007]]]}}]}
