{"type":"FeatureCollection","metadata":{"code":"020072","referenceDate":"2026-01-01","sourceDbfExportDate":"2026-02-18","upstreamArchiveUrl":"https://www.istat.it/storage/cartografia/confini_amministrativi/non_generalizzati/2026/Limiti01012026.zip","sourceManifestSha256":"70ac8256c4785dc6ed2814c32b6965ae76f9161b51abaa1660059e1c6cbd8ca6","license":"https://creativecommons.org/licenses/by/4.0/","attribution":"Istat, Confini delle unità amministrative a fini statistici al 1° gennaio 2026, versione non generalizzata.","modifications":["Converted from WGS 84 / UTM zone 32N (EPSG:32632) to RFC 7946 WGS 84 geographic coordinates.","Converted from shapefile to per-municipality GeoJSON without geometry simplification."]},"features":[{"type":"Feature","id":"020072","properties":{"code":"020072","name":"Borgo Mantovano","alternativeName":null,"regionCode":"03","regionName":"Lombardia","territorialUnitCode":"020","territorialUnitName":"Mantova"},"geometry":{"type":"Polygon","coordinates":[[[11.137569888556824,45.05330981612278],[11.137547269000764,45.053333153876686],[11.137420663423207,45.05346377740343],[11.137343228590078,45.053543669347384],[11.137199278531204,45.05369216466578],[11.135698618434184,45.055340577653006],[11.13542302489375,45.055689863014095],[11.135385413393804,45.05573379973498],[11.135364107409307,45.05575869679979],[11.135310418743751,45.05582143211878],[11.135289720038926,45.055845620167126],[11.135267561268764,45.0558816234351],[11.135245682830018,45.05590909040884],[11.135181918470312,45.05598914643652],[11.13513486489119,45.05604822074192],[11.134752252530724,45.05652851775865],[11.133899658109735,45.0575076465326],[11.132514692294446,45.059198855015396],[11.131157050002239,45.06094355165808],[11.130321693394674,45.06204835868895],[11.129599564250896,45.06346610950749],[11.1288603528386,45.065109218864905],[11.128065678071478,45.06662733048528],[11.12693152881322,45.06789971065973],[11.125944049892027,45.068332187205264],[11.124156831713623,45.068437467145166],[11.12260884439746,45.06814220064518],[11.121629117200715,45.06775532863898],[11.12094401566275,45.06743500181481],[11.12059495260943,45.06727044476261],[11.120048796649703,45.06692949078645],[11.119310280924715,45.06653811885742],[11.117920805177851,45.06571773068808],[11.116580481171203,45.06485143112451],[11.116089010726203,45.064382340966624],[11.116063585865275,45.06435807072913],[11.115553644907022,45.063871349353036],[11.114934468714745,45.06305467631175],[11.114752561921783,45.06281499142268],[11.114102819545685,45.06172881594642],[11.113379701333045,45.06037393274588],[11.112945481227205,45.059274745638675],[11.112262253536578,45.05762206298292],[11.111455360352759,45.056403757055676],[11.110299098644266,45.055353917579964],[11.108776162403558,45.054346862987785],[11.10858828683877,45.05424113924356],[11.107660922348806,45.0537193361969],[11.106962390761137,45.053372146429425],[11.106460504018667,45.05319236982811],[11.105997650206792,45.05303884585643],[11.105246789879606,45.053340781659685],[11.103851148235261,45.05406865166634],[11.101978441016115,45.05494932740936],[11.100663169903868,45.055906589081516],[11.10050640254655,45.056020623998926],[11.099510976550715,45.05693011537783],[11.099115059243092,45.0573911096915],[11.098426815413267,45.058192284642985],[11.09712803950056,45.059143333555646],[11.095174650804115,45.05990835065672],[11.093551416416869,45.0603252056285],[11.091842174885226,45.060473569250824],[11.090052193182943,45.060497340016155],[11.08820420982122,45.06032412850542],[11.086517646164225,45.06004889949136],[11.086166745193214,45.05995727448069],[11.085068731344924,45.05967037765204],[11.084282129471312,45.059693738587136],[11.083060701219942,45.059635009164026],[11.082027590712864,45.0588166940663],[11.081347637215167,45.057928919219876],[11.080871351361345,45.0563532996805],[11.080424970565394,45.055100709449235],[11.080221162827101,45.05452896623963],[11.079534367862697,45.052750124624815],[11.07907314537737,45.051237234872055],[11.078753497200102,45.049775763486856],[11.078429489137283,45.04887247159704],[11.078329773495136,45.04859524583882],[11.078158562602047,45.0479672860687],[11.078151539827255,45.047941437266],[11.078115532552037,45.04780999775258],[11.078095106791594,45.0477350420718],[11.07790309011503,45.047342430576066],[11.077812657470448,45.04716646282351],[11.077795686373113,45.04713344145326],[11.077192725107574,45.04596007460359],[11.077032857494853,45.04566593027762],[11.07689336705709,45.045407399910665],[11.07669030525421,45.045060024371935],[11.076554300742409,45.04445939376614],[11.076507411651983,45.04433655845359],[11.076468313377378,45.044234123648835],[11.076404302510765,45.04406643020051],[11.076175537095223,45.04346706315456],[11.075602238599298,45.0423612630411],[11.075306487381027,45.04155648507495],[11.075302495681568,45.04151155643332],[11.075281253292742,45.04127380914268],[11.075214764335605,45.040423954711265],[11.075255437050666,45.039610778196945],[11.075273848932929,45.039243808333204],[11.075432929555715,45.03837674347232],[11.075382498683224,45.03803558578982],[11.076393608484793,45.03790918407641],[11.077032237703987,45.03766350696548],[11.078954265341903,45.03744849565548],[11.078397267486125,45.0367925015555],[11.078314267511525,45.035902831222394],[11.078420596437432,45.03498272440118],[11.078601070104378,45.034007231788216],[11.07904864132345,45.033044886468865],[11.07906194117292,45.032360513517354],[11.078563227465619,45.031910509447975],[11.078006312316449,45.031605582736866],[11.07754048859676,45.031362007788196],[11.077031970835401,45.03107870559205],[11.076675201479832,45.030954670878884],[11.076055192772404,45.03101095020605],[11.07522376599893,45.031188099453004],[11.074567642102519,45.031299042970176],[11.074421593046017,45.031121672995134],[11.074075181258847,45.03031779212503],[11.073596388616954,45.02936329816888],[11.073139747932306,45.028318378275344],[11.072662300270657,45.02704878892158],[11.072472088088373,45.025999028334525],[11.07256515730992,45.025412226122874],[11.073842476938315,45.02457887081204],[11.07461430068527,45.023808686584296],[11.075268082525968,45.02293262845068],[11.074974371699222,45.02253289781943],[11.07418827927807,45.02185403721379],[11.07346272664212,45.0207419934042],[11.073217370082103,45.020120644456156],[11.073127356118881,45.01989279755338],[11.073034367885276,45.01907531221161],[11.073164189820769,45.01845186990515],[11.073573630524344,45.01889452452848],[11.074065364000644,45.01915565639027],[11.074678067989284,45.019252537407446],[11.075288199928133,45.01927745305073],[11.076061901931585,45.019263385082006],[11.076507980644005,45.019109739995066],[11.07683441709384,45.01899727865792],[11.077031115575911,45.01893068763404],[11.077514328128569,45.01836378907781],[11.077907198447345,45.0183476232365],[11.078689329881442,45.018216371988935],[11.07974074434232,45.018161216954375],[11.081835197447088,45.01851911283612],[11.084995703115071,45.01887551540467],[11.088615823881968,45.01930443015396],[11.0917126999921,45.01965281511408],[11.093241579880509,45.01981380619439],[11.093058364648462,45.01931307584966],[11.092903000378497,45.018532773168225],[11.09263413331104,45.01777254568753],[11.092573159136643,45.0171435298568],[11.092796645786828,45.01631126210402],[11.092974013948883,45.015605866837575],[11.093006928203302,45.01476809584273],[11.092958301647792,45.014129857041425],[11.092342321423375,45.01394311160008],[11.091590799432336,45.01386686283382],[11.09111367470478,45.013659573524215],[11.090737607615376,45.013090344576675],[11.08967401259872,45.01211060170136],[11.0887597913307,45.01139819891785],[11.088259803380266,45.010561163734714],[11.087719924027397,45.01002192948886],[11.086871698888302,45.00902922366165],[11.086436229967836,45.00856909971956],[11.086169855683131,45.008222896251105],[11.086409111544107,45.00782243071239],[11.087205667221836,45.007393802341255],[11.08788676282267,45.006931237430344],[11.088256713216397,45.00663641121198],[11.088635763539056,45.00624239987178],[11.08868806211353,45.00593538972663],[11.088941249188288,45.00557068768881],[11.089462058802217,45.00523707387403],[11.08994351005249,45.00486819129142],[11.090303972139587,45.00431248197609],[11.0897331991878,45.0036207862944],[11.089184292059171,45.0029196919015],[11.089094447915373,45.00280430582006],[11.088665798063234,45.002182033374766],[11.088743111871548,45.00186555079841],[11.089236229913466,45.001469449089605],[11.090550174484488,45.00020313494648],[11.089679003658732,44.9998635150905],[11.08947835271061,44.99957912830852],[11.08886796190771,44.99884313433847],[11.088016371888397,44.99810256871321],[11.087879810207692,44.99801054629283],[11.086728649694791,44.99723043101137],[11.086522795503434,44.99680209605268],[11.086588531810362,44.996188769994454],[11.087028647322901,44.99573063370418],[11.087486956039227,44.995425196631786],[11.088128262318545,44.994918356403126],[11.088687119460596,44.994260002763106],[11.088896361294465,44.99373407133132],[11.08951030744818,44.99317372488474],[11.089827492974571,44.99282584267973],[11.090217680550092,44.99241360850682],[11.090846888874186,44.99192498533908],[11.091401254930414,44.99112267936387],[11.091817648170071,44.9906775759549],[11.091919791864003,44.990568853069384],[11.091990923480438,44.99049296404085],[11.09203536850322,44.99044483808753],[11.092908040905696,44.99002375233899],[11.093811174127435,44.98939506571926],[11.094977995192005,44.988365439770554],[11.096060400045374,44.98743638926546],[11.096138734377652,44.98711322439615],[11.096170001736438,44.986984294339706],[11.095655288966688,44.98643563705291],[11.094612001232482,44.985653619584774],[11.094462205988712,44.98467515845527],[11.094474197390747,44.984633117229606],[11.094911398293226,44.98310058907648],[11.095655040431001,44.98192037437622],[11.095708757791275,44.98183510842472],[11.096286332623631,44.98151811794164],[11.097041417812777,44.981702330042175],[11.097713668731577,44.98205006731042],[11.097822839451737,44.982617267512296],[11.097590125278233,44.98311101546962],[11.097770899150953,44.98359733084613],[11.097940883402565,44.984431378511076],[11.098482317188006,44.98569069663982],[11.099600446710145,44.98611123278354],[11.101740234141742,44.98635090050763],[11.103136595709632,44.986379199287605],[11.103538774567406,44.98593069406937],[11.104213123997091,44.98509545529225],[11.103593621060115,44.984625901045476],[11.103743460559048,44.98391951749803],[11.10409444584505,44.983111882207865],[11.104803304873906,44.98205459080178],[11.10566865809135,44.98109342517226],[11.106132818417224,44.980823810546525],[11.106583602581116,44.980561236430866],[11.1069468550682,44.98034955187527],[11.107531350097846,44.98003268271912],[11.10760129232629,44.98008090122397],[11.107791440211944,44.98020791594475],[11.10785697989422,44.98023207236238],[11.108126400725746,44.980331333442976],[11.108280017584187,44.9803879345018],[11.108641818782337,44.980570292815266],[11.10904002768483,44.98070695770998],[11.109502591845184,44.98086945762611],[11.11003152115917,44.9811117374905],[11.110679714671198,44.981293219743876],[11.111065112009817,44.981522901073575],[11.111267471667393,44.98190008040702],[11.111559010500047,44.982337406353096],[11.11190738711752,44.9827427808477],[11.112018259611673,44.982998131144946],[11.112156967542838,44.98322206713404],[11.112139904384623,44.98329712146779],[11.11224419230203,44.98333927254477],[11.112966258317936,44.98365898953388],[11.113560577179125,44.98395403980841],[11.11453549505009,44.98425105393691],[11.115193645495928,44.98421185138623],[11.116008860330252,44.984304777248916],[11.116255115205696,44.984351256009475],[11.116660277822817,44.984427725064585],[11.117246343708695,44.98449786332595],[11.117390630213128,44.984526989172444],[11.117715238211915,44.9843539754268],[11.117968878214896,44.984145166084794],[11.118094216270045,44.98409200208757],[11.118243316494606,44.984028772149344],[11.118991367223847,44.983993802735675],[11.11914789560182,44.98399341760754],[11.119264145145067,44.98394420995831],[11.119710773528471,44.983731767840624],[11.119732663240168,44.98376432648007],[11.119875189179776,44.98391797061997],[11.120011789038406,44.98408573345443],[11.120207341443896,44.98432589303967],[11.120564970746447,44.9847153256173],[11.120665647897784,44.98503752068267],[11.120828725005243,44.985331565840276],[11.120977919270153,44.98547642481148],[11.121069375447057,44.985565224713014],[11.121683850784889,44.98616183975534],[11.121936613482404,44.986102310788354],[11.122282304566939,44.98602089559094],[11.1225138374055,44.9859663654256],[11.123372620930883,44.98687990932001],[11.12344532990147,44.98714630144103],[11.12358771483649,44.987566736562684],[11.123731062414125,44.987781083966],[11.123875419225001,44.987997173183494],[11.123937122153151,44.98808917268615],[11.1240039956224,44.988189166887835],[11.124101181853261,44.98827717265757],[11.124237706360105,44.98840079973568],[11.124362400285158,44.98851410644618],[11.1245289672615,44.988665462666766],[11.124654529825957,44.98893513358525],[11.124790761490729,44.98922771283019],[11.12517606460387,44.989355564887425],[11.125419773422975,44.98929492751001],[11.12596871574716,44.98917877253626],[11.127147306983181,44.989147820175056],[11.127517147358583,44.989199478330875],[11.127541973454774,44.98934180340572],[11.127556820887289,44.989427086461106],[11.1276782373635,44.990123688532584],[11.127694998885058,44.99055547605661],[11.127798085073145,44.99085969409011],[11.127837435826976,44.990975913685745],[11.128446911158358,44.99170836290781],[11.12856766631008,44.99185348730972],[11.128982632362458,44.99243986094056],[11.12930622543068,44.992955946300775],[11.129562420751396,44.99336525320517],[11.12958444885283,44.99361689713987],[11.129626376268167,44.993764634159135],[11.129657493437879,44.99387658493226],[11.129865458301811,44.994331793309044],[11.129936756398317,44.9944159867193],[11.130144030392996,44.994659656780215],[11.130537692438526,44.99501239808286],[11.130926716988455,44.995239179619766],[11.131068906696461,44.995373356315476],[11.131413139189052,44.99569820215753],[11.13197398800004,44.99645288798029],[11.132122316470316,44.99662564525614],[11.132636940523868,44.9972236565287],[11.132865155794919,44.997903527124684],[11.132371176781202,44.99824583573189],[11.13211243541748,44.9983993345089],[11.131731299302352,44.998625470197915],[11.13115560938523,44.99877220141476],[11.131077172100799,44.99879132751458],[11.130594157935395,44.99890913273993],[11.129783936174965,44.999273390607684],[11.129693946075218,44.99931385790216],[11.129411170071377,44.99971316153819],[11.129079880064081,44.99998975674458],[11.128672217690472,45.00033305706026],[11.128087341606895,45.00085682734671],[11.128076042936186,45.00088430478742],[11.12812014594486,45.0009083341974],[11.128289661475552,45.00100024852211],[11.128814711264107,45.00127277819728],[11.129128054107563,45.00143525129317],[11.129189857465276,45.00145998447033],[11.130028040924303,45.00179584369143],[11.130092322866778,45.001821597756795],[11.130224298038774,45.001869833837645],[11.130581684741003,45.00200042710426],[11.131147047929844,45.0022070008043],[11.131204900462047,45.00223244938153],[11.131256199227124,45.00225505145682],[11.132049949309556,45.00260422720105],[11.13243569211376,45.00274104186998],[11.133502474345542,45.00345026226017],[11.134592313476084,45.004096028057425],[11.134783008511432,45.00419339778757],[11.134840011719989,45.00422249266814],[11.135833993240832,45.00472992709709],[11.136611499631224,45.00516546826611],[11.137605325220129,45.00595704081876],[11.138370573111654,45.00674387124376],[11.13936911580697,45.007661348586595],[11.139927174136337,45.00833502095175],[11.139966152896534,45.00837466470173],[11.140692176523258,45.00911284451115],[11.141867330880734,45.009999997144455],[11.143053259424171,45.011174974594475],[11.144019641436175,45.012246050300234],[11.14423459511861,45.01256604891117],[11.144586207544767,45.01314459343061],[11.144808161029903,45.01331147031288],[11.145321407180186,45.013121782440564],[11.14619005238911,45.01293442546651],[11.146985983312437,45.012838433209964],[11.147401444800996,45.012749612168676],[11.147439846133786,45.01298101549703],[11.147499679221642,45.01334181672845],[11.147577083997417,45.0143935765077],[11.147682113544674,45.01516575480238],[11.147678835396048,45.01523030427455],[11.147652891700243,45.01574242152929],[11.147495519959985,45.01628549419202],[11.147475345004256,45.01651552560904],[11.14745991087363,45.01669123590765],[11.147549998273298,45.017742756585136],[11.147507114107146,45.018292670794565],[11.147348726934958,45.01880875466858],[11.1472084098868,45.01927851852088],[11.147548830580353,45.01940811533224],[11.148138313245122,45.01955905531314],[11.149430184207828,45.01914768586676],[11.154504807046424,45.02551531931321],[11.154374057314861,45.025751827864426],[11.15366723863799,45.02619726284437],[11.152199999724465,45.0266750246876],[11.152187459753574,45.027017317329545],[11.152718120774686,45.02762844829707],[11.15324696115212,45.027852514015464],[11.154171100053894,45.028123136803416],[11.155397981346512,45.02834303311576],[11.156674256163686,45.028525961125986],[11.15745987628366,45.02882618160568],[11.158555706170821,45.02927356676107],[11.15946989425743,45.02961634344243],[11.160575383410269,45.0299825014074],[11.161359883778395,45.03058877097425],[11.161178288417648,45.030732140620486],[11.160916065260375,45.03093923475679],[11.160642379238435,45.03108845344053],[11.160458870958145,45.031271950693494],[11.160421674690236,45.03163272249936],[11.161062922941673,45.032149665344704],[11.161141758821014,45.032213219497976],[11.161599294117044,45.0325646242999],[11.162369805324543,45.03313516209116],[11.162640743021212,45.03334692509704],[11.163010748836637,45.03363612041526],[11.163259098665991,45.03382780907294],[11.163329473341783,45.03388211508532],[11.163430040208718,45.03395935364254],[11.163455289362702,45.03397876745376],[11.163987985461906,45.03430172886796],[11.164431858185608,45.03462637288017],[11.164761910833585,45.034962188134706],[11.165311037634508,45.035383869412826],[11.165554441376427,45.03560883133627],[11.165726159442704,45.0357675316429],[11.165797768170625,45.035833721277356],[11.1662087974091,45.03696915593561],[11.166240274571301,45.03733669990772],[11.166259720933478,45.03756388369218],[11.166299611757628,45.03802964215303],[11.166183029141598,45.03897703336848],[11.166221478777334,45.039146261656704],[11.166347327075998,45.039699894323945],[11.166426094748227,45.04004644576013],[11.16647230847252,45.04024979938361],[11.16653012050482,45.040531690160584],[11.16655083285398,45.04063263733297],[11.166674618136593,45.041236158284704],[11.16674454942644,45.041345131654374],[11.166923421767542,45.04162385648242],[11.167268209311597,45.04216107202828],[11.16791019093581,45.043022068547614],[11.168420032566592,45.04394042795115],[11.168533461985112,45.04414475875039],[11.168559720944074,45.04419206428177],[11.168577776088126,45.044224591573055],[11.168671152594136,45.04457388831937],[11.168713731401295,45.04473511014263],[11.168814468538686,45.04511125627334],[11.168878384199894,45.04579418933187],[11.168915892383277,45.04645059776216],[11.16921059667186,45.04719216093103],[11.167779678110051,45.04662521907143],[11.166541149039427,45.046108622688806],[11.164374777644305,45.04523154879],[11.16291130812909,45.044809199780204],[11.160877736037923,45.04475769235781],[11.158922180675635,45.04509174768467],[11.155800890449997,45.04549281057211],[11.153495236090851,45.04563534849314],[11.151117138087816,45.04587822357282],[11.14873678006664,45.046400150923496],[11.146653941558746,45.04706947013485],[11.144128019662993,45.048116136024696],[11.142189794492081,45.04925973464757],[11.140335644731739,45.05061778888985],[11.13863007881585,45.05221606643656],[11.137569888556824,45.05330981612278]]]}}]}
