{"type":"FeatureCollection","metadata":{"code":"022060","referenceDate":"2026-01-01","sourceDbfExportDate":"2026-02-18","upstreamArchiveUrl":"https://www.istat.it/storage/cartografia/confini_amministrativi/non_generalizzati/2026/Limiti01012026.zip","sourceManifestSha256":"70ac8256c4785dc6ed2814c32b6965ae76f9161b51abaa1660059e1c6cbd8ca6","license":"https://creativecommons.org/licenses/by/4.0/","attribution":"Istat, Confini delle unità amministrative a fini statistici al 1° gennaio 2026, versione non generalizzata.","modifications":["Converted from WGS 84 / UTM zone 32N (EPSG:32632) to RFC 7946 WGS 84 geographic coordinates.","Converted from shapefile to per-municipality GeoJSON without geometry simplification."]},"features":[{"type":"Feature","id":"022060","properties":{"code":"022060","name":"Cis","alternativeName":null,"regionCode":"04","regionName":"Trentino-Alto Adige/Südtirol","territorialUnitCode":"022","territorialUnitName":"Trento"},"geometry":{"type":"Polygon","coordinates":[[[10.994737652836214,46.41204629943069],[10.994654832523581,46.41204918452611],[10.994547681671387,46.41205446685758],[10.994175130641676,46.41207332051574],[10.994113603059521,46.412077176577675],[10.99396714037937,46.41211810081963],[10.993838879851397,46.41215335333535],[10.993642716051289,46.412233309200644],[10.993429445766484,46.41232321097467],[10.99310405154079,46.412446681388964],[10.993030824604903,46.412473428824825],[10.992770742580223,46.41247796281322],[10.992667174495375,46.41245221928328],[10.992574356648941,46.41242675358033],[10.992508634581718,46.41239288748024],[10.992242088708474,46.41225318626494],[10.99189128962297,46.41205516669762],[10.991684146105277,46.411938914406385],[10.991447137415824,46.41186203660371],[10.991026772735218,46.41175237186447],[10.990578752600287,46.41159817656369],[10.990334301779216,46.411549619297446],[10.990200241060847,46.411542967725396],[10.99000409774935,46.41153506483293],[10.989905438229664,46.4115325684359],[10.989587234405267,46.41152543494314],[10.989009549780416,46.41146107134813],[10.988556377564686,46.411444375364745],[10.988191627102209,46.411432711577994],[10.987668881712908,46.41136938999486],[10.98748716256283,46.41138196158029],[10.987307075616632,46.411439097474116],[10.987186093192513,46.41144650963885],[10.987125268815822,46.411450984210425],[10.986761256061506,46.411457579239844],[10.986614523231317,46.41146534381811],[10.98645026859237,46.41147070099043],[10.986201787520043,46.41145830643216],[10.985810611045798,46.411457400020645],[10.985612041589295,46.41140608265701],[10.985548061170189,46.4113898951134],[10.98540336117314,46.41132816928721],[10.985128004530544,46.41126996948659],[10.984878710924574,46.41126709731236],[10.98477659274353,46.41126601013149],[10.98469819228125,46.41126582328825],[10.984486723264869,46.411265240158926],[10.984360144308571,46.41126529362128],[10.983979462585992,46.411172904144344],[10.983635840014808,46.41102586433975],[10.983386475847572,46.4109671922234],[10.983005145261924,46.410856802751695],[10.982546114958737,46.41075677208107],[10.982114409587908,46.410692262910224],[10.981710727204142,46.410689821410536],[10.98160968251962,46.410709569283405],[10.981544112815863,46.410722831495264],[10.981480403932055,46.41073620721507],[10.981286197667266,46.41077235825552],[10.981021361512184,46.41079301011743],[10.980921476872936,46.410799964544665],[10.980724694869945,46.41076134265186],[10.98044771696503,46.41065815000172],[10.98024844149737,46.41054459727504],[10.979964569715253,46.41037329692324],[10.979901798826797,46.41033516048379],[10.979771162793641,46.41025437854754],[10.979412822412003,46.410026236646914],[10.979239678496846,46.40999507066318],[10.97887301275439,46.40992942407511],[10.978125657878271,46.40977136656572],[10.977535634534433,46.40964658159523],[10.977011944978452,46.40955664174317],[10.976490854348375,46.409538755887766],[10.975844131800995,46.40936559211802],[10.975731746416571,46.409336337957434],[10.975571219109703,46.409293552625485],[10.975204535428022,46.40922787567983],[10.974872696331206,46.40919102636514],[10.974799286122124,46.40918305696464],[10.974849874797146,46.40877501343431],[10.974950675260775,46.40832327792582],[10.975235463800294,46.40756236041855],[10.975646376305605,46.40633127909096],[10.975975652296349,46.40536260056417],[10.976217828832752,46.40450341898558],[10.976198659819643,46.40397276705972],[10.976180140777396,46.403460093876014],[10.976133905426968,46.40324255134461],[10.976101499307989,46.403083453990995],[10.975593841663557,46.40259006908078],[10.975519614972246,46.40251759532283],[10.975319494519574,46.40232298224972],[10.974473138815807,46.40158160481163],[10.974118571980034,46.40148863331096],[10.973775065835534,46.401419578843296],[10.973581280294212,46.40138100361355],[10.973226348737402,46.40127913917684],[10.972906206616354,46.401059667400084],[10.972413833066298,46.40075316417346],[10.971948746618315,46.400482186183716],[10.971560673771403,46.400114986072104],[10.969932691107287,46.399760373822204],[10.969277344387985,46.39962793648716],[10.969400361377344,46.39911966727626],[10.969411968389513,46.39872363257975],[10.969420400511956,46.398526218834235],[10.9694132584304,46.39846375340386],[10.969343381808216,46.39785259129399],[10.969176146321676,46.39689439969494],[10.96904361712338,46.396456310409164],[10.968988923835793,46.395953194723695],[10.969050230138444,46.39588182558946],[10.969462352956466,46.395578465127755],[10.969497904645651,46.39555229360977],[10.969992167933084,46.39518334441968],[10.970475181439216,46.394885472558684],[10.970903837522547,46.394639796964356],[10.971023467199661,46.394527898705086],[10.971158701749461,46.394183324923844],[10.971259586487793,46.39392626774715],[10.97164254960035,46.393953581475024],[10.972680974339301,46.39402763827016],[10.97285379118287,46.394065535611745],[10.973053198147756,46.394170861462705],[10.973559470472361,46.394501525637935],[10.973809038224756,46.39463910227587],[10.974098392844368,46.394798610934075],[10.974292695154693,46.394855287911795],[10.974703797540451,46.394826530562916],[10.975693833787917,46.39473582603029],[10.976413525609672,46.39464060727997],[10.97657594463747,46.39460366307524],[10.977154365859779,46.39432343883332],[10.977462004494745,46.39444025987438],[10.977841299882545,46.39458105825939],[10.978119907354932,46.39471105897616],[10.978450627332528,46.39486335904992],[10.978903314353264,46.39511528257983],[10.979020398860309,46.39543361876246],[10.979132200728955,46.395733209324696],[10.97914938143454,46.39577988993772],[10.97920669967064,46.395935444008344],[10.979631086493244,46.3957715302339],[10.979857038268735,46.395682873387265],[10.980346300237004,46.39546510518555],[10.981082196790263,46.39514011925135],[10.98180771808978,46.39482006940295],[10.982009179331946,46.394731194750406],[10.982412212809752,46.39457013650357],[10.983271962721519,46.39422217694106],[10.984631896822858,46.39373588173065],[10.9855852729534,46.39342801027411],[10.985997337594759,46.39323087433091],[10.986778114789047,46.39284769419459],[10.987160480337444,46.39263063213426],[10.987461585193442,46.39246050440495],[10.987993482625253,46.392102819576884],[10.988255096749489,46.39195646864634],[10.988785400915999,46.39165980427559],[10.988666486030251,46.391444911376645],[10.988603021047537,46.39140491341032],[10.98858348729266,46.39137119098464],[10.988469240585339,46.391161378156156],[10.988481707596009,46.39109944211444],[10.988496254226826,46.3910231104234],[10.988839216383537,46.39075462176663],[10.988900824669846,46.39071343966106],[10.988955532951433,46.39071961488764],[10.9893904336221,46.390797264434006],[10.98975219399224,46.39088430701673],[10.990102547915821,46.39107231444134],[10.99037160206418,46.391297512197085],[10.990786456249312,46.391553014825625],[10.991179474756438,46.39184588981743],[10.991686133480796,46.392124102586735],[10.992058018113594,46.392330860131906],[10.992230137958027,46.39248845718388],[10.992358971888539,46.392653406290556],[10.99246441324905,46.39264043374795],[10.99253752952228,46.39263143824364],[10.992863333091405,46.39238166679838],[10.993503073493482,46.392069151458934],[10.994175603048086,46.39169685862738],[10.994669221266408,46.39140638683548],[10.994911364040592,46.391252011981244],[10.99510022117573,46.39113087745015],[10.995143464302428,46.391104383671106],[10.995201070195975,46.39106991630592],[10.995251998946909,46.390996290423736],[10.995328844483279,46.39088815350516],[10.99544074008874,46.39073131329055],[10.995899568910316,46.390859735694235],[10.996368755788822,46.39107423571663],[10.996703302332367,46.39119109400941],[10.997076121788899,46.39123698201642],[10.997492107929014,46.39129420780923],[10.997831882419622,46.39144475558831],[10.99800439670034,46.39152046333184],[10.998355043240164,46.391674340322766],[10.998958097457818,46.39192215548909],[10.99934355812266,46.392059422286835],[10.999559870714847,46.392150138612635],[10.999825085301582,46.39223679144442],[11.000075347204346,46.392330120467776],[11.000323647444967,46.3924067657992],[11.00037995555505,46.392419618850504],[11.000531100815193,46.39246270367187],[11.000603297251999,46.392493027428614],[11.00070182968754,46.39253695178862],[11.000884953446898,46.39259493752653],[11.001030732615655,46.392668895556056],[11.001197484708149,46.39273797185365],[11.001356092068512,46.39280718960249],[11.001579709390999,46.392875286855904],[11.00177844806482,46.39293029145586],[11.001900301016372,46.39288316577411],[11.001996473055916,46.392845484302526],[11.00208161736869,46.39279254741679],[11.002141511875552,46.39272144073956],[11.002191177513337,46.392612579155355],[11.002262949369007,46.39248532137933],[11.002285462073187,46.392430994649835],[11.00232869469535,46.39232667097118],[11.002339168545218,46.392259598725026],[11.002350476906994,46.39217598068782],[11.002745242113063,46.39220236422505],[11.00293696849284,46.3921990050657],[11.003171929767154,46.39222189062101],[11.003402019288067,46.39224486107326],[11.003706341932057,46.39225301913877],[11.004046114568704,46.39225156033543],[11.004380329488082,46.39223220790071],[11.004677356955082,46.39226299755611],[11.00486616291505,46.39226868095841],[11.005033391954433,46.392306261353326],[11.005197369532743,46.39234387963825],[11.005293422110123,46.392391702737285],[11.005396793775478,46.39246188381992],[11.005511367168774,46.3925273709941],[11.005593135172646,46.39258443903272],[11.005673301424387,46.392686526940125],[11.005744828741362,46.392775274492095],[11.00584010705251,46.392890590800164],[11.005894899852908,46.39296613911588],[11.005952777144874,46.39303711798645],[11.006034076726781,46.39312569477179],[11.006146723840862,46.39322721234554],[11.006224444727833,46.39330685631387],[11.006333185656532,46.39339043418827],[11.006557165843361,46.39351250263997],[11.006791360362431,46.393602891395],[11.006922509194903,46.393632088928314],[11.007060318657302,46.393665667559375],[11.007192598138403,46.39368135305569],[11.007314116496044,46.393670224709986],[11.007446698062592,46.393649888472],[11.007652576431052,46.39363278010791],[11.007815683824397,46.39360291273796],[11.00801795802779,46.39353186171329],[11.008227524687618,46.39348317047829],[11.008530342080167,46.39336086397028],[11.00880098343935,46.39324809686538],[11.008927372835055,46.393191889378386],[11.009120697748084,46.393143481027586],[11.009236848051179,46.393118934201574],[11.009415116725389,46.3931473006612],[11.009555982317327,46.39313133254479],[11.009761692245574,46.39310970804217],[11.010033350598961,46.393113944237776],[11.010297876427636,46.39310028004821],[11.010724380591196,46.39307029145126],[11.010911897655472,46.39308498212199],[11.011064184793645,46.39311380305333],[11.011267640807258,46.393164228874944],[11.011432287698648,46.39321983451035],[11.011552538628294,46.39326271036678],[11.01167735996598,46.393296511981504],[11.011836117608333,46.393325217116754],[11.011997818114478,46.39334487654946],[11.01215054666523,46.393342188314655],[11.0121897843653,46.39334249844201],[11.012326007784145,46.39334373469555],[11.012391959448465,46.393344171187586],[11.012503490816039,46.39334497791131],[11.012668384026684,46.39331958835836],[11.012811338928161,46.3932720605909],[11.012965031142581,46.39324826193156],[11.0130409039582,46.393236513763554],[11.013103692400858,46.3932288956609],[11.013254190033946,46.393209912962405],[11.013372857182738,46.39319916408087],[11.013739580042056,46.393179212609255],[11.013851290421412,46.393078247517394],[11.013957014973649,46.392973055178295],[11.0140368648153,46.39286347212492],[11.014230151197742,46.39277006395922],[11.014354807501698,46.39279936736603],[11.01455780039544,46.39288129544766],[11.014795208378963,46.3929934982547],[11.01491801559438,46.39308193565063],[11.01516345626164,46.39321262247694],[11.015434574612653,46.39333384257314],[11.015738697271017,46.39346797282939],[11.016100154211957,46.39361460098581],[11.016145318800078,46.39360479093953],[11.01613811369666,46.393651600944594],[11.016108623041852,46.39384624896611],[11.016048126986506,46.394232011287855],[11.016044712653327,46.39432102915856],[11.016042861110193,46.39454561324124],[11.01603845182305,46.39480817735985],[11.016046545933612,46.395135117443466],[11.016051671347837,46.39534344508049],[11.016047367304516,46.39543101612963],[11.016044117520378,46.395539718545876],[11.016041540983844,46.395598127079126],[11.016038561954904,46.39566114620167],[11.016035156233958,46.39572190485283],[11.016031394673544,46.39577388759524],[11.016023596043494,46.39588488692405],[11.015987180331281,46.396008046810245],[11.015967930325642,46.39606748648086],[11.015928701994076,46.39612970036346],[11.015903179398684,46.39617134337361],[11.015863475976335,46.3962377551026],[11.015725484948847,46.3964201745664],[11.01559266459246,46.39656652435917],[11.015455302946654,46.396721930641945],[11.015341109762044,46.39680045455611],[11.01523512766032,46.3969688181167],[11.015091203770144,46.397034355121974],[11.014912453888481,46.39703750592893],[11.014466139289558,46.3971488662337],[11.014226871115401,46.39727458575767],[11.013983996256378,46.39739137193833],[11.013773789008347,46.3974670705151],[11.01357803157552,46.39753801598893],[11.01342628916925,46.39761268408348],[11.013311555596898,46.3977546068261],[11.013211498262622,46.39791797443486],[11.013071209167084,46.39808244283709],[11.012969759383825,46.39824172895426],[11.012832015296249,46.398377291104815],[11.01275375721393,46.39847037251879],[11.012722091247225,46.39850533518088],[11.012683952716012,46.39855145296742],[11.012555622190312,46.39860901272222],[11.01243555526641,46.3986606164706],[11.012318708933098,46.39866718870762],[11.01217050680503,46.398660784888754],[11.01200785449393,46.39865915050009],[11.011867003126941,46.39872013204505],[11.011745809249632,46.39878526476671],[11.011602012279623,46.398810300609014],[11.011476906266786,46.398857494730215],[11.011323474843806,46.39894007550595],[11.01117681954999,46.39891879141806],[11.011060269753196,46.39889182773278],[11.01091272713804,46.39890341693429],[11.010696015394593,46.39902423492083],[11.010566065958818,46.39911652301842],[11.01048080788661,46.39919182321794],[11.010397133268686,46.39935830577062],[11.010413747310492,46.39946782680233],[11.010376792987177,46.39958887298572],[11.010194600504574,46.39964790739091],[11.010048806110586,46.39970930479805],[11.009925389388568,46.39983983158266],[11.009889213388805,46.39987809113627],[11.009858878808926,46.399967147339055],[11.009835532490078,46.400035661523106],[11.00981162948516,46.40018644886542],[11.0098108442622,46.40034416563935],[11.009916302284063,46.40041981748311],[11.00989114278073,46.40069579317612],[11.009903351374085,46.40074263219161],[11.009909589999145,46.400769778926474],[11.009940416998178,46.400888390280016],[11.00993633061277,46.401048377274535],[11.009877503392664,46.401221274191876],[11.009865866792417,46.40125162779796],[11.009903364170778,46.40129903288146],[11.00995460408586,46.40136381107299],[11.009847652419362,46.40158985925394],[11.00974762375923,46.40175418619706],[11.009650685846315,46.4019642442752],[11.009614650883298,46.40216215086503],[11.009374950053573,46.402215063303764],[11.00912051782547,46.402171077644184],[11.008938692018683,46.40215696618594],[11.00876007121265,46.402161156263745],[11.008633872829686,46.40228839777961],[11.00856042546468,46.40240984422677],[11.008433867015658,46.402583261697124],[11.008281232941336,46.40268577094322],[11.008075681818747,46.4027881763435],[11.007869717320542,46.40284176468757],[11.00773810980799,46.40283542993],[11.007585784078874,46.402941539112526],[11.007529415014448,46.402991646382006],[11.007406079009773,46.403097536919454],[11.007329512787505,46.4031710296781],[11.00728596117394,46.40321385307877],[11.007203999105325,46.40329045548789],[11.007131429349304,46.40336321464113],[11.007091720825807,46.403403174198964],[11.007088862141222,46.403459722603486],[11.007079229891303,46.40364508320529],[11.007077712745946,46.40368259561712],[11.007023958146783,46.403718856172674],[11.006906499188073,46.40379809036154],[11.006807092558146,46.40383445116571],[11.00676203572468,46.40385846744843],[11.006685178558882,46.40390308306874],[11.006620656648689,46.40393948924012],[11.00658907854847,46.403957919275065],[11.006564784243414,46.40398786561066],[11.00654260278844,46.404016324059825],[11.0065185573612,46.404047559312374],[11.006481809524832,46.40409888494612],[11.006490743957917,46.40426799054613],[11.006384269901705,46.404395749109895],[11.006128074955072,46.4045292248064],[11.006144811122297,46.404569032262124],[11.00617714866361,46.40462795365339],[11.00620537504897,46.40467945921085],[11.006233743178665,46.40473766634973],[11.00627952216276,46.40483434697964],[11.006252947045148,46.40497165159111],[11.006240752372179,46.40503794697166],[11.006218162905247,46.40519989373346],[11.006063602645868,46.40545471590721],[11.006042915943837,46.40548794770351],[11.006016471327827,46.405543827253176],[11.00594860109617,46.40569221537656],[11.005642455015467,46.40590485715405],[11.00548938590924,46.406089648817414],[11.005396346360634,46.406176288382724],[11.005293448390697,46.40624691796502],[11.00523452743051,46.40626265926261],[11.005157661903622,46.40628317746946],[11.004859170379861,46.406449359131415],[11.004792470097168,46.40655892627157],[11.004719154633445,46.40666617578771],[11.004675738742467,46.4067027138066],[11.004587349673939,46.406775619102426],[11.004503288864653,46.40684397635161],[11.004366735108585,46.40702879097979],[11.004237865435835,46.407122406379216],[11.004166426471265,46.40717410544932],[11.003961734547062,46.40732729757022],[11.003812418324816,46.40741838731913],[11.003757149291806,46.407468337498045],[11.003673237247305,46.40754599838055],[11.003579816670042,46.40763271601637],[11.003367907852995,46.40767793858458],[11.003072967924556,46.40779155919672],[11.00300228848126,46.40783985663573],[11.00290772327806,46.40790591005617],[11.002823048668331,46.40796393224768],[11.002657891299592,46.408112891468164],[11.002466516516787,46.408344422649016],[11.00244430406605,46.40837071722899],[11.002421103970063,46.408398537498165],[11.002396614797151,46.408426224642824],[11.002372484524633,46.40845234310217],[11.002188825764593,46.40864894029608],[11.002068763369918,46.408838383548186],[11.00187625633349,46.40897050106505],[11.001551398339334,46.40911147860255],[11.001273177590045,46.40918856614895],[11.000972741018135,46.40932021713882],[11.00082191282799,46.40941617497753],[11.000792655682897,46.40943623045667],[11.000606517051732,46.40954588385172],[11.000472032501053,46.40966984387445],[11.000338610175785,46.40986043434937],[11.000127883619717,46.410001912651275],[10.999859553325942,46.41008588235502],[10.999796220528463,46.41017715906567],[10.999747454332013,46.41026094226108],[10.999705148479451,46.41033210068401],[10.99948237779594,46.41046425570512],[10.999428893589037,46.41050324568785],[10.99940029285421,46.41052430901984],[10.999333861479029,46.41057296275747],[10.99923657763219,46.41064042323699],[10.999202113692874,46.41069839798556],[10.999159056081384,46.410785932170185],[10.999130399335046,46.41101215135036],[10.99896099291065,46.41115117777733],[10.998860325263768,46.41122723715655],[10.998474768772015,46.411467235296904],[10.998401945198118,46.41151947961221],[10.998338673938141,46.411564047337315],[10.998214850031054,46.41164900148106],[10.99815490538824,46.41169099996761],[10.997413389171397,46.411694945922086],[10.99689287013441,46.411678533602476],[10.996855702520914,46.411688878488974],[10.996763551799202,46.41171531177943],[10.99658544350713,46.41182641398603],[10.996343451685982,46.411986276397336],[10.996151349241547,46.41204869314225],[10.99590446806799,46.41206330151238],[10.995537673215027,46.412041376618745],[10.995293256724091,46.412033668455045],[10.995200682752625,46.412030238817316],[10.994737652836214,46.41204629943069]]]}}]}
