{"type":"FeatureCollection","metadata":{"code":"022160","referenceDate":"2026-01-01","sourceDbfExportDate":"2026-02-18","upstreamArchiveUrl":"https://www.istat.it/storage/cartografia/confini_amministrativi/non_generalizzati/2026/Limiti01012026.zip","sourceManifestSha256":"70ac8256c4785dc6ed2814c32b6965ae76f9161b51abaa1660059e1c6cbd8ca6","license":"https://creativecommons.org/licenses/by/4.0/","attribution":"Istat, Confini delle unità amministrative a fini statistici al 1° gennaio 2026, versione non generalizzata.","modifications":["Converted from WGS 84 / UTM zone 32N (EPSG:32632) to RFC 7946 WGS 84 geographic coordinates.","Converted from shapefile to per-municipality GeoJSON without geometry simplification."]},"features":[{"type":"Feature","id":"022160","properties":{"code":"022160","name":"Roverè della Luna","alternativeName":null,"regionCode":"04","regionName":"Trentino-Alto Adige/Südtirol","territorialUnitCode":"022","territorialUnitName":"Trento"},"geometry":{"type":"Polygon","coordinates":[[[11.167137009682492,46.26214515015916],[11.166970592101386,46.26215327670055],[11.166817592010279,46.262241308028614],[11.166758882789201,46.26227330088325],[11.166683287938866,46.26231172859074],[11.166632882957622,46.26234255681286],[11.166501100877976,46.262423181478304],[11.166328903773419,46.26253895200231],[11.166255666136767,46.26260069657228],[11.166140352842021,46.26269552146833],[11.165937128148894,46.2629047508199],[11.165836663670895,46.26311392597679],[11.165822719552342,46.263141605767274],[11.165798726830838,46.2631751272225],[11.165637658956065,46.26339806269956],[11.165094858468233,46.263948357120576],[11.16475687046343,46.26431180880732],[11.164298722277042,46.26469694951811],[11.163843893062744,46.264987523402866],[11.163282587051498,46.26544761019861],[11.16278352883441,46.26593164741179],[11.16226972210399,46.266395884703556],[11.161876012357357,46.26680351900418],[11.161630553331728,46.26721798525167],[11.161439807288188,46.267634803820584],[11.16136465637094,46.26779902341365],[11.161163535243046,46.267816154471035],[11.161025060167718,46.2678279487809],[11.160432213710836,46.26794995382181],[11.16039621477587,46.26795764371185],[11.159833063271686,46.268124981671036],[11.159481065807414,46.268240428891175],[11.159211985912668,46.268328656964606],[11.158659379922117,46.2685161672102],[11.158169994432404,46.268777414708914],[11.157985070655208,46.268990267509515],[11.157908845087078,46.26907800431823],[11.157846270237876,46.269155776615364],[11.15769542726239,46.269530757518794],[11.15766412627703,46.269610449392864],[11.157392441246628,46.26984623729496],[11.157134151931086,46.27000873242422],[11.1570697956522,46.27004920420815],[11.157017822164475,46.27009504305624],[11.156971477213823,46.270132448668434],[11.156835978849188,46.270251617896356],[11.15670501899736,46.27035056158071],[11.156585505911268,46.270440849624094],[11.156550480392156,46.270511339465635],[11.156533131335996,46.270544456347636],[11.15646914449798,46.27066958651968],[11.15643242027503,46.270709888433075],[11.156319655895809,46.27082392365477],[11.156133069436782,46.27098488803812],[11.155929190080906,46.27117676999105],[11.155819964832702,46.27131480715209],[11.155787663157536,46.27143803328214],[11.15580185748308,46.271499103620556],[11.155818443305106,46.27155953303094],[11.155844273906707,46.271629527148946],[11.155850110865478,46.271656868519024],[11.155864208570197,46.27170061710474],[11.155931285294816,46.271835026886905],[11.155957872861062,46.271962984119035],[11.156024823352043,46.27215652206825],[11.15603994701773,46.2722505317319],[11.156051128323487,46.272312167386666],[11.156026788780707,46.27236683831414],[11.156004504560732,46.27240770197167],[11.155977579471564,46.27242614460347],[11.155920085734312,46.27246235876754],[11.155887008671227,46.27248374619313],[11.155813444725128,46.272527906419946],[11.155715434908577,46.272585064088645],[11.155582028671352,46.272620338448725],[11.155519870570743,46.27263856890927],[11.155432384542854,46.27269264327948],[11.15531893925094,46.272767595292926],[11.155290347541325,46.272790743890674],[11.155220000504713,46.272854603876375],[11.155127141528386,46.27293938177667],[11.155111181745843,46.27296993777613],[11.155076107810897,46.27304040464551],[11.155046472951474,46.27310202705511],[11.15502023703968,46.27321703117789],[11.155002003251877,46.27329223677172],[11.154989354853258,46.273347300822294],[11.154966627857268,46.27344607712498],[11.154960422092662,46.273473039002766],[11.15492856777133,46.27365369110378],[11.154923943253753,46.27374130062376],[11.154918352919283,46.273847341836245],[11.154878191524713,46.27398403523566],[11.15485724196839,46.27405371008886],[11.154781697236047,46.274135012053456],[11.154759179113123,46.27415902791561],[11.154666198641026,46.27425527844792],[11.154477259852557,46.274414820936265],[11.154450331012537,46.274436979447486],[11.154376009342432,46.274500244208106],[11.154251240927426,46.274606380925995],[11.154219904979335,46.27462690522121],[11.154025226981947,46.2747532742463],[11.153864198575038,46.274855046660946],[11.153831007287776,46.27487579481926],[11.153704283517083,46.27494798488325],[11.15359487826337,46.27500935783362],[11.153555782294289,46.27502983647344],[11.153418370103461,46.27510525979246],[11.153381248116247,46.27512590278068],[11.153161817907176,46.27529074448938],[11.153109541340871,46.27533193592416],[11.15304274942718,46.27539209958144],[11.152918637732267,46.27550265774006],[11.152773738858134,46.275630277476154],[11.152728191747983,46.27567064535467],[11.152675794428283,46.27574766859358],[11.152605495002142,46.275848168479996],[11.152587260676551,46.2758739626544],[11.152492546377905,46.27600663718022],[11.152430965289051,46.276093798278154],[11.152365489718456,46.27617806622832],[11.152248563360772,46.27633164509132],[11.152153077950715,46.27645441474458],[11.151963612215097,46.276697552113816],[11.151851127720716,46.276818477954784],[11.151752405188253,46.27692743713292],[11.151722054000238,46.27695937692163],[11.15163601844229,46.27704021906277],[11.151539428324103,46.277133050979906],[11.151356008684687,46.27728926043378],[11.151202523912065,46.27747014352362],[11.151088719782402,46.27768154345089],[11.151030800375384,46.2778734815462],[11.150975047644584,46.278093189382744],[11.150925061039045,46.27822561291824],[11.150880955739176,46.2783424580307],[11.150798553113857,46.27855754262386],[11.150775141651529,46.27862345412578],[11.150744892816675,46.2787432676679],[11.150710858089186,46.27888547919056],[11.150668912999349,46.27903763895711],[11.150485181050238,46.27925798900211],[11.150383990890143,46.27938224688128],[11.150291040898638,46.27949511200413],[11.150188214913697,46.27961805765599],[11.150108444750375,46.27968628307675],[11.150030487422047,46.27975363731928],[11.149970824306179,46.279803170804016],[11.14977692714606,46.27991696250591],[11.149730179431115,46.27994301265526],[11.149666483874595,46.2799773791305],[11.149568526468448,46.2800127167125],[11.149463466823192,46.28005016602866],[11.149348939109466,46.28009080297394],[11.149178311929361,46.280152016183955],[11.148704693252723,46.28033624261306],[11.148501195658172,46.28041685618034],[11.148437251596329,46.28044118334044],[11.148253531443913,46.28049194188758],[11.148046713994077,46.28054733645149],[11.147502551717222,46.2807133155807],[11.147287881734897,46.28078813379743],[11.147253397839485,46.28080020743282],[11.147153277703278,46.280867968899535],[11.147000408257483,46.28097145923934],[11.146946693410753,46.281027817616234],[11.146809260144751,46.281136562719],[11.146770598088981,46.28117217364902],[11.146430766568484,46.28154916947839],[11.14631405303328,46.28160164274314],[11.146188646782601,46.28165802500411],[11.146103094786742,46.28167035528963],[11.145818380664885,46.28171460111678],[11.14530761886106,46.28176377645195],[11.145251630047028,46.28176931042562],[11.144640117445908,46.28182106244814],[11.144016948388044,46.28193801652301],[11.143411722240982,46.282064834168466],[11.14322852021466,46.28214440333757],[11.142848515516642,46.2823093966097],[11.142732657351448,46.28234099496252],[11.142370068841272,46.2824398697379],[11.142255564761939,46.282470820309754],[11.14218381723725,46.28249103764565],[11.141769453535002,46.282609743542864],[11.141131188210057,46.28272453829689],[11.140671836259273,46.28275741499976],[11.140556719555013,46.282765654407235],[11.14045859655199,46.28277269610603],[11.139851016438813,46.28284259034219],[11.139688174768732,46.282859480603285],[11.139639460953571,46.282864532709596],[11.139273706584913,46.28305588415155],[11.139086126254286,46.28317156978554],[11.138958896143732,46.28325003762954],[11.138851824043149,46.28331376020307],[11.138850452179142,46.28326098638074],[11.138848794829073,46.283184475452266],[11.138846576122111,46.28308997828842],[11.138844320527769,46.28300450268425],[11.13883837058537,46.28283453961686],[11.138845008989975,46.282778619721945],[11.138847113941202,46.282752230528246],[11.138850677280047,46.28270821870692],[11.13886465887249,46.282568503893465],[11.138823664513623,46.28245680676612],[11.138712079677738,46.28234188737668],[11.138472687699059,46.28215286608732],[11.13807506943717,46.28185880878434],[11.137804385567506,46.281616365068594],[11.137634513772744,46.28146203953948],[11.137375702550331,46.281232883786004],[11.13728127439177,46.281099633672184],[11.13724379250309,46.280969833925624],[11.137269218883455,46.28077535609873],[11.137275731191268,46.280717459499876],[11.137283940994493,46.28067880682533],[11.137321526383124,46.28042387422655],[11.137411245932688,46.28010269191622],[11.137514317732155,46.27991627590016],[11.137358427192563,46.27966268831346],[11.137323854952903,46.279613033805376],[11.137234706567726,46.27948499408675],[11.13711257822204,46.27930726814693],[11.13698746079779,46.27909361886521],[11.13700709425952,46.27903653623661],[11.137018633389282,46.27899814802239],[11.137029046554368,46.27896405054459],[11.137084262155616,46.278799194149535],[11.137129436402905,46.27868851125222],[11.137233961359373,46.27842299812563],[11.137460976921812,46.277919239980626],[11.137587334486746,46.277538867401645],[11.137709400034007,46.27713159060779],[11.137791474149061,46.27684210546167],[11.137791666060204,46.27680963912816],[11.137787990105357,46.27667128334406],[11.137786136745987,46.276609700089445],[11.137777224435402,46.27656631763698],[11.137430741098896,46.2763492861291],[11.137120555615926,46.27617507716553],[11.136870031027536,46.27599077686084],[11.13671278926522,46.275827200024736],[11.136633044748196,46.27573281112992],[11.136592609193169,46.27568386180714],[11.136540988846294,46.275623417736675],[11.136272803828161,46.275277426833],[11.1362446535436,46.275178953751855],[11.136301474015728,46.27499641198545],[11.136398900790315,46.27468105415104],[11.136434988464872,46.274556665739446],[11.136545202373735,46.27417468067127],[11.136584628564524,46.274044306768076],[11.136633812212862,46.273880149144354],[11.136727146322476,46.27356791314834],[11.136757268936005,46.2733828435037],[11.13666409438494,46.27311458995959],[11.136473440768203,46.272717639834205],[11.13635369307496,46.27239137978682],[11.136248229321245,46.27211482162148],[11.136182186664382,46.271944580093646],[11.136021781811596,46.271574067896616],[11.135946332671544,46.27126047067556],[11.135940376537167,46.27113396468372],[11.13593428223822,46.271052892409664],[11.135931722933543,46.27100233399761],[11.13592871564243,46.27093230035526],[11.135772456938751,46.27035552229264],[11.135750449569414,46.27026961908312],[11.135687585091176,46.269820789937654],[11.13569101287501,46.269792774897844],[11.135729160070298,46.269458237842414],[11.135751751690732,46.26931547947124],[11.13578243926502,46.2691305164104],[11.135769479171548,46.26894247647138],[11.135745270689208,46.26859120150648],[11.135743173035134,46.26829911616257],[11.135742329331892,46.268181747856865],[11.135771278460163,46.26792470323245],[11.13573174895857,46.26753394089571],[11.13562410322176,46.267184946909374],[11.135465766105936,46.266908896161276],[11.135385138535824,46.266768089903664],[11.13535613911456,46.2667174431701],[11.135277037882528,46.26643541420351],[11.135262919848032,46.266197183696676],[11.135313711727264,46.265988427439865],[11.135325184145339,46.2659428080102],[11.135333433403181,46.265903345533616],[11.135375975579175,46.26564154954161],[11.135368967800074,46.2654610511056],[11.13536720181394,46.265412215753415],[11.135361265185896,46.26538533329956],[11.13530738689997,46.265170320058424],[11.135274453534432,46.2649909441232],[11.13514700131708,46.264862010773946],[11.135073531619966,46.264787685463965],[11.134816934920291,46.264612488664845],[11.134539951482138,46.26445566075807],[11.134300430634537,46.264302630839026],[11.134093909437762,46.26412198090226],[11.133928749584149,46.26385018101717],[11.133913477792634,46.263824084806984],[11.133779058110306,46.26358536423001],[11.133743999590592,46.26352111840022],[11.133548642961188,46.26319615327429],[11.133417530760259,46.262972123627314],[11.133345538049152,46.26285343645221],[11.133215663461385,46.26259935700523],[11.133202071569546,46.262387858584646],[11.133202388343456,46.262297702198325],[11.133207596525212,46.26214408861793],[11.133247920730874,46.261888335113916],[11.133268673655948,46.2618045311927],[11.133336363211008,46.261548821228544],[11.133344048147036,46.26152141167019],[11.133441672060801,46.26135298926585],[11.133488592667637,46.261274984325695],[11.133673598049478,46.26102478450803],[11.133868237468977,46.26077364127447],[11.133998772851394,46.260585683619865],[11.134015572947012,46.26055325989422],[11.134082285189603,46.26039615137161],[11.134111909873672,46.26015708475551],[11.134103260152624,46.26001775037748],[11.134024628448687,46.25983021362136],[11.133872878298769,46.25963954560922],[11.133677638651285,46.25937317685889],[11.133473303939219,46.259165499569974],[11.133233160819193,46.25895397493626],[11.13307269376104,46.25883096737142],[11.133889234352697,46.25864022953341],[11.134996416430987,46.25829103138623],[11.136382515717726,46.25781512121816],[11.137338563360407,46.25751083206284],[11.137680370481627,46.25740239185285],[11.137750699667071,46.25738002570369],[11.138453881213618,46.25711297209419],[11.138859892541527,46.25695877409022],[11.139295862177,46.25682561702202],[11.139657753337211,46.25671508305959],[11.140146950580748,46.2565656635915],[11.1407840589271,46.256391729527365],[11.141128637636344,46.25628674251648],[11.14216892194243,46.25596977863398],[11.144409623046057,46.25528968862323],[11.144472764303252,46.255513428917254],[11.144565567199443,46.25587531836271],[11.144789340317114,46.25608262913464],[11.145025789528615,46.25624019318946],[11.145174761351141,46.25635890240999],[11.145344953018133,46.25652220602238],[11.145497867828952,46.25665883131331],[11.14559713104554,46.25679198431244],[11.14570825856252,46.25693838867167],[11.145776530662229,46.25710812062212],[11.145826216140389,46.257300690346725],[11.145918246993453,46.25762296520018],[11.146040852312845,46.258021159470566],[11.146140889770262,46.258464789235134],[11.146099156925914,46.258600589537984],[11.146763413160217,46.25845759416926],[11.147194332620698,46.25811200426177],[11.147704280202191,46.257797367870275],[11.147886415246438,46.25768499008894],[11.148780565080944,46.25724068111326],[11.149824915428116,46.25769353253024],[11.150007917628836,46.257645095918924],[11.150751966845247,46.25709558110041],[11.15114933690956,46.25676410065124],[11.151360191892207,46.25655763300275],[11.151580616969405,46.25613947444243],[11.151977235219046,46.255830491326606],[11.152400812993474,46.255381520970026],[11.15254324923097,46.25537432364921],[11.153790575886253,46.25558483871327],[11.1543113336127,46.25600252217513],[11.155614269768273,46.25626595767079],[11.155754208607151,46.2562363137285],[11.15627472099801,46.25596579441567],[11.15648989776133,46.255434932846626],[11.156556104722865,46.25530318129626],[11.156649764028337,46.2550449113535],[11.156570070738493,46.254749395650165],[11.15653805672181,46.25447100936932],[11.156465406035284,46.254148359127285],[11.15641709668052,46.25399178407772],[11.156345517794797,46.2539031298912],[11.156184139017125,46.253717170357675],[11.155718276258698,46.253334457956115],[11.155156515312585,46.25290404112057],[11.153999776701575,46.252106829424804],[11.152738157771067,46.251280098954474],[11.151775181636046,46.250568596495604],[11.151305344726858,46.25022256091299],[11.151403077510404,46.25016397826254],[11.152656818670009,46.249427174894976],[11.153177422033282,46.24912077205667],[11.153788454859804,46.248780756757114],[11.154274951751356,46.248533089890714],[11.154427707883313,46.2484356295269],[11.154740101150217,46.248236315031306],[11.155138381005596,46.24797230193117],[11.155293563821777,46.24791029690831],[11.155551887489379,46.24784749376356],[11.155870647048236,46.247746979309156],[11.156158258649128,46.24763805413412],[11.156394909011476,46.24753978131103],[11.156453435445922,46.247515477038895],[11.156946880062906,46.2473621708448],[11.157051688964808,46.24732469478496],[11.157848453895927,46.24703787465939],[11.158312019959043,46.24681888866953],[11.158636240178039,46.24667268258984],[11.158739060541134,46.24662631521272],[11.159292673514694,46.24639535040482],[11.159993348239073,46.24620536422233],[11.160041953848694,46.24619218449226],[11.159600118551548,46.246007032059914],[11.15930623151353,46.24587309013469],[11.159077852651004,46.24575589945396],[11.158888415566452,46.24561038695263],[11.158823805158493,46.245482003375635],[11.158800386061943,46.24543301474294],[11.15875167083309,46.24520628417661],[11.158704886298171,46.24497092549458],[11.158650870428211,46.244751440280815],[11.15860309318591,46.24460834902703],[11.158466607961794,46.244435415407615],[11.158292122619345,46.244245208762514],[11.158119429924339,46.24405946540703],[11.157917270174766,46.243824785968435],[11.157727684334368,46.243621353351465],[11.157545307492196,46.24343579106785],[11.15738371702977,46.24332634882097],[11.157180904387586,46.24324017246802],[11.156889799939728,46.24314000903384],[11.15658466908571,46.24305388170983],[11.156431494409736,46.243002298371636],[11.156302860417954,46.24296045442894],[11.15626845279196,46.24294794533081],[11.156131850246139,46.242863267357585],[11.156101795091413,46.242846530582646],[11.155945309085757,46.24266047723869],[11.155801418916095,46.242505686863964],[11.155686527210067,46.2423458527744],[11.155737708659574,46.24231210125094],[11.155856542627504,46.24223373823507],[11.15720388597292,46.24134520995927],[11.15812764180825,46.24079675020802],[11.159706435259418,46.23983540739701],[11.161455942489475,46.238722306212786],[11.163004089270823,46.23768500305767],[11.1656312576999,46.24070880142946],[11.166059100191546,46.24107420685275],[11.166346017962669,46.24140176682714],[11.166602349371514,46.241693906838464],[11.166846842531314,46.241932283738436],[11.167230122226576,46.242235526272246],[11.167588351905442,46.242521234098035],[11.167922322699315,46.24276690716365],[11.167974992506561,46.242806916615756],[11.168464226146444,46.24318405280219],[11.168590436887987,46.243287541930066],[11.168834602710836,46.24349210598199],[11.169057909740467,46.24368586823957],[11.169238223460109,46.24381744366295],[11.169554083469846,46.243932954164215],[11.17002859750045,46.24404095105323],[11.170467149462668,46.24412168779266],[11.170538205064203,46.24413476827041],[11.171006216854845,46.244242885500725],[11.171341365226438,46.24435350920407],[11.171685266611364,46.24450571585515],[11.171934669797873,46.244606956388516],[11.172291159763526,46.24475396462738],[11.173032041988616,46.24499638258077],[11.173808407898669,46.245233623333306],[11.17449019543181,46.245460799815824],[11.174605279491573,46.24549747559156],[11.175394174917493,46.245846958312555],[11.176557258271753,46.24651333461387],[11.177559403625995,46.24716925291839],[11.178326152795018,46.247654135385595],[11.1783927666972,46.24769788112143],[11.178572955293063,46.24778444932207],[11.178645290837954,46.24785057020267],[11.178641839413025,46.24792712894235],[11.17859558569948,46.248193869377225],[11.179112785899523,46.248166673739036],[11.179690504279806,46.24812918802805],[11.179851938870303,46.248137200619105],[11.180292195665485,46.248161173785284],[11.18010744857498,46.24778946901978],[11.180060552856931,46.24765363938743],[11.179673143354226,46.246575451393426],[11.178447767332994,46.24540178482146],[11.177583421220934,46.2446217416906],[11.177416419790537,46.2444838650192],[11.17738774377404,46.24446292875421],[11.1773187068763,46.24440343317569],[11.176507246316335,46.243733234553034],[11.176070412649679,46.243552547889394],[11.175808275030976,46.2432380336912],[11.175563955388046,46.242923177866345],[11.175393560830033,46.242714910780286],[11.175204446573252,46.242525008330425],[11.175060129014458,46.242401751097425],[11.174862883350842,46.242293013958786],[11.173953505509802,46.241862725787165],[11.173909541481825,46.24184313790678],[11.173305767287673,46.241458622590066],[11.172692826310508,46.24102032104293],[11.172648400946205,46.240989613555676],[11.172316176758063,46.24082942957481],[11.172014188987184,46.24069565624051],[11.171737559617581,46.24058842069807],[11.17138333124897,46.2404871375115],[11.171060072268396,46.24038978297812],[11.170630093804695,46.24025845553975],[11.170389850068476,46.240128020500265],[11.170120081311975,46.239989131908835],[11.169867819735487,46.2398004179507],[11.169523255188569,46.23953244831084],[11.169277272712623,46.23933911731353],[11.169043713615935,46.23917255339045],[11.168860179209274,46.23908153528772],[11.168652835687164,46.23900445918431],[11.168491949508372,46.23895352435188],[11.168409693992691,46.23892358437297],[11.168746929840582,46.238224164572074],[11.169049443760786,46.23746691649017],[11.169065100930819,46.2374411990235],[11.169310568497533,46.23697593601947],[11.169584372729272,46.23664223730218],[11.1699500350854,46.23625278501009],[11.17027455936527,46.235972127414634],[11.17063829737375,46.23574021455892],[11.17101624823475,46.23549901676984],[11.171650329592861,46.235009957469686],[11.170746891858832,46.2343836133065],[11.170734717375963,46.2342803462591],[11.170855073764361,46.234084556465206],[11.171083680266696,46.233975778183755],[11.171177887260159,46.23393095274513],[11.17127165390847,46.23388598259088],[11.171335439754651,46.23384768419728],[11.171364086763345,46.233830484915224],[11.171568418717492,46.233707807010475],[11.171679235143273,46.233641293539065],[11.171727091853956,46.23361254269475],[11.171888030990605,46.233515917452856],[11.172319110292115,46.23322421581437],[11.172556962873145,46.23336682288261],[11.172790233896725,46.23336980754435],[11.172905253303204,46.23337057440585],[11.173146482258646,46.23323784620709],[11.173405062212826,46.233095569439826],[11.173771630173578,46.23289509529358],[11.174599377013518,46.23267958511664],[11.174638615444174,46.23266762860512],[11.174667977397869,46.23269826560043],[11.174707928654678,46.2327398586742],[11.174792074254311,46.23283119925409],[11.174891309165744,46.232939844472085],[11.174968437317055,46.23301962625649],[11.17510925541867,46.23313899564171],[11.175222780447767,46.23322743931976],[11.175395983447105,46.23336289005147],[11.175419486436502,46.23339732938785],[11.175455481850925,46.23344345172633],[11.175483513266911,46.23347856446146],[11.17553341531763,46.233541071584085],[11.175529241483012,46.23358191046263],[11.175486999772854,46.23399253366893],[11.175483465323516,46.23403238924408],[11.175438054688023,46.23448340283179],[11.175434852108832,46.23450895159453],[11.175416402726457,46.23469031844839],[11.175407163873631,46.234776494369136],[11.17515443464017,46.23482978504649],[11.174591966563996,46.23494804379058],[11.174428186243965,46.234983287617084],[11.174357271572275,46.23499804823415],[11.17428316838436,46.235013748798494],[11.174244774210843,46.23502147970332],[11.174079233817404,46.23505561708533],[11.174021356333776,46.235067488787216],[11.173980479051172,46.23507589416008],[11.173880072636166,46.23509766870895],[11.173775442056314,46.235271627649304],[11.173687928008553,46.235417070341235],[11.17361801829166,46.23553376344183],[11.17340985214585,46.235872330234535],[11.173374484876714,46.235929919523414],[11.173348445807973,46.235972373887435],[11.173165822063952,46.23625933394551],[11.173115517053233,46.236338382991214],[11.17309068131451,46.23637765352487],[11.172985172399372,46.236555471506016],[11.172854625199738,46.23677310552917],[11.172747523193362,46.23693009460952],[11.172721838629794,46.236967787254876],[11.172653038111164,46.23707009875682],[11.172638835738109,46.23710397117989],[11.172615785407917,46.23716170405541],[11.172589535809168,46.23723587638893],[11.1725445155365,46.23733301688239],[11.1724253924639,46.23764123751958],[11.172397929667595,46.237763932461625],[11.172360575477816,46.23793052059585],[11.172338432783096,46.23814234006067],[11.172334259342852,46.23816902950555],[11.172330862764163,46.23820021780247],[11.1723566677385,46.23827656230141],[11.172415051318447,46.23844699338563],[11.172541474793716,46.23867543799147],[11.172585681814185,46.23875401205047],[11.172775134000915,46.239016630815655],[11.173025255969376,46.239334825897835],[11.17310310398353,46.23938494930164],[11.173155420658805,46.23941843702769],[11.173223998750917,46.23942314952645],[11.1733062500964,46.23942702232912],[11.173363841242551,46.239431589085726],[11.173514428005877,46.23942503312649],[11.173595207920956,46.23942104499869],[11.173671714956328,46.23941724789278],[11.174181469673542,46.239387216276654],[11.174242993312346,46.239382518527194],[11.174294916872995,46.23936327361361],[11.174440437427858,46.23930648349145],[11.174576126857021,46.23924972185862],[11.17617110719641,46.2385555331596],[11.176190990896343,46.238581658413885],[11.176246104368238,46.23866083968916],[11.17646390171223,46.238971290645075],[11.176515335459142,46.23904271616206],[11.176645287673306,46.23923051234302],[11.176711339506571,46.23928464347922],[11.176826262912229,46.23937882532163],[11.17687081020669,46.23941334317097],[11.17713542585899,46.239632188442656],[11.177465899623108,46.240011347800426],[11.177726449366668,46.240287911191004],[11.17787046960279,46.24043140509526],[11.17804852200164,46.24061618498723],[11.17815194948246,46.24073210236075],[11.17833319630137,46.240936118325166],[11.178355769112354,46.24096059349353],[11.178436356191925,46.24105022609031],[11.178512629125644,46.241126326214236],[11.1785577885131,46.24116932615529],[11.178711746177067,46.241325741982905],[11.178951309221452,46.24156084436077],[11.179004933963341,46.2416195834276],[11.1790704987865,46.24168882757113],[11.179092185090191,46.2417108489316],[11.179223589375734,46.24184371299411],[11.179350675392488,46.241971975534696],[11.179404978719827,46.24202745598474],[11.179499990360556,46.24212365470185],[11.179975758614566,46.242582861972906],[11.180156424682274,46.24272809654641],[11.180429258348067,46.24294744965333],[11.180456494544503,46.24297289474975],[11.180671413592306,46.24317368409636],[11.180787958709836,46.243282606658376],[11.181047938181093,46.243547818569766],[11.181217183130132,46.243709078346214],[11.181243805342772,46.24373406876019],[11.181289323328057,46.243778314498485],[11.18132351620036,46.243812010315445],[11.181378287926314,46.24387858356564],[11.181435931176432,46.24396673133677],[11.181473135739953,46.24405654457871],[11.181499374961401,46.24411936662698],[11.181504270198845,46.24433636151897],[11.18150790835207,46.244493426245974],[11.18151111184347,46.24463233319594],[11.181475373128427,46.24487602353365],[11.18152143085738,46.245180289995155],[11.181524884349331,46.24522229655524],[11.181534282261882,46.245338403752285],[11.18157122102699,46.245534529162164],[11.18162973168997,46.245840547770925],[11.181637372722065,46.245903386417936],[11.181652308432607,46.246070928597426],[11.181670552193008,46.24616347079078],[11.181697817341538,46.24637052529365],[11.181713890622413,46.246496255864116],[11.181730887479015,46.246625154879034],[11.18175032318639,46.24677423084473],[11.18177580322093,46.246970244608804],[11.18179906333818,46.24725880150808],[11.18181146122657,46.24741241023011],[11.18182109172805,46.247528955737465],[11.181844143106542,46.24770365829009],[11.181858955288204,46.24781379749637],[11.181865211041274,46.24786138647046],[11.18189404614962,46.24807638060359],[11.181900015289273,46.24811690626672],[11.181906584705162,46.24858913172228],[11.181967394966767,46.24877720043496],[11.182055318915515,46.24911302203899],[11.182161826503503,46.24929017830449],[11.182288046316197,46.24950009236896],[11.182417661765252,46.24971486546411],[11.182513618073834,46.24987378412934],[11.18270742206735,46.25018059040722],[11.182788929547566,46.25027908548291],[11.182840937493536,46.25034971587072],[11.182944447670794,46.25048159179828],[11.18318365962705,46.25077900393005],[11.183318895822874,46.25095855601157],[11.18340722698177,46.25107325477629],[11.183450563218027,46.2511294323988],[11.18348962454639,46.251174659209525],[11.183517216618338,46.25120660571584],[11.183588206187533,46.2512887821656],[11.18376880270791,46.25140400007189],[11.183812830004557,46.25143218265071],[11.18410859636191,46.25162140038576],[11.184152983021473,46.2516482997329],[11.184271517415066,46.25171954707996],[11.184546142057226,46.251886979522716],[11.185020973990095,46.25214824756785],[11.185066929393956,46.25217392133415],[11.185134089072495,46.25221111042549],[11.18520555220902,46.25225058244546],[11.185288817792472,46.252296190084415],[11.18535184127847,46.25233105148284],[11.185409228755024,46.25236254564198],[11.185479932869784,46.25240132098761],[11.185558680823133,46.25244459736622],[11.185733216956807,46.252533363002684],[11.185852459302353,46.25259402080162],[11.185898249465255,46.2526173132342],[11.186011408088493,46.25266614213982],[11.186068207449717,46.25269062344288],[11.186134307126837,46.252722230483236],[11.186188093316883,46.25273190999983],[11.186239966821837,46.252742658408444],[11.186415960201638,46.25277867631243],[11.186553112398068,46.252768762871604],[11.186617087107935,46.25277638239437],[11.18668129375521,46.252768658362065],[11.186792420976612,46.252776490645125],[11.187083027802563,46.252796969601796],[11.18727362820813,46.252801020440295],[11.187319954965268,46.252801935576656],[11.187441949653028,46.25279705160732],[11.187521226503362,46.252793980656946],[11.187651118041348,46.25278875899547],[11.187740353042178,46.25278527765402],[11.187789505294162,46.25278341414021],[11.187869889020202,46.25278188149575],[11.187966658508422,46.25277590036828],[11.188017977485858,46.25277403847262],[11.188090811941434,46.252762830970994],[11.188146434602187,46.252761136819956],[11.188242220293622,46.25275570260944],[11.188316642278368,46.25272606270642],[11.188534085205358,46.25258469291246],[11.188948687857197,46.25228424833814],[11.189186365360793,46.2521041874379],[11.18931226584608,46.25192627651357],[11.189431805259723,46.251505471316975],[11.18959113454176,46.251086325541515],[11.189604538595901,46.25104763594481],[11.189615645408654,46.251008044439175],[11.189636345776682,46.25093973299254],[11.189664836407559,46.25084465950033],[11.1896831460494,46.2507820612953],[11.189728665118814,46.250627408500364],[11.189743452613268,46.25058335884058],[11.189751057971565,46.250557232151415],[11.189774441471299,46.25048613139151],[11.189788251591432,46.250444124604556],[11.189839142278528,46.25029165038237],[11.189848049824118,46.2502299361317],[11.189856781465519,46.25018631930886],[11.189868333908759,46.25013697738664],[11.18989094825627,46.2500074357551],[11.189894712206337,46.24998131336544],[11.1899073756853,46.2498967970548],[11.189896605697186,46.249784303482],[11.189869531821987,46.249476857874285],[11.18981974444019,46.24911300204811],[11.189745997704478,46.248978221925505],[11.189677944369818,46.24885384672868],[11.18961767332786,46.248599367154696],[11.189580719441008,46.2483210671768],[11.189542889970657,46.24810578556735],[11.189557639457405,46.247868682589925],[11.189581151601422,46.247682047906885],[11.189648604326633,46.247525206261244],[11.189687916998137,46.247432879225265],[11.189783162066188,46.24723289335101],[11.189822283433946,46.247177676086494],[11.18984612115254,46.247145715778956],[11.189908617398908,46.247061971628625],[11.190069128618298,46.24690318166056],[11.19025272291273,46.24671700234789],[11.190428023731958,46.24653404448123],[11.190573061314167,46.246372823313315],[11.190614254889786,46.24632472123101],[11.190703709713143,46.246237485267066],[11.190785734072861,46.246178370707966],[11.190990127420987,46.24600801436098],[11.191190523447371,46.24593185603725],[11.19124341155182,46.245905133646474],[11.191279429361717,46.24588653162994],[11.191525321506173,46.24578240149439],[11.19162210315046,46.24573992645892],[11.191828793867428,46.2456097501816],[11.191852211685857,46.2455864728248],[11.192043292364929,46.24545680346618],[11.192332586811423,46.245352253034454],[11.192640397171079,46.24530150551244],[11.192879390875326,46.245239097594],[11.192918037019156,46.2452291793493],[11.193193867454733,46.245137680732874],[11.19336100661253,46.24508800192462],[11.193455428462402,46.245055934391125],[11.19362932097013,46.24501687184303],[11.193871953316027,46.245021134143144],[11.19401626407645,46.245015782285],[11.194160496095314,46.24501040835567],[11.19421500526463,46.24500994404507],[11.194435076072526,46.24500932461438],[11.194493259341986,46.24501306382897],[11.194670487941023,46.24502753203503],[11.19491748312745,46.24506004916813],[11.195012288534944,46.245083813143864],[11.195081398538807,46.24510123944087],[11.195200069873923,46.24512862733102],[11.195266329010828,46.24514648449049],[11.19538774960527,46.245181744079325],[11.195456472238426,46.24520028192032],[11.195541008112224,46.24522860066962],[11.195699341629698,46.24528124119666],[11.195791291825094,46.24531447633329],[11.195953094914717,46.245394451959385],[11.196009416153652,46.24542165919778],[11.196119413764352,46.245478121572084],[11.196266475813584,46.24555572137359],[11.196483847864737,46.24565899368603],[11.196547845588356,46.24568948579848],[11.196712939368526,46.245776216572985],[11.19676353844854,46.245801780190064],[11.1969440655865,46.24588865585812],[11.197049976092003,46.24596346638766],[11.19708176419034,46.24598377177399],[11.197120984572006,46.24601200926559],[11.197225653046738,46.24610644152405],[11.197311848049837,46.24621822494389],[11.197377390098527,46.24630881206691],[11.197400243355215,46.24635416311977],[11.197416752161839,46.246389782709116],[11.197445095509597,46.246454097880466],[11.19745177525772,46.246490632789715],[11.197461355400911,46.24654040887213],[11.197468588961435,46.246586454478795],[11.19745998333559,46.2466331601751],[11.197454094276459,46.24666762641454],[11.197434565240103,46.24674828853875],[11.197384678168332,46.246960745229366],[11.197296885298787,46.24713867593635],[11.197250713725438,46.247234668289494],[11.197115949944004,46.24749936240778],[11.196920808610916,46.24793268264895],[11.196755132000398,46.2483318805525],[11.19661883091082,46.24871997156139],[11.196481460505128,46.24911115381399],[11.19643110044901,46.24924936899003],[11.196385636831582,46.24938080825973],[11.196350232374414,46.24949518774258],[11.196319546675879,46.2496047712],[11.196314828532064,46.249694410571855],[11.196311219182215,46.249762435279735],[11.196313702654463,46.249811435203235],[11.196318797918643,46.24991079611764],[11.196338673647587,46.24998555883569],[11.196356878883629,46.25005406249538],[11.196392742504704,46.25013410166064],[11.196446138001223,46.25023608481162],[11.196476867246984,46.25030200047132],[11.196524905336517,46.25036134086732],[11.196592069735436,46.25043151258758],[11.19664329423288,46.25048506753862],[11.196744289287215,46.250577628549024],[11.196886169528954,46.25067840101365],[11.196926126586526,46.25074513277529],[11.196990566766809,46.25089689960475],[11.197073261640249,46.25109780948889],[11.197139068322233,46.25124732329893],[11.197202085448666,46.25131827010933],[11.19724007363494,46.25137810943599],[11.197338372133842,46.25148422570281],[11.197456878739919,46.251567442826726],[11.197583260916021,46.25164601906298],[11.197662997650559,46.25170288634125],[11.197718441089778,46.25174242011513],[11.197780158538546,46.25179460902276],[11.197879651395764,46.251878818695936],[11.197970023368152,46.251944479638055],[11.198036580578917,46.25199280602366],[11.198155581151521,46.2520894952591],[11.198283809066579,46.25221305435117],[11.19831956148931,46.252260148798854],[11.198388196863638,46.2523505452642],[11.198418477444854,46.25241403985581],[11.1984520016199,46.25248431761129],[11.198507418091555,46.25261378448632],[11.198572912623835,46.252752000965486],[11.198612971783705,46.252855172074966],[11.198659054237144,46.252973218959276],[11.198746273864778,46.25315482684515],[11.198831975141543,46.25329575315297],[11.198900584644042,46.25338434435213],[11.198945975565893,46.25344233781194],[11.199014124502998,46.25350113535606],[11.199078643208233,46.25355678153677],[11.199212243923881,46.25365321119846],[11.199315894848134,46.25372196179926],[11.199363845196485,46.253753779978695],[11.199532415258858,46.25383155378931],[11.19976242698128,46.25391681186555],[11.199970670351803,46.254003124865186],[11.200215186128466,46.25411542299078],[11.20032754106126,46.25416030569625],[11.2004424886989,46.25420545337546],[11.200532869314436,46.254272387442434],[11.200577115636014,46.25430664439624],[11.200636388743842,46.25435159223603],[11.200664757284686,46.25437240167067],[11.200724267500284,46.25441724049595],[11.20078756598063,46.25446501960944],[11.20086570505126,46.254525900706724],[11.201061191254896,46.25467057275853],[11.20123198423681,46.25480235209154],[11.201422521761971,46.25490218162346],[11.201633335923493,46.255024123454106],[11.201891192043309,46.255145158496624],[11.202016787082528,46.25520014548449],[11.2021767416532,46.25527015670249],[11.202510576425817,46.25542572526523],[11.202427006108426,46.25553890990374],[11.202378391912168,46.25560463043456],[11.202287679058893,46.255727419955505],[11.20225311421699,46.25576490418247],[11.20219672655159,46.255822270125805],[11.202142358651056,46.255878040980626],[11.202115082458388,46.25590368892003],[11.202065494671501,46.25595289106367],[11.201990265822273,46.25602551803229],[11.201933470090813,46.25608035364256],[11.201847202879144,46.25613949486671],[11.201616032224376,46.25629797676278],[11.201561495748702,46.2563302168008],[11.201458981356222,46.25639177768333],[11.201385642048061,46.25643573453815],[11.201296790119255,46.256489035386814],[11.201253190360697,46.25651535576244],[11.201209115651642,46.25653836958789],[11.201130178502519,46.25657328267679],[11.200797027798668,46.25673147077078],[11.200759568330051,46.256747310748246],[11.200613193923095,46.256810881045965],[11.200577323582719,46.256826456355945],[11.200328324137706,46.256935142302744],[11.200280674899085,46.25695947382303],[11.20017356218483,46.2570151018289],[11.200072708139007,46.25706738176191],[11.199939283889696,46.257135070579125],[11.199840164344044,46.257187581520846],[11.199674300332978,46.25728845098749],[11.19944890514211,46.25742496024526],[11.199380581296873,46.25746689592266],[11.199079009082604,46.25766084919205],[11.198970264153655,46.257827305577585],[11.19883711346166,46.25802105390862],[11.198760420799903,46.25815377974617],[11.198688043954123,46.25829051039272],[11.198672125313847,46.25831555016748],[11.198556855834608,46.25847504669714],[11.198462752172878,46.25861191348078],[11.198282998267626,46.25892718490388],[11.198236169836905,46.2590179033803],[11.198080874818366,46.25931891923642],[11.198047254075606,46.25938442868068],[11.197983319914531,46.259509216976134],[11.197968294271273,46.259538499274385],[11.197910460404595,46.25964853764181],[11.197807888671399,46.25960819494252],[11.197201218648775,46.25936246729282],[11.197052591268465,46.25929054022635],[11.197003991207854,46.2592683683208],[11.196785510362728,46.25916280538159],[11.196695097111432,46.259116126709],[11.196649093241467,46.259093227030746],[11.196133325381973,46.25883665072386],[11.195641827535324,46.25854594946648],[11.19545119617952,46.25842865351777],[11.195408201945046,46.25840219983426],[11.195187964899532,46.25826668694579],[11.195071569044266,46.25819723422442],[11.194946146439966,46.25812251413044],[11.194865260784505,46.258074414378356],[11.194786540749174,46.25802848973036],[11.19469297076224,46.257973825701974],[11.194574270034476,46.25790579287088],[11.194157262354235,46.257719446855965],[11.193971905784277,46.25767868311937],[11.193827644064804,46.25764726802332],[11.193629635168833,46.25760414645872],[11.19351407004655,46.257579239885615],[11.193459921199276,46.25757281895769],[11.193300921345664,46.25755392367905],[11.19314203641222,46.25753930557769],[11.192947242610975,46.25751317114294],[11.192444413864685,46.25750612193924],[11.192295441096524,46.257503870497615],[11.192170261223149,46.25749980161554],[11.192080728067758,46.25749719357628],[11.191906919396157,46.25749223915174],[11.191741190909797,46.25748752460193],[11.191637215748251,46.2574848358899],[11.191533762911043,46.2574834996995],[11.191368350398914,46.257481340011246],[11.191243374363614,46.25747958286056],[11.191121269959638,46.25747763551018],[11.19102189513761,46.257476133363355],[11.190949248364763,46.25747535712895],[11.190856101690422,46.25749401292262],[11.190756048155237,46.2575136110677],[11.190699692727112,46.25752477885792],[11.190430995674934,46.2577067972405],[11.19012483410012,46.257832809121844],[11.189796241554202,46.25790127510208],[11.189756469694416,46.25790828245608],[11.189175044653473,46.25800893192416],[11.189058028432783,46.25802299528194],[11.188939723368165,46.25803744141557],[11.188569962859022,46.25808335934341],[11.188302324578515,46.258116468123376],[11.187883813893402,46.258168240449514],[11.187673309021053,46.25819116638517],[11.187524168315557,46.258210108340435],[11.187332139267493,46.25823285008243],[11.187295897915943,46.258237063737],[11.187242824570514,46.258243324881505],[11.18716841366366,46.25825116441126],[11.187010797822133,46.258267580436076],[11.186958405284782,46.25827301749968],[11.186771436635865,46.25829237727696],[11.186605837628065,46.25830966282134],[11.18641241020632,46.258332856381784],[11.186364907180794,46.25833843633032],[11.186232282603822,46.25835419404022],[11.186027010015888,46.258378311970844],[11.18597049567415,46.258385104557284],[11.185804768660182,46.2584037855207],[11.185719096135154,46.25841322913949],[11.185669279031261,46.25841886385836],[11.185581184970594,46.258441553403884],[11.185428385560007,46.25848205240649],[11.185341662524976,46.25850515925811],[11.185268227689544,46.2585244487574],[11.185155150536577,46.25855559979736],[11.185083990086055,46.25857665023162],[11.18503472646675,46.25859145070967],[11.184933443441729,46.258616193773435],[11.184740494240327,46.258701493939306],[11.184673532622803,46.25873029133152],[11.184589162062178,46.258766772857605],[11.184434242136787,46.25885962481068],[11.184386002313582,46.25888639012364],[11.184340566786569,46.25891241239769],[11.184236803228773,46.25897272430146],[11.18408939787007,46.259060062625494],[11.183952017938152,46.25912792260442],[11.183770352110777,46.25922078076908],[11.183563600709837,46.25932764438694],[11.182974092460796,46.25951315457404],[11.182587424146032,46.25962755268513],[11.18238539084084,46.259687834345584],[11.182345889730591,46.25969779591238],[11.182243444303657,46.25972236437408],[11.182082253588302,46.259761153375685],[11.181910725876264,46.25980219156151],[11.18178424952388,46.2598317779358],[11.181737839934431,46.259842557903006],[11.181638949338671,46.25984570764946],[11.181051801654773,46.259856825997375],[11.180847532334308,46.259851968066634],[11.180630644320239,46.259848620487254],[11.180448854202378,46.25984483953535],[11.180234375112011,46.25984474561863],[11.180185131321107,46.25984515317967],[11.17993698504094,46.25984646061299],[11.179884556593803,46.259846629086546],[11.179423733732579,46.25984192260912],[11.17928828748625,46.2598443481375],[11.179146979753716,46.25984954843901],[11.178953551901467,46.25985592055638],[11.178859044670833,46.25985868551002],[11.178789038239657,46.25986056475656],[11.178696406052229,46.25986388784076],[11.178615455790304,46.259864390684434],[11.1782582041,46.259859646315945],[11.177932097304437,46.25981635697945],[11.177663821297068,46.259730705948506],[11.177559615774625,46.25969765288667],[11.177451563702318,46.259663206886906],[11.177357414625332,46.25963395452008],[11.17721267387463,46.25958813623477],[11.177081317618585,46.25954526235928],[11.176930695225428,46.259497963627915],[11.17679590350978,46.259455058564946],[11.176223237523343,46.25926883189548],[11.17594814298825,46.259210392818964],[11.175537765202451,46.25917366031329],[11.17542340327234,46.25918139950771],[11.175336474986103,46.25918731765129],[11.175273373135532,46.25918764307881],[11.175177549311313,46.25919534686382],[11.174981060711007,46.25921479741965],[11.17489649521034,46.25922343872414],[11.174744666974258,46.25924258702362],[11.174624004232461,46.2592511239381],[11.174420573283328,46.259337079495936],[11.174325291373455,46.25937598408734],[11.174280370960432,46.2594021032497],[11.174210051327501,46.25944343267515],[11.17383235618114,46.25966491560649],[11.173773149046673,46.25970055314751],[11.173443224983494,46.25989913226903],[11.173348023713517,46.25995643273563],[11.17279805745014,46.260130094129366],[11.171530642073138,46.260463388566514],[11.171008676222666,46.2611901174753],[11.170979349558849,46.261235874546706],[11.170911826602925,46.26133635216144],[11.17076768449522,46.261553990031274],[11.170474602654915,46.2619965735841],[11.170292767628505,46.2622523135684],[11.170006525950804,46.262653471214215],[11.169809210914442,46.26260792364265],[11.169241371105471,46.262363077155086],[11.168904846367454,46.26238072108227],[11.168866068811017,46.262382819662704],[11.168559719529725,46.26234813599669],[11.168511194359507,46.262338199846155],[11.167963283450158,46.26222600449052],[11.167923304260647,46.26221888683523],[11.167551231882573,46.26215452882648],[11.167459737322858,46.262138702070885],[11.167346820785083,46.26211917022358],[11.167137009682492,46.26214515015916]]]}}]}
