{"type":"FeatureCollection","metadata":{"code":"024065","referenceDate":"2026-01-01","sourceDbfExportDate":"2026-02-18","upstreamArchiveUrl":"https://www.istat.it/storage/cartografia/confini_amministrativi/non_generalizzati/2026/Limiti01012026.zip","sourceManifestSha256":"70ac8256c4785dc6ed2814c32b6965ae76f9161b51abaa1660059e1c6cbd8ca6","license":"https://creativecommons.org/licenses/by/4.0/","attribution":"Istat, Confini delle unità amministrative a fini statistici al 1° gennaio 2026, versione non generalizzata.","modifications":["Converted from WGS 84 / UTM zone 32N (EPSG:32632) to RFC 7946 WGS 84 geographic coordinates.","Converted from shapefile to per-municipality GeoJSON without geometry simplification."]},"features":[{"type":"Feature","id":"024065","properties":{"code":"024065","name":"Montegaldella","alternativeName":null,"regionCode":"05","regionName":"Veneto","territorialUnitCode":"024","territorialUnitName":"Vicenza"},"geometry":{"type":"Polygon","coordinates":[[[11.6423886802902,45.45675986808535],[11.64104961143041,45.457291667383906],[11.64070407818144,45.45749967151328],[11.639607614338582,45.45815970540435],[11.638873521701312,45.45894876003123],[11.638276806220917,45.45950509687291],[11.638129078808644,45.45959826990027],[11.637798286885129,45.45980690648428],[11.637825385621914,45.45982382207462],[11.637585384175654,45.459938418402906],[11.637150808714747,45.46015712932035],[11.636926488444773,45.460433583239116],[11.636717722461729,45.461043549733624],[11.636322478549769,45.461470020671605],[11.635784953706057,45.46202497716079],[11.635351327144956,45.462264527030456],[11.63506618491698,45.46220529387399],[11.635016660812145,45.462149156202265],[11.634996241778573,45.46212601975139],[11.634798427869413,45.46190193395867],[11.633816706576486,45.46080393257057],[11.63316199847797,45.46005713060646],[11.632857593304049,45.45970990269377],[11.63273252515486,45.45957013862864],[11.632021045632838,45.45877505909651],[11.630787419796226,45.45755232082783],[11.630273884622865,45.45696106976055],[11.630665573830864,45.45658299097838],[11.63111338437479,45.45631163247525],[11.631278546404525,45.456013033045735],[11.63142003761624,45.4557554851078],[11.63096012653727,45.45521700886422],[11.630586920270314,45.454892563129654],[11.630370509503916,45.45498306216087],[11.62921943341547,45.45546414682819],[11.62889659180483,45.455269710307036],[11.628374626523378,45.45495534788957],[11.628312763780475,45.4549180908537],[11.628184621148776,45.45484091136996],[11.628040943248475,45.454754376063036],[11.627535203288152,45.45444977804142],[11.627470823041255,45.45444939310849],[11.626844251078868,45.45444563313011],[11.626294275632356,45.45444233162999],[11.626078968452482,45.45441433759271],[11.62596801420945,45.45439865253972],[11.625926086715902,45.45439403894682],[11.625881029449006,45.45438928400524],[11.625816558610882,45.454345306696204],[11.625535548401498,45.45416004826643],[11.62539437118666,45.45406697653054],[11.625091222358444,45.45412958322872],[11.623481499836297,45.45446200757074],[11.623155857303875,45.453754615251874],[11.623125481905696,45.45368863400495],[11.623028724728902,45.453477782056275],[11.622966402701332,45.453283425833966],[11.622741505513718,45.45257074131852],[11.622746175897097,45.452257839809796],[11.622748288780384,45.452165528326454],[11.622629543596775,45.45216619266015],[11.621712649591874,45.45217131677749],[11.620968492719713,45.45215409831655],[11.62093168338175,45.452153246748665],[11.620770436044728,45.451986356359605],[11.620703250987486,45.4519154569194],[11.620636040112169,45.451844990096546],[11.620718239031365,45.45141104079087],[11.620745700046108,45.451362434006455],[11.620920033253888,45.451055191974746],[11.620934007117468,45.45102894092855],[11.621120086330365,45.45069971401321],[11.620930528867303,45.449920954384396],[11.62068427215556,45.44938344070117],[11.62060337102995,45.44920836297383],[11.620668561248374,45.44897288422135],[11.621134345460089,45.448800114656606],[11.620954236199402,45.447949127967846],[11.620747558149962,45.44736733966363],[11.621628850860823,45.4469406090817],[11.621836337654479,45.446839717109945],[11.622609975880348,45.446434779285795],[11.62289753764863,45.446284260949],[11.623882750672465,45.44546950400267],[11.624461312213938,45.4451060079631],[11.624583175054191,45.44502944257754],[11.625771357176866,45.44428291036268],[11.62772667495651,45.44315775808777],[11.628750082342814,45.442342079363556],[11.629299943546913,45.441873181661826],[11.629345388007778,45.44183473239167],[11.629770952182014,45.441472441616554],[11.629875784007613,45.441373741482856],[11.630358963095484,45.440918815698005],[11.630686682924505,45.440542210011614],[11.63126666469995,45.44091589691496],[11.63213545491473,45.44007674749569],[11.632695792205556,45.43947874069291],[11.63335807955402,45.4391484174341],[11.634521826026692,45.4388785284414],[11.634885408511476,45.43880444242492],[11.63509273047413,45.43876219549401],[11.635162289938451,45.43874802194933],[11.635215035935005,45.43873725648733],[11.635692071264602,45.43864007229133],[11.636016372550648,45.438573980966005],[11.636940356897096,45.43837261263989],[11.637099353285537,45.43520048036767],[11.63711291862665,45.4341200102661],[11.636993919393149,45.43350971187226],[11.636944977573918,45.4332597653766],[11.636627034844231,45.43266918732407],[11.636610784073355,45.43263480478747],[11.63646887601182,45.43237063373499],[11.636010579289916,45.431589103553],[11.63662327295807,45.43125000915999],[11.636907845177909,45.431091307682664],[11.637024321093119,45.430987430564215],[11.63714028411244,45.43088251471386],[11.637705656134075,45.4303797753188],[11.637791823851565,45.43028896837267],[11.638229645269924,45.42982759355025],[11.638309606548264,45.42972196396098],[11.638819724188428,45.42904883434714],[11.639215743527174,45.4282205589796],[11.63939554199249,45.42763899712369],[11.63951565535034,45.42725048338363],[11.639959425625618,45.426712158928865],[11.640023711486482,45.42663556003907],[11.640071695627233,45.42659394938189],[11.64073533935094,45.42602486416024],[11.640810489139273,45.42596034807618],[11.64118307731949,45.4257266945108],[11.641623284390455,45.42557248640276],[11.641179605669533,45.42455660370969],[11.640688459738394,45.42389286871794],[11.6403120584259,45.42349651633185],[11.640219243841775,45.423379168912724],[11.639836636338634,45.42289542268575],[11.6398206472888,45.42286975235243],[11.639532666488158,45.4224073795212],[11.639046782141463,45.421581492394424],[11.638821949962665,45.42114562497257],[11.638657413762942,45.42090639293305],[11.637495092495572,45.420924255915295],[11.636902109532947,45.4210909790581],[11.636513832783828,45.42126197233782],[11.636351611480118,45.42118400012377],[11.63627604863986,45.42114768117886],[11.636057067342522,45.42104210790115],[11.635977768879952,45.42100431058757],[11.636017700856385,45.42086099271666],[11.63611089842784,45.420527669322745],[11.636123608015316,45.42047736857096],[11.63619670595851,45.420216142355535],[11.637093818221835,45.420267429855606],[11.637711689303476,45.41981208782445],[11.638247914541244,45.41925061374355],[11.638354263932642,45.41904692225499],[11.638599935259272,45.418576379095015],[11.638839360369673,45.41822879299742],[11.639250437379639,45.41827329707443],[11.639788770899331,45.41830585438726],[11.639846927191757,45.41790845074498],[11.63989399244503,45.41754730914378],[11.63986856347252,45.416179694994355],[11.639697142268691,45.41305119612816],[11.639390192129987,45.410852967954476],[11.639668909536901,45.41025243452332],[11.640558505966514,45.40987180382958],[11.641598301954144,45.40950877779056],[11.641690215515386,45.40947656250252],[11.642767954936236,45.40905538606013],[11.643183713366362,45.4088929053671],[11.6442818763631,45.408327389230735],[11.644667102193434,45.40809342995112],[11.64527499267017,45.40729172576846],[11.64568654475486,45.40748471978005],[11.646255769852125,45.407633547904354],[11.647068794980783,45.407803723702145],[11.648005120417029,45.4081510605487],[11.648831385282124,45.40849632524104],[11.64905707629883,45.40859090683312],[11.649556148026797,45.40879916893079],[11.65092512569654,45.40937947314228],[11.652277997557373,45.409888124783514],[11.65236269745846,45.409935132356566],[11.652422243097714,45.40996709706204],[11.653196435689683,45.41039785356164],[11.653102487475826,45.4110552198756],[11.652310924509406,45.41659335255887],[11.65309856147633,45.41676407516725],[11.656582074334976,45.416097963764315],[11.656955060777864,45.41560321020096],[11.659144184769694,45.415408209172035],[11.659552432421185,45.416208817185094],[11.65899660265263,45.416347786468755],[11.659278452088744,45.41717834399624],[11.660562524881568,45.41676136214216],[11.66104127838278,45.41742980187249],[11.661073275695072,45.417838616765046],[11.661270442064303,45.41877015791827],[11.66136758728903,45.419749037752254],[11.66133240821425,45.42063198829206],[11.661161939622632,45.4213560688321],[11.661630466282077,45.421534171865616],[11.662365011923965,45.421661062326976],[11.662984223860564,45.42178163660615],[11.663801234514262,45.422302652374476],[11.664456649369386,45.422669889512534],[11.664485638549522,45.42268571955559],[11.664543458821013,45.42271795759868],[11.665546664602804,45.42309450385227],[11.665603471373199,45.42311570321567],[11.665797738230657,45.423124650342565],[11.666321041371688,45.42315295070486],[11.667121470801053,45.42311811241635],[11.66766044909284,45.42309465051094],[11.667786801780338,45.423117516985954],[11.668717627283302,45.42328596940972],[11.669583285847585,45.423481757083515],[11.670933726523216,45.4236571947458],[11.672196918731098,45.42387966598921],[11.673698924978726,45.42374547697428],[11.676224122729849,45.42308320809262],[11.67883410213924,45.42586397141547],[11.678997661809857,45.42603806489298],[11.679149944338779,45.42620009723125],[11.679250902733278,45.426307712732935],[11.679522180400035,45.42659735893107],[11.679641281828866,45.426890308900326],[11.679908525608203,45.42754762409635],[11.680085557564043,45.427982831427826],[11.680346889720738,45.42862579118047],[11.68019356118274,45.42859258767622],[11.680227547616054,45.42873442017622],[11.680237488286311,45.42877590637307],[11.680309500599053,45.429077311815625],[11.680319005124884,45.42911609162724],[11.680108895085349,45.42914584844411],[11.679989398332307,45.4294707849818],[11.680026739424386,45.429644227231464],[11.680117132190048,45.430064087863144],[11.680080938474056,45.43035418906396],[11.6800649012439,45.430480659697814],[11.680040846014169,45.430686441645435],[11.679742709670032,45.43183527580213],[11.679770893286745,45.43243035342268],[11.679720423136477,45.43285352123929],[11.679699580663343,45.4329799488665],[11.679638258923035,45.43335190058754],[11.679753304824521,45.43354777909863],[11.680490507308269,45.43348082381811],[11.68090136020664,45.43322294992176],[11.681083507529486,45.433238836488265],[11.681394388453038,45.433422136177654],[11.6816503094314,45.433403935980856],[11.68193204200646,45.43339731659795],[11.682298313425369,45.43368657996225],[11.68229879938483,45.43402700610272],[11.682298285643734,45.4344064550924],[11.681980446534638,45.43475692489168],[11.681861693602361,45.434888320543365],[11.68112447356088,45.43495528418064],[11.680353210249462,45.43504786647707],[11.67974042945857,45.43550905858924],[11.679773261182888,45.4361539016095],[11.679370664101002,45.437379424272],[11.679162720925577,45.43745621281402],[11.678365739885574,45.43775052545538],[11.677734137418756,45.43781498872825],[11.67610348130085,45.43762983012158],[11.675476486286058,45.43771707145541],[11.674387105520594,45.43786864014722],[11.673042830337751,45.4385206934491],[11.672960598350596,45.439019064635936],[11.672923254218645,45.43938549924329],[11.672912416679614,45.43949182158744],[11.673022500569079,45.43977512811241],[11.67311313859471,45.44000839763792],[11.673001167181033,45.440291381026405],[11.67292461236366,45.440483099972326],[11.672903797023904,45.44092090095298],[11.672890394813178,45.44115701466275],[11.67288793144599,45.44120516756255],[11.672881592430903,45.441430401533424],[11.672862968843127,45.44214939256806],[11.672844837584558,45.44217294435712],[11.672650651370734,45.44241903768092],[11.672501065055432,45.442609963907465],[11.672233038176568,45.44274501893083],[11.672154521446743,45.44278454220297],[11.671945310694172,45.44289093466777],[11.671909631541393,45.44290894357395],[11.671428007970379,45.44315065339131],[11.670919138516583,45.44311831841982],[11.6708641962584,45.44311121926786],[11.670365463030073,45.443051404709074],[11.670225741965941,45.443079496448554],[11.66994395850841,45.44308608804362],[11.669842969566437,45.44318773982008],[11.66985935622427,45.44353487046821],[11.669868719463302,45.443733231486306],[11.670031853307096,45.444201042121016],[11.670055263578725,45.44469694317393],[11.669645448805339,45.44497957535755],[11.669188705559474,45.44501508005618],[11.668402072352743,45.44478524896971],[11.667987248558024,45.444489847268734],[11.666985655120245,45.44391796235129],[11.666553284240914,45.44417846843402],[11.666274802898917,45.44451320046301],[11.665842721610867,45.44461262125194],[11.665680461779536,45.444650262172054],[11.665072303980013,45.44446588332102],[11.664749446623032,45.44434931026173],[11.663736125658875,45.44454671925523],[11.662789742906181,45.44466809030852],[11.662263595133943,45.444838684652794],[11.662207900602635,45.44485674688435],[11.662129819138608,45.44488206423179],[11.661950220150352,45.44532744020907],[11.661934076406448,45.44536747219964],[11.661961481361871,45.445384289431665],[11.662120440197409,45.445481835852505],[11.662223123636185,45.445544846672156],[11.662755112966712,45.44584001238261],[11.663340201854133,45.44587135249945],[11.663819036085615,45.446307173795354],[11.663972783791115,45.44657663202299],[11.663814976701316,45.446673442115475],[11.66304738636851,45.44714432223549],[11.66200811923615,45.44754090009394],[11.66112746806818,45.44756143478229],[11.660936172109452,45.44724320379318],[11.66073128018641,45.447037295126584],[11.660288847130685,45.44649482044432],[11.65950659114852,45.44653736291798],[11.659216181948155,45.44666272728167],[11.658952491776008,45.4468610420146],[11.65880746185753,45.44697011792284],[11.658836989686296,45.44759816160548],[11.658839543136033,45.44766436023351],[11.658831969073129,45.44770288245232],[11.658813156733315,45.447795531483635],[11.658696611989875,45.44836275557727],[11.658238404845804,45.449118099858744],[11.657156575665153,45.45011136490422],[11.656691070380903,45.45058676127179],[11.656584496976556,45.45069559811147],[11.656473088968518,45.45075575911871],[11.656206302984158,45.450902977512705],[11.656220279633557,45.451200520605916],[11.656247068917159,45.45177081350477],[11.655693889701762,45.45200708702637],[11.654595970026039,45.451908515290086],[11.65441965299058,45.45185819886657],[11.654274258800529,45.451816709943884],[11.654166625136567,45.45186234454611],[11.653717868372768,45.452053661532304],[11.653358056394822,45.45236851409269],[11.653108723280099,45.45258430405795],[11.6528400105795,45.4528181235132],[11.652802252580448,45.45282495813427],[11.652525679836055,45.45287661011869],[11.652398680895821,45.45286318601538],[11.652100190133389,45.45283531615291],[11.651805557331745,45.45256911438564],[11.651657656486687,45.45247106275564],[11.651486900901734,45.452534174569614],[11.651401594622627,45.452565703965526],[11.651166299463572,45.452465325936096],[11.651097631491858,45.45243389215402],[11.65104764661408,45.45239598000421],[11.650878930495542,45.45226526961973],[11.650799874550318,45.45220402228783],[11.650637175069807,45.45247214238006],[11.650579502487794,45.45274652774141],[11.650622868116534,45.45291927833508],[11.650602749291577,45.453242436784635],[11.650754130298928,45.45346232235831],[11.650766918410698,45.45373507237093],[11.650779705428114,45.454007822397344],[11.650766560951043,45.454479753402964],[11.650787485731845,45.454926070171815],[11.650606324424892,45.45557566035297],[11.65064236234598,45.45634431725566],[11.650570722362197,45.45655494441494],[11.65002329781506,45.45668138326718],[11.6491568140917,45.45625469294317],[11.64892632092318,45.456040252623005],[11.648684441212193,45.45594137251855],[11.64820013718764,45.45540810894061],[11.648193168878324,45.45525933609055],[11.648181618206076,45.45517435409228],[11.648139356469628,45.45486342701002],[11.64792833979866,45.45467019723486],[11.647358530228761,45.454672272293564],[11.647181545230415,45.4548202905154],[11.646858775022299,45.45534167602714],[11.646615635843412,45.455848123601015],[11.646249887168848,45.45621597227963],[11.646190881109103,45.45627531068486],[11.645866889168964,45.45627704952811],[11.645537337574144,45.45624872578699],[11.64494328967374,45.456199581077215],[11.644065217324052,45.45647063948262],[11.643679208307553,45.456458713390084],[11.6423886802902,45.45675986808535]]]}}]}
