{"type":"FeatureCollection","metadata":{"code":"024005","referenceDate":"2026-01-01","sourceDbfExportDate":"2026-02-18","upstreamArchiveUrl":"https://www.istat.it/storage/cartografia/confini_amministrativi/non_generalizzati/2026/Limiti01012026.zip","sourceManifestSha256":"70ac8256c4785dc6ed2814c32b6965ae76f9161b51abaa1660059e1c6cbd8ca6","license":"https://creativecommons.org/licenses/by/4.0/","attribution":"Istat, Confini delle unità amministrative a fini statistici al 1° gennaio 2026, versione non generalizzata.","modifications":["Converted from WGS 84 / UTM zone 32N (EPSG:32632) to RFC 7946 WGS 84 geographic coordinates.","Converted from shapefile to per-municipality GeoJSON without geometry simplification."]},"features":[{"type":"Feature","id":"024005","properties":{"code":"024005","name":"Altissimo","alternativeName":null,"regionCode":"05","regionName":"Veneto","territorialUnitCode":"024","territorialUnitName":"Vicenza"},"geometry":{"type":"Polygon","coordinates":[[[11.24906720879185,45.63035949757764],[11.248736222624254,45.630482394075734],[11.248043229065836,45.63073970242791],[11.247461504292026,45.63099818022792],[11.247211260044915,45.63110936852252],[11.246786659997424,45.631239238594766],[11.246707319181033,45.63142081938543],[11.246650352112178,45.63168071927443],[11.246721342454213,45.63175200522012],[11.246911452973984,45.63195228897035],[11.247011708444912,45.63213491006615],[11.246989427547526,45.63229961716749],[11.246870927332338,45.63258035663908],[11.24677264875601,45.632815747637835],[11.246700639187974,45.632982748208555],[11.246509113116002,45.633443194789336],[11.246369055768156,45.63411202392429],[11.245953417666566,45.6349482928994],[11.245932529636004,45.63499298540385],[11.245516080817685,45.63588399689088],[11.24491205756454,45.6368229771992],[11.244398368387078,45.637454144256914],[11.24423845954015,45.6375443770758],[11.243720758168507,45.6378365021274],[11.243676082175337,45.637862270636056],[11.243446668323136,45.63799474458049],[11.243021001907358,45.638240099632405],[11.242767534655027,45.63838628795989],[11.242937824013675,45.63878774423644],[11.243013310466772,45.63900979288569],[11.243169976786177,45.639467502983756],[11.243375692188819,45.6401205344003],[11.24333317873786,45.64085611980755],[11.243322211039041,45.6410306848878],[11.243315756829597,45.641108464720205],[11.243304088772552,45.641261666938526],[11.243253392800728,45.64187813003381],[11.24341716913027,45.64276601072811],[11.242834527078974,45.642957476711736],[11.242134216280498,45.643283953761504],[11.24202825857711,45.64333335013304],[11.241600075046676,45.643413275478856],[11.241327692555748,45.64346411638205],[11.24103762105986,45.643591323112794],[11.240942469968546,45.64363365567556],[11.240889468847625,45.643657237174416],[11.240735083122125,45.64372777479428],[11.24061197191764,45.64418023972318],[11.240630625563412,45.644647924874846],[11.240332296969662,45.6452118401672],[11.239571970868417,45.645549696823494],[11.239499974693347,45.64557920567299],[11.238560478392149,45.64615568949646],[11.23821935110941,45.64661242554841],[11.237738671317375,45.64743193565518],[11.237438299019544,45.6485899469224],[11.237330995574046,45.648957969017715],[11.237235059100788,45.64928700527316],[11.237271242494538,45.650195394774],[11.237236190302113,45.6503604955434],[11.237086552798598,45.6510361050371],[11.236384583089734,45.6517789346481],[11.235930619500417,45.65229318201464],[11.235615835810014,45.652730462977225],[11.235443647121638,45.652967486693676],[11.23539162745826,45.653044763696414],[11.234946471237112,45.653697296719486],[11.233877828226376,45.65425826672208],[11.23280165531679,45.65463035297569],[11.231988046742408,45.65515031471879],[11.231356478643582,45.65572971892463],[11.230893414731108,45.65635083279305],[11.230163504488273,45.65704016397094],[11.228955424899162,45.65732478042653],[11.22812958384999,45.65721488525805],[11.227207555311228,45.65710685936896],[11.227755041714985,45.65553901104741],[11.227987282874956,45.65492241383603],[11.22823020181582,45.654251602395334],[11.22804737668138,45.6532020554569],[11.22809409120674,45.652891032001996],[11.228209393428013,45.6521097761949],[11.228486132807344,45.65132129129554],[11.228758540850183,45.650915605535616],[11.229055677613035,45.65047308295208],[11.229095156659977,45.65039812296605],[11.229547548809546,45.649608387090645],[11.229804323379328,45.64896430343062],[11.229736772528073,45.648701269897906],[11.229576622752607,45.64807765326241],[11.229453301031821,45.64723396895574],[11.22943789552287,45.6461991563097],[11.22970528133806,45.64485278877127],[11.229947106077272,45.644129239710345],[11.230132503111191,45.64357689674611],[11.230140485232766,45.643548262417056],[11.230723204146901,45.64253315445198],[11.231148070409636,45.64208380542873],[11.231267700731285,45.64170342619809],[11.231182901865804,45.641426052251916],[11.231077619490778,45.64111757566265],[11.231260465364734,45.64071345855371],[11.231333956430838,45.64022146842939],[11.231052368725994,45.639835427330254],[11.23098217147375,45.639521764526506],[11.230910359523474,45.6390866189116],[11.23091509485225,45.639023806112185],[11.23093347730108,45.63878013391668],[11.23121213742989,45.63852716182587],[11.231579473279227,45.63824545286599],[11.232102783412094,45.63785268198936],[11.232954423853407,45.63717904880463],[11.233136771144293,45.6370348087591],[11.233408970663564,45.63681902934884],[11.233539787975788,45.636397923817],[11.233480794145857,45.636043538447815],[11.233367658332428,45.635618204400274],[11.233081400563185,45.6348722194895],[11.232724829106253,45.63421311791768],[11.232414397004904,45.63366562645631],[11.232184960448897,45.6328960255095],[11.232180465041369,45.63254057389779],[11.232042619655772,45.6323002414785],[11.23187308397875,45.63206952938091],[11.231608988987285,45.63171915157786],[11.231582268720844,45.63161166185708],[11.231514044592778,45.631347465424184],[11.23150600086317,45.63106409161478],[11.231652506523806,45.63079569859176],[11.231893372296964,45.63048045565795],[11.232025100332184,45.63024385472799],[11.23176760172991,45.62989784879571],[11.23125923769132,45.62953424197133],[11.230676292054438,45.62931160651995],[11.230497646696405,45.62860851661121],[11.230029858439295,45.62759799381698],[11.230004387147005,45.627543906952],[11.229981256470955,45.62749154848144],[11.229936355387617,45.62739534337992],[11.229510075511874,45.6266745857923],[11.229465864433744,45.625883359700346],[11.229420920527907,45.624750110433155],[11.22942089691284,45.62442688395767],[11.229420874574457,45.62410203814746],[11.22901919405568,45.623353794855696],[11.228362254042635,45.622961572239475],[11.228049632214663,45.622760648825356],[11.227671851287266,45.62245298461257],[11.227301906242163,45.62210016088079],[11.22728482293792,45.62207349446534],[11.227121929911949,45.62184714866383],[11.227153753507906,45.62150094489607],[11.227182438846182,45.621188894815674],[11.227272331632227,45.62094861449989],[11.22729368356514,45.620792787100804],[11.227319497056657,45.62060115546453],[11.227265717634229,45.61997213309997],[11.227202840315208,45.61966583570029],[11.22717829990712,45.61954628939848],[11.22710210153087,45.61924174143322],[11.227141083838768,45.61917347115251],[11.227237032266085,45.61900508406341],[11.227258215146742,45.61897316707339],[11.227599456954568,45.61868297791893],[11.228234772139993,45.618450057029584],[11.228287474613909,45.61839845414993],[11.228478635690802,45.61821127143932],[11.228594609784823,45.61808621062614],[11.228644710560573,45.61803250979749],[11.228850656367852,45.61780796510086],[11.228878158266147,45.61773778414714],[11.229092356412828,45.617191177391824],[11.228991068507437,45.6169387083122],[11.228861980994619,45.616718616837915],[11.228769953728886,45.616742914995534],[11.228645077610059,45.61677749799734],[11.228580833646808,45.616793837724245],[11.228397669952065,45.61684466639727],[11.228320760096256,45.6168901142549],[11.228193647209434,45.61696478985702],[11.228108808870672,45.61701761566155],[11.227928889296079,45.617123871086534],[11.227788835973431,45.61718682727705],[11.22760975058083,45.61741722603035],[11.22727411923842,45.61758971292765],[11.226689397967174,45.61777226281805],[11.226348157061103,45.61794690321665],[11.22608999602402,45.617956126538274],[11.225748244733095,45.61776824009744],[11.225692702025444,45.61769307544841],[11.225610081884444,45.6176632333663],[11.225518696469596,45.61763022446239],[11.225169766215544,45.617492707675304],[11.22515267880749,45.61746603650354],[11.22504259186104,45.6172830518914],[11.225011683903986,45.617233817851215],[11.224953671434918,45.61713687872574],[11.224904545405783,45.616867805121444],[11.224853640639402,45.61655376159956],[11.224718006317257,45.6162053645578],[11.224684024631953,45.61616546323143],[11.22434474229479,45.61576708616578],[11.223736344235403,45.615301882209195],[11.223194344230581,45.614974898219465],[11.222758962918357,45.61483035676525],[11.222555655179692,45.6147373725288],[11.222367194894606,45.61465346188786],[11.222237323066148,45.6145841968179],[11.221646680293162,45.614271437736356],[11.220880971750498,45.61380027803355],[11.220400780471392,45.6133325633845],[11.22021676926127,45.612976100478534],[11.220029370418919,45.61269621151838],[11.219978311254463,45.61245867704923],[11.220011982480182,45.612174489740156],[11.219940298194109,45.61173933395532],[11.219953857421448,45.61143303490774],[11.219789966102349,45.61109868278563],[11.219490424883212,45.610982991749545],[11.219274015159199,45.61078017469768],[11.218961888839328,45.610264180784974],[11.21878162289544,45.610002154151424],[11.218625392157875,45.60969915437534],[11.218462920779107,45.60948178605047],[11.217982930842343,45.609261584550154],[11.217706550533205,45.609082432125],[11.217488559054614,45.608839137417576],[11.217111096491836,45.60861694016346],[11.217712727448456,45.60826321937832],[11.218014288678331,45.60779556052512],[11.218075175993741,45.607698115506516],[11.21788624638561,45.60713472059557],[11.217758199580352,45.606489132913616],[11.217932719378233,45.60602208555069],[11.217973405561466,45.60591262763221],[11.217993089285365,45.60586013879776],[11.218014548186702,45.60580717172218],[11.21803892423534,45.6057464574336],[11.218150831775395,45.60550356974928],[11.218320432082507,45.60513705700094],[11.218386365127389,45.60453270658852],[11.218372384350344,45.60444092481702],[11.21829261942464,45.60391546429751],[11.218282881790953,45.603859638697934],[11.218787620898215,45.60365180925962],[11.219234712041018,45.60326543415266],[11.219722983618038,45.603027442862654],[11.219812778015841,45.60298380876514],[11.22067056444421,45.60294912359049],[11.221089849681217,45.60285095911836],[11.22166795062842,45.601903603488516],[11.222150988598594,45.601147117278984],[11.223141849379505,45.60123584182684],[11.223331018096378,45.60123665908923],[11.223744412324926,45.601233109378775],[11.22450785465522,45.601083222741856],[11.225570257296187,45.60103551664441],[11.226784634018832,45.601263868653284],[11.227918946374183,45.60173679903052],[11.228684890371081,45.60197387973186],[11.229369419400152,45.601985477542925],[11.22946181876931,45.60198661499873],[11.229584607108968,45.601988680178586],[11.229685734236293,45.601990344615395],[11.229874731556208,45.601944711351855],[11.230676593390903,45.601754965618404],[11.231458677561541,45.601518359330115],[11.232235105023992,45.60128345595117],[11.23314105609122,45.60107320200961],[11.233632735843406,45.60095908909222],[11.234779099248701,45.60076563785909],[11.235449597398157,45.60053648792683],[11.235635469103366,45.60032346220879],[11.23584511206317,45.600083188795914],[11.236274785951359,45.60001379989296],[11.236772040793436,45.59993452094576],[11.237169228165547,45.59992673950298],[11.237888517976145,45.59995764877773],[11.238570086235692,45.60000729529487],[11.239885557204872,45.60019752230313],[11.240612372935583,45.60041728923561],[11.24153496726077,45.6007232185238],[11.242166422772467,45.60094742817732],[11.242279604153111,45.60098763053123],[11.242673722822897,45.600500581855385],[11.24283373683788,45.60030234783048],[11.242957060029157,45.60014791545743],[11.243024964175111,45.600063882910185],[11.244476538532556,45.5990047397246],[11.244581163243224,45.598952229099424],[11.245516739614176,45.598482478070835],[11.245917966411684,45.59809429225861],[11.246181491658989,45.59754904595081],[11.246253523983144,45.59755577310771],[11.246718363643913,45.59758798850201],[11.24751570785662,45.597715819295736],[11.24855433881942,45.59811253877585],[11.248638245664264,45.59814426431246],[11.24882814098472,45.59776248020612],[11.248886504582106,45.597464726780046],[11.248934594989974,45.59722976492821],[11.248984011808268,45.59685030357222],[11.249095462994989,45.59611002194297],[11.249581090664538,45.59574941417932],[11.250231461703638,45.59534055212759],[11.250396433977429,45.59497725865098],[11.250091960840392,45.5946439537848],[11.249953885902821,45.594490922866036],[11.249929142619514,45.59421239006075],[11.250450652844137,45.59400857754434],[11.25058638793779,45.593956393299536],[11.25111869553345,45.593801882768425],[11.251613165076717,45.59356348105418],[11.25186086809639,45.593445207171015],[11.25230061205225,45.59322050852157],[11.252893144985718,45.5930375219638],[11.25361781649834,45.59281647519271],[11.254410323169596,45.59211674939897],[11.254699001805937,45.5922820697314],[11.254926908904917,45.59189052334421],[11.255040646016612,45.59177229849542],[11.255382156268881,45.59141347593115],[11.25588808130876,45.59102507304087],[11.25607862802089,45.590877654691916],[11.256571377915527,45.59069689774288],[11.257301201509968,45.59067346961389],[11.257616234529545,45.590877772025905],[11.257771728909935,45.59097819956847],[11.257880367083466,45.59104906396282],[11.25806058398276,45.591077199331785],[11.258130308984835,45.591087047506285],[11.258396388663689,45.59112886892911],[11.258386283598702,45.5908770390338],[11.258353263613227,45.59037363257909],[11.2587059897788,45.58989860038125],[11.25916715108357,45.58988947671563],[11.259488804147201,45.589997874586246],[11.259544061128231,45.59001703633554],[11.259914652855013,45.59029824931597],[11.26037115524459,45.590819761998326],[11.260606325480675,45.59104953423949],[11.260838300039891,45.59127856816597],[11.26133015323834,45.59139484202072],[11.26171723106241,45.59144994822189],[11.262216699919732,45.59152196727637],[11.262687529354675,45.591673983039954],[11.263153254660319,45.59209680421266],[11.263427188197333,45.59253242582165],[11.26388300986582,45.59302744839733],[11.264462966681979,45.59342099490525],[11.265062094355542,45.59376147276082],[11.265194813795848,45.59383739804268],[11.265337508431294,45.593919054301104],[11.265394618226091,45.59395157732323],[11.265932314505553,45.593931907581684],[11.266393640231902,45.59360771480286],[11.267004807128842,45.593820608173836],[11.267722814417361,45.594139388945145],[11.268142554629724,45.594374080237216],[11.268211262836816,45.59440871984169],[11.268464855428016,45.594536211703954],[11.268520057227951,45.59455811013621],[11.269395623841444,45.59492525067988],[11.269382696013638,45.595240545143945],[11.269687510928604,45.595486515998395],[11.270077355818467,45.595595514051716],[11.270530400890735,45.59572178642356],[11.271587459796715,45.59586278051939],[11.272084557967906,45.595789881847146],[11.272612990719052,45.5961754109791],[11.273338327335914,45.59667403199124],[11.274329722498738,45.59741037663443],[11.275105667097547,45.59755803001091],[11.275960333364813,45.597570677245464],[11.276137417192947,45.59757351824784],[11.276606110252287,45.597581035788295],[11.277935538501502,45.59779754827255],[11.278655113587332,45.59815223332944],[11.278815707894097,45.59807235761606],[11.278994473852332,45.59798344099328],[11.279098920791817,45.59798388821764],[11.280007327145515,45.5979812223589],[11.280355120072322,45.5977042450236],[11.280871647339792,45.59747790278074],[11.281525766667743,45.597482835366996],[11.282089429818756,45.597786606491134],[11.282074866162116,45.597982009475736],[11.282039185584745,45.598444686229236],[11.282064399723227,45.598750218569734],[11.282062230704305,45.5988819051],[11.282058871872497,45.59911175641487],[11.28205738064717,45.59920941326098],[11.282037912907699,45.599677856944815],[11.282051836841768,45.59976416131421],[11.282140686736966,45.60031487771203],[11.282634192609777,45.6009784349666],[11.282832426971867,45.6012461596678],[11.28290414136933,45.60138772656949],[11.283120614572626,45.60180078175251],[11.283138587922826,45.60183403702488],[11.283152746917871,45.60198080242968],[11.283200917395273,45.60242693090095],[11.283142150321726,45.60249455586209],[11.28296842612687,45.60270161135678],[11.28247671494989,45.603224501781575],[11.282148644789585,45.6036721104932],[11.282163240233091,45.604031860595],[11.282067258554548,45.6045108343578],[11.281916475280662,45.604725988823255],[11.281836942348592,45.60483947561039],[11.281775487131274,45.604930461940285],[11.281510317192586,45.60532305793432],[11.280743237855015,45.60601346174476],[11.280342949148928,45.606256716128705],[11.279579279500187,45.60672078482378],[11.2787338780836,45.60706169808029],[11.276556187788065,45.607438177498],[11.276683817493183,45.608056704612075],[11.276758372950885,45.608631284313425],[11.276659257795524,45.60877464730398],[11.276455491499084,45.60906937375863],[11.275963333971854,45.60950193273345],[11.275833714208428,45.6096158546435],[11.27563813303427,45.60978774759937],[11.275411219447234,45.60993700576445],[11.274877905413726,45.6102884593112],[11.27348430920634,45.61075776166627],[11.272887987057695,45.61088214114085],[11.272424201200865,45.61097655968666],[11.271884493653449,45.61108912914175],[11.27171611119794,45.61112269696883],[11.27160190353769,45.611146267571534],[11.27038631770166,45.61134661088502],[11.269622551824357,45.61147341150742],[11.269117534862678,45.611555708771135],[11.267559795852186,45.61204570852239],[11.26568576998387,45.612325938838545],[11.265598027607592,45.61247284060283],[11.265397409050063,45.612808715061384],[11.26493057777268,45.61363706987163],[11.264775792341899,45.61372705563169],[11.26469040632573,45.61377693479955],[11.264417530961289,45.613935286173756],[11.263619436966744,45.61439719365622],[11.263435977405667,45.6145025978479],[11.263338856877839,45.61455973576674],[11.262994269560389,45.614726895984106],[11.26262175490301,45.6149069859732],[11.262514901370578,45.615177001145064],[11.262482078705215,45.615260793742415],[11.262433976131245,45.615273524806874],[11.262152124416302,45.61534834109024],[11.262017432279569,45.61547556756941],[11.261901829753317,45.615582825746294],[11.261633032445276,45.615835678521655],[11.261536860229747,45.61631463778886],[11.261529355919013,45.61635987020146],[11.26152580170861,45.61639284589626],[11.26147624029454,45.616720884952976],[11.261215470158456,45.617014081728215],[11.260948652074738,45.617316398742176],[11.260536401464853,45.61790962847298],[11.259927391435854,45.61871377353292],[11.259113157957916,45.61944394444995],[11.258974117726263,45.619569732988396],[11.25822282383093,45.62066471657284],[11.258169359672362,45.62095611481671],[11.25813834936273,45.621116438889274],[11.258143904890607,45.62159846503057],[11.258146122554617,45.62162934260475],[11.258104898954741,45.62201259960927],[11.25806782787787,45.62235451348127],[11.25805262807173,45.62249528950861],[11.257971150783307,45.62285723939266],[11.257932948019322,45.623028716620595],[11.257682136129143,45.6233111543117],[11.257586779155638,45.62341860173461],[11.257478921622557,45.623541751082826],[11.257231283905796,45.62373610250695],[11.257049424598796,45.623878571577386],[11.257005390256602,45.62391274240264],[11.25675751814278,45.62410507397467],[11.2566621756495,45.62421247891825],[11.256082494111475,45.62486549786841],[11.255560205026033,45.62527667497975],[11.255418974460296,45.6253885758527],[11.255286676024745,45.62549328828384],[11.255198773103123,45.62552232564331],[11.254562223665982,45.625738946182146],[11.253451472811326,45.626114588158075],[11.25307635613144,45.62640542921498],[11.252891589609227,45.62654868433808],[11.252818080181001,45.62695518053881],[11.252891343360078,45.62750279631478],[11.252837141552188,45.62807092910819],[11.25255744765835,45.62845448964637],[11.252248302580192,45.62906365639194],[11.252111086278969,45.62933662016531],[11.252010661143112,45.62953639589194],[11.251878898784222,45.629695742845705],[11.251581850662859,45.63005250579935],[11.251508856201834,45.63014035816242],[11.25073062867974,45.630569747526906],[11.250452928493765,45.630548543687816],[11.250151595397352,45.63052715411722],[11.249552183859114,45.63029593760131],[11.24906720879185,45.63035949757764]]]}}]}
