{"type":"FeatureCollection","metadata":{"code":"027040","referenceDate":"2026-01-01","sourceDbfExportDate":"2026-02-18","upstreamArchiveUrl":"https://www.istat.it/storage/cartografia/confini_amministrativi/non_generalizzati/2026/Limiti01012026.zip","sourceManifestSha256":"70ac8256c4785dc6ed2814c32b6965ae76f9161b51abaa1660059e1c6cbd8ca6","license":"https://creativecommons.org/licenses/by/4.0/","attribution":"Istat, Confini delle unità amministrative a fini statistici al 1° gennaio 2026, versione non generalizzata.","modifications":["Converted from WGS 84 / UTM zone 32N (EPSG:32632) to RFC 7946 WGS 84 geographic coordinates.","Converted from shapefile to per-municipality GeoJSON without geometry simplification."]},"features":[{"type":"Feature","id":"027040","properties":{"code":"027040","name":"Teglio Veneto","alternativeName":null,"regionCode":"05","regionName":"Veneto","territorialUnitCode":"227","territorialUnitName":"Venezia"},"geometry":{"type":"Polygon","coordinates":[[[12.872405767844318,45.83248192715853],[12.87231914278336,45.83261111450096],[12.87229413999348,45.832649373886696],[12.871588166790351,45.832873620108266],[12.871000995029787,45.833073762118325],[12.87095021219242,45.833136948891145],[12.870812337010085,45.83337430945309],[12.870646088210009,45.833429138540545],[12.870496183373143,45.83348001407282],[12.870420663603124,45.83350527523526],[12.86967133544591,45.8337573879738],[12.86966452983254,45.833699412564066],[12.869660734526741,45.83366222863007],[12.869662885458489,45.833607954971555],[12.86948626665913,45.83316737066872],[12.869443475390689,45.833057715678464],[12.869375314472498,45.83288573807408],[12.869309339776756,45.83272070811709],[12.86925513545287,45.8325879352888],[12.869242413329813,45.83255713528674],[12.869169978075867,45.83245589440209],[12.869079127308595,45.832332224113465],[12.869010938080459,45.832236438779894],[12.868329482362446,45.83179652070412],[12.868150986481501,45.83168136782814],[12.867821897124811,45.83146919245784],[12.867607763244965,45.831331655650565],[12.867482906507318,45.831251995157366],[12.867414211712683,45.8312078163686],[12.867187939216398,45.831058867165794],[12.866899011353706,45.83087026474563],[12.866556289256053,45.83064742768925],[12.86626062791064,45.830455188531566],[12.866182888436867,45.83040685090531],[12.865927780314586,45.830248226119636],[12.865581095698163,45.83003265834506],[12.865484894214246,45.829943771577604],[12.865302115631481,45.82977489436241],[12.865247487621042,45.82972442022238],[12.865187317393056,45.82963132951541],[12.865092798962483,45.82948796505004],[12.864927124105948,45.82923571117631],[12.86468485795658,45.828850499746885],[12.864514925015705,45.82858035289802],[12.864297859609572,45.82823764760485],[12.864232097377295,45.828121839534965],[12.864077062478332,45.82785281214617],[12.86397551256687,45.82767683950484],[12.863840439395258,45.827443037920254],[12.863573971623246,45.82698850364966],[12.86351122215162,45.82647075343119],[12.863508096882034,45.82630637851928],[12.863500846682458,45.82598521904768],[12.863497629445028,45.825856644119916],[12.863491155706578,45.8256073815417],[12.863414514136252,45.8254057710841],[12.863399514959779,45.825365129099424],[12.863205633652584,45.82506348226972],[12.863109397462035,45.82494894752538],[12.862920446911387,45.8247240692238],[12.862725223132138,45.82449172317047],[12.862595267484798,45.82433705369335],[12.862404903096413,45.82403568967167],[12.862298998877753,45.82386553095963],[12.862278479689525,45.823818781150095],[12.86216823639728,45.82358175344765],[12.861885396506679,45.822963656699095],[12.861507818280183,45.82225184530307],[12.860888491677652,45.82139519418603],[12.860860006570576,45.821355653612386],[12.860515604352846,45.821169282143906],[12.860427509959669,45.82115201116806],[12.860231745968576,45.821113628932586],[12.859918939047601,45.82115121584765],[12.859870567453639,45.82110334571961],[12.859769363352884,45.821054349251376],[12.859724615811439,45.82103291181021],[12.85966459361157,45.82100535630231],[12.859377639574255,45.820863489538326],[12.85926737796483,45.820847196148776],[12.859219218264046,45.82084016424157],[12.85908455096234,45.82082032342987],[12.859044474986826,45.820813350163846],[12.858985567161605,45.82080434859279],[12.858893415687756,45.82078887797871],[12.85885321827597,45.820789899121735],[12.858794564479428,45.820791378863404],[12.858734093261681,45.82079193351086],[12.858681581868053,45.820793287359415],[12.858528336804131,45.82079456995048],[12.858357726339275,45.82079572400814],[12.858273534365017,45.8207976827833],[12.858235980852594,45.820798047222226],[12.858194606984755,45.820798885587166],[12.858139907222899,45.82079761822877],[12.858079260472776,45.82080051157606],[12.858014620323962,45.82079627775738],[12.857945060362663,45.82071466399087],[12.857875561628859,45.820633895124544],[12.85784592875894,45.82059817851509],[12.85779165822004,45.82053342808543],[12.857758317546457,45.820492756546315],[12.857674987491768,45.820396757134105],[12.857666717622115,45.82025604369272],[12.857662627089194,45.82019377395208],[12.857640324891328,45.81991302886522],[12.857587127204306,45.81912642192828],[12.857582910527695,45.819065451716895],[12.857257665570177,45.819117572078994],[12.857162806724586,45.81913366251308],[12.857167401410315,45.81909552029054],[12.857259146456215,45.818429837110536],[12.857287578486606,45.818351912846985],[12.858507879823977,45.81838197477248],[12.858421077241438,45.81773644545373],[12.858437680652242,45.817531372022025],[12.858455942272201,45.81730996202081],[12.85846226175386,45.81721523652489],[12.85878353235038,45.816090322032],[12.858827649750449,45.815726047870015],[12.858849230555201,45.81553394325038],[12.859041263997431,45.81521090066711],[12.859055146152793,45.81499019402179],[12.859057397272474,45.8149531967179],[12.859059712301574,45.81491961681155],[12.859063760114351,45.81486227630943],[12.859066224577958,45.81481853798373],[12.858112593787093,45.814625730327634],[12.8582501477041,45.814148518770324],[12.85859400680601,45.813443801086756],[12.858955294493876,45.813316817008506],[12.859081114882676,45.81315781599988],[12.859295613377665,45.81288675201158],[12.859286250330209,45.81242576024598],[12.85914495725422,45.812273659322344],[12.858882938219532,45.811991595576934],[12.858787559470159,45.81186880278386],[12.857968383705586,45.81081862103655],[12.85761678498438,45.81010816884435],[12.858308397436032,45.81010503457672],[12.858344491622109,45.810050316118165],[12.858372508231893,45.810008355504955],[12.858474465241171,45.80985413886988],[12.858590224182878,45.80951788466333],[12.85863427375847,45.80938732645839],[12.858764110527462,45.809008635866036],[12.858854576909987,45.80874315464132],[12.858910181134306,45.80861725158418],[12.858924077306902,45.808584468103994],[12.859156203000287,45.80805117688441],[12.859258439453086,45.807821708892995],[12.859256450736398,45.80777330281797],[12.859255997447558,45.80714987413114],[12.859250536606254,45.806633712172335],[12.859243237698596,45.80608141936933],[12.859228868726369,45.80599842993377],[12.85921309659061,45.80590458568532],[12.859944888491448,45.80596241026804],[12.861631788773249,45.806097359049744],[12.861933221130423,45.80594313730443],[12.863341983588711,45.80509883825684],[12.863698625569858,45.80550981545382],[12.863822096760408,45.80558424248461],[12.864101543448259,45.80575269445358],[12.865767312308156,45.80516407569471],[12.866017361195174,45.805075716940536],[12.868013252854466,45.80666877787754],[12.866577986388641,45.80819812011377],[12.867137898220356,45.80903425121806],[12.867488479592327,45.80856780953718],[12.870379389818307,45.80900534095876],[12.870822321728813,45.80908507872827],[12.870887656388897,45.809096110910076],[12.87069450772034,45.80928043631304],[12.870596838162017,45.809452150103574],[12.870379381513887,45.809840197879346],[12.870327063923,45.810292029962625],[12.870311769902534,45.81076736117486],[12.871138853567075,45.81135257669327],[12.8715578179194,45.811600444866855],[12.871648630706233,45.8116540545903],[12.871792177658621,45.81173913682369],[12.871925999952857,45.81181747935566],[12.872329100045768,45.81205794131603],[12.872440925423712,45.812124296726836],[12.873865918307633,45.811717868835935],[12.874134772838932,45.81155797009609],[12.875657621187939,45.81022583290362],[12.876461427687873,45.80966070491518],[12.877464003149313,45.80913157165943],[12.877586070865007,45.80902724833936],[12.878196773046964,45.80851708854135],[12.87843924987917,45.808209556934784],[12.878358239797677,45.80778475645186],[12.878171722397061,45.807230774427886],[12.8781709112085,45.80703848909327],[12.878169430755747,45.80668853319068],[12.87829321838491,45.80634003115021],[12.878555638289741,45.806088078008635],[12.879596369597841,45.80610894889529],[12.880268127076153,45.8060523488538],[12.880337410501378,45.80602687096056],[12.880553947869814,45.80594738266941],[12.880719649882334,45.80588705943219],[12.880503499388636,45.80555128681746],[12.880476396083692,45.8055136267462],[12.880407579312099,45.805475528510534],[12.880134036404595,45.80532448520379],[12.879946528420545,45.80522167830012],[12.878675811421408,45.804484036665635],[12.878569126166779,45.804384150465644],[12.878824358493143,45.80402892870419],[12.878845425571651,45.80395058858274],[12.878919713958183,45.803681684170904],[12.878929577440397,45.80364504057299],[12.878952133854991,45.80327522611504],[12.879367113961855,45.80304283721965],[12.879855719271958,45.80299021691205],[12.880378939258772,45.802880160411654],[12.880805844342344,45.80286563858791],[12.88104750335846,45.80254687836698],[12.881288059356635,45.801472055629525],[12.881337733656718,45.80126109072034],[12.881450127892627,45.800980480930434],[12.882152600262154,45.80091818539146],[12.883456705709873,45.80156702758672],[12.88372653448371,45.801699610840664],[12.883808382993896,45.80195110742397],[12.88367429745579,45.802844536926116],[12.883783772201895,45.80316935228504],[12.883914450672503,45.80323559473158],[12.884944388644184,45.80375766723148],[12.885270240245687,45.80391211402501],[12.88565309430669,45.80409357720927],[12.885705588114895,45.80410906267257],[12.886021196527382,45.804204805444],[12.886390484590274,45.80447903491686],[12.886836928505803,45.8045508478449],[12.886944156341865,45.804566545460204],[12.886992733877499,45.80455502505914],[12.887509923165624,45.80442187037258],[12.888300352181645,45.8041293992067],[12.888392738636384,45.80405997440151],[12.888783416976374,45.80376638882278],[12.888886019709288,45.80372466770366],[12.889022736341191,45.80366907477068],[12.889218319087181,45.80358954253559],[12.889880332493306,45.803393699669854],[12.89057865912144,45.803441898077836],[12.890750341167742,45.803550807984756],[12.89108204349151,45.80364750727449],[12.891137071225991,45.80364641805936],[12.891178815650756,45.80364423546718],[12.891289433021099,45.8036422159754],[12.891461117334451,45.803639080134644],[12.891685804455722,45.80363141584822],[12.892002871574855,45.80347208025429],[12.892246763164763,45.803468100094626],[12.892382096238737,45.803465889803995],[12.892446689525324,45.803463761599296],[12.892523936272589,45.80346369767248],[12.892566674855361,45.803460493215695],[12.892619775845448,45.8034600324997],[12.892993365143855,45.80346528742819],[12.893206705392071,45.803435966017716],[12.893496124270007,45.80339205549385],[12.893537474856938,45.803424224268554],[12.893883988561573,45.80368693536345],[12.894373926601347,45.80397625212959],[12.895035472500066,45.8041426920067],[12.89547427771591,45.804114207912804],[12.896153982370222,45.80417200649517],[12.896626543408896,45.804304386393255],[12.89718241298257,45.80452392992539],[12.897828089467707,45.804785407698574],[12.898084907636514,45.804924470093866],[12.89838319041831,45.80508598090191],[12.898526879947061,45.80516140230982],[12.89869716459294,45.80525078202278],[12.900343106772217,45.80665721066079],[12.901090344530918,45.80726624296254],[12.901458716086239,45.80774871008629],[12.901642519222117,45.808030461811676],[12.90183759461945,45.80828932374304],[12.902100153666533,45.808500871952255],[12.902440053488334,45.80862201296562],[12.902762978704375,45.808822493499356],[12.903598418682495,45.80898968568287],[12.90452141180738,45.80921238328732],[12.905404945692176,45.80910113023303],[12.906023701257292,45.8087469034218],[12.906801128953767,45.80831523071933],[12.907373145172018,45.807753320262556],[12.907571194267739,45.807640773408835],[12.907886362754578,45.807776246196894],[12.908460310661368,45.80797711297248],[12.908551667229366,45.80800076449044],[12.909325364425511,45.808199505357216],[12.910053465775087,45.808350076394724],[12.910258874799203,45.808390478964306],[12.910754947601145,45.808488052534834],[12.914663280355363,45.809204618375595],[12.91559025263459,45.80948334650652],[12.916053760311083,45.809485438669945],[12.916349179745927,45.80915575669506],[12.916420817528286,45.8086177277223],[12.916417796201143,45.80797874840647],[12.916531535733652,45.80739876932016],[12.916910947166102,45.80689067823115],[12.917184878970106,45.80699002215062],[12.91736516481733,45.80705515929409],[12.917410377586561,45.80707210792494],[12.917465683708292,45.80709155163771],[12.917533769703027,45.807115915810414],[12.920740736440456,45.80827581879514],[12.920845478383985,45.808309620986726],[12.921375010863553,45.80848050784044],[12.921547373492661,45.80853613086628],[12.919891043856248,45.811432923034886],[12.919597192433814,45.81205959910104],[12.919649808155443,45.81207578753025],[12.919750445252268,45.81210581262699],[12.923843520282862,45.813367310455014],[12.925383738122429,45.811383574477944],[12.928808677580962,45.812998400900014],[12.92949075582028,45.81336195887304],[12.930071160380276,45.813652505790714],[12.930391807774285,45.81400150594398],[12.931109130220715,45.81445385231207],[12.92902821977887,45.817050299952335],[12.929005918817092,45.81707813648701],[12.929495523158936,45.817351083562684],[12.929474444230227,45.81737930745578],[12.929422769055213,45.817448690158955],[12.928832296970048,45.81824142541715],[12.928718959978678,45.81839356608692],[12.928552388318876,45.81861934171182],[12.928407643760115,45.81881552915477],[12.92741745599973,45.82015759397782],[12.927375149014152,45.82022660731167],[12.926924218613276,45.82096217829914],[12.926849551817742,45.82106916710391],[12.926832855213714,45.82109304057899],[12.926806435279556,45.82113087028386],[12.926790335291974,45.82115392930884],[12.926038752128623,45.82223031837915],[12.925361377867077,45.82306174247601],[12.925163544946452,45.82330456216603],[12.92480629481455,45.823841793488356],[12.924758441942664,45.82391325501143],[12.924699960988713,45.8240011259139],[12.924603775700714,45.82414578727691],[12.92449465290647,45.82430862510864],[12.924470089789635,45.82441810491437],[12.924171023422964,45.82575102175932],[12.924016409602993,45.82620896262656],[12.92400420076559,45.82624519750781],[12.923760846726001,45.826965912294],[12.923734384643407,45.827044285096854],[12.923636009085625,45.82733562647145],[12.923480581047702,45.82752778673654],[12.922853429412948,45.828303132236265],[12.92201105265399,45.82944826050587],[12.921384257722138,45.8304670755093],[12.921368961342248,45.830491942363345],[12.921067476627139,45.83079079261856],[12.921020599499961,45.830837257695535],[12.920994172060295,45.83086345218612],[12.920513095474496,45.831340261311055],[12.920229953516621,45.830957580282224],[12.920201501694624,45.8309191353148],[12.919848345557964,45.83044036601108],[12.919359589913276,45.82977786585859],[12.918238946570316,45.828539319799305],[12.91821736567725,45.828515628979346],[12.917582142730804,45.82781337930854],[12.916899187329976,45.82705851183417],[12.915274810431919,45.82494981693253],[12.915047141728422,45.824654267290086],[12.915021273697352,45.824620688421795],[12.914979966217947,45.824741024633454],[12.914896179309682,45.82495787679273],[12.914880037422789,45.82499885427476],[12.914757899507743,45.825326093694315],[12.914747999231645,45.82535269356481],[12.914266918643417,45.8266415889498],[12.914219717392099,45.82676797065886],[12.913643906890526,45.826648199625055],[12.91284241967908,45.826468277879265],[12.91183300269601,45.82623644844476],[12.911108978311287,45.826070673584816],[12.911068300929541,45.8260612036053],[12.910921678900506,45.82633982099251],[12.91054446241218,45.82705659876168],[12.910421791469656,45.82728968636386],[12.909945172295135,45.82819532022581],[12.90966988201857,45.82813760275493],[12.909613939079513,45.82812502520112],[12.909575093126463,45.8281169213192],[12.909438226547126,45.828088373536296],[12.90936632496893,45.828073544238215],[12.908370140545195,45.82782817618571],[12.907808991107903,45.82910652327948],[12.907734415092282,45.82908505434961],[12.907439092204662,45.82900004006816],[12.907251112414098,45.82894598187066],[12.90526371737705,45.828361989632775],[12.902993425535309,45.827694809790636],[12.90204079811758,45.82710413725726],[12.901457258512405,45.82616545047624],[12.901445001477649,45.82571682700499],[12.901441500373778,45.82558995671205],[12.90143046758498,45.82553310878314],[12.901366687970736,45.825204515921534],[12.901356831869508,45.825153718866865],[12.901334950886186,45.825040980704905],[12.901311327920526,45.82491931529403],[12.900841387569242,45.82453912293523],[12.900790681103746,45.82450191560737],[12.900623196190947,45.82444554981497],[12.90026473153424,45.82432498223606],[12.900084765889511,45.82426957609669],[12.899543454316529,45.82410211535143],[12.899616075995201,45.82346054867419],[12.899876016877695,45.82269977836074],[12.899572743800109,45.82259555122916],[12.899337989278035,45.82251481043832],[12.898795636162092,45.82231393772654],[12.898250970630313,45.82214555032177],[12.898016656691185,45.82207343382067],[12.897420407827232,45.82188802023811],[12.896932359672029,45.82166651956183],[12.896350681693333,45.82145650102191],[12.896238430400143,45.82141567867187],[12.896081489766718,45.82140612957292],[12.896025509225401,45.821402730571585],[12.895861382795914,45.82139276316993],[12.895603499847999,45.82135702203942],[12.895544770948637,45.821348888394304],[12.894827473334027,45.821058361958514],[12.894407760139705,45.820820056214416],[12.894125859970055,45.82069922847043],[12.89383190630513,45.82059190278468],[12.893550317290554,45.82047212243973],[12.89368276784496,45.82022162501578],[12.893811942389041,45.81997732586182],[12.893660925628808,45.81990033936697],[12.89325031379271,45.81968932636452],[12.893135250151902,45.819689094298894],[12.893052453884971,45.81968841543973],[12.891678338614396,45.819892648568],[12.890061131659067,45.82047459267813],[12.89007490427202,45.82052463518678],[12.890546215003756,45.822010709832924],[12.890565041412861,45.82207003210974],[12.890620703600325,45.82224541823103],[12.890865538858764,45.82301671767297],[12.890843145578582,45.82308540631913],[12.890675761374284,45.82359930505799],[12.889977058433917,45.82372966681479],[12.889938816720962,45.823736802587796],[12.889451273018693,45.82382776123659],[12.889413868750127,45.823834741365964],[12.889317958776845,45.82385263347693],[12.88878421735675,45.82394761067689],[12.888622504802177,45.82397654108755],[12.888536170404056,45.82399221680767],[12.88848849148862,45.82400090691014],[12.888174323777868,45.82405817752777],[12.888123482495251,45.82407316088319],[12.887804092460362,45.824168055287835],[12.887754543927828,45.82418199078979],[12.886313491473151,45.82459350619908],[12.886061972762555,45.82466545924333],[12.886026006688976,45.82467594654684],[12.885816258564434,45.82484149034001],[12.885765845198756,45.82488124019246],[12.885588706830722,45.825017080557245],[12.885295904456544,45.825245381117455],[12.885187730790316,45.82533115953455],[12.885137456677867,45.825371109590314],[12.885076153424405,45.8254197577166],[12.88491181002942,45.82554880555294],[12.88487022393846,45.82558177535102],[12.884837283323412,45.8256075558225],[12.884567111928215,45.8258192615519],[12.884192457595196,45.82593751420408],[12.883927770566233,45.82602105701552],[12.883685761572165,45.82619953707293],[12.883220524870467,45.826133307308496],[12.883068577972113,45.82611187319985],[12.882940969835234,45.82609387261286],[12.88280659830615,45.82605070335513],[12.882676901629596,45.826009120179144],[12.882388784123174,45.82591834550014],[12.882342694336353,45.82589939384333],[12.881823567782007,45.8257145272171],[12.880669142786093,45.82532400850831],[12.88049705821235,45.82526067572464],[12.880233490541817,45.82516329891241],[12.87980769252443,45.82501222857941],[12.87973969325242,45.82498810264236],[12.879271691854154,45.824822077871715],[12.878944934831212,45.82477185625926],[12.878733777911238,45.8247394001927],[12.878495041077233,45.82470714952294],[12.878276759535938,45.824676263389314],[12.878232186314477,45.824669956519294],[12.878033448048525,45.82464183504608],[12.876902541747198,45.82480704495133],[12.876829055973852,45.82481777996195],[12.87686051319082,45.825310085141076],[12.876866926196943,45.82541040439191],[12.876880563195016,45.825623854651596],[12.876900851183999,45.82594106082396],[12.876903166825684,45.82597725699393],[12.876947621575615,45.82667236763371],[12.876966294898988,45.82696438925507],[12.876962245028855,45.82737465235436],[12.876961885514561,45.8274111104472],[12.876957561139704,45.82785488533756],[12.876951872171619,45.828369103191456],[12.876947765311195,45.82881929750801],[12.876985779440131,45.82949877749314],[12.876993311843634,45.829627806699094],[12.876128128915134,45.829659599960124],[12.875524066841304,45.829681795071615],[12.875369126419237,45.82968748836883],[12.875006081631607,45.82992344895413],[12.87491797914442,45.82998097503528],[12.874875862270429,45.830008475643076],[12.874510423154948,45.830247839193326],[12.874474529482583,45.83027041978337],[12.874384987265742,45.83032864422698],[12.874195370317004,45.83045194042081],[12.874658087264077,45.831088785184676],[12.87461279663728,45.831129050062295],[12.874431550067655,45.83129003933463],[12.873835705594821,45.83132461736729],[12.873785574291302,45.83132752567159],[12.873684075558153,45.8313334165879],[12.873436608763045,45.8319079236963],[12.873416701304972,45.83195413932783],[12.873373230575908,45.832055057707976],[12.872717832491297,45.83201429808202],[12.872405767844318,45.83248192715853]]]}}]}
