{"type":"FeatureCollection","metadata":{"code":"028080","referenceDate":"2026-01-01","sourceDbfExportDate":"2026-02-18","upstreamArchiveUrl":"https://www.istat.it/storage/cartografia/confini_amministrativi/non_generalizzati/2026/Limiti01012026.zip","sourceManifestSha256":"70ac8256c4785dc6ed2814c32b6965ae76f9161b51abaa1660059e1c6cbd8ca6","license":"https://creativecommons.org/licenses/by/4.0/","attribution":"Istat, Confini delle unità amministrative a fini statistici al 1° gennaio 2026, versione non generalizzata.","modifications":["Converted from WGS 84 / UTM zone 32N (EPSG:32632) to RFC 7946 WGS 84 geographic coordinates.","Converted from shapefile to per-municipality GeoJSON without geometry simplification."]},"features":[{"type":"Feature","id":"028080","properties":{"code":"028080","name":"Santa Giustina in Colle","alternativeName":null,"regionCode":"05","regionName":"Veneto","territorialUnitCode":"028","territorialUnitName":"Padova"},"geometry":{"type":"Polygon","coordinates":[[[11.898142012827194,45.61306059246017],[11.89810733446388,45.61309064491641],[11.897429891631905,45.61276242250067],[11.896903816565738,45.6125091176406],[11.89667364168847,45.6123979445415],[11.89656519118929,45.61234668954093],[11.89583258176855,45.61200523420508],[11.894972549617599,45.61199104624963],[11.89440110028112,45.6118525188922],[11.893541387445033,45.611595281631665],[11.893024880543287,45.61152736411056],[11.892376127196579,45.61138178469268],[11.891683951704579,45.61213741550399],[11.891075932076003,45.61203580270728],[11.890435627838466,45.61230405037867],[11.890390335524895,45.611423086758386],[11.891044363269058,45.61117249409619],[11.890488711504299,45.61059249211715],[11.890337817035961,45.61027677257949],[11.89021531494159,45.61001434198002],[11.890031612880932,45.60949692674559],[11.889488417808522,45.60796344253078],[11.889478653408078,45.607938689788305],[11.888907643679628,45.60632099832867],[11.888875303404678,45.606211532355324],[11.888787884600378,45.60591835428339],[11.888305934814314,45.60430194918445],[11.888267859822843,45.604309663539105],[11.88760893520531,45.60446360243854],[11.887447263767147,45.60424222303991],[11.88725010675787,45.603968615932224],[11.88667322001832,45.60372217470506],[11.886621352127902,45.603700458657386],[11.886520557412629,45.60365533730011],[11.886003923153508,45.603424059890195],[11.885654339373195,45.60310885680734],[11.885382775839103,45.60316812058789],[11.885328589089717,45.60318124501244],[11.885286632915665,45.60319016182924],[11.885180428188994,45.6032660612764],[11.884816575977576,45.60352608341929],[11.884328536518911,45.60375452496024],[11.884054245963249,45.60379365758108],[11.88394627232419,45.60380910979536],[11.883398536014704,45.60438101751967],[11.883926493624761,45.60467371844034],[11.883750195240177,45.604869321204355],[11.883611024565447,45.60502373147272],[11.88337465006948,45.605290735743324],[11.883195245066755,45.60549642903847],[11.883029461219754,45.60568650296905],[11.882747891226161,45.60619767798802],[11.882492157227647,45.60648826908178],[11.88238737301764,45.60660733395623],[11.882311703655445,45.606694755228126],[11.882297076363477,45.60672212818114],[11.882096871356127,45.60707322638952],[11.882058389445003,45.60714071238254],[11.882031174194449,45.60719039306],[11.881995822421203,45.607224797111],[11.881897850268263,45.60734009894737],[11.881581573705226,45.6077123154458],[11.88139618533106,45.60734794913065],[11.881180402085075,45.60715638688727],[11.881033332884636,45.60702406668761],[11.880948568682255,45.60662115589015],[11.880542784440076,45.60646037518572],[11.880186388753163,45.60626234293681],[11.880104061311512,45.60628242266858],[11.879933398172888,45.60632796684236],[11.879768804865554,45.60637189132745],[11.87966596672766,45.6066175172313],[11.879521745615323,45.60677976029338],[11.879338573069543,45.60698582153849],[11.879066514639378,45.60677947359622],[11.878951151780676,45.60669206624746],[11.878924975768062,45.60667221993361],[11.87890821666901,45.606470116605294],[11.878905110152777,45.606409437779064],[11.878882713558413,45.60609721286315],[11.878849188065875,45.60598405015913],[11.878774192143041,45.6057309034982],[11.878758504463187,45.60567503986459],[11.878680780582641,45.60540921893716],[11.878424940478027,45.6049206085842],[11.878313062901425,45.6047914830393],[11.878043334274292,45.604480174788144],[11.877571551980772,45.60378098009121],[11.87712907477583,45.6031530543251],[11.876763674478461,45.602527681253605],[11.876536813081875,45.60214057179849],[11.87650376079439,45.6020841769071],[11.876412917645755,45.60193098933193],[11.876220469650736,45.6014342306709],[11.876087056496113,45.601082050280056],[11.876060396074442,45.60101409057275],[11.876039436464636,45.600962699750326],[11.876027203225151,45.60093270543781],[11.875704912752383,45.600128558826704],[11.875578564936333,45.59966368293099],[11.875743157348364,45.599593120900266],[11.876381603518157,45.59931940783317],[11.87710542806966,45.59868008667489],[11.877012658234907,45.598131633109475],[11.876735009737967,45.59745097300381],[11.876719989987581,45.597411637318146],[11.876704702137964,45.59737410412792],[11.876689115714804,45.59731952477317],[11.876414708079807,45.59645621694186],[11.876571850383124,45.59576816947757],[11.877092656684153,45.59542200114748],[11.877418845497798,45.59498996307874],[11.87777551515347,45.59451754663786],[11.878173365363994,45.59399057665924],[11.878254573550537,45.593322443745826],[11.87855398900005,45.5929098413378],[11.87857898987675,45.59239614529642],[11.878447118635203,45.59182339773049],[11.878628989716304,45.59136875403997],[11.879056510206397,45.591204951575804],[11.879531564202384,45.590967939535915],[11.879914225927168,45.59067924939122],[11.880429063198124,45.590468232556894],[11.880539531034636,45.589871369022305],[11.880422209951378,45.589082228024026],[11.880125644504634,45.58829761071112],[11.879572103007716,45.58750147339536],[11.879331447560254,45.58705748702003],[11.879287759071689,45.58701807820291],[11.879255531396481,45.58698934015317],[11.879100722694503,45.58685128869377],[11.878968732728161,45.58673358661053],[11.878483450124877,45.58629934809392],[11.87843132295788,45.58625208036144],[11.878353513031712,45.585984007724235],[11.878667148162007,45.58585008205662],[11.878580988097838,45.58516816755493],[11.878354533343726,45.584750823631666],[11.878095650822718,45.584451312808675],[11.878303180042204,45.584248053746904],[11.87914477712053,45.583659755569506],[11.878183221016354,45.58179648349694],[11.877764580933531,45.58098521276676],[11.878185285644502,45.58089649242304],[11.878266437848414,45.580879378009286],[11.878722031431574,45.580783292310485],[11.87878323187011,45.58077024430922],[11.878829809852848,45.58076031855341],[11.878312599472798,45.579585035475255],[11.878280388511596,45.57951183423635],[11.878148139846324,45.57921130917265],[11.878097296562235,45.579156948312054],[11.87790936765108,45.57894565012909],[11.877856713218858,45.57888202935446],[11.877777193073374,45.57879891325299],[11.877734701900573,45.57875020325166],[11.877660332414893,45.57866548370748],[11.877627277305532,45.57857371151895],[11.877616102901737,45.578535003511476],[11.877553098002737,45.57835319725695],[11.87763998943707,45.57834155445866],[11.878122447994535,45.57827690929209],[11.878285676708838,45.578255037460714],[11.878380580482325,45.57824232163169],[11.878842374467103,45.578248864984864],[11.878914431230067,45.578240776404876],[11.879078140269757,45.57822161239477],[11.87939719921266,45.57818422994243],[11.879441238243013,45.57817956439064],[11.879697701411473,45.578119086012485],[11.879885001759867,45.57807824296573],[11.880086274441878,45.57801026929077],[11.880130388687547,45.57799565431449],[11.880388900570528,45.57791262140557],[11.880423632419717,45.57786820507586],[11.880511830841046,45.577747497893],[11.880712906960513,45.57748138936457],[11.880803358831406,45.57730210176853],[11.880910739090847,45.577089346003675],[11.881254439749464,45.576792632868006],[11.88139520684173,45.576663063046965],[11.881549178357302,45.57652584259474],[11.88160379109281,45.5764911718927],[11.88168478332778,45.57644270777244],[11.881983452959492,45.576261161405085],[11.881751839388858,45.575885211164824],[11.881633981962029,45.575693909470544],[11.881525737429616,45.57557049980855],[11.881433703421022,45.5754642467233],[11.881320712381507,45.57533277456554],[11.881157312627852,45.57503680079981],[11.881080562764579,45.57489778057661],[11.881007792739215,45.57458609807438],[11.88096565668602,45.57440561660992],[11.88078905284577,45.5739600158792],[11.880474791247682,45.57332886383602],[11.88028815446006,45.57293752198622],[11.879892659357392,45.57272247233573],[11.879353223930014,45.572700077569586],[11.879129648743863,45.5725887021647],[11.879011678921671,45.57252959539317],[11.878528373983237,45.57210880294796],[11.878354945939895,45.571474094047524],[11.878001408742076,45.57082592297103],[11.877436392656445,45.57080416414579],[11.875578652489393,45.566800454127126],[11.875201984495694,45.566701929025186],[11.874296577523161,45.56491184521426],[11.87415791372856,45.56463769627069],[11.874019023558613,45.564364407068055],[11.873613067737795,45.564334540258486],[11.873513295120874,45.564329329039055],[11.873292717243459,45.5643147857589],[11.873033249000061,45.564296761754264],[11.872964535950755,45.56429194110936],[11.872690781700257,45.564271771763366],[11.872308511598755,45.56424319444224],[11.872244180851816,45.56423806415597],[11.872095372323239,45.564228783898834],[11.872038499869298,45.56422523996976],[11.870897180372824,45.564208947220045],[11.870669600531526,45.56422761405059],[11.870105984080592,45.564273848442504],[11.869582177966828,45.56430502104388],[11.869573896931188,45.56385917161385],[11.86956747037894,45.56351329018145],[11.86984392689498,45.56290325961678],[11.869943990588165,45.562603705202896],[11.870197524529543,45.56189155482244],[11.87028037483354,45.56165906916368],[11.870548715901446,45.56146694736396],[11.870692077909391,45.561364313674055],[11.870762422456021,45.56131395660281],[11.870573146074817,45.56086865811762],[11.870150745822373,45.56012318093229],[11.87004604153075,45.55976576644598],[11.8700222598572,45.55967634922491],[11.870010366514745,45.5596316411252],[11.869847067088084,45.55956552745781],[11.869487507123628,45.55941992769619],[11.869483142473428,45.559343357566014],[11.869472830710587,45.55890732884937],[11.869471443503013,45.55886208922805],[11.869558225937135,45.55830183706396],[11.869842370476466,45.557801983441735],[11.870134416625257,45.557288214271026],[11.870168126678026,45.55719613259271],[11.870989198698814,45.55495341321134],[11.871473055917692,45.554855871840246],[11.871998899984014,45.55474945164583],[11.873850475373207,45.554373707801304],[11.874682070446989,45.5542060063723],[11.876625340974572,45.55381338259844],[11.876737921863768,45.55379110156724],[11.877027615462106,45.553732808584044],[11.877089658213645,45.55372010833784],[11.877734322378007,45.55359027413945],[11.877863286920379,45.55356443838052],[11.878370465371258,45.55346218139156],[11.878471263296822,45.5534417899125],[11.878712443932296,45.553409068987456],[11.878791356796674,45.55339834656504],[11.87977236727811,45.55326719735783],[11.88062175705765,45.553153504386096],[11.881312663556796,45.55305063159235],[11.881349695251759,45.55304511601769],[11.881799882430336,45.5529771451405],[11.882440431835562,45.55288125182058],[11.882560754080608,45.552863766130244],[11.88262758798016,45.55285532997971],[11.882668943238366,45.55284978489322],[11.883495350037544,45.55272539666058],[11.88426451742666,45.552609197122784],[11.884398067561964,45.55259007364018],[11.884811597240585,45.552506706035786],[11.885398802969432,45.55238832516412],[11.886388965036591,45.55218869673317],[11.888080006400942,45.55168685581018],[11.88810872654439,45.55166841280355],[11.888469145064859,45.55143696382898],[11.888824727529833,45.55120647772318],[11.8886502680614,45.55056527658608],[11.888698460768294,45.55000598298088],[11.88938499655752,45.54940352681657],[11.889670396012326,45.548973244791526],[11.890799753500664,45.54851258867994],[11.891252724994327,45.54785302935408],[11.891688738901115,45.547112885464806],[11.891917860462055,45.546585011285316],[11.892127386788419,45.54617464784258],[11.89272823159205,45.54615042016572],[11.893698577097743,45.54845713398193],[11.893720076922355,45.54850159523793],[11.89406283964946,45.54925125243507],[11.894672103685803,45.55057473346649],[11.894710144318587,45.55056701865245],[11.89491313434188,45.550528118273846],[11.895806771629628,45.55035600378667],[11.895855048630944,45.5503467002933],[11.895914732687846,45.5503352738003],[11.89603434500614,45.55031393303766],[11.896245245669691,45.550273789017865],[11.896444912751814,45.55023271811014],[11.896494166585812,45.55022330584495],[11.896879431288022,45.55014968044647],[11.897019365856394,45.550552373863184],[11.897150411169347,45.55093490755977],[11.89730742412887,45.55138506371273],[11.89741142678453,45.55168321978046],[11.897498188396485,45.5519319491232],[11.897676362219828,45.552442759011655],[11.89794644090808,45.55321000437062],[11.898065643362452,45.55365928850028],[11.898104914107593,45.55380005764778],[11.898254137597979,45.55421032300842],[11.898305506207523,45.55428135274994],[11.898516215784333,45.55457271686706],[11.898938199695511,45.554494490374466],[11.899084746841805,45.55446646657743],[11.899091479821353,45.55404954434809],[11.899095981022782,45.55391988565591],[11.899099222299606,45.553826567354626],[11.899112700281675,45.553764290927795],[11.899725776784148,45.55367788519089],[11.90002069389977,45.55393142708031],[11.901254561473676,45.55364947496318],[11.901746038243386,45.553537172362205],[11.901882169080219,45.55350606400724],[11.903459340323444,45.55303389636764],[11.904850121673958,45.55267446499598],[11.905279591857068,45.55255551965746],[11.905253564537425,45.55308906060615],[11.90524697304081,45.55322419603705],[11.905242222799691,45.553321571103474],[11.905305502685428,45.55330645846513],[11.90544980677573,45.55327528271825],[11.90556525786937,45.553250341969886],[11.909895512451703,45.55231641030979],[11.910209164660566,45.552249905137],[11.910887045835668,45.55212863165415],[11.91259514247513,45.5518253148776],[11.912748158809466,45.551798085938174],[11.91289460146564,45.551780846743355],[11.912996383298829,45.55176699752234],[11.913387851272288,45.551718753993136],[11.91403445278747,45.55163841034112],[11.914231381695593,45.5516152744938],[11.914379007421932,45.55159593379136],[11.914861393449916,45.551537108577136],[11.916930176046947,45.55116021246557],[11.918613697512756,45.55076613085739],[11.918841927063205,45.55072881164374],[11.919310283511718,45.55065222390803],[11.919735635872215,45.5505826364835],[11.919873065724495,45.55055993816949],[11.919930492657235,45.5505503858937],[11.920049224867348,45.55053047273168],[11.920570759802564,45.55041758085196],[11.920636352205161,45.55040312961558],[11.920772399162267,45.5503734176087],[11.920935967079364,45.5503376678798],[11.921755675607638,45.550161395421384],[11.922076273010878,45.5500924519343],[11.922532726877437,45.55000800681433],[11.922617676969871,45.54997902218404],[11.923086757191768,45.549814542573564],[11.923475336834805,45.54974673715921],[11.924356375175185,45.549592992143545],[11.924430073211411,45.54973985434351],[11.924570681597391,45.55001955661526],[11.924872025914057,45.55064191907281],[11.925432021970515,45.55167762722513],[11.925466377267592,45.551742949182284],[11.92556411261666,45.552142336265376],[11.925630692459405,45.55242271408304],[11.925702806903935,45.5525955099511],[11.925896200663699,45.55306259417674],[11.926011446043205,45.553340077845306],[11.925945031286707,45.553395323587644],[11.925765816374868,45.553544400674404],[11.925175377141043,45.55352353036262],[11.925301818619204,45.55423138435057],[11.925765995583406,45.554309281364915],[11.92599976347933,45.55434851105513],[11.926033332529013,45.554425042450355],[11.926261363033797,45.554944884625016],[11.925060273986155,45.55525471063275],[11.925073128525781,45.555926970946416],[11.925077901518847,45.55633440242665],[11.924757160568308,45.55640713578145],[11.924664931488849,45.55642737384057],[11.924356014269025,45.55649691998331],[11.924339162072911,45.55672636098909],[11.92433349365412,45.55680353722686],[11.92460784393899,45.556943347032956],[11.924820474496851,45.557052093829974],[11.925076464384942,45.55719754332771],[11.925229752716477,45.557284640016626],[11.925145856981207,45.55736986282393],[11.924996221253588,45.557522673062174],[11.924876878451503,45.55764473170973],[11.92482202839072,45.55763713603488],[11.924546882273987,45.55760191390152],[11.924360839175474,45.557576944225296],[11.923851080740725,45.55757562984599],[11.923728919505342,45.55757585090438],[11.92368171706659,45.55757633813816],[11.923603627472904,45.55757524650046],[11.923463730483913,45.55757292685568],[11.922969627714526,45.557559129637944],[11.922247179303419,45.55758607836367],[11.922098552179035,45.55793192970661],[11.922110939743572,45.558417677029546],[11.921648877434427,45.55840250199979],[11.920808058243924,45.558496032163056],[11.920224771250316,45.55836693801425],[11.919893255160687,45.55864545549009],[11.919517538003268,45.55906012061026],[11.91891915220032,45.55938146624228],[11.918831731722362,45.55948721096369],[11.91849735232189,45.55989631398942],[11.917955948443444,45.560081179498184],[11.917634869277341,45.56006688442892],[11.917563828170646,45.560063080917985],[11.917236543141517,45.56004556158802],[11.916996102295421,45.560033971612384],[11.916209792872941,45.56026082619515],[11.91606917016688,45.56083928249854],[11.91605135377217,45.56091295930616],[11.915887931224757,45.56145801089598],[11.915304947311629,45.56184114709998],[11.914885326135055,45.561903622461735],[11.91459297415025,45.56194934813558],[11.91385003989946,45.5622023480119],[11.91393984498439,45.56245208863373],[11.91442333873238,45.56288080179676],[11.914237653784406,45.56325459168927],[11.913969600860188,45.56352247003836],[11.913838946228358,45.56359781114778],[11.913617439262806,45.56372860935084],[11.913584033791647,45.563748336823444],[11.913544229505396,45.5642174144235],[11.913418300851884,45.564308400996275],[11.913260115825533,45.564422692275365],[11.912841891514638,45.564335892663024],[11.912738854822527,45.56437646063633],[11.912505538089123,45.56446767619289],[11.912408254412185,45.56463047087806],[11.912317487935512,45.56477978903422],[11.911950754292493,45.56512219045046],[11.911485439396012,45.56527183584585],[11.911433949669146,45.56528839828026],[11.911338569527409,45.56537940530964],[11.911104209886124,45.565602849542294],[11.910905309085278,45.565732418658584],[11.910744687073901,45.56583704901754],[11.910743458608708,45.56614393474472],[11.91073907101935,45.56622424146792],[11.910705222976118,45.56636655568564],[11.910643402599034,45.56660473092136],[11.910310280334562,45.566717639009596],[11.91015780369517,45.56677059349244],[11.909963448901397,45.56683809663784],[11.909893988469294,45.566857870017365],[11.909690031808953,45.56692046067456],[11.909446150077892,45.56699530224458],[11.909369495273522,45.56738470321303],[11.909344641505394,45.56751095724315],[11.909285537545228,45.56760698046953],[11.90924824713973,45.56766715017207],[11.909229394306646,45.567698425775056],[11.90920833691321,45.56773351558649],[11.90918897038652,45.56776511841929],[11.909073051035215,45.56795894439627],[11.908803599958453,45.56824415901527],[11.908741936737108,45.56830942690329],[11.90866581674037,45.568392642604955],[11.908585898327754,45.56847437623121],[11.908599396462694,45.5689611481891],[11.908551461508111,45.569141949963175],[11.908524315695471,45.56924434768149],[11.908513722509312,45.569287373537115],[11.908126709299014,45.569486259242744],[11.908146543053336,45.569581267908546],[11.908165026505358,45.56966980847527],[11.90816996206427,45.569703432888105],[11.908194605834847,45.569808566003815],[11.908457027519894,45.57042296067479],[11.908111654322022,45.570683793925845],[11.907620844706484,45.570858319597846],[11.907161664728804,45.571149051890686],[11.906721385936363,45.57106125237395],[11.906377198890553,45.571097020858105],[11.90613884577935,45.571445135353756],[11.906156672735806,45.57203875893034],[11.906162163452668,45.572641697801345],[11.905964716033553,45.57328580855481],[11.906132622057783,45.57405563388297],[11.906189300471516,45.57421673603792],[11.906342914701835,45.574653356065795],[11.906403656715042,45.57479957459671],[11.9065075685137,45.57504971574584],[11.906544439885085,45.57514328802462],[11.906694207605463,45.57549952091523],[11.906946894208408,45.57592514235173],[11.907053186156004,45.57602878212552],[11.907256372256965,45.57622114536333],[11.907957802121082,45.576637488515765],[11.908043994535698,45.576681485075845],[11.908201345581428,45.57676180044665],[11.90823747481979,45.57677888235997],[11.908932159180527,45.57713021792152],[11.909313419422302,45.5773230364454],[11.909366020038268,45.57734870029269],[11.909602866198586,45.57761740493591],[11.910087674875179,45.57816741276972],[11.910710877728464,45.57931267214834],[11.91114930784855,45.58035462780834],[11.911344991901958,45.58141177396169],[11.911392691725622,45.581606758916074],[11.91145094273783,45.58184830091219],[11.911458784448577,45.58187693182948],[11.91186050710444,45.582208728071606],[11.912370714167833,45.58215970587163],[11.913076441276573,45.581925667739895],[11.913142070527003,45.5818386277441],[11.913256366241141,45.58168704530941],[11.913164142196308,45.581392006580096],[11.91318166800472,45.58098686117259],[11.913141301788151,45.580912892267854],[11.913045698740156,45.58073770465759],[11.912997569899485,45.58064951564208],[11.913223113445166,45.58030171506016],[11.913963494503035,45.57999477788767],[11.914233445473696,45.57995147753552],[11.914859153261151,45.57985056618577],[11.915031342157747,45.579823491014004],[11.915922058639918,45.57961686829637],[11.916386621678782,45.57950983352392],[11.916462519352626,45.57961448413702],[11.916566078946747,45.579757280789565],[11.91658654086616,45.57980124382811],[11.91661440235464,45.57986110478581],[11.917013228566612,45.58071798003117],[11.917245784712593,45.58149513737777],[11.91731942848117,45.581681647302744],[11.91733068409404,45.58171124100601],[11.91734772182235,45.581753612688715],[11.917433689779989,45.58196739090679],[11.917474253280446,45.58206986734647],[11.917489085565979,45.582106510287396],[11.917569812266084,45.58230595558572],[11.91772740276291,45.58254742139887],[11.917892525332553,45.58279852197912],[11.91791689406102,45.582837316295034],[11.917606876049042,45.58326813268093],[11.91747275252714,45.5833390702793],[11.917083176785159,45.5835515542209],[11.916971875933328,45.583939197683655],[11.916909563929103,45.58415906994244],[11.916832994556932,45.58441305931749],[11.916875839941126,45.58474500715512],[11.917096763948866,45.58529743278173],[11.917014848544314,45.5856955776111],[11.916619613471074,45.58598471404768],[11.916210175364526,45.58624720830062],[11.91582633759969,45.58650904708122],[11.916092173539448,45.586691279626486],[11.91647370111115,45.5868795575971],[11.916942671558616,45.587136318664264],[11.917133408618728,45.5872407468173],[11.91719482181772,45.58732897165036],[11.917410437931668,45.58763871870884],[11.917535941365625,45.58806005894095],[11.91759779234077,45.588263850782845],[11.91772314728056,45.588971897955254],[11.917923200242782,45.589610458651364],[11.918049607666957,45.59032272611798],[11.91805523869315,45.59092566041845],[11.918165164566958,45.59156193133635],[11.918449217226305,45.592094738347235],[11.91849927199458,45.59230074667769],[11.91851442277245,45.592363105882214],[11.918057677729085,45.59245579385749],[11.917122008743677,45.592646231755104],[11.917055486370522,45.59266143460553],[11.916211241254546,45.59282252571388],[11.915976462254308,45.592869029427014],[11.914425539583318,45.59312466920927],[11.913868108596082,45.59332603197424],[11.913808844807846,45.59334744028761],[11.913621435764703,45.59393729991469],[11.913316689481885,45.59424211702749],[11.913115771808716,45.594571286168666],[11.913076934397065,45.594610238209],[11.912701364004645,45.59498691404754],[11.91250020292896,45.59555911928793],[11.912279250975157,45.59599681267227],[11.91142084201836,45.59650477358049],[11.911186431459283,45.59660358563997],[11.910216213875573,45.59701255564188],[11.909974042850022,45.59713937140963],[11.909529602601024,45.597372104195976],[11.909412447834455,45.59740884233839],[11.908873495634618,45.597577850585964],[11.908376369953908,45.5981305878188],[11.908288294406026,45.59822509261478],[11.907976099849195,45.598572841652405],[11.907764216685038,45.59869075294379],[11.907315530829118,45.59894071178572],[11.906920357210584,45.59948184444166],[11.906510249910086,45.600230381956635],[11.906387703805192,45.60083657887388],[11.906269799309833,45.60153266949522],[11.906211279134869,45.60213723586884],[11.906138025833611,45.602332626015446],[11.90598674017102,45.60273755890266],[11.9057890348307,45.60289958223189],[11.905613907417642,45.603045065929884],[11.905543123318079,45.603103867033894],[11.905371726367285,45.603248384076686],[11.9053307971094,45.60330171748531],[11.904823545510894,45.604043463407635],[11.904703083526245,45.60421888946094],[11.90432981651513,45.604404012099465],[11.904163719868604,45.6044862652229],[11.903884767090414,45.60476178097657],[11.903915249902827,45.60485551448858],[11.903992054841183,45.60510109442086],[11.904255736982053,45.605985498232265],[11.90446401796526,45.60679030028812],[11.904498379199476,45.60745550933926],[11.904140152562325,45.60796868789362],[11.90317225258142,45.60859638692677],[11.903079095572396,45.608674912742664],[11.902410650448129,45.609245834809975],[11.90160568576394,45.610049399289785],[11.901435860038024,45.610197044128576],[11.898142012827194,45.61306059246017]]]}}]}
