{"type":"FeatureCollection","metadata":{"code":"028061","referenceDate":"2026-01-01","sourceDbfExportDate":"2026-02-18","upstreamArchiveUrl":"https://www.istat.it/storage/cartografia/confini_amministrativi/non_generalizzati/2026/Limiti01012026.zip","sourceManifestSha256":"70ac8256c4785dc6ed2814c32b6965ae76f9161b51abaa1660059e1c6cbd8ca6","license":"https://creativecommons.org/licenses/by/4.0/","attribution":"Istat, Confini delle unità amministrative a fini statistici al 1° gennaio 2026, versione non generalizzata.","modifications":["Converted from WGS 84 / UTM zone 32N (EPSG:32632) to RFC 7946 WGS 84 geographic coordinates.","Converted from shapefile to per-municipality GeoJSON without geometry simplification."]},"features":[{"type":"Feature","id":"028061","properties":{"code":"028061","name":"Pernumia","alternativeName":null,"regionCode":"05","regionName":"Veneto","territorialUnitCode":"028","territorialUnitName":"Padova"},"geometry":{"type":"Polygon","coordinates":[[[11.790410494250368,45.282671899074316],[11.79040486253245,45.28270995590162],[11.790390317326132,45.282780410391496],[11.790340986241107,45.28306071302457],[11.790341124547128,45.28310270018221],[11.790340029852606,45.283158436784],[11.790343014852638,45.28337566627658],[11.790575424184132,45.28372100000519],[11.79081124774115,45.284071720009294],[11.790879166561439,45.28417287236408],[11.790666598765231,45.284329159991316],[11.79000560220549,45.28481515730933],[11.789343044404585,45.28560548160004],[11.789082703755701,45.285974097171234],[11.788734942712177,45.28646648474094],[11.788473940711672,45.28706399161679],[11.788436850591019,45.287149162428406],[11.788134995800474,45.28720844030124],[11.787815219171929,45.287271236399036],[11.787180004747151,45.287395973706964],[11.786659179165467,45.28749835943996],[11.78656387063842,45.28751732328735],[11.786504475962518,45.28752914149348],[11.78645226030232,45.287486300600094],[11.785536823078365,45.286778630622564],[11.785139284798289,45.28621223697939],[11.78507729941881,45.28572766851152],[11.784825844529209,45.285230090276265],[11.784576976341405,45.2848847369164],[11.784162821022424,45.28475981945772],[11.784479816433238,45.28434382127891],[11.784526742770494,45.284282235293055],[11.784917640096472,45.28376923750295],[11.785306987669895,45.283127378133976],[11.78524869007899,45.283108550069244],[11.784360635306822,45.28281426626761],[11.784196167848803,45.282926953805735],[11.784066929669663,45.2833219180702],[11.78349830946683,45.28291234140416],[11.783305355284433,45.28261137192207],[11.783472420607314,45.282538463268985],[11.783829686797041,45.28238254732338],[11.783726953854023,45.28228219852491],[11.7833501940807,45.28191418667984],[11.783200312983043,45.2817677848065],[11.78293634692641,45.28132414674802],[11.783020379780938,45.281226191209434],[11.78314140800772,45.28108510793173],[11.782887121636744,45.280839266527884],[11.782837857187713,45.28085940261563],[11.782466494917271,45.28092264228166],[11.782095713442834,45.28090543750275],[11.781933744854243,45.280898518168634],[11.781491074958376,45.280711274988406],[11.781348776435804,45.280408692147404],[11.78089600266812,45.28001465753278],[11.780493735887534,45.27961038991279],[11.7803632165666,45.27944522584398],[11.780235514012075,45.27928362513911],[11.780183953070146,45.279216695164145],[11.78003130781541,45.279018553234806],[11.780143902913018,45.278720874641444],[11.780347454002028,45.278182713698584],[11.779303645371952,45.277695051950644],[11.779311544342837,45.27733479911656],[11.778804105692053,45.276884465474815],[11.778778452017459,45.2768616994978],[11.778455701779833,45.27651849856295],[11.778141959899619,45.27640830116525],[11.777854111192768,45.27630722407054],[11.777353103228293,45.276131271107964],[11.777424171407032,45.275925337114046],[11.777609994145033,45.27538689488469],[11.777118201945346,45.27523683646646],[11.777156154324045,45.27504420174047],[11.777174515110794,45.27495416219705],[11.777187027837968,45.27488869975423],[11.777194826299727,45.2748479002442],[11.777210416252117,45.274775509110135],[11.77726179598783,45.27452221627795],[11.776794163566667,45.27434456376524],[11.776118262412192,45.274304042398974],[11.77603979829527,45.27429990555439],[11.775805792361869,45.273748367856165],[11.775506804400239,45.27304365476394],[11.775483433724252,45.2729977416483],[11.775444987433149,45.272922994915085],[11.775174379423088,45.27236865439964],[11.775138896992628,45.27229647385017],[11.77506472258232,45.271821197052816],[11.774900979765286,45.27133909643033],[11.77489012862583,45.271311078184524],[11.774816001708343,45.271119710059125],[11.77476972255539,45.271000232906815],[11.774894725363946,45.27090005568558],[11.775273673745474,45.270593895003664],[11.775517940240473,45.270396941954594],[11.776564262791053,45.26963336591329],[11.777565086338292,45.26913406520058],[11.777612567608257,45.2691097647132],[11.777833586589658,45.26899937184208],[11.778478559830445,45.268632611947034],[11.77875340658601,45.268256857738535],[11.77863925577101,45.26774654998389],[11.778424128193235,45.26725670362729],[11.778449391799242,45.26704489412626],[11.778469351820855,45.266877537573215],[11.778809606030466,45.26653619709183],[11.779315811668248,45.26619981403795],[11.778341608510374,45.265305380432764],[11.777332743112515,45.26474483825145],[11.77653418117495,45.264314192986944],[11.775783049549517,45.26381037663965],[11.77489146789556,45.263039923370684],[11.774527838517676,45.262707826956934],[11.77449186687985,45.26267542796366],[11.774237834337665,45.26244371104072],[11.773937593258271,45.26203693833498],[11.773808317341556,45.26184920067023],[11.773443788594003,45.261319816573724],[11.773055346268416,45.260672143521035],[11.772986763262573,45.26044384429354],[11.77291776909027,45.260216590192094],[11.772906578766074,45.25997305825037],[11.77289221002064,45.25967811617133],[11.772888210951692,45.259596020622205],[11.772980641281192,45.25951503781488],[11.773242503875352,45.25928136013035],[11.773915052293717,45.25895896257843],[11.774385560616654,45.2586683372017],[11.774716328787084,45.258382006708885],[11.774741346868936,45.25835468348801],[11.774802913854703,45.25828897905464],[11.775054707602237,45.258022099218074],[11.775025544655946,45.25797244167085],[11.774846225059289,45.257667107959634],[11.774853477152064,45.25755441249279],[11.774873480334698,45.25718036229011],[11.774757659965607,45.25637304025839],[11.77440784332641,45.25599447862195],[11.77476657460301,45.25472554139198],[11.775035910970747,45.25417214946341],[11.775090999314301,45.254061737457114],[11.775114281448335,45.25401497237002],[11.775366032515459,45.25370290825059],[11.775904837484628,45.25350065675457],[11.776326417054534,45.25304758739119],[11.776461879947817,45.25290200525696],[11.776868355858277,45.25235202360029],[11.777324412838427,45.2520348730242],[11.777412192145853,45.25201203669967],[11.777530578601707,45.251989225941486],[11.777609129525777,45.251974089899576],[11.777714621066227,45.25193536198759],[11.778293557812317,45.252047290329635],[11.778656106630642,45.25216448535835],[11.778952821629986,45.251977230277305],[11.779007796390207,45.25192863226436],[11.77906132072152,45.25188353156346],[11.779099531457133,45.25184988562935],[11.779209810931915,45.251759435306255],[11.77931842382447,45.25166769322381],[11.779368920574289,45.2516250380329],[11.779589593129577,45.25137476757043],[11.779770422835222,45.251169683060006],[11.779883333124301,45.250937393516296],[11.780026333547623,45.25009106223004],[11.780071181784756,45.2498256274757],[11.780166201749813,45.249618526051336],[11.780208889471936,45.24952638350701],[11.780224291306457,45.24949313350643],[11.7803823580393,45.24915193190522],[11.780532417027915,45.24893384851102],[11.780596537834086,45.248840660619265],[11.780704445135491,45.248831859938136],[11.781383481572504,45.24877647712389],[11.781411118130046,45.248298721605984],[11.781961483793166,45.24808727314453],[11.782212494703538,45.2472260068825],[11.78227667190034,45.247039908264675],[11.782450991552617,45.246538074154124],[11.782491586825332,45.2464180632144],[11.78262299519756,45.246404634294215],[11.782722985209205,45.24639441705058],[11.783569469167581,45.24631076428351],[11.784156270111314,45.24658450019957],[11.784679877925019,45.246868775764206],[11.78515302103899,45.247163282115075],[11.785594063587924,45.24680145742124],[11.78522840877064,45.246099259566655],[11.784858390436913,45.245568196804875],[11.784664360126746,45.24498783067146],[11.784849090599671,45.244596256098596],[11.785689463912373,45.24406265746635],[11.785915855652291,45.24348103104069],[11.785889468230497,45.2429415824175],[11.785871411924651,45.242311914155934],[11.786295728840726,45.24186948107672],[11.78635625319355,45.24154394674357],[11.786430354567988,45.240975039726],[11.786709831962092,45.240437123449],[11.786772756505428,45.2403757099088],[11.78691895847343,45.24023168916641],[11.787050328887315,45.240104752760224],[11.787722676327023,45.24056541274232],[11.788663126398221,45.24077647666733],[11.78967813624704,45.240688658477],[11.790189822370568,45.240730157397586],[11.790969299031618,45.241296198439535],[11.791120352996392,45.241778588273185],[11.791176155580821,45.242137285714065],[11.79133729554538,45.24256541969398],[11.793664723945215,45.24247501937803],[11.793730045527191,45.242472482356874],[11.79384265626771,45.242468107101175],[11.79451062587724,45.242397660951426],[11.795195243896396,45.24232545557604],[11.795287737139413,45.24231569986612],[11.795914916260719,45.242333111143665],[11.796665722325317,45.24235395173121],[11.796743096572175,45.24237519336315],[11.797357153942388,45.242537266492526],[11.797504862198162,45.242576426012306],[11.797683442738894,45.24281986297867],[11.797708656410018,45.242854232377084],[11.79802380277981,45.24328382837136],[11.798084312761072,45.243462750795864],[11.798262324998989,45.243989102813885],[11.79850156801592,45.244190271868234],[11.798542305256047,45.24419447854634],[11.799205961541336,45.2442630119764],[11.799650606930435,45.244495146797],[11.800380900126566,45.24457624588973],[11.800844550055997,45.24453322975729],[11.801040486645299,45.24451505072835],[11.80139128670802,45.244911510328],[11.801564354193037,45.245321332791356],[11.802702706947773,45.24514935700064],[11.803647493797497,45.2449281156054],[11.803894870073057,45.24484102616323],[11.804850243392934,45.24451149703172],[11.805438002933196,45.24444291497657],[11.80608722046178,45.24436715943145],[11.8062185367283,45.244351836819526],[11.807224075119567,45.24458815094267],[11.808539369913518,45.24464580453107],[11.810191191121666,45.244551131627325],[11.811116695135626,45.244456324891516],[11.810309890401415,45.24524999121776],[11.809014296328321,45.24652444049483],[11.808504233921708,45.24701232902679],[11.808242737618055,45.247182265832855],[11.807906188340601,45.247399512258006],[11.807836366920228,45.24744458193684],[11.807741570625739,45.24748285859861],[11.807361579516138,45.247636289434894],[11.807436449707108,45.24774492628436],[11.807800787158666,45.248273600688854],[11.808332091139832,45.24818346202038],[11.808501654937977,45.24815322597484],[11.808785642291827,45.248103574554065],[11.808828400505531,45.24809646859126],[11.808918945515005,45.24808127859449],[11.809632981603253,45.24795846012167],[11.809644288133619,45.24798681050271],[11.80995291565374,45.24876072134512],[11.810574657027537,45.248448359413224],[11.81101849250712,45.248662466487],[11.811079971051944,45.249520600153],[11.811121674035856,45.25010795626381],[11.81113834507436,45.25031579976155],[11.811800552000491,45.25019814663059],[11.81240883020096,45.250089646475395],[11.812769174324693,45.25002642739776],[11.812819479577694,45.25001750283473],[11.81286554393481,45.25000902033905],[11.813020608831636,45.24998136914363],[11.813284984889052,45.250625212517235],[11.813397284309508,45.250899241036436],[11.81327593157898,45.251280297684815],[11.813270011004247,45.251490951758676],[11.813257446985544,45.25193786659097],[11.813232636403608,45.25215051657932],[11.813203732205062,45.252398269334805],[11.813325550307695,45.25280033528111],[11.813715117280886,45.253204802482244],[11.814275926549874,45.253671242537074],[11.814625977756062,45.25408389583152],[11.814997241769365,45.254649436514235],[11.815096288369746,45.25510607179732],[11.815067221618621,45.25536186017523],[11.81506379636063,45.2553897074271],[11.815025130225065,45.25572893353579],[11.814757251572527,45.256239627341884],[11.814358802914375,45.25642948537882],[11.815862206707724,45.25848075658458],[11.815456630592609,45.25852676948881],[11.814924644716896,45.25859390132894],[11.814453640314536,45.258605518967755],[11.814416056915997,45.258876491261184],[11.814403357024808,45.25892678136321],[11.814394343475202,45.25895746057565],[11.8143398147121,45.25916079499689],[11.814265396199318,45.2594383024956],[11.814126573786977,45.25955613975577],[11.813959588261861,45.25969788551012],[11.814000160218901,45.260002936906744],[11.814033336048304,45.26041618987879],[11.813961270479151,45.260759371509806],[11.814544205135343,45.26095268495414],[11.815106289052332,45.26114180461094],[11.815192285091246,45.26117073970576],[11.816230121493973,45.261280155700376],[11.816378880308473,45.26129212042584],[11.817343454742636,45.261369696171855],[11.81747992815518,45.26142605529302],[11.81760355500801,45.261477109923824],[11.817981045757342,45.26163300200156],[11.818049817218641,45.263022040272475],[11.818051363308232,45.26305331775876],[11.818063836843136,45.26330524085823],[11.818643405051322,45.2634259510031],[11.818942907582915,45.26342047791449],[11.81950347297937,45.26341023242691],[11.820044247746658,45.26340034450063],[11.819969949119807,45.264473362563315],[11.819617170550632,45.26460116672786],[11.819268587000064,45.264724731730404],[11.819058530124162,45.26484091495408],[11.81831321959741,45.26525241574651],[11.818719419152496,45.26572899472871],[11.818842197003915,45.26571485149555],[11.819137557452981,45.26568213066203],[11.819324900201217,45.26566850103542],[11.819721865459579,45.26564069037502],[11.820675826390078,45.26559911286187],[11.821644301229513,45.2655931739956],[11.823147936156989,45.26558299100149],[11.824143026974955,45.26533437443732],[11.824235504538846,45.26530068831829],[11.825245053183222,45.26494599315941],[11.825376873363844,45.26491342319697],[11.826214636422346,45.26470594825703],[11.827050032334517,45.26452322887432],[11.827867666135718,45.26436794829039],[11.82912088422114,45.26419286277559],[11.830257726639479,45.263984643288524],[11.830695707301853,45.26395874680547],[11.830734316130577,45.26395526959071],[11.831541308466958,45.263907794792686],[11.832794055671714,45.26372367803967],[11.833947253082396,45.26358720497208],[11.834780058103291,45.263674362072926],[11.834871883287496,45.26366790975349],[11.835353695494819,45.263633451415785],[11.835431912126754,45.26362755908908],[11.835770818903054,45.26360473922936],[11.83654777117641,45.26333363393869],[11.837131196903355,45.263102350029314],[11.837181012189491,45.26308295714832],[11.837347550154265,45.263016454517064],[11.837734054829987,45.26291996900809],[11.83792318365924,45.26287210600262],[11.838304314220021,45.262776626253356],[11.839598882839741,45.26267313982744],[11.839763581648516,45.26270665930783],[11.840796636735604,45.26291264501447],[11.841790353743288,45.26315794955906],[11.842497317545558,45.26334621306615],[11.842657392019367,45.2633879296817],[11.842954259038635,45.26343000377723],[11.84358011569405,45.26351843604843],[11.843824533598635,45.263516591612266],[11.843913517568451,45.26351651652922],[11.844523085601827,45.263512939103585],[11.845142247385423,45.263659534181144],[11.845970045853809,45.26389993705241],[11.846128537994083,45.26397194442913],[11.846377630279068,45.26408511290624],[11.846909141926588,45.26432659017314],[11.848067642072332,45.26429768377186],[11.849026950053483,45.26436375281181],[11.84904538219931,45.26451141667648],[11.849069514311148,45.26470474917373],[11.849116001203088,45.26537870313269],[11.848194525981818,45.265522310033894],[11.848015603204324,45.2655501948635],[11.848273294147702,45.266123817570886],[11.847976860836196,45.26621071690985],[11.847016634251284,45.26647527442074],[11.846502825226876,45.266588132516375],[11.846323159337102,45.26662759576917],[11.845568864697412,45.26658339609749],[11.845338182838862,45.266546462273716],[11.844936046134277,45.26648207710602],[11.844887813314703,45.26647435531547],[11.844025978095429,45.2668288928909],[11.843778488343242,45.26692280791609],[11.843162785701903,45.267156453849466],[11.842911800242415,45.26727353596983],[11.842490105973553,45.267470260686906],[11.841404907574612,45.267947362349496],[11.840888295473825,45.26806824209752],[11.840262365438871,45.267786772094546],[11.83976078732068,45.267187150325135],[11.839134319301383,45.26638359848763],[11.838703149170582,45.26591724337468],[11.838312285552151,45.26568392208849],[11.838282746133135,45.265666657165475],[11.837831644881126,45.26559550638389],[11.837737931737118,45.265630055209826],[11.837281464760967,45.265781570468526],[11.837166006488776,45.265894707797294],[11.837138900610563,45.26592246747828],[11.837087177187897,45.2659754333179],[11.837002358677363,45.26631959988147],[11.836868405904458,45.266700994157574],[11.83693770766659,45.26706833414948],[11.836904708773314,45.26742921558788],[11.836499355247835,45.267736342248185],[11.835830662457354,45.268131024980306],[11.83507866094709,45.2686447932201],[11.834589538770917,45.26906201224894],[11.83449233422582,45.269215897313124],[11.834376933295149,45.269400349054976],[11.834079424168838,45.26956976550308],[11.833991458262563,45.269600275310545],[11.833716013447916,45.26969580960465],[11.833583374744991,45.2701041719811],[11.833558655867959,45.27021731373553],[11.833500320793114,45.270484298289894],[11.833396919962059,45.27071190173878],[11.832981670056869,45.27082122553468],[11.832799911052772,45.270947258885755],[11.83263137836056,45.27106700820112],[11.832536336727635,45.27113531735371],[11.832464376636018,45.2711851304862],[11.831853257882507,45.271713383633546],[11.831656258480985,45.27184291147173],[11.831557071372567,45.27190976448378],[11.831271378753248,45.2720608771668],[11.829479660364116,45.272690411971226],[11.829152836363022,45.272527483501136],[11.828679716907079,45.27275524773719],[11.828460190222657,45.272983433104216],[11.82829193014161,45.273160926094256],[11.828247252704852,45.27315978292887],[11.828142606665905,45.273160003462685],[11.827552523850533,45.27316124521617],[11.827050186638381,45.27299365940638],[11.825595894007137,45.27303867848231],[11.824782110341122,45.27282478482416],[11.824711359007656,45.27274777395623],[11.824459895766434,45.27247239929892],[11.824283325384716,45.27227903757017],[11.82385717788404,45.2721050513221],[11.823741908040553,45.27205772685252],[11.822604666209259,45.27159144594092],[11.821401106633699,45.27148618438921],[11.820506445551645,45.27169733163433],[11.82033324857526,45.27186814050672],[11.82012363430591,45.27207585449099],[11.819910304823923,45.27228714259864],[11.81978952478043,45.2724081665694],[11.81924665988811,45.27265678287926],[11.819124413185008,45.272712768991276],[11.818592473742163,45.272956376549644],[11.818418298915677,45.27303614117024],[11.818074334823827,45.27313356558387],[11.817943050431891,45.27317075143986],[11.817513095631366,45.273292531340395],[11.816326448699725,45.273534885513826],[11.816006705716722,45.2736001850904],[11.815708276826593,45.273661131323585],[11.815358261374238,45.27379676273656],[11.814970254033604,45.27394711251604],[11.81470667944688,45.27404924550675],[11.814219705695379,45.27423793998801],[11.814056792417347,45.27427133750164],[11.813626001337559,45.27435965633534],[11.81341194457807,45.27440354494492],[11.813121693770409,45.27446305046736],[11.81202852962382,45.27476510967616],[11.811977159828437,45.27477929990377],[11.810819602643138,45.275068917740604],[11.809367817076268,45.27512261187211],[11.808221347953847,45.27514182790663],[11.807303016204752,45.27565050334666],[11.806141076562236,45.27639020023335],[11.805742458508153,45.27658003171968],[11.805637646316203,45.276627552483326],[11.805427573554928,45.27672279377562],[11.80531859110906,45.27677498146113],[11.805209901231136,45.27682514279568],[11.804983267371265,45.27693001876392],[11.80473272141381,45.27704592378458],[11.804694962115072,45.27705585333902],[11.803897635745745,45.277238095990946],[11.803688219131763,45.27728596152684],[11.80345942923005,45.27733825517804],[11.80281848568031,45.27746201622281],[11.802398617149942,45.277544339802304],[11.801926177550706,45.27762510804626],[11.801754741069603,45.27765304871343],[11.801399696566932,45.27771288899066],[11.800434988300673,45.277799576580186],[11.799266182727868,45.27814330476109],[11.798403339225729,45.278227476536834],[11.797373973868732,45.27803667643952],[11.795832227113616,45.27805645439593],[11.795351011991082,45.2781897581351],[11.794824519589387,45.27833772142986],[11.794775786544104,45.27835237671468],[11.794701327921652,45.278389401666715],[11.793957481412065,45.27875947736212],[11.793916976847944,45.278778472128465],[11.79340831354334,45.27919416830788],[11.79337959996279,45.27921763251041],[11.792838266479897,45.27966001880225],[11.79227202105273,45.280310591074475],[11.792077901936514,45.280533770836925],[11.792054416101953,45.28056206667208],[11.791369448983666,45.281395465011805],[11.7913411299386,45.28142830678592],[11.790741061336613,45.28213272681758],[11.790410494250368,45.282671899074316]]]}}]}
