{"type":"FeatureCollection","metadata":{"code":"035033","referenceDate":"2026-01-01","sourceDbfExportDate":"2026-02-18","upstreamArchiveUrl":"https://www.istat.it/storage/cartografia/confini_amministrativi/non_generalizzati/2026/Limiti01012026.zip","sourceManifestSha256":"70ac8256c4785dc6ed2814c32b6965ae76f9161b51abaa1660059e1c6cbd8ca6","license":"https://creativecommons.org/licenses/by/4.0/","attribution":"Istat, Confini delle unità amministrative a fini statistici al 1° gennaio 2026, versione non generalizzata.","modifications":["Converted from WGS 84 / UTM zone 32N (EPSG:32632) to RFC 7946 WGS 84 geographic coordinates.","Converted from shapefile to per-municipality GeoJSON without geometry simplification."]},"features":[{"type":"Feature","id":"035033","properties":{"code":"035033","name":"Reggio nell'Emilia","alternativeName":null,"regionCode":"08","regionName":"Emilia-Romagna","territorialUnitCode":"035","territorialUnitName":"Reggio nell'Emilia"},"geometry":{"type":"Polygon","coordinates":[[[10.616001265211288,44.77298296068134],[10.614743390474644,44.773651042867726],[10.614028527398474,44.773994676780084],[10.613959473356392,44.774028431919106],[10.613629768069881,44.773397004624144],[10.613149876221598,44.77270797197252],[10.612994030549944,44.77263020131614],[10.612856011040458,44.7725618245506],[10.611633497004131,44.77270229469568],[10.611166585223081,44.77271132211409],[10.611246753872754,44.77198103256334],[10.611359690852831,44.771068012653984],[10.611411906639859,44.770237497259544],[10.611242009549185,44.76955951512769],[10.611165314264124,44.76901900354734],[10.61102680982684,44.7686870938393],[10.61070600552227,44.768511572917625],[10.61050227215112,44.76800132341249],[10.61020649581457,44.766907233606595],[10.609880125551888,44.76564252580262],[10.609757740722241,44.765176737668384],[10.610490569582055,44.76503373246013],[10.610379113296524,44.76480491135833],[10.610263331265156,44.76458468439304],[10.610107798271184,44.76428892442053],[10.609495272876906,44.763617898418055],[10.609156593997396,44.762874674611744],[10.609137755859182,44.762711505733435],[10.609077709502843,44.76219333789328],[10.608986607546298,44.76188216918807],[10.60892263154245,44.76166372142577],[10.608758478675794,44.76125079756224],[10.608673373107983,44.76124640715857],[10.608290712073666,44.76122302577055],[10.60782775246097,44.76130151378351],[10.607581946699874,44.76116048127952],[10.607505073085967,44.76066644862782],[10.607107109639978,44.7600058881787],[10.606444269324589,44.759340052846106],[10.60611680111802,44.75892155921812],[10.605963163757837,44.758392587942716],[10.605841939616408,44.758159125637924],[10.605083212527786,44.758117350532544],[10.60434331779659,44.75823581272312],[10.604235785961196,44.758065785288544],[10.604124994889048,44.7578287788983],[10.603925311481303,44.75740481417458],[10.603603287047163,44.756724187648544],[10.603236652797008,44.75580211167946],[10.602929501281583,44.75520327689168],[10.602503976601382,44.75443506294446],[10.60210687065362,44.75380148007176],[10.601906239047343,44.75339919332751],[10.601801862487896,44.75319361149187],[10.60170290940865,44.752969842680564],[10.600864469280848,44.75318880509956],[10.600026528249094,44.75342557617577],[10.599953865955095,44.75307326113044],[10.60004678725606,44.752860426067635],[10.600176379142408,44.75252326499737],[10.600280018207433,44.752188451614714],[10.599802595855195,44.75183795119398],[10.599042231582338,44.7517734586361],[10.597689020432568,44.75198348189651],[10.597521922215487,44.75201133875047],[10.595876204195863,44.75234473731423],[10.595825559703584,44.75235367145256],[10.594556304313477,44.7525787764337],[10.594052349979858,44.75258716725268],[10.593712313608323,44.752310616075754],[10.593417828078271,44.75206633694441],[10.592635283802881,44.75118366669943],[10.592027423748736,44.75067001855321],[10.591587717647547,44.75032055386865],[10.591006504248663,44.7500596154695],[10.591335788587939,44.74988743912889],[10.59183221295011,44.749618965869196],[10.591987261894554,44.749261418999545],[10.59195324247999,44.74901722733006],[10.591909397455195,44.7486860205719],[10.591918236610477,44.74805243321889],[10.591712626876019,44.74750788574546],[10.591582621702106,44.746913298020516],[10.591501251989422,44.74645581497068],[10.59146141025336,44.746214555224135],[10.59143622714862,44.74606194287312],[10.59120506945104,44.746346929117806],[10.590969429239397,44.74663381741005],[10.590568216343856,44.74721550980155],[10.590165816533057,44.74775218330146],[10.589600999278778,44.7483272986476],[10.589287094533457,44.74869146023263],[10.589126624109436,44.748878486452895],[10.5890964818898,44.74891184354144],[10.589000956885883,44.749017555427294],[10.588950246354091,44.74908108181799],[10.58825814387977,44.749949640303726],[10.58851617960515,44.75031496707979],[10.587961492241451,44.75074454082633],[10.58694518954517,44.751460835561005],[10.586150484476855,44.75196695532683],[10.585055916023627,44.752567449989456],[10.584061490964825,44.75313079763378],[10.583363492934406,44.75395927461721],[10.582723148914733,44.75498535651102],[10.582351042957447,44.75573758797448],[10.581614141219136,44.7564771419296],[10.5811000979457,44.7570873752678],[10.58075820316289,44.75755023056332],[10.580208168846452,44.75772309184935],[10.580037598590042,44.75774361087396],[10.579683233891107,44.75778653794999],[10.579049607308392,44.75786324362897],[10.57815790478937,44.758055343042294],[10.577643474928223,44.75816124413059],[10.577365502699127,44.75819271711457],[10.576650389491007,44.75837334475992],[10.575371428168694,44.7587330802722],[10.574578993086895,44.75898079702957],[10.573805317174013,44.75922266379549],[10.573602588196922,44.75928182301381],[10.5732914518231,44.75937149362216],[10.572885169008307,44.75949051710899],[10.572477143263196,44.75961004747367],[10.570607384063464,44.760124496249595],[10.569036585514603,44.76059879556225],[10.5689750887217,44.7606171635539],[10.568866485367284,44.76064997657009],[10.566924013554488,44.761243750390435],[10.566429834164769,44.761385518414684],[10.56540747374539,44.76167875053767],[10.563803352326358,44.7621687258339],[10.561658544072145,44.762758500361734],[10.5611295139365,44.762895272089935],[10.560144428457935,44.763150362878264],[10.559537937892523,44.76330760261009],[10.557974181606133,44.76384181542956],[10.556244550177183,44.76440118122761],[10.55541758021482,44.764615733507505],[10.555356343319174,44.76463139173041],[10.555309575931803,44.76464770173656],[10.555438898426875,44.76495218820251],[10.555654766055069,44.76546237016978],[10.555886171291613,44.76605786418117],[10.55621960590529,44.76671047460353],[10.556626187437711,44.767263071782764],[10.557525607132327,44.768286053879976],[10.558240575448698,44.76900547557137],[10.558816489879648,44.76974479121597],[10.560052444519751,44.77106023517462],[10.560892152716198,44.77218527949322],[10.561321505941175,44.77278564357428],[10.56070372150941,44.77317614720152],[10.560446701814277,44.7730083048796],[10.560226045058478,44.772930350430755],[10.560127721462337,44.77289563272269],[10.55956677447537,44.772714248702414],[10.559025765017816,44.7723345445626],[10.558864422320791,44.772211452259455],[10.558341644227651,44.771805983536524],[10.557594102598,44.77128283058572],[10.556899838774783,44.770842191010104],[10.555903909780286,44.769991558906874],[10.555026294571759,44.76931034426237],[10.554232221757717,44.76891605528339],[10.55376989744388,44.768799501850935],[10.553493971677257,44.76873057840534],[10.552367171591406,44.76863985806477],[10.551389187534696,44.76845510336832],[10.550549311659198,44.76828535040855],[10.54951466130169,44.76824760710273],[10.549363773639676,44.768219468295705],[10.548688159904112,44.76809780059606],[10.547758439126753,44.767856212113934],[10.546853864732848,44.767580401660034],[10.545946415273265,44.76719659848267],[10.545371968021463,44.76697932002714],[10.544208550966875,44.766472937205144],[10.543261562182156,44.76602662337653],[10.542748865070829,44.76575449153838],[10.541813330077623,44.765263003140745],[10.541073998858204,44.765049152755665],[10.541032509118773,44.765038473400814],[10.54064391078325,44.76493717744187],[10.539457819973391,44.76459261564435],[10.538323220254723,44.76423881272778],[10.537185872782736,44.76376788896949],[10.537129050943028,44.763742730103665],[10.536152537931969,44.76326556255605],[10.53611093945628,44.76324688435414],[10.535293239952667,44.76290679463402],[10.533191455988192,44.76234033917025],[10.53312975845558,44.762323723016124],[10.532838609563749,44.76228280967702],[10.532395994192388,44.76222062162527],[10.532082115958003,44.762176504115395],[10.53200099009483,44.76216776756342],[10.53178508780947,44.76212956343524],[10.530629960337794,44.761925104404355],[10.529678582754599,44.76178481449746],[10.528461498171469,44.7616300746783],[10.52742148943699,44.76148195279073],[10.526528562424582,44.76116080741507],[10.52565616074763,44.76065934339624],[10.524930635908524,44.76002988019799],[10.523964410919195,44.75932261010688],[10.523166426987425,44.75876611725143],[10.522577017885704,44.757972783808825],[10.52217868597003,44.75728324669152],[10.521979917719488,44.75694499353182],[10.521407710563539,44.75665746252043],[10.521213046408768,44.75655979057091],[10.520311741694371,44.75646709845068],[10.519429023049982,44.75647077966507],[10.518303639481694,44.7564408347808],[10.517091997029071,44.756430934223566],[10.516013412300643,44.75637133508963],[10.515118973551623,44.75641120981845],[10.51409832132511,44.75650548212562],[10.513504881908585,44.75652244490682],[10.512931261866722,44.75651636712056],[10.512849621963126,44.756522907827915],[10.512537874593084,44.756265265091095],[10.5120347453803,44.75586682708367],[10.511658124289603,44.75547651732755],[10.512221351993876,44.755270205160976],[10.512746765553338,44.755074012842975],[10.51352005504121,44.75471236282481],[10.513912270666163,44.754354217810075],[10.5137190377745,44.7541181957591],[10.513319371371285,44.75379732813515],[10.513019038894356,44.75342321407271],[10.512550299155972,44.752889291751444],[10.51192813547092,44.75228538352525],[10.511482351276957,44.75186611736453],[10.511371242346273,44.75176161769194],[10.510731670047397,44.75099589385111],[10.5104605684347,44.750720224958144],[10.510250080485697,44.75050619268325],[10.509821908396145,44.750513972562715],[10.509360697260625,44.750743886975904],[10.508773949477368,44.75101272608786],[10.508124940082297,44.75129150207037],[10.507276175996388,44.75168968732096],[10.50647703207471,44.75205062357329],[10.505862486761734,44.75214995205161],[10.505448500483247,44.75184887148905],[10.505082788706758,44.751406634561604],[10.505151145136363,44.75104447883768],[10.505733695762256,44.75069280260733],[10.506023429716791,44.75050918231571],[10.506284832528669,44.750344931666106],[10.506485807575102,44.750343084120864],[10.50668332872217,44.750341722910065],[10.507490143073177,44.750633682988706],[10.508500999245888,44.75034061611309],[10.50898893197681,44.750055555973184],[10.509545038570709,44.74966140381982],[10.508626902138715,44.74972735415149],[10.507808262271258,44.749766099860906],[10.506918951509187,44.749632935615566],[10.5061002106419,44.74923863586861],[10.505395127050692,44.7488428398923],[10.504304699248188,44.74876248183025],[10.503427895728167,44.74897202740756],[10.502800298141116,44.74906211380526],[10.502651801300628,44.748950660871735],[10.502457144078274,44.74880456307548],[10.502296159838052,44.74869008717729],[10.502130838564648,44.748411243919755],[10.501950649875814,44.74808473528212],[10.501283945728666,44.74721803275966],[10.500804186190386,44.74625210437797],[10.500360789752001,44.74550869103446],[10.50027579219512,44.74536102870503],[10.500162865251529,44.7452141770727],[10.499973637080082,44.74496946625777],[10.499750042137682,44.744679053537425],[10.49954445927425,44.74441270011983],[10.49975276245563,44.744179593642016],[10.499934847876748,44.7440118241909],[10.499902632265046,44.743972130433704],[10.49955443047738,44.743467163812504],[10.499473192677494,44.74333319887131],[10.499333224900699,44.74312682536773],[10.499061102916848,44.742756320269564],[10.498886787013355,44.742512707201705],[10.498862528811943,44.74248100265191],[10.498412701178106,44.741692459720944],[10.497550513876625,44.74058750416045],[10.497086748258722,44.739747372590074],[10.49650983253873,44.738926730275445],[10.496018890299169,44.73850106191025],[10.49562074836619,44.7382452152535],[10.495211353396131,44.73757541192376],[10.49464664458283,44.73673659001206],[10.494250376407821,44.736062110976654],[10.493929049968042,44.73535514279859],[10.493761793212581,44.734745180005824],[10.493732567228765,44.73438624667606],[10.493704741404523,44.73400098753582],[10.49345009812982,44.73293980719502],[10.49322400351763,44.73200653578843],[10.49288129439954,44.730957755677764],[10.492532460573477,44.73016111759952],[10.49236545112853,44.72956014952115],[10.492295618533356,44.729354988265136],[10.491998569845622,44.72904282110635],[10.491763376962416,44.72856894742404],[10.491678958059449,44.72839885132299],[10.491211446291846,44.72740571166892],[10.491087556692353,44.72712636882368],[10.491038050803683,44.72702055290169],[10.490825508145553,44.72652625934763],[10.4908903658422,44.7264870644033],[10.491036113130571,44.726401097550074],[10.491195471843112,44.72630791743017],[10.491832214380208,44.7260297425948],[10.493149954183941,44.7257148635105],[10.494341046456722,44.72538427566158],[10.495257990778486,44.72512114808575],[10.495317967068912,44.7251033167503],[10.495552808654221,44.72492715148365],[10.495685707644345,44.72459266933343],[10.495919924676851,44.72440087173231],[10.496818054060352,44.7239925733558],[10.497804618812705,44.72356564063439],[10.499443309759323,44.7229680334075],[10.501122810315202,44.72248695312492],[10.502100581999352,44.72231256558193],[10.502297830563922,44.722507334965876],[10.50281964024196,44.723130618878045],[10.503201547743584,44.723737751074204],[10.503556359060484,44.72427320660275],[10.503886857282971,44.72484499772335],[10.504258035427656,44.725524283439086],[10.50456026132432,44.72597941290843],[10.504916384125469,44.72602075046255],[10.50527969223817,44.726022931986556],[10.50559676371358,44.72650588539708],[10.505824326833073,44.72700251178047],[10.506207927026896,44.727672619356696],[10.506367274651154,44.72822659525873],[10.506416203258224,44.72839904461082],[10.506520044859874,44.72858295406869],[10.508617154898078,44.72798292834208],[10.507935017643865,44.72655885448057],[10.507274243174665,44.725318031849696],[10.507669881565864,44.725137176673144],[10.50889550771866,44.72468420283765],[10.50974414930446,44.72437619624662],[10.5100334589135,44.72474116802495],[10.51059785055266,44.72526315923941],[10.511117875721121,44.72516776825832],[10.51283717287571,44.72475811033243],[10.515069833078906,44.724260166382585],[10.51543516599191,44.725038700782605],[10.516950139977665,44.7246227217039],[10.518128238197837,44.72440155443705],[10.518094303393998,44.72458880752696],[10.518017810633486,44.725493095509314],[10.51805521580025,44.72548308094981],[10.518371536221816,44.72539806561022],[10.520084253810177,44.724928474643725],[10.520140586420236,44.72491308779591],[10.52099839425416,44.7246948222693],[10.522309036489755,44.72436235625646],[10.525342148776357,44.72353847039967],[10.52553556276335,44.72409404520452],[10.525903283898693,44.72461031688445],[10.526399253808245,44.72422570429058],[10.526423525681341,44.72420283168523],[10.526525146962454,44.72405381153507],[10.52689421113265,44.72349353304834],[10.527315803070833,44.72217081221792],[10.527328217415045,44.722124443496526],[10.527404058872182,44.72183897332644],[10.527613976988881,44.721049039852545],[10.527639762258326,44.72096140285329],[10.52821572481098,44.720862633351395],[10.530281931681026,44.720681527203446],[10.532241815592903,44.720384900785376],[10.532519950969006,44.72128184421831],[10.532615306100787,44.72146977264739],[10.533688745146069,44.72122423960034],[10.533543613914185,44.72083823881245],[10.533396938964202,44.72039678976997],[10.534697894485573,44.72008218281831],[10.537091502711823,44.71940190917359],[10.538721543222948,44.71891746094036],[10.539471623069927,44.718694494546845],[10.540485054399051,44.7183340175226],[10.542340273039402,44.71767206352144],[10.542661121408694,44.717558064419784],[10.544640308419803,44.717044884673925],[10.544907438011842,44.71751844851485],[10.545350450045024,44.71803458185448],[10.545615340922208,44.71849911520792],[10.545758333745729,44.71912733033307],[10.545911673095231,44.719603026228185],[10.546351296032658,44.719559630738765],[10.546844254606405,44.719405035268444],[10.547577021411797,44.71917486735779],[10.548864524797086,44.71873437095278],[10.549849271112246,44.7200531244384],[10.550910361833008,44.72114639595116],[10.55148701412811,44.7217405215938],[10.551859096027743,44.721547172375686],[10.551930204582927,44.72151031360291],[10.551969015020678,44.72149163828909],[10.552008461442806,44.72147025721899],[10.552257006247348,44.72134391483714],[10.553080948746736,44.720908497281684],[10.55374164738828,44.72055524496805],[10.554232240393375,44.72029335460513],[10.554508004173277,44.72021758549054],[10.555193297935936,44.720029926286706],[10.555810424244678,44.719637961137096],[10.557184678710568,44.71900949481501],[10.55838089481824,44.71854603584589],[10.558440068179008,44.71862652649124],[10.558682000885351,44.719143529320846],[10.558822004128926,44.71968631233173],[10.559088051148642,44.72025176412796],[10.559341176107953,44.72076048258711],[10.559488222828257,44.72114057374427],[10.559550418067877,44.72127415606217],[10.559766554863353,44.721738375146565],[10.559987680560445,44.722328827404304],[10.560253313416258,44.722878020986315],[10.560328045470342,44.723147075005656],[10.560496690971764,44.723109532440716],[10.560639019393461,44.723078072117566],[10.560836433965658,44.72303455798154],[10.560831848431544,44.722963874969345],[10.560807313083993,44.72284350894556],[10.560764206531422,44.72261634828104],[10.560442108082206,44.721907316103554],[10.560323617602311,44.721665876985334],[10.560054343607646,44.721104667382185],[10.559598063809416,44.72010040423741],[10.55957929379857,44.72003313502139],[10.55933287015767,44.719158786655456],[10.558919461119249,44.718264077658176],[10.559318159847583,44.71814202171465],[10.559707508287877,44.71806435928658],[10.560611397458286,44.7178717718631],[10.561497309059684,44.71760949568911],[10.562417215350159,44.7174152282301],[10.563285960473776,44.717240839611655],[10.563327507729237,44.71723143497003],[10.56385669600303,44.71711068675368],[10.563767538486793,44.71691965755346],[10.563532847101241,44.71664380000808],[10.56325835486219,44.71629647089228],[10.56303816317325,44.71594706002769],[10.563346188901122,44.71583543517285],[10.563848451253618,44.71539546180083],[10.56341615795815,44.71512402244188],[10.563029536045438,44.714832234812015],[10.562476680107146,44.71446171501644],[10.562434117489602,44.714444349482314],[10.561632947785004,44.71408837981623],[10.560839136922695,44.71368291165861],[10.560498433448501,44.7132194476612],[10.560036893600246,44.71248757055225],[10.559129075085146,44.711590737228875],[10.557797112520392,44.710411621570145],[10.557394035456449,44.710090219732116],[10.557319811355914,44.710031035211344],[10.556608188554083,44.70891545887624],[10.555911480998232,44.70741257715528],[10.555402425968559,44.706316730964446],[10.555043497110994,44.70516933025967],[10.554805849769908,44.70430835036717],[10.554733011751777,44.703967252651275],[10.55442597529083,44.70385323833968],[10.553833361542898,44.70380063040659],[10.553622949721909,44.7035232502418],[10.553446504507944,44.703214120766646],[10.55335806683365,44.70305873243011],[10.553142960095663,44.702626186651884],[10.553117976834693,44.70257590352141],[10.552852378334043,44.70208439522002],[10.552542342953315,44.701818537778784],[10.552127072263321,44.701554493557275],[10.551985943218217,44.701325413157114],[10.552076109037626,44.7009066868745],[10.552163950711309,44.70038035084799],[10.55210267045371,44.70000831593622],[10.55204480972452,44.69990276113764],[10.551783740277243,44.6994094970213],[10.55115138103756,44.698416579102],[10.550761209657264,44.69751265442396],[10.550340658131402,44.6968882024579],[10.549828208461854,44.69612996436574],[10.549502699717126,44.695756294399885],[10.549248011537031,44.69554160137681],[10.548608500429427,44.695407381183244],[10.547953761630797,44.695408121212466],[10.547271518691174,44.69538137326626],[10.546463185409749,44.69532150340431],[10.545625992258413,44.695205675353115],[10.544711945099907,44.69504584655391],[10.544266196615878,44.69500989978166],[10.543936947052135,44.694983346340514],[10.543828113403181,44.694974568717136],[10.543667917237984,44.694937106159074],[10.543230434438787,44.69484642621182],[10.54297666906358,44.69479583880031],[10.542403193997552,44.694587530054626],[10.541894837189846,44.69446605999047],[10.54161450686875,44.69439908476348],[10.54113682483405,44.69438062000152],[10.541119181857999,44.6942290376421],[10.541105109063725,44.694121164016735],[10.541102059452658,44.69406719724954],[10.541071748920782,44.69387630684621],[10.540928160135108,44.69322108324961],[10.540812934817634,44.69267670458468],[10.540812550377975,44.692617240091806],[10.540813717585802,44.69225776494831],[10.540821030924866,44.692036479719405],[10.540984824387962,44.69155493153743],[10.541049370493102,44.69132305675493],[10.541106632830035,44.6911292864672],[10.541159841801596,44.69088225248121],[10.541200712824592,44.69070248691117],[10.541076105190399,44.69028657821924],[10.541050388888555,44.69020362720584],[10.540994812247904,44.69002435944159],[10.540632277028953,44.68967816250869],[10.540450889791218,44.68950056132655],[10.539986011751635,44.68910173412201],[10.53955807464101,44.688819136265494],[10.53942665556586,44.688741118277626],[10.539305573723142,44.688660865025504],[10.538628106124014,44.68812794838237],[10.539010147701202,44.68798961031379],[10.539984373547712,44.687607505166866],[10.54090721217918,44.68727018964568],[10.540954397917218,44.6870991395683],[10.540378692458939,44.68677391311628],[10.539164807742534,44.68620513590499],[10.537738405681715,44.68523410158708],[10.536570744790284,44.684470397208656],[10.53674481710853,44.68400509152874],[10.536526339905091,44.68390982561202],[10.535455619285269,44.68341940312809],[10.534129115378247,44.68274712033899],[10.534601021988383,44.68214361263804],[10.534813126871208,44.68161536608654],[10.534106382949034,44.681542556760625],[10.533646596917297,44.681332675969934],[10.533018236269069,44.68096446398374],[10.532883876898238,44.681126829971646],[10.532270641303516,44.68176386533193],[10.531920914860079,44.68144586457705],[10.531429741219691,44.681002339187536],[10.530624676836732,44.68061703597161],[10.529694723856649,44.6803423255916],[10.529149305881813,44.68065472409934],[10.528180259033217,44.68116210897954],[10.52691539851426,44.68063068849116],[10.525560663347324,44.679973615540405],[10.523695303349362,44.679089292794416],[10.521995386228692,44.678256743238144],[10.52139999095425,44.677968204788925],[10.52009055552431,44.67733013502164],[10.518289339348346,44.676478613218315],[10.517544590475232,44.67611572527921],[10.51662790366635,44.675670259720434],[10.516180541913519,44.6754808947326],[10.51512219283547,44.675033314442146],[10.514956839631452,44.67496322185623],[10.513272750329653,44.67424511596103],[10.513065184869157,44.67413108298258],[10.512983329513837,44.67408631480044],[10.512581087457262,44.67386084040405],[10.511552610427522,44.673583949739154],[10.510812468827117,44.67326066358201],[10.510746356629275,44.6732308023182],[10.510097047116764,44.67292781371628],[10.509599810832876,44.67272732978499],[10.509348115895047,44.67259082097656],[10.509501461693532,44.67238954722056],[10.509661841349264,44.672195567628954],[10.509954748021354,44.67179567338985],[10.510409514607964,44.671339550956155],[10.510792110097174,44.671019360111],[10.511274291000397,44.670634979832904],[10.511857261690828,44.67024931163332],[10.51251745710862,44.66993516432029],[10.513297778815737,44.669860489478864],[10.51413787949706,44.66966938337176],[10.514211455843464,44.66964414078762],[10.514712820982247,44.66947262984089],[10.515224251447014,44.66924127824069],[10.515634807641483,44.66910082113507],[10.516047094564136,44.66930319003778],[10.51663079041021,44.66932821099154],[10.517551894252302,44.66900313092987],[10.518188861701407,44.668760492840676],[10.51888054330142,44.668441956859766],[10.518526660388787,44.66815535561048],[10.518310228343003,44.667928665062945],[10.518728237724694,44.66766443067138],[10.519237759203454,44.66741767068946],[10.5192137741596,44.66701941521531],[10.51944928215997,44.667012856103646],[10.519408322873614,44.666645221369],[10.519630314785381,44.66642162160988],[10.520580455666076,44.666207052863804],[10.520787163441126,44.66583193309377],[10.520694306265437,44.66518942423929],[10.520280434675138,44.66479882736601],[10.51946375590266,44.66444060708388],[10.518584862106136,44.66409219909571],[10.517554773322727,44.66377281193135],[10.51630095671981,44.663096285441014],[10.515086392126088,44.662473242385126],[10.513733325134824,44.66132088962018],[10.5122299342489,44.65977440401957],[10.511456432505067,44.6586233471897],[10.511432263689482,44.658333624265204],[10.511361655031688,44.65740252776951],[10.511275412866897,44.65648768663466],[10.511039583123038,44.65614871631826],[10.510016206528295,44.65559510413546],[10.509238927726736,44.65534520673391],[10.509118650046963,44.65451993848433],[10.509219178197304,44.65397755824544],[10.510454410649618,44.65349424805715],[10.51237087383898,44.65301819346441],[10.513006489944875,44.65269518737652],[10.513443332673488,44.65253612625938],[10.513966774452015,44.652313040477075],[10.51437680410133,44.65202010318855],[10.51561741643646,44.65169715926255],[10.516585827193449,44.651594276601344],[10.517246966983507,44.65131542757367],[10.517926510776698,44.650775253094544],[10.518556543797066,44.65027175264449],[10.518927459925878,44.64998774447769],[10.519955520803721,44.65072125554268],[10.52068612769991,44.651246601916846],[10.52111089057781,44.65155201882733],[10.52177236427054,44.65198665683871],[10.522124622655326,44.65221810895197],[10.522802653241838,44.65259901786332],[10.523047175016819,44.65273639256165],[10.523892523972583,44.652788479083874],[10.524021582283845,44.65278253985769],[10.524172529881989,44.65277684574457],[10.524597870727005,44.652761099884245],[10.524973748057304,44.65272843760827],[10.52515607254795,44.6525241975827],[10.525215359034505,44.652460340024824],[10.525368356183899,44.652284210785034],[10.526294242663939,44.652531402636576],[10.526600634565341,44.65261777032102],[10.526636754324509,44.652630099666666],[10.526876318208327,44.65270286886727],[10.527197469206216,44.65279846673284],[10.52758819299846,44.65285590248053],[10.527788766437245,44.653214703534104],[10.528523720155833,44.653383974365774],[10.529916105270427,44.65358147677145],[10.53124418984352,44.65372561455488],[10.531809951923849,44.65374414569457],[10.532047525920635,44.65376004075395],[10.532722884805738,44.65433600552026],[10.533360106006242,44.6550567117109],[10.53368689675217,44.65544746639599],[10.534763664529196,44.65521779438237],[10.536178006318314,44.654802798712],[10.537192311045219,44.654501179267754],[10.5377734625925,44.65436218680035],[10.538030887114553,44.654300313642466],[10.538488082353561,44.653925595751915],[10.538640240066465,44.65371266895103],[10.538926118720052,44.65329836125883],[10.539291727036545,44.65281631411012],[10.539769608766884,44.65223492414936],[10.54037037721642,44.65231005762713],[10.540539907073471,44.65233147838484],[10.541477606730552,44.65249884845647],[10.542161885606477,44.65265186572081],[10.542846885536859,44.65309492748987],[10.543061753536143,44.65323341616191],[10.543254971217971,44.65329396861913],[10.543760842984822,44.653448696936735],[10.544618882855126,44.653482622721],[10.545427240112879,44.65352539051159],[10.545789495897571,44.653502837646776],[10.545614340631257,44.6529739869742],[10.545582152135344,44.65265884873434],[10.54638158959026,44.65248577206738],[10.546734082342471,44.65240938874418],[10.547095518962697,44.65230674998718],[10.547175808247683,44.652405160579335],[10.547529421481967,44.65283888243518],[10.548717196783498,44.65250900382941],[10.550561502098958,44.652159505277616],[10.551375022602423,44.65190625267577],[10.551751907139673,44.65280972977755],[10.552091577150762,44.654218477607124],[10.55244764813959,44.65532149292111],[10.552781049477066,44.65597356047769],[10.554148565538908,44.65570288997572],[10.556417252434542,44.65515867412128],[10.55841627233384,44.65443854957102],[10.56056699160824,44.65385966059703],[10.560882912529404,44.6537746202689],[10.561169069851234,44.65371559162706],[10.562751797508382,44.65338908680785],[10.563795205283597,44.653266586822085],[10.563682082256783,44.65277226147615],[10.563078158606313,44.65190798142106],[10.562516356668318,44.65121340896805],[10.562886819223454,44.650839728753496],[10.564055508479013,44.650514228749955],[10.564350087529496,44.650432173654195],[10.56558358747162,44.650090545112334],[10.565650617325561,44.650072061375525],[10.565884893420803,44.64977219692762],[10.565781042850723,44.64963035902582],[10.566559435392627,44.649403371728454],[10.565381082393198,44.64711827809516],[10.565225772642068,44.64681708532042],[10.56431672395526,44.64508666871885],[10.56450664036033,44.64492067864581],[10.565018403775879,44.644684185932974],[10.565091729007756,44.644651311342216],[10.566151771607895,44.64514990936024],[10.567170633928441,44.64599114825304],[10.567682128431123,44.646254201761515],[10.568251067861294,44.64584127196355],[10.568409149466456,44.64549678733603],[10.567757977182815,44.644857773854895],[10.567156709218262,44.64404684158268],[10.566714266156561,44.64340583741149],[10.566794180817793,44.64312924804714],[10.567694232985316,44.642832053126554],[10.567891523259764,44.64276749650717],[10.56868824026256,44.6424969951019],[10.56874593176612,44.64248136286254],[10.573493543826341,44.64129938052213],[10.57352981523984,44.64128270147734],[10.573755551711692,44.64117891873695],[10.574097207359266,44.64102183560528],[10.574222550985308,44.64100889411774],[10.574362019082578,44.64099574964038],[10.57452059593046,44.64104965369317],[10.575652846682344,44.640789514841174],[10.576033825197296,44.64070198082334],[10.576962376337473,44.64048798270568],[10.577325776338142,44.640990139524],[10.577656403698512,44.64151896759352],[10.577763109160749,44.641619271248274],[10.57811154540968,44.641946796634414],[10.578521212128832,44.6426435694883],[10.578931984654517,44.64337608230427],[10.579314865787325,44.64400995426609],[10.57965757350935,44.643833416336605],[10.5797978048385,44.64376117972886],[10.580294185710693,44.64350576505183],[10.580341780086837,44.64348253450069],[10.580485237443943,44.643393567265434],[10.581413439456787,44.64281947968967],[10.582393806790684,44.6422387568895],[10.582673096370765,44.64242393554172],[10.582753347698892,44.642476831516674],[10.58304356278122,44.64279832586394],[10.58322145349153,44.642992598818864],[10.583916475166493,44.64358014395788],[10.58464680439926,44.64347245918071],[10.585803030486224,44.64333037354811],[10.587250043997456,44.643238251660826],[10.587386843318589,44.64317026387659],[10.587697777325,44.643015847505545],[10.587679050174534,44.642926486776474],[10.587568233412894,44.64240549063752],[10.587144635379312,44.6416686867861],[10.586688366686209,44.64065776063497],[10.58625657843108,44.63961949225341],[10.585841328818967,44.63872501715812],[10.585342033299497,44.63798475714979],[10.585195062117897,44.63773481454005],[10.585762691311816,44.63746925730082],[10.588346496783052,44.636259776144065],[10.589065455682675,44.63719817027178],[10.589170238779214,44.637337600332835],[10.590127182260305,44.63867463900463],[10.590664476554476,44.638496105057335],[10.592631707721793,44.638045574591956],[10.59291056409962,44.63858182811268],[10.593544011485086,44.6396127568969],[10.5951852823773,44.639229747450266],[10.596094434867737,44.640657419634394],[10.597145491490325,44.64220013296456],[10.598346884671875,44.641868238898255],[10.599833535235954,44.641460975995734],[10.600388200370825,44.64232577127874],[10.601679675788045,44.644351197884745],[10.60222338447323,44.64569267353993],[10.604310488136411,44.64509746246642],[10.605898639886016,44.644633582510984],[10.605999703286285,44.644602679864285],[10.606247655087373,44.644531334352145],[10.606369121761189,44.644630736452726],[10.607031484195861,44.645189823730604],[10.607168738040867,44.64534589458661],[10.60765652179547,44.64590128397872],[10.60772165882547,44.64597287247256],[10.607773620805744,44.646034516903185],[10.607818381704542,44.646086919080275],[10.607989869802278,44.64675209523122],[10.608709848329232,44.645976204444246],[10.609252401823971,44.64543833789371],[10.609372946815375,44.6453189454901],[10.609457866487062,44.64524415717734],[10.610418411253326,44.64437712284165],[10.610954834932516,44.643712479324606],[10.611433011844484,44.64274216081378],[10.611896453110006,44.64214617804364],[10.611646290827354,44.641861873294424],[10.611866318626891,44.641056848551024],[10.612656970842222,44.640497010468444],[10.613477131176786,44.640062400639],[10.614475357984665,44.639697022131564],[10.615710340131415,44.63921156098173],[10.61712264545535,44.638760242142325],[10.618071120029434,44.6388711658013],[10.619059897163712,44.63861468734556],[10.620120311821129,44.63818605181381],[10.620723420815406,44.63806994307086],[10.62113337876315,44.63799090360223],[10.621226408510301,44.63763863484221],[10.62123412982452,44.637589556383496],[10.621292698432656,44.637223675413665],[10.622521704134925,44.63706237110054],[10.622620859951576,44.63706595299507],[10.62278100349215,44.637071814391746],[10.62325242903575,44.63709250776667],[10.623333218347241,44.637095960343366],[10.624097606712574,44.637128915988214],[10.624206936137796,44.636867645544804],[10.624007706202084,44.63609561142765],[10.623784720416275,44.635287997617795],[10.6241604858604,44.63519383045126],[10.624697624266854,44.63505972759182],[10.625837875813192,44.63486432027072],[10.626046531121576,44.635067273807266],[10.62638668859986,44.63552166221972],[10.626809473675964,44.63621332389081],[10.62706229627671,44.636236730615146],[10.628314553130158,44.63593080429753],[10.628460927003218,44.63589497018645],[10.630105782808062,44.63550041618953],[10.630852893705404,44.635615782755195],[10.63158715134935,44.636172443713654],[10.632296212347585,44.63672945199917],[10.632032820417907,44.63722835094315],[10.631162698445205,44.63767289238825],[10.631074469492127,44.63812427881571],[10.631505024726799,44.63864026224676],[10.631872720206596,44.63918414976387],[10.632009108917053,44.64000141759283],[10.632127611770375,44.64062988228217],[10.632195409513566,44.64062332982055],[10.633121072096701,44.64053467398208],[10.634498671042207,44.64019987891116],[10.635496108081727,44.63979849635926],[10.636242418803475,44.63942771232717],[10.636742369927557,44.63922247760576],[10.637047287076209,44.639095209377075],[10.637244330122957,44.6390123640627],[10.637296331275046,44.63898948768189],[10.637336218946844,44.638974228208134],[10.6374137824002,44.638942804684234],[10.637588094887676,44.63885612201253],[10.63766559367276,44.63881766023127],[10.638119819898412,44.6385852244058],[10.638635752212979,44.63832085267301],[10.638750469403863,44.638275451669486],[10.640058060183588,44.63747347765013],[10.641021359030296,44.636757444080196],[10.641855244168795,44.63625828052215],[10.642001369879013,44.63616917411987],[10.642112403767625,44.63610259131336],[10.642314230866678,44.636050181314445],[10.64236682590977,44.63603591571869],[10.64304373924038,44.63586863946036],[10.643414489580715,44.63577778408023],[10.643528201337274,44.635744638764244],[10.643623926838314,44.635716251674815],[10.644702664603486,44.63540814289936],[10.645304772233063,44.635103229060576],[10.64547013528493,44.63501971869613],[10.646161403586532,44.634396512008635],[10.646762494903957,44.63436561815126],[10.647370282622415,44.634334313928335],[10.648279491574067,44.6342934935828],[10.648539840398024,44.63428116188871],[10.648808544096461,44.63423703832336],[10.649127752040155,44.63418633219367],[10.649342852357941,44.63415252326692],[10.649744312614773,44.634083656708555],[10.650796947312768,44.633861294400596],[10.650903284080297,44.63382960412487],[10.651119217722792,44.63378009572564],[10.651168171436652,44.63376157015201],[10.651308943860501,44.6337138072681],[10.651406612391776,44.633681588307965],[10.651946794633766,44.63349395381939],[10.653156275288731,44.633230322454686],[10.653202994195814,44.6332194462404],[10.653401612367468,44.63317580716152],[10.653672234723023,44.633117870601026],[10.653950969491952,44.63305531735949],[10.654003090785363,44.633045561687645],[10.654465448628349,44.63294487560355],[10.655726958708785,44.63297956240346],[10.656729706703524,44.63277629317316],[10.656950096716148,44.632707812921964],[10.65727769691159,44.6326062117636],[10.658404283153263,44.63225691453957],[10.660821934687622,44.63125871064594],[10.662430084017275,44.630695140346326],[10.662470569332068,44.63072587492827],[10.662908321368075,44.631066082310376],[10.663328051549845,44.63142928263291],[10.663514443015154,44.63159141745163],[10.663800354819294,44.63184079759922],[10.664463115993101,44.632533324080775],[10.664557403633278,44.63263672461041],[10.664657432833986,44.632746421391154],[10.665257066059835,44.63340397342189],[10.66597540936529,44.634248362755336],[10.666103486999246,44.63439891081763],[10.6661870925772,44.634495426823285],[10.666792427082425,44.635236221270375],[10.667220092174983,44.63565527470932],[10.667327700974473,44.635761160209135],[10.667450844417916,44.63587896214435],[10.667588608841939,44.63601709579382],[10.667650181878953,44.63608242931561],[10.668160663994954,44.63662089964829],[10.668870819520098,44.636763563611325],[10.669697507996277,44.637012545751865],[10.670314326883679,44.63771029799766],[10.670373100567163,44.63777611120168],[10.671079016048376,44.638581253972475],[10.671698972854875,44.63909431158754],[10.672179897934285,44.639177294635665],[10.672832440227763,44.639068711884704],[10.673452328432532,44.63914064478354],[10.673961134973526,44.63929522762581],[10.674204825206829,44.63921963868637],[10.674523623573723,44.639124939235145],[10.674618983900999,44.63900645126289],[10.674667102485211,44.638950332766115],[10.6749495931979,44.638596833022184],[10.675377173372054,44.63811320423463],[10.675776496467035,44.63753119389267],[10.675988065582084,44.636996954976865],[10.676036837973456,44.636501105341885],[10.676020126292794,44.6359206999446],[10.675701158507657,44.63533122267818],[10.674639255187747,44.634356550887354],[10.67448077644247,44.634192835755115],[10.67410641067811,44.6338061245877],[10.673460257675995,44.633257454638745],[10.673055361490782,44.63276825247373],[10.673133600008887,44.632415902297794],[10.674119841352708,44.63207756290019],[10.674994732281172,44.63181266560865],[10.676347438895533,44.63150473847908],[10.67707703297401,44.63148321333115],[10.677581575694665,44.631468341051196],[10.67858152380412,44.63160667752957],[10.679433513902236,44.63142310766501],[10.68035851485545,44.63114843150875],[10.681263431697058,44.631072094903686],[10.68192588023823,44.63103084250488],[10.682034144731123,44.63102448804352],[10.68281941281289,44.63071579550392],[10.683153138844661,44.63041589651209],[10.683603127180172,44.630011556124515],[10.684027261724374,44.629420150595344],[10.684324916127947,44.62916142173478],[10.684408521558588,44.6290904328353],[10.68456481905007,44.629052623964085],[10.685689085123121,44.628781912521504],[10.685843966527724,44.62874528051985],[10.6859228923598,44.62872561959987],[10.687529604112472,44.628485825034126],[10.68792803747807,44.628421557331045],[10.688087765764573,44.628395691390665],[10.688956730764797,44.628256365163246],[10.689562317118643,44.628158698911484],[10.690993392081438,44.62794845461021],[10.691808788668867,44.62781034292425],[10.692502368644432,44.62781806335641],[10.692700796868934,44.628139214835876],[10.692673993261378,44.62871558498651],[10.692664531491546,44.628761058032985],[10.692804935515351,44.62925410264873],[10.692983545082496,44.62932249282759],[10.693286959173374,44.6294401865725],[10.693369103792216,44.62947433807015],[10.693884329504815,44.62945739156867],[10.694262103155257,44.62944323055147],[10.694310840767566,44.62942437368458],[10.694871342487806,44.62917384829148],[10.695007297147324,44.62896922167669],[10.695463639046263,44.62826957384391],[10.695656258782055,44.627510129650965],[10.69606217751225,44.62625284235195],[10.696357008052104,44.62555528543788],[10.69681588787929,44.62529639972536],[10.69783330784605,44.62521835963925],[10.69891638138269,44.62518403893368],[10.700073527613423,44.62509494317225],[10.701117985072306,44.62503419076417],[10.702097717719331,44.6249117959713],[10.702638450834366,44.624867673476366],[10.703582121679924,44.6248084671361],[10.70424032050319,44.62474364766782],[10.704308968112969,44.62473680650656],[10.7046627020124,44.62470188612655],[10.70548755843804,44.62444696342619],[10.706224407555228,44.624256450904085],[10.70630759763203,44.62495252679598],[10.70646938036413,44.62564278177854],[10.706577303241646,44.62679372767034],[10.706619112732765,44.62736025409108],[10.706642276824729,44.627661535235205],[10.70664486131853,44.62769844359416],[10.706659098174788,44.62790911697899],[10.70534061214919,44.6280366001738],[10.704872129214545,44.62807161296632],[10.7039946831774,44.62813715073653],[10.703737668914417,44.62809657342272],[10.703057919266792,44.62798922882658],[10.702950130487825,44.62794110335842],[10.702686471011843,44.62782527671078],[10.702399157451357,44.62790031486933],[10.701472543965448,44.62811224951125],[10.700370740055538,44.62837170531661],[10.700429695736194,44.628496662770075],[10.700582369328083,44.62884044969313],[10.700698855691881,44.629100762686456],[10.700735070265763,44.62918558365262],[10.701296567820053,44.63070785018865],[10.702162287278867,44.63231521604557],[10.702637273044198,44.63219560869577],[10.703018529984162,44.63204558185543],[10.703398406720948,44.631896019951014],[10.70384609438446,44.631655758833325],[10.703289428705896,44.63033548682805],[10.703625502017324,44.63015989880312],[10.703035511535886,44.62938555701013],[10.704109681765496,44.62910932746931],[10.70461960735675,44.629855347250434],[10.704809434122112,44.63013307458131],[10.705523810730941,44.63121547752179],[10.70614011949422,44.63115118643288],[10.706513251098068,44.63111232088148],[10.70701853616791,44.63177343029173],[10.707117858659421,44.63190338562553],[10.707259151313972,44.63240597657417],[10.706095263664885,44.63268458004902],[10.705561511623568,44.63297031692796],[10.705574649183276,44.633475921568284],[10.705868020182061,44.63397514127584],[10.70602579915326,44.634160385007625],[10.706835139980246,44.63384397293703],[10.707726824920215,44.63374878937831],[10.708314367188454,44.63356932175617],[10.70895191253197,44.633424800107925],[10.709267463164188,44.63382514187973],[10.70920744543574,44.634357182146616],[10.707888767994397,44.63496206500349],[10.707064545341495,44.63522655131404],[10.707693074262991,44.63602726823703],[10.708235255914943,44.636887883006295],[10.708534171779236,44.63762160280427],[10.70870284942433,44.638213238082294],[10.709468812132782,44.63853485666519],[10.710202432840791,44.638613895784815],[10.710773279623096,44.63873137720074],[10.711105717745818,44.63888843777555],[10.7111234436245,44.63949133031539],[10.711013005046766,44.640013603718316],[10.710608984998407,44.640435262358544],[10.710258506434204,44.64090431391386],[10.710275003393297,44.6410389242426],[10.710323250064095,44.64143880195874],[10.71046420149635,44.64191252244284],[10.710521979467215,44.64210651822862],[10.712415227560284,44.64139846404301],[10.712140027730234,44.6419022255532],[10.7125067047122,44.64236484238488],[10.713164862720635,44.64287711116175],[10.713736672276966,44.64345368022343],[10.71434125724168,44.643858712493085],[10.71501909418922,44.64418161574325],[10.715485932331509,44.64402943466349],[10.715793261676383,44.64392684227306],[10.716641880520566,44.643626002236054],[10.717390961892187,44.643371671597],[10.717669045694967,44.64339449755059],[10.717845387721516,44.64381495176196],[10.718708694205345,44.64358590205013],[10.719146968907445,44.644335503789044],[10.719606884288174,44.645390852420945],[10.719992739919162,44.64564610732776],[10.72032853355644,44.645488015974834],[10.720341511830503,44.645073712142676],[10.720070799831541,44.644447624042094],[10.719968473864025,44.64397204014922],[10.720442384690408,44.64379385925169],[10.720181365210514,44.6430686011443],[10.719768299088761,44.64231862262916],[10.719500531700694,44.641791522552424],[10.720144164249835,44.64140372792812],[10.720705746645045,44.64120621653026],[10.721269257263689,44.64192691473926],[10.721379927863419,44.64205981469411],[10.721687272420722,44.64242455867169],[10.722515405608045,44.642286044770614],[10.722604070372658,44.6427258147657],[10.722961085177698,44.643710685795156],[10.72332963600618,44.64465937349638],[10.72357646368157,44.64494878582475],[10.723943590389588,44.64537925347094],[10.724449617699364,44.64628534421149],[10.724817753883588,44.64679291661671],[10.725065307389968,44.64679314041133],[10.725385291900167,44.64679339444474],[10.725988395848036,44.64661311756619],[10.725818252328374,44.6460846802287],[10.72538562884058,44.64552856854765],[10.72538675689457,44.64514145143161],[10.72621437108473,44.644984910109876],[10.726321945011554,44.64478522384484],[10.726134273085712,44.64440997078073],[10.726305660161172,44.64423632885688],[10.726667443779073,44.644104825059706],[10.726636368949466,44.64390724595541],[10.728567247938322,44.64353593814613],[10.728805614881582,44.643919439201845],[10.729138131375139,44.644076444990546],[10.729951260153035,44.64385706988421],[10.73078850066831,44.6436013236384],[10.731680668408172,44.64317818774684],[10.731770245528335,44.64313631185714],[10.731425162455107,44.642133287951395],[10.73100527118615,44.64115839532743],[10.73078480706399,44.641194785488025],[10.730115029256732,44.64130693155075],[10.72978095133552,44.64067282567877],[10.729649299680176,44.640485770735395],[10.729306396205924,44.64053411084272],[10.728970074587323,44.64058157333999],[10.728569417922415,44.64063715680116],[10.72847842025375,44.640467609625304],[10.728182222442253,44.639905003548],[10.727731934648997,44.63917812660365],[10.729064111322167,44.63862681880022],[10.730326043248496,44.63823861023448],[10.730863661015928,44.63850952811395],[10.731519557468168,44.63851759248146],[10.732332049058282,44.638280208632004],[10.732843404198093,44.638092399230516],[10.732743665782532,44.637706813303716],[10.732531850203769,44.637367944719564],[10.732598381358976,44.63720032512895],[10.73275465857412,44.6368063868698],[10.73250584039597,44.63649507806888],[10.732211741896602,44.63622951291902],[10.732143091008425,44.63616752471355],[10.732058906128028,44.63588072720123],[10.732073406108924,44.63552041482404],[10.731749514486674,44.635228244450786],[10.731311666573317,44.63491980888833],[10.731171471667714,44.63444481036931],[10.731140854904528,44.634099844376074],[10.731095611073187,44.63359071632093],[10.730380475106076,44.632435745816],[10.730378820477931,44.632038798839716],[10.73037838491747,44.63194066972509],[10.73175438362328,44.631577716390474],[10.733003289889599,44.631180675665334],[10.73427315818188,44.63064797708955],[10.734337686765338,44.630620105692195],[10.733989827565537,44.630040327835744],[10.733477485287418,44.629345922509046],[10.733376421373029,44.62891534894256],[10.734480475431694,44.62873654082801],[10.734804607244275,44.62861458268075],[10.734515865078611,44.62823186840109],[10.734406239991129,44.627885100861796],[10.734362974243776,44.62774822125669],[10.734427580076861,44.62737813913082],[10.734806140068256,44.62739039639543],[10.735420578926735,44.62748596452646],[10.73580644766984,44.62754604546481],[10.73649817784772,44.627459195254545],[10.736622617673964,44.62744346131271],[10.736915845253687,44.62717796299337],[10.737283116391207,44.62719578524738],[10.737624401669448,44.62721231833613],[10.738584718021457,44.627287725805196],[10.739239701809382,44.62769185164871],[10.739955285163406,44.628014041629534],[10.740821004907385,44.62829792107588],[10.741836026683172,44.6285615168174],[10.742119049167979,44.62861186616317],[10.743280860926733,44.6288185417846],[10.744876385857552,44.629055238921744],[10.746349947619168,44.629428810659896],[10.747265053820835,44.62967587682546],[10.748467807725802,44.62984651589052],[10.74931829369692,44.63004054762006],[10.750788131615609,44.63028808649019],[10.752157841167156,44.6305596509722],[10.753178128105686,44.63094909829401],[10.753952892600383,44.63153135897156],[10.754757023459204,44.63202296206253],[10.754786306324984,44.632040687055635],[10.755802022761534,44.632277140324284],[10.757054184057608,44.63241091017518],[10.757860152777623,44.63256745853798],[10.758943664346418,44.63277784290884],[10.759588370436457,44.63302463445604],[10.75993865423408,44.63315869519341],[10.761211609102553,44.63356217586625],[10.762416115850842,44.63378665718105],[10.763479843494704,44.6339412743817],[10.764850376084963,44.63423518147837],[10.76506833393745,44.63435500435924],[10.765350441365431,44.63451102676983],[10.76584897054282,44.63515148449642],[10.766155943291283,44.6353968044612],[10.766688850924233,44.635822676440185],[10.767709597610676,44.63622098694074],[10.769009198120722,44.63668698401623],[10.769812449049795,44.63698061059539],[10.770463650024992,44.637249590170114],[10.770998872171896,44.637537673151755],[10.77059465741448,44.63776769169204],[10.770590273697108,44.63779368940095],[10.770486623147399,44.638419542085884],[10.77048145852204,44.6385625836006],[10.770465167261667,44.63901374585341],[10.770456215782806,44.63907105734358],[10.770486940041659,44.63927524233061],[10.770184572009871,44.639594976408326],[10.770332167071121,44.639954586830605],[10.770579971317817,44.64017646141905],[10.771155355023863,44.64013920553162],[10.77135241364526,44.64035287219251],[10.771554604000748,44.64078184305038],[10.771577746903757,44.640829101438904],[10.771619239213077,44.64091812367418],[10.771673100228563,44.6410453799588],[10.771108992588161,44.64128165951327],[10.771328178406144,44.642027553420064],[10.771703308286327,44.642696625548524],[10.772547871833494,44.64238695422947],[10.772993985735889,44.64290189128116],[10.77340238182037,44.643278840670376],[10.773113043034954,44.64341183874945],[10.77325341623443,44.64368522040251],[10.773121799147273,44.64373086686376],[10.772413956800344,44.64397797860487],[10.77220492161417,44.644051022875246],[10.771835045328412,44.644180221007815],[10.770000123371556,44.644796113839206],[10.768167638741588,44.645352060616005],[10.768814955330946,44.64620730337337],[10.766920587062518,44.646783809510836],[10.765801187465053,44.64712152922714],[10.766643995208367,44.64805742090264],[10.766710593069751,44.64843693370701],[10.766720114045604,44.648488547622044],[10.766384260681283,44.648598332456785],[10.765750592738248,44.64851913797605],[10.765433229016214,44.64848317378338],[10.76519707809072,44.64845587291398],[10.765385000487505,44.64895310066611],[10.765454081843712,44.649135861092155],[10.76574942560588,44.64972545200889],[10.76599925991921,44.65047777882627],[10.76621097047471,44.6509162780089],[10.764636473215207,44.651282422267855],[10.763377760962085,44.65178086402889],[10.762804635316153,44.65190417466771],[10.762879050687467,44.65207664817042],[10.763262019680495,44.65295519956188],[10.764029785330576,44.65415190276097],[10.764389594294288,44.654865902545],[10.764558561365147,44.65520632742583],[10.764574670487232,44.65523274721309],[10.764653603345668,44.65561878774889],[10.763815918720729,44.65583628913946],[10.763505351751794,44.65591080660191],[10.763184558940887,44.65598777765191],[10.762749523394012,44.65609822266904],[10.762795017287832,44.65650296378041],[10.762797305212283,44.65656439063275],[10.762821680405764,44.656706716941535],[10.762908957549431,44.6574965040853],[10.762914838314702,44.65795078120397],[10.762916186757373,44.65805490207718],[10.762927590275028,44.65893580902514],[10.762993666094241,44.6590941061954],[10.763020381882955,44.65915792585889],[10.763034320794176,44.65918746898513],[10.76305751364899,44.659249286888475],[10.76306825934546,44.65927792866478],[10.763196477200486,44.65959367788947],[10.763238803447335,44.659688149988575],[10.762596201677274,44.659911032240686],[10.762946087982904,44.66083272339541],[10.763084374936836,44.66097760274871],[10.763307036514885,44.66121087795669],[10.762559511125913,44.66161118564255],[10.763281220321277,44.66234521069586],[10.76341546089956,44.6624817096474],[10.764207628680374,44.662083373116715],[10.764402447652856,44.662381633507415],[10.763299404581742,44.66286435060294],[10.762839585454502,44.66335045462629],[10.76329257592448,44.6635368474038],[10.762829915688835,44.66401270817067],[10.762210385393546,44.664826404325346],[10.76149329600316,44.664830817177446],[10.761203801993279,44.66450485901548],[10.760660769301037,44.66447024607226],[10.759764935632251,44.66486544384388],[10.75866644382878,44.665242903202866],[10.758034461337395,44.6655499548224],[10.757906777518562,44.6659076452621],[10.75810370962487,44.66622355810984],[10.75826296921695,44.66648443123471],[10.75871600735484,44.66696055025004],[10.758572538173578,44.6674232139063],[10.758482363046204,44.66771898210913],[10.759300727151272,44.66777502358502],[10.759752611324513,44.66808413919229],[10.75994436334898,44.66853177783187],[10.760140565413524,44.66928399127671],[10.760252443093076,44.66954446033485],[10.760297403195041,44.66984365943438],[10.760127741376532,44.67009426676026],[10.759160478672225,44.67052784582522],[10.758983663274925,44.67060716327888],[10.758698480022852,44.670672200234506],[10.758073812411624,44.670814844579596],[10.757204588064987,44.671013341087985],[10.756902723247885,44.6711105410728],[10.756357852234412,44.67128601313606],[10.756612926600404,44.671730139859356],[10.756860681520369,44.67216158170908],[10.75730839087167,44.672773929218195],[10.757584506597736,44.67315194483454],[10.757777101682642,44.67343641177184],[10.758080890776974,44.6738849011062],[10.757013621155492,44.674293058385615],[10.75663460993192,44.67447278587064],[10.75595849750856,44.67479551422335],[10.755988195406243,44.675850315461204],[10.75600086857776,44.67668733249603],[10.755722435766643,44.6769925218844],[10.756129141994412,44.67759234527937],[10.756754342239347,44.678239889493796],[10.757263870105064,44.67881719514816],[10.757966933394776,44.67953556040048],[10.758661848299614,44.679983980752034],[10.75907339002349,44.68024095596958],[10.759511809979363,44.680450576171474],[10.75963092318493,44.68050751790582],[10.759020734009294,44.68102223118276],[10.758973719532149,44.68104783537811],[10.758575160142916,44.68126406525263],[10.758219716331633,44.68168303219982],[10.757260771442754,44.68162586829085],[10.756954889111253,44.68157946205912],[10.755080175004435,44.68131860810115],[10.754621322170323,44.68153394780213],[10.753575400388685,44.68202472112516],[10.752519013141185,44.68256294575772],[10.752248579248347,44.682688820321275],[10.75157338651808,44.683002918131436],[10.751433964958963,44.683331396680934],[10.751754316854777,44.68373227487712],[10.751038168510172,44.684109028705876],[10.750442566941414,44.68442228257606],[10.749199090357598,44.685035265343],[10.747625198648139,44.68556603075852],[10.746567520210416,44.685937785741324],[10.746055853980915,44.6861175831934],[10.74657374349651,44.686871617266185],[10.745917392121385,44.687102386843236],[10.744907121672833,44.68749604055738],[10.744075405802235,44.68790414974125],[10.743994059172282,44.68766118054841],[10.74386569081878,44.687277690408706],[10.743222329141956,44.68608126401749],[10.742186367968317,44.68640316345157],[10.74176039065528,44.6865475780995],[10.741074506822244,44.68678010000987],[10.740494029528861,44.686961829245476],[10.740435567269632,44.68698008511559],[10.739541621577812,44.687262427631445],[10.73968557799485,44.68759353170006],[10.73986572378021,44.68813092343844],[10.740115674914874,44.688892309280675],[10.740375008798042,44.6895455266514],[10.740620643823164,44.6901094569813],[10.740748649412554,44.69064723508009],[10.740831184336079,44.691294052459476],[10.740868535975336,44.69174278015448],[10.741320154854073,44.69247485671076],[10.741971437781332,44.693545190892486],[10.74297033848547,44.695411616710025],[10.742219583219502,44.69552174469001],[10.741404309907377,44.69568931278392],[10.740970593129614,44.695783694702044],[10.741165687227575,44.69614981453693],[10.741351201815117,44.696556564621616],[10.740732719072051,44.69686734080145],[10.740146145143942,44.69708313675739],[10.739442860470572,44.697202880139656],[10.739221630152509,44.69729564557878],[10.73935154976202,44.69795854081372],[10.739336164034395,44.698698364560364],[10.739295603226607,44.69944137866547],[10.73939768442436,44.69992607302378],[10.739270095314856,44.700336350821864],[10.738983571520848,44.70036080758482],[10.738702191022087,44.699862668073926],[10.738692093585557,44.69910649094274],[10.738677374903283,44.69861844180472],[10.738644243879941,44.698351035357454],[10.737159592900488,44.69850633325403],[10.73550933768008,44.69861477652468],[10.734304546884609,44.698702718696985],[10.73489541261082,44.6996121053285],[10.735624083038884,44.70053289842163],[10.734656263078083,44.700902952946606],[10.733658137857226,44.701233202702554],[10.733379343878363,44.70083243789498],[10.733039751600664,44.70050397219815],[10.732957101242603,44.700164208607525],[10.732218156113907,44.70003921739071],[10.730343982249314,44.70021237990932],[10.730143618241554,44.700238197667026],[10.728923765934885,44.70040460381038],[10.727309303556035,44.700456470153796],[10.726457074491192,44.700560071412134],[10.72662867581311,44.701753783633],[10.726916945110988,44.70296495890448],[10.727030578490673,44.703822400814246],[10.726917379608008,44.704304724949736],[10.726024949792242,44.70434819754603],[10.725895434449534,44.704532225180394],[10.725491401888233,44.70511317587833],[10.724816827504814,44.7062208786886],[10.724600735196029,44.7065759923819],[10.723328204109903,44.70870549633989],[10.723302092772137,44.70875386213101],[10.722907717558162,44.70945400246099],[10.722804707690829,44.70963684686621],[10.722710916636558,44.70980169233533],[10.722593909054947,44.71000730220351],[10.722460032614572,44.710242463645166],[10.72241059859203,44.71032945721332],[10.7223305844712,44.71047011678716],[10.721118738207538,44.712603916039654],[10.720083975427958,44.71432093302385],[10.719877026420145,44.71468135949772],[10.71917150537863,44.71591006529374],[10.718357396762936,44.71735124256635],[10.718639608648244,44.71841394262022],[10.71869441305079,44.7189534741995],[10.718779513231182,44.71979581186566],[10.71883515434992,44.72033394880441],[10.718861577502448,44.72207446073909],[10.718830735813276,44.72373403651664],[10.71881738666583,44.72442251066676],[10.718638320908369,44.72647770298667],[10.718500185101606,44.7273708961666],[10.718777776771123,44.72762747955073],[10.719551726147177,44.72832060885154],[10.719642050248689,44.72842470785093],[10.720924801870607,44.72990906519687],[10.721568118186532,44.73059220342589],[10.722068481567831,44.73113664496579],[10.722236847832617,44.731278145025],[10.722405481501298,44.731425986525245],[10.72297587684593,44.73192415430688],[10.723279037646321,44.73232468186409],[10.723409138926344,44.73248867202586],[10.723914657574474,44.733150321216904],[10.724268976190462,44.7345037741216],[10.724367509300034,44.73490430817029],[10.724585046605858,44.73578855226658],[10.72461495988399,44.73598062094331],[10.724512112517584,44.73603596408107],[10.724384826781138,44.736086322557696],[10.724072329331317,44.73619858693678],[10.72401468108705,44.73621937232864],[10.72386994057723,44.73627447333993],[10.724056513625822,44.73754966230543],[10.724436361175817,44.739299788038004],[10.725475086374932,44.73938500778405],[10.725477318992924,44.739430376224675],[10.725556482887702,44.740851138271886],[10.724119638524519,44.74089002404771],[10.724007058944052,44.742267707480835],[10.723800279081505,44.74343965927846],[10.721231452745558,44.74365092569143],[10.719427180464269,44.74386466007984],[10.719308563106292,44.743878734496924],[10.719386664251704,44.744350707920404],[10.719426779824207,44.74458048318444],[10.718684678564113,44.74466359845368],[10.718676019997202,44.743959579597146],[10.717694947599572,44.744081894025854],[10.71766517428984,44.74351555234073],[10.716823627819934,44.74359222774545],[10.716907937755241,44.74485828431402],[10.717218105881942,44.74547561839421],[10.717713196232088,44.74555819472623],[10.71824643632765,44.745649194369456],[10.718855758731044,44.745750296300024],[10.71886431726422,44.74586753747693],[10.71891345347153,44.746413440902195],[10.71893164264342,44.74660225468398],[10.718940733064274,44.74673734116521],[10.719000046638742,44.747627452062794],[10.719090119125259,44.74854661546118],[10.718134002407313,44.74859600393832],[10.718179838899395,44.74944716868423],[10.718184949465213,44.74954143839431],[10.718136005041158,44.74954149977335],[10.717466123171997,44.749542697766664],[10.71710657936264,44.75028746217462],[10.715310551246022,44.75028910622795],[10.713915394106385,44.7502935074699],[10.713359584568106,44.750740753161665],[10.712730632747222,44.75092997622338],[10.712415219457313,44.75102348512913],[10.712031734217172,44.75127856148386],[10.710734598930589,44.75214268132438],[10.711058966343533,44.75256293165532],[10.71129668156589,44.75371235176388],[10.712339356323186,44.7536232980367],[10.71262999368063,44.7543780791039],[10.712814795839481,44.75522169085326],[10.711890030366286,44.75531509901252],[10.711928674159287,44.75552406462116],[10.711692479366528,44.75563473296443],[10.711183189278655,44.755873595920775],[10.710233393060387,44.75622066095261],[10.70863828910051,44.75648853906776],[10.708451606076565,44.75621178239965],[10.70763115848976,44.755036876060785],[10.707069080170326,44.75550105932059],[10.707433696171195,44.75596819683897],[10.708537229574677,44.75710245617588],[10.708118315593586,44.757207420603955],[10.708248539382799,44.75765744031852],[10.708268929445524,44.75772702437334],[10.70845004197132,44.758437518381285],[10.707987655774994,44.7584608556596],[10.70729894962461,44.758641010257364],[10.706918267738892,44.758620723415056],[10.706742919672172,44.757821883458895],[10.706453603023462,44.75786302547694],[10.705586860584884,44.758350753670236],[10.705750266687485,44.75884489300473],[10.706226108961113,44.759557961746175],[10.706675558462047,44.75980330683009],[10.707147681705113,44.75996053720299],[10.707770119803305,44.760471865799225],[10.707726443096012,44.761614024433875],[10.707140788897544,44.76147915789166],[10.706726972550674,44.76153170175641],[10.706241440690984,44.76174590008711],[10.705799666769344,44.76224709195363],[10.704958996694861,44.76198952776131],[10.704285628985286,44.76190859261144],[10.70370552582445,44.76190938423971],[10.703276880936532,44.7619430286542],[10.703001147707079,44.76201019635663],[10.702728442825917,44.76213044059332],[10.70229865776903,44.76134506143871],[10.702020217940854,44.76089910375187],[10.701663887544708,44.760382282733396],[10.701438761993678,44.76008805706366],[10.700792517695572,44.760188522169116],[10.701296668220555,44.76097700581834],[10.700766761825516,44.76114165625738],[10.701282083916869,44.76201061752307],[10.701368165248189,44.762369779184866],[10.700708096181234,44.76265646987914],[10.700200289766515,44.763014772828114],[10.69973007868229,44.76337198268104],[10.699028593133905,44.763563071205816],[10.69672845482459,44.763984888772896],[10.694512211644255,44.76465644652248],[10.693244264530545,44.76493623776637],[10.692767222694561,44.764989241019535],[10.692271977020244,44.76453234314151],[10.691567276341347,44.763786599512976],[10.690935805589675,44.76293174604869],[10.690319614797168,44.76216668450485],[10.689783935802593,44.76156246697618],[10.689285571952052,44.760957694773964],[10.689063813034691,44.7606172762708],[10.689777053593453,44.760254238753596],[10.689881411542615,44.76020096627707],[10.690172260433366,44.75977430615601],[10.690204399699194,44.759468178143905],[10.690398995423562,44.75938869152542],[10.69077677497877,44.75923414976147],[10.69122180627962,44.759043024615025],[10.690510889521656,44.757935082963],[10.690218233742645,44.757471448881425],[10.689912756662851,44.75698755062075],[10.689250624434788,44.7572602405954],[10.68902972428614,44.757351101690055],[10.688152686132138,44.756797187010264],[10.687166897787666,44.75635264962282],[10.686652433666008,44.75608583263463],[10.686448866604302,44.755985304510475],[10.68595116834543,44.755699891860836],[10.686544086703973,44.754966634609254],[10.686674717805795,44.754793195338294],[10.686434519925601,44.754671198634604],[10.685141963947236,44.75453724364716],[10.684757851833574,44.75446602830408],[10.684472305599177,44.754413323668835],[10.68409268004493,44.754075695824135],[10.683844742820543,44.75386390206377],[10.682227704411353,44.75467054335938],[10.681496994528072,44.75513906030016],[10.681315127673466,44.75414356256367],[10.681096478786392,44.753138543209836],[10.680950887720456,44.75247452172663],[10.680807906583711,44.75198197031155],[10.680601254207355,44.752077039040074],[10.679176794706304,44.75272557889199],[10.678334342952128,44.753066068248245],[10.677619428253475,44.75335500651217],[10.677936465367688,44.753952528096605],[10.678176467516895,44.75448072203039],[10.67716262037725,44.754663632458715],[10.676760987249226,44.75470640753776],[10.676039290283605,44.7534425191875],[10.675806980046426,44.75308395744137],[10.675741688842743,44.75298320618747],[10.675298743702442,44.75230104462843],[10.675190660445873,44.75215878845697],[10.674629060489567,44.75141971339804],[10.674256024229864,44.75104527349719],[10.67486945674839,44.75078196833759],[10.674731674956854,44.75061926385369],[10.674398487613486,44.75037385022459],[10.674548778230273,44.75002956742389],[10.674515344506883,44.750003483934236],[10.674287892808769,44.74983132724459],[10.674106133759226,44.74969523665195],[10.67404497645236,44.749649912035196],[10.673166832119598,44.749798118124026],[10.672537089643814,44.74987072816184],[10.671956949157863,44.74998197806072],[10.671801602916963,44.750002068332584],[10.671241557225331,44.75007412418782],[10.670301540448003,44.750308328651435],[10.668562507698859,44.75087727534285],[10.668386620842076,44.75093479555875],[10.666587520878531,44.751627413351486],[10.666467946465595,44.751692916444284],[10.66636009440736,44.75175204935599],[10.66627154415862,44.75179999781388],[10.665841204160666,44.752034236737515],[10.664771949286925,44.75264338244055],[10.664482510951267,44.752729139577866],[10.664297379990161,44.75277660666068],[10.664253916961808,44.752787843984486],[10.664083120598606,44.75284260247268],[10.663726628924023,44.75290055737198],[10.663153717922823,44.752993693979356],[10.66243092352673,44.753424061492815],[10.662323120822293,44.75348851830494],[10.662274871032519,44.75351732949764],[10.662197612481888,44.75356375644363],[10.661358600122387,44.75429526348397],[10.660297294198598,44.75471625144053],[10.659283539074325,44.755046575114925],[10.658088730158363,44.755649050078134],[10.657432805229705,44.75615295619381],[10.656872927421492,44.756414146161454],[10.65631003440316,44.75704283465102],[10.656118873715586,44.75790995909207],[10.655650188808465,44.7587626612307],[10.655291948583955,44.759065292328884],[10.655238579616581,44.759110464349156],[10.65442942483904,44.759788724671886],[10.65331769650841,44.76063339644284],[10.652558723907152,44.761499475477756],[10.652033670006299,44.762181673118945],[10.651326772205135,44.762552848677444],[10.650623552591947,44.76312104336296],[10.650364174608576,44.76379959635269],[10.650273160603902,44.76461349314667],[10.650067587643255,44.76534315304126],[10.650098847939713,44.76613606699391],[10.650100982108397,44.766549501892186],[10.649938958469706,44.76705575661269],[10.649764293704955,44.767544291826816],[10.649729170012058,44.76771571712695],[10.649445495420569,44.7679080474325],[10.647999258385637,44.76814619643065],[10.645112155802863,44.76882695183438],[10.642243071736164,44.76967850156428],[10.639980051218657,44.770538978341],[10.63904182153778,44.77087660405845],[10.638903873220782,44.77092890688241],[10.638278739040123,44.771157390341344],[10.637541805659655,44.77139302646636],[10.637346432690764,44.7708107916707],[10.637034017765114,44.77004108646891],[10.636849218682391,44.76931455854636],[10.636664838660229,44.76862403236357],[10.63621502401942,44.76791031038039],[10.63614552304159,44.76775992885941],[10.635945426296361,44.76731327723266],[10.635638587309078,44.76673928435007],[10.63524376604921,44.76618229926962],[10.635231202038657,44.7661149703503],[10.635153367403339,44.76572439484359],[10.635139615015305,44.76564593272588],[10.635098483220581,44.76529545513004],[10.635074780773241,44.76507738795717],[10.633800704227514,44.76567167672179],[10.632490816950847,44.766250831710785],[10.632083258560934,44.766450884741275],[10.632405914980284,44.766939435773374],[10.63122147553746,44.76785964342357],[10.628526720608091,44.76905988329238],[10.62557141737893,44.770425298420975],[10.624079413304873,44.77112419815179],[10.62368783993748,44.77130718196995],[10.622765224467162,44.77168921281005],[10.62217983290395,44.77115768233256],[10.621881537514765,44.770946398822524],[10.620711962106723,44.7715408614224],[10.619868735490206,44.77189242786162],[10.619802003939391,44.77192044616686],[10.619286480212429,44.7716940151031],[10.617560563774665,44.772249915853024],[10.616001265211288,44.77298296068134]]]}}]}
