{"type":"FeatureCollection","metadata":{"code":"035013","referenceDate":"2026-01-01","sourceDbfExportDate":"2026-02-18","upstreamArchiveUrl":"https://www.istat.it/storage/cartografia/confini_amministrativi/non_generalizzati/2026/Limiti01012026.zip","sourceManifestSha256":"70ac8256c4785dc6ed2814c32b6965ae76f9161b51abaa1660059e1c6cbd8ca6","license":"https://creativecommons.org/licenses/by/4.0/","attribution":"Istat, Confini delle unità amministrative a fini statistici al 1° gennaio 2026, versione non generalizzata.","modifications":["Converted from WGS 84 / UTM zone 32N (EPSG:32632) to RFC 7946 WGS 84 geographic coordinates.","Converted from shapefile to per-municipality GeoJSON without geometry simplification."]},"features":[{"type":"Feature","id":"035013","properties":{"code":"035013","name":"Casina","alternativeName":null,"regionCode":"08","regionName":"Emilia-Romagna","territorialUnitCode":"035","territorialUnitName":"Reggio nell'Emilia"},"geometry":{"type":"Polygon","coordinates":[[[10.501913363948585,44.57101401915335],[10.501925470676774,44.57246325489272],[10.501380141284022,44.5731726218807],[10.501121163801296,44.5735091103306],[10.50056245744191,44.57382254682648],[10.499884198586415,44.57389447582143],[10.498955965807296,44.57404169751002],[10.498480524156747,44.57416497717563],[10.497683260479986,44.573986383306426],[10.497100169146638,44.573840983575224],[10.496021899229948,44.57354002626172],[10.495119674797072,44.57322775576853],[10.494267845381318,44.57291481956172],[10.492927741508444,44.57271628441852],[10.49185097647394,44.57244227741291],[10.490669053872038,44.57202560300039],[10.489283193550602,44.571512532920686],[10.488253064923391,44.571120845915786],[10.487178099272407,44.570945797597005],[10.486400491847457,44.57107296109448],[10.48563149643751,44.571506081534494],[10.484580564191038,44.57178081934278],[10.483820119353952,44.57159265268472],[10.48303039665482,44.57124281700103],[10.482190071649573,44.57088461751028],[10.48154502389427,44.57077596793088],[10.480480610149131,44.57051968938834],[10.479491184314607,44.57020842569859],[10.478635739470404,44.57024651651721],[10.477783281839606,44.570401601816016],[10.477565172039116,44.570242380066574],[10.477486712011666,44.569631210527],[10.477495705219624,44.56899190165966],[10.478093138352996,44.56871409215275],[10.477937559846305,44.56804092107083],[10.47770826491882,44.56744071877994],[10.477457051458194,44.56647170798495],[10.477423457726882,44.56613903788455],[10.477410293107129,44.56512192291416],[10.477393889406784,44.56447396031188],[10.476818284958508,44.564121310676036],[10.476863250336375,44.56340953620158],[10.476845487144294,44.562707569203134],[10.47586360673805,44.56272026400521],[10.475027770229625,44.56253301281883],[10.473738660314618,44.56231557993496],[10.47229680464468,44.56206411333699],[10.471018159047706,44.56179251285847],[10.47007099930205,44.561183526820976],[10.469239999867836,44.56018595108107],[10.468290417703498,44.55894681903625],[10.467977355098128,44.55801458790958],[10.468154090087305,44.557031035712285],[10.468586970107992,44.55572010253141],[10.468492450762332,44.55496511755279],[10.468167281439014,44.55405103728454],[10.467779880182176,44.55316476633968],[10.467824245614322,44.55242599045678],[10.468449826601224,44.55176977021556],[10.469356830168323,44.551289965593305],[10.46986618008478,44.55051819490955],[10.470338656265337,44.549314784100424],[10.470707954379005,44.54848179365169],[10.471269186579418,44.54777236627955],[10.47153632377463,44.547598656240645],[10.47207427216356,44.5472488471375],[10.472249450620549,44.54670643404041],[10.471920541614157,44.5461435099134],[10.471481086364141,44.54569005220526],[10.47083803346204,44.54514918586492],[10.470009724580498,44.54471872392076],[10.469035313640148,44.544515198717015],[10.468450322363307,44.54427966553556],[10.468170710634233,44.54394176270641],[10.468096513420196,44.54385206770217],[10.467554553356152,44.54356644796295],[10.467512888436751,44.543544495837985],[10.467461757534833,44.54354515293542],[10.467008976649627,44.543542213021674],[10.466552040093179,44.54388094716113],[10.466074810186193,44.544427211290625],[10.465797440591032,44.54470610748909],[10.465473535725028,44.545047100562165],[10.464705248885494,44.54553407475385],[10.463267375029815,44.545894611394374],[10.462495025883568,44.54621959762013],[10.461917744797356,44.54679415403805],[10.461478657572437,44.547357923678646],[10.460912806945906,44.547887303957665],[10.460092081295477,44.54829392416466],[10.45925899064306,44.5487096756479],[10.458210833431306,44.54908317989322],[10.457507928393323,44.5491541033768],[10.457275850415563,44.54864982158383],[10.456526545782888,44.548150404816376],[10.45555908945745,44.54772161386668],[10.454517026983448,44.54732977268489],[10.453448229379871,44.546875261201066],[10.452663875283354,44.54672968887556],[10.452158599858684,44.547125729843756],[10.4515652472923,44.54756540385215],[10.451398895845955,44.54796362343909],[10.451406003251925,44.5487557593904],[10.450999286572278,44.54902063405394],[10.450176429835395,44.54892442791059],[10.449838099271185,44.5488296802789],[10.449314149721626,44.548674287550334],[10.448477567223073,44.54834351967806],[10.447784760600218,44.548396610116605],[10.44719336905934,44.54891724988326],[10.44655098463616,44.54941152205634],[10.445768341397784,44.549835551166986],[10.444758942392522,44.55022193781713],[10.444238354736838,44.5505526119208],[10.44378446020009,44.55103548621599],[10.44314681642231,44.551214588560825],[10.441966641834606,44.55134653663807],[10.441586798586117,44.55173844024228],[10.441109049782483,44.55227562678422],[10.440512121892981,44.55249854097207],[10.439653067586207,44.552456037080304],[10.438379407101579,44.552373061855],[10.437709147108986,44.55221945792376],[10.437558957874696,44.55174421343624],[10.437523364416398,44.55164111825591],[10.437315129013419,44.55104508537369],[10.436919154541386,44.550302847580554],[10.436498476289298,44.54957895038004],[10.435915764404005,44.548920089318734],[10.435019428205875,44.54827416499796],[10.433998444139537,44.54771082949402],[10.433080610669405,44.54724521616089],[10.432175147471566,44.54677044396501],[10.431270032774387,44.546277645979224],[10.430644572515803,44.54592538711399],[10.430304564846576,44.54540750565332],[10.43045098054905,44.54470347346254],[10.430428923573727,44.5443166425053],[10.429765047333287,44.54393785031037],[10.429015287844182,44.54365013792134],[10.428184907213318,44.54312039112291],[10.427617651253488,44.542878313049556],[10.427447130127456,44.54280554672756],[10.426953267962467,44.54268570075193],[10.42596131997123,44.54232973609725],[10.425886547908732,44.54230290305866],[10.42564327665342,44.5421662236864],[10.424993138396253,44.54180091241945],[10.42443166569369,44.54145681789724],[10.423671241667737,44.54072809456078],[10.422789574529652,44.540189931503846],[10.421936607352084,44.5397954360133],[10.420908498564726,44.53941212788121],[10.419838587572483,44.53920894755649],[10.419707154556953,44.53918399519211],[10.418696557047003,44.53903450998427],[10.417695819722315,44.53874086337789],[10.417097857214822,44.53847819916894],[10.416756729043698,44.537906269488666],[10.416660881936357,44.537483667034074],[10.41657349688988,44.537098320331616],[10.416372638358544,44.536181081622935],[10.41621237437908,44.535552685672705],[10.416194487089678,44.53548257009127],[10.416012386774277,44.53471960973696],[10.415776233100194,44.53380429090533],[10.415761040874692,44.53369643706454],[10.415740242331836,44.53355194455823],[10.415655050219046,44.5329595176189],[10.415500514293035,44.53229524140214],[10.41538758420003,44.53127035163683],[10.41534082208531,44.53076787112093],[10.415336536581604,44.53072183171994],[10.415469160492686,44.53037895792192],[10.415490488576417,44.530323818071146],[10.415588153379257,44.53012082985756],[10.415730149749761,44.52982570917891],[10.415745934799794,44.529756387746275],[10.415776381467186,44.529622597710045],[10.415787646871218,44.52956843600399],[10.41588929775424,44.529121548546954],[10.415779277753353,44.5287358052514],[10.415450576178905,44.52815471942574],[10.415158431775536,44.52752365611542],[10.41483204372363,44.527005558098864],[10.414471717473322,44.526676935552956],[10.414241066724543,44.52598658913155],[10.414271809009282,44.52517598264969],[10.414507716898287,44.5245248632799],[10.415113699297496,44.524085241712825],[10.415713056469583,44.52392476529035],[10.415994101483006,44.52357917709244],[10.416291374509836,44.52286429251033],[10.416384559423408,44.52236618421419],[10.416402809609599,44.52226877262366],[10.416077411312205,44.52182266309742],[10.415557226277707,44.52112692962942],[10.415576997025779,44.52109620792592],[10.41571488369262,44.520881898621994],[10.416462819175356,44.52007139440711],[10.416929471588043,44.519597465233026],[10.417500043229964,44.51925729636176],[10.418447006912928,44.519138251349574],[10.419493056249843,44.51924972172103],[10.420653121077532,44.5190740627164],[10.4214611519766,44.518667900225736],[10.42230163038408,44.51804526272423],[10.423211213040009,44.51770983950319],[10.424750273436365,44.517357540801406],[10.42568639410241,44.51718890073299],[10.426533152810334,44.51723175655425],[10.427301637431162,44.51731207217116],[10.428195511394419,44.51729200958058],[10.429063430360753,44.51728115131234],[10.4298319079425,44.517352522962234],[10.430194431900048,44.51828423776157],[10.430222206425713,44.51839040190861],[10.430347111510127,44.51886750588246],[10.430696428731572,44.51920477185428],[10.430927030354498,44.51942738859652],[10.43159206811402,44.51946389171089],[10.432525664466976,44.519434594361414],[10.433080401325,44.519736753835616],[10.433187619980291,44.51979516321693],[10.433271489266629,44.52013621341506],[10.432982598307573,44.520670980070406],[10.433099096093423,44.52113723463861],[10.433108180888826,44.52117355158239],[10.433372857740071,44.52163110589424],[10.433423534358282,44.521718747792406],[10.433598998211636,44.52220267915189],[10.434202164233009,44.522681240157944],[10.43438345669269,44.52288461196433],[10.434797407508777,44.52334895271864],[10.435322894608321,44.52406892411454],[10.435383407800149,44.52415183121876],[10.435592220804535,44.52496842834051],[10.435709063214308,44.52527751580648],[10.435968220616555,44.52596299864356],[10.436053803303496,44.52605069820257],[10.436497528629552,44.52650549521847],[10.437323672153308,44.52683718315717],[10.43776909374607,44.52703864517249],[10.438288886122521,44.527452117706],[10.438359548242133,44.52750834571495],[10.439132278112732,44.52771466105809],[10.439205392332939,44.52767689725708],[10.439727805248475,44.52740103620411],[10.44013209511963,44.52695480782592],[10.440664748904,44.52676808152994],[10.440805766488468,44.5267123000941],[10.44067189330407,44.52587675399219],[10.440464113696725,44.52510515921785],[10.440649855990811,44.524472630301275],[10.441204796645472,44.52350235642051],[10.441066591899322,44.522999952432265],[10.440715167997396,44.52252724912878],[10.440051918916971,44.522166519874936],[10.439077870052259,44.52192672645713],[10.438203907669397,44.52169465963898],[10.437771098389602,44.52149306013224],[10.437762630065839,44.521393937935834],[10.437751092800868,44.521139666987345],[10.437748342704815,44.52107922732392],[10.437919289742275,44.52086700021772],[10.438151276639486,44.52057900317717],[10.438329996145635,44.520171648079454],[10.438256037039478,44.5197224523746],[10.437470165355634,44.51948927119735],[10.436734586246276,44.51925545184187],[10.436674540804523,44.518860101201696],[10.436685553605585,44.5182837983724],[10.436371712157255,44.51780161122115],[10.436313116333787,44.51761508167232],[10.436222401688434,44.51732635118092],[10.436321015142452,44.517041915734396],[10.436350924979353,44.51695562103185],[10.436707514767258,44.51661804739929],[10.437024612672264,44.51641312837894],[10.437190553982088,44.51630587386958],[10.437254526943686,44.51597634988668],[10.437279889925914,44.51584562380269],[10.437246618591418,44.51573226628657],[10.437087640851098,44.51519086584384],[10.436976847565088,44.51477814124862],[10.437073601993523,44.51455055041228],[10.437179346604662,44.51430186567901],[10.437238514620612,44.51416265674145],[10.43751365864927,44.51358302870316],[10.437713108489225,44.51329851891229],[10.437781070130827,44.51320156810564],[10.438362696645322,44.51280713420945],[10.438697170083552,44.5125177511055],[10.438880110500293,44.5123594860771],[10.439328631461494,44.51166962527312],[10.439359799983041,44.51143067305703],[10.439370986917568,44.51134500149523],[10.439501860031909,44.51107940316367],[10.43959864726479,44.51088300651956],[10.439914343475616,44.510419901000574],[10.44056663477833,44.50986250074428],[10.441160781485156,44.50946789445211],[10.441254290317078,44.509178631276136],[10.440815160079023,44.508716050250825],[10.440625780404847,44.50817828316206],[10.440676212853392,44.508121209281214],[10.44090631786089,44.50786077522544],[10.441739331369549,44.50793016770553],[10.442457727886758,44.50794766306415],[10.442957435932776,44.50769178183114],[10.443376204708976,44.50747735600513],[10.443843766086822,44.50708433555915],[10.444045739141531,44.50697187635214],[10.444389782368557,44.506780350091624],[10.445061558589767,44.506474752623525],[10.445690950957976,44.50598065003166],[10.446175189012992,44.505722443254506],[10.446322135025358,44.50548428948283],[10.446477565554476,44.50523247274088],[10.446415021495934,44.50473813056094],[10.446506272493469,44.50435886399739],[10.446963469295138,44.50403819830983],[10.447453676876407,44.504040762413126],[10.4483378551469,44.50406517147704],[10.448961654819968,44.50397663194658],[10.449560368073916,44.50377098038554],[10.450145392839861,44.50352047451599],[10.450569402677448,44.50337105744838],[10.451233994516814,44.50331758922568],[10.451910172557955,44.503191977359],[10.451948011102344,44.50310144445582],[10.452000021344213,44.5030068457939],[10.45216239012824,44.502711609502356],[10.452193270808014,44.502625150469854],[10.452327049471398,44.50225037169404],[10.452657419640119,44.501845562810985],[10.452657146800465,44.50145395772869],[10.452422189509862,44.50101581598026],[10.452406009766037,44.500954551593466],[10.452324999898915,44.50064793664217],[10.451750973537608,44.500358156002314],[10.451538678975426,44.500261828145085],[10.45179448706849,44.49992546865763],[10.451974615418088,44.4995810934243],[10.45201574978677,44.49921145484552],[10.452030272333444,44.49892471716001],[10.452032644718969,44.49887815131723],[10.452203079365404,44.49865091917578],[10.452659271743727,44.49843804740576],[10.452660068863931,44.49777617474402],[10.452662195030403,44.49766886111532],[10.452673019884832,44.49712349396813],[10.452980210379728,44.49700737646775],[10.453092016473324,44.49696511590094],[10.45341314893688,44.496726966007756],[10.453515467301907,44.49666788185906],[10.454082749458358,44.49634032949562],[10.454825429415497,44.49588975644153],[10.4555060375992,44.49543995260731],[10.45569840226568,44.49529995776709],[10.456064204165326,44.49503376016937],[10.456160804205563,44.49496346260193],[10.45680162326977,44.494433144218995],[10.457198573303979,44.49417380983659],[10.457630827532432,44.49389140061018],[10.458521654492076,44.493330871139975],[10.459136178930567,44.492755851198815],[10.459943315404983,44.4918362783056],[10.460070235578772,44.49175213075516],[10.460386409684343,44.49154252873548],[10.460674908306991,44.491336654945194],[10.46072239182137,44.4913041690857],[10.46078379943856,44.49127637373387],[10.46151751727038,44.49094289365252],[10.46232468827639,44.49089695720898],[10.462546692454227,44.49092070077092],[10.462614887376569,44.49092755252856],[10.463115596652548,44.49097643174588],[10.464163176384426,44.49110504617574],[10.464368708064631,44.49113026947688],[10.464976384629848,44.49095257493603],[10.46575663371612,44.490501448454026],[10.466042311573029,44.49032585347708],[10.466908518445008,44.489793450257665],[10.46753060134049,44.48952438690935],[10.468535842393276,44.48998862280848],[10.469875166536028,44.4907366140524],[10.471229259818172,44.49160142045631],[10.472182869722085,44.492012248886184],[10.473480834658018,44.49211254816633],[10.47471640274593,44.49223163215453],[10.475479947574364,44.492273297552934],[10.476050656925825,44.492304451635825],[10.477212606555652,44.492496495948494],[10.478030469534378,44.49300805899094],[10.478475026744725,44.493677497219835],[10.478547254250433,44.49383052392474],[10.478926848101224,44.494634922286835],[10.47918965507386,44.495576799431596],[10.479507337589444,44.496202853506205],[10.479545538907521,44.49625513938823],[10.479820059596815,44.496630949165755],[10.479974242548598,44.4966964673945],[10.480646471228011,44.49698033521067],[10.481662320250804,44.49739027697499],[10.482288264384806,44.49776926270079],[10.483128667770936,44.49817247135499],[10.484021633539044,44.49866501913918],[10.484299889055704,44.49872442126932],[10.484767871639956,44.49882636118125],[10.484960792767824,44.49890038691584],[10.48511081813182,44.498956954980315],[10.485235407959136,44.499002952353166],[10.485322602798202,44.499035128971215],[10.485655093469484,44.499155605798926],[10.485742349829508,44.49918721502744],[10.485872472775865,44.49923504467472],[10.486491743476611,44.49938001403912],[10.486621544966539,44.49940802765507],[10.486764546392214,44.49943889775751],[10.487003218544515,44.49949040736743],[10.487143948125446,44.49952011912678],[10.487807131741892,44.4996600585324],[10.488372765362064,44.49964367130312],[10.48862424062474,44.49964039329891],[10.489247071055665,44.4997274645977],[10.48937571714498,44.49974544047669],[10.489684637086146,44.4997886100343],[10.489909748100013,44.49987912795129],[10.49040031725204,44.50007638350372],[10.490599648379431,44.50015479484808],[10.491393837796824,44.50016599910243],[10.491592924416539,44.50016880846333],[10.492408431497049,44.50008613734444],[10.493024593731475,44.50007808283862],[10.493550897853865,44.50021523208821],[10.494131102125309,44.500369687987835],[10.494567464830107,44.50046300414381],[10.494824719317315,44.50068470062181],[10.495572596186248,44.50090898800685],[10.496395039479708,44.50109626652597],[10.497443809271989,44.501280572307394],[10.498118005203516,44.50108267253839],[10.499229549485298,44.50077100381916],[10.500522788881602,44.50037140619012],[10.50188430480475,44.50030398441197],[10.50259735911174,44.50015057117952],[10.503248008789535,44.50001597043838],[10.50397824814165,44.50004236293349],[10.504871624222364,44.500084606286315],[10.505376456028568,44.50014995098742],[10.505709950863633,44.50037061782271],[10.504858275408864,44.500543889905686],[10.505583602152218,44.500867435393815],[10.50625784089617,44.501191632143964],[10.507102628769001,44.50175665123062],[10.507793268385234,44.502197662323326],[10.508500664189386,44.50280049293863],[10.509492674505557,44.50321951664118],[10.510465853946744,44.50339570371819],[10.511012231982729,44.503302944534695],[10.511254844639915,44.503259227394615],[10.512064678383913,44.502987434307485],[10.512794516624465,44.50250962610495],[10.51323417495735,44.50199965106447],[10.51415377122871,44.50156434339191],[10.514815110967785,44.50135751914645],[10.515457815629667,44.50091685668823],[10.516015727758594,44.500603374252805],[10.51698860117014,44.50037438756687],[10.516955773324588,44.49998771386592],[10.517012457083391,44.4992937551922],[10.517072001869185,44.49819465306621],[10.51765312766977,44.49732268185165],[10.518686957803796,44.49693081890354],[10.519823500421863,44.497136247650424],[10.519872456830718,44.49714459421444],[10.520321961351947,44.49695622550162],[10.520881895712108,44.49672155641457],[10.520950883761522,44.49656309185059],[10.521333024984845,44.49568925325429],[10.522093369949788,44.49494090860917],[10.523018256036679,44.49469853156856],[10.523505021247916,44.4945709812505],[10.52545050592717,44.4944459809441],[10.526652838020167,44.49424987216683],[10.527447059219035,44.49335698893715],[10.528124159329423,44.49186250753341],[10.528180905422929,44.49066439205241],[10.528162913357082,44.489494305246446],[10.528533718265093,44.48828298671974],[10.528845188510173,44.48720751572652],[10.529456127207869,44.48652412206686],[10.530047922020557,44.48655222013446],[10.530472955585275,44.486920120993325],[10.530559613990162,44.48697298005969],[10.53072967403022,44.487074225907946],[10.530898843845259,44.48717098479831],[10.530971116136875,44.48717001585721],[10.53119765340719,44.48690590710169],[10.531440053720734,44.48658756097942],[10.531537767580504,44.48626665812893],[10.531694714126063,44.4861070052802],[10.53185295448658,44.48599685858727],[10.532193306483101,44.485816732885134],[10.532461427365782,44.48561058100963],[10.532681894312386,44.48544557747802],[10.532787990377688,44.485115561916665],[10.532793878186203,44.48498044809673],[10.532851166460224,44.48464657094849],[10.533006257082448,44.4843564059098],[10.533232657902223,44.484087794396224],[10.533714906923203,44.483775221706516],[10.534133708948886,44.48353103479754],[10.5344426324417,44.483382833043756],[10.534652937511606,44.48337100959158],[10.53493296721286,44.48352929139293],[10.535097260504411,44.483770160666936],[10.535396845633247,44.48395518917073],[10.535517132331137,44.48401659141098],[10.53574345430687,44.48413506783053],[10.535880953608078,44.48422324803421],[10.536034065473983,44.48430671942066],[10.536136098921313,44.484390877737205],[10.5364172141321,44.48444109920273],[10.536604596697282,44.48460746451973],[10.536996590876642,44.48495545772672],[10.5374969998136,44.48581297199709],[10.53798911710455,44.486832640196226],[10.538624789457797,44.48709414717639],[10.539499494099907,44.487388453359834],[10.540440906453036,44.48779887691435],[10.54166296415173,44.48835855042881],[10.543226397097454,44.48898561466425],[10.544711247594591,44.48952370904287],[10.54542859922466,44.4900181352814],[10.545650449563647,44.49079836850585],[10.545864957425481,44.492253874598475],[10.54638833946193,44.49302102729939],[10.547191401636555,44.49390139061048],[10.547751137926527,44.49509116044634],[10.547776665142763,44.49519434056831],[10.548089815995006,44.496481960478015],[10.548353716268064,44.49742366268607],[10.548553573891672,44.4983212094563],[10.549401103510704,44.498975908533836],[10.550316685623246,44.499350590471714],[10.551546395585683,44.499712000005445],[10.552728300495176,44.499722945438464],[10.55403927739052,44.49935400965802],[10.555200289996765,44.499023109269004],[10.556119996923655,44.4986054564443],[10.556491038060555,44.497925207314516],[10.557668992875033,44.49728797301593],[10.558406531140026,44.49711586372114],[10.558633475859633,44.497607900797725],[10.559222826416336,44.498156881774676],[10.559252594228008,44.49818461130586],[10.5602119502922,44.498783679867934],[10.561240481909232,44.49917474513437],[10.56314389524621,44.4997968854002],[10.564103852506953,44.49994578640061],[10.56444553177446,44.500022137728514],[10.565337818441105,44.49999189604891],[10.566453732677846,44.499886599141036],[10.566251847443601,44.50036199429862],[10.565995747708255,44.5005455652424],[10.565580080323004,44.50052425432438],[10.565063800582115,44.50050432182251],[10.564589364468432,44.50063686057825],[10.564218861063592,44.50089401173264],[10.56375067673955,44.50126052313545],[10.563065801695492,44.501521974331446],[10.562384554063781,44.50191840615956],[10.562104218384082,44.5022553495206],[10.56161517409277,44.5027841815748],[10.5608528145982,44.50344278668112],[10.560213949442616,44.5039556668561],[10.559369407017416,44.504363309757004],[10.55846387993452,44.50484381341986],[10.558093346791683,44.505100944946555],[10.5579863915267,44.50533646502482],[10.557706758215621,44.50570037867146],[10.557042067202218,44.50624960111457],[10.556574009863315,44.50662509632131],[10.55618547885001,44.50715253637893],[10.555896824490107,44.50765162160278],[10.55538203834171,44.5081627647937],[10.554899470952801,44.50846643492914],[10.55450804203547,44.50888588408532],[10.554494389683816,44.50931818416351],[10.55440526904654,44.50975152955963],[10.553973942009597,44.510090488943916],[10.553167829848789,44.51047057090179],[10.552119065477436,44.51077291381332],[10.550587358196585,44.5112128754871],[10.550408419999497,44.511264232721736],[10.54932299221885,44.51167964821657],[10.549237720065282,44.51171229729536],[10.548411516247075,44.51234467313632],[10.547792021896,44.51318131089862],[10.547733918529293,44.51324761964638],[10.547401204765203,44.51362772061232],[10.546535790778353,44.51420659282824],[10.545404087861668,44.51470806863619],[10.544673447114928,44.51515006936865],[10.543941133801773,44.516006224444496],[10.54325744271053,44.51679868026731],[10.54334551123329,44.5172746276557],[10.543588311929359,44.51789251557429],[10.543838486457606,44.51878938741792],[10.543971908197786,44.51955280146863],[10.543979995334293,44.52033592518138],[10.543953455176194,44.521236537622926],[10.54435387074871,44.52162722845541],[10.544652369060291,44.52179060199632],[10.544915599040838,44.52193467045492],[10.545344287872487,44.522442014741316],[10.545234196101497,44.52303768130642],[10.544733420562721,44.523611604055574],[10.54405702234753,44.52420593261784],[10.543299182509555,44.52457627525461],[10.54301720450529,44.52485916897456],[10.542804077142788,44.52536617834223],[10.542634392049576,44.526088683940436],[10.542184357354374,44.526679923083535],[10.541475841295387,44.52701358045919],[10.540773746803861,44.527113085042856],[10.539852062004787,44.5269994803306],[10.538892962622255,44.52686837977513],[10.538417543463625,44.52697381200128],[10.538279849050523,44.52700267757661],[10.537914771522416,44.52747571587984],[10.537789654343015,44.52798154832339],[10.537795556218104,44.528683669232315],[10.538211635468862,44.52919120867185],[10.538570624176916,44.529352916082445],[10.538861060237037,44.52947953667756],[10.539549360005928,44.52983937215126],[10.539758275848918,44.53004137368166],[10.539962616747404,44.53023892081067],[10.540477469484319,44.53067308622926],[10.54076183966721,44.530957330385895],[10.541103674028202,44.53103374813836],[10.541519313229708,44.531046133154724],[10.541871243770618,44.53111538847221],[10.542075955210784,44.531155656566916],[10.542602956773111,44.531571652936336],[10.543009805037142,44.53209956329159],[10.543173416461343,44.53268026223434],[10.543226615820833,44.533264702888545],[10.542844923985912,44.53406208926237],[10.542475319619014,44.534841296768036],[10.542203056726557,44.53549317168957],[10.541604346748844,44.53617644430195],[10.540964074741854,44.536716225747526],[10.54056815421932,44.536973693996195],[10.539895749592453,44.53677124403764],[10.539126820720217,44.53625045285975],[10.538190613146531,44.53603800657711],[10.537627252046237,44.536153617198075],[10.537167172056863,44.536366879585394],[10.536750257977575,44.536786610058435],[10.536439222533776,44.53740296534309],[10.536267061836716,44.53803546380925],[10.535788172482235,44.538492032153464],[10.535142143155568,44.53881579220718],[10.534748955959271,44.539181192336564],[10.534960421624293,44.54004259311727],[10.53511485062114,44.54112982240471],[10.535016594544022,44.54217992321187],[10.534114019539727,44.5432813767139],[10.533616982911541,44.544008246372314],[10.533299498437113,44.54438162164636],[10.5329340153293,44.54484565100332],[10.532620772841629,44.545380994222334],[10.53192000344546,44.54602057997688],[10.531553580466262,44.546448609752666],[10.531018582709782,44.547139987252045],[10.530339392418938,44.54764422148889],[10.52970181357102,44.54808489501007],[10.52963456334657,44.5481308007324],[10.529540964431144,44.54840214022653],[10.529861713350387,44.5486319033878],[10.530283138451594,44.54886031647137],[10.53065873951434,44.54926040128028],[10.531023154360508,44.54975024923518],[10.531063250027952,44.54980412954729],[10.531298918503813,44.55017907700753],[10.531014509711065,44.55050580525338],[10.530744348378526,44.55065908797378],[10.530584324984451,44.55074675579918],[10.530173971044396,44.550941309740956],[10.529999284371367,44.551071083860194],[10.5299394098763,44.55111559364136],[10.529618092860115,44.55134496020719],[10.529516065097265,44.551445352593696],[10.529455453365667,44.551504665936456],[10.52899227029788,44.55196551105823],[10.52886169348349,44.55216436464317],[10.528592704297495,44.55257402363493],[10.528499888529305,44.55287273024615],[10.528418530330212,44.55313450246801],[10.528217052352934,44.55361433400401],[10.528057414677278,44.553828017484484],[10.527888551998656,44.55405084025274],[10.527968771547581,44.55431985318605],[10.527985135617591,44.55437363707618],[10.528386620733032,44.55480039305757],[10.528744107637358,44.555470793607064],[10.528782725413466,44.55598341979604],[10.528271052752656,44.55663844460542],[10.52829207326387,44.55702076996459],[10.528294707255082,44.55706126069706],[10.528472033331306,44.55732686951375],[10.528502683730242,44.5573727738721],[10.528549867497954,44.557443479553676],[10.528681214849868,44.557629127778505],[10.528752896118878,44.55773029150794],[10.528742636160935,44.55800046733387],[10.52873058892156,44.558324663600956],[10.528587567454922,44.55863267111147],[10.52821809885391,44.55942984090894],[10.527736287566771,44.56026450209675],[10.52758597169902,44.5612567902266],[10.52757245234929,44.561450998021975],[10.527553953141272,44.56171637920401],[10.527531190737841,44.562049768774365],[10.527301688663409,44.56242194931259],[10.527084898841634,44.563280073565814],[10.527162079954739,44.56353446031331],[10.527415727462852,44.56437396512435],[10.527235622151727,44.564709459073995],[10.526908207897625,44.56519097172803],[10.526481523257544,44.56572783129305],[10.526203612150534,44.56569552059842],[10.5250916051125,44.56554833378769],[10.52490187801115,44.56554637806638],[10.524361248262075,44.56554911511606],[10.523594996662451,44.56562235880245],[10.52302671954624,44.56553091442457],[10.521842703902166,44.56551969120528],[10.520591274829536,44.56533831196929],[10.519350795315175,44.56509375447301],[10.51868244172803,44.56512928857673],[10.518447744928194,44.5651417778555],[10.51780407203851,44.565177346816796],[10.516115919858759,44.56560487366412],[10.515188330466577,44.56577023307651],[10.514347483305237,44.56588041293665],[10.513584687776907,44.5660885784084],[10.512685306103997,44.56637058136372],[10.512231879896019,44.566367590022935],[10.511554188386382,44.566457575218074],[10.510778196555798,44.56661189474491],[10.510456602519033,44.56659363830069],[10.509718860198724,44.56655387159269],[10.50855998590891,44.566542197086086],[10.50695169349752,44.566194321998985],[10.50566558252604,44.56564412635059],[10.504925546873126,44.56523976588535],[10.503712868666941,44.56509369838233],[10.502852281932151,44.5652841448222],[10.502761246245534,44.56530429602545],[10.502217944920613,44.56550949671055],[10.501900749484282,44.56563068990964],[10.501083774593882,44.56618158453696],[10.50082673142244,44.566959173671705],[10.50108744367864,44.56779299472422],[10.501829038865848,44.56920562883156],[10.501993467475371,44.57021175337563],[10.501955487099137,44.570592217529125],[10.501913363948585,44.57101401915335]]]}}]}
