{"type":"FeatureCollection","metadata":{"code":"036034","referenceDate":"2026-01-01","sourceDbfExportDate":"2026-02-18","upstreamArchiveUrl":"https://www.istat.it/storage/cartografia/confini_amministrativi/non_generalizzati/2026/Limiti01012026.zip","sourceManifestSha256":"70ac8256c4785dc6ed2814c32b6965ae76f9161b51abaa1660059e1c6cbd8ca6","license":"https://creativecommons.org/licenses/by/4.0/","attribution":"Istat, Confini delle unità amministrative a fini statistici al 1° gennaio 2026, versione non generalizzata.","modifications":["Converted from WGS 84 / UTM zone 32N (EPSG:32632) to RFC 7946 WGS 84 geographic coordinates.","Converted from shapefile to per-municipality GeoJSON without geometry simplification."]},"features":[{"type":"Feature","id":"036034","properties":{"code":"036034","name":"Ravarino","alternativeName":null,"regionCode":"08","regionName":"Emilia-Romagna","territorialUnitCode":"036","territorialUnitName":"Modena"},"geometry":{"type":"Polygon","coordinates":[[[11.127480289014576,44.771396628114076],[11.127799479650465,44.77284002178548],[11.127975354118396,44.774187063219436],[11.128369256302328,44.775620065114836],[11.128593301198713,44.77664492923381],[11.128643570506759,44.776875170772705],[11.128862719389257,44.77763790513067],[11.12889610830926,44.77775257841862],[11.128947705942082,44.77793166599194],[11.129016105136564,44.77847943584113],[11.129055335121143,44.778793939456826],[11.129081603402305,44.77891488228837],[11.129375728833455,44.78026441661495],[11.129689694968555,44.781718668029676],[11.12972609548549,44.7818872333008],[11.129759648195897,44.78209823232096],[11.129809518168942,44.782411977955626],[11.129890247580684,44.782919230141694],[11.129050838083003,44.782651285671825],[11.127061984354746,44.781972698168445],[11.126705572228603,44.78191752139177],[11.12643908320205,44.78187626571205],[11.125498755330767,44.781740756542455],[11.124378622446596,44.781527538909074],[11.12334625526301,44.78129468416868],[11.122219569775417,44.780901535432534],[11.121105166926135,44.78049915139737],[11.119973546231074,44.779971044223934],[11.118484356153207,44.77934154445943],[11.117041620967749,44.77894519441586],[11.115970261609721,44.778658995182006],[11.114771169525351,44.77835714059747],[11.113882754257435,44.778256561123236],[11.112717787478253,44.778197099507395],[11.11173965203065,44.77806217650361],[11.110682147802052,44.77782967197263],[11.10988268331881,44.77739434426283],[11.109404045900694,44.77674602374182],[11.109051149030226,44.77575330974844],[11.108961122687477,44.775016796702815],[11.10871171465358,44.774067171582494],[11.108351888830924,44.77320961014747],[11.107811832683065,44.77260743970347],[11.106862717722974,44.77187778802721],[11.106022202444057,44.7713531645326],[11.104987144581118,44.771039165507034],[11.104355366836316,44.771041816670255],[11.103614517012709,44.771172505578306],[11.10241637974566,44.77123958202813],[11.101380143905146,44.77124066810181],[11.100450478833528,44.771392806573324],[11.100162168464028,44.77150163134671],[11.099315888076996,44.771818762371545],[11.098790168527485,44.77193646667545],[11.098008468543897,44.7719868420061],[11.09732451063926,44.77194539214239],[11.09665094832568,44.77184074872653],[11.096054049885147,44.771410600738406],[11.095460017853814,44.77071033897892],[11.09500121145547,44.769926565142704],[11.094759054253636,44.76946958231017],[11.094580758280546,44.7691330888156],[11.094444707237397,44.76886550896805],[11.09401490077591,44.76816222710052],[11.093737638085148,44.7674831552492],[11.09321070596291,44.76688967030118],[11.093108468287255,44.766830577258304],[11.092992613199298,44.76676360386955],[11.092871136732596,44.7666933530805],[11.092655673058534,44.76656677418486],[11.092474976832976,44.766462047895814],[11.091121110432367,44.7657126742537],[11.09100818200215,44.76564189939314],[11.090937802213151,44.765597780318124],[11.090241963568849,44.76516163301746],[11.089625746254823,44.764542774659645],[11.089123349595463,44.76394882141596],[11.088731235283836,44.763586899250626],[11.08792078082408,44.76318762389026],[11.086692345245263,44.76275997848781],[11.08571163475597,44.76254385059666],[11.084651088054544,44.76221663512949],[11.083691427479746,44.7618830708402],[11.082875202048747,44.761672912922435],[11.081902618857171,44.76133057158335],[11.081148238107927,44.76108326710418],[11.080445494129194,44.76084401343205],[11.079788132678537,44.760504905687974],[11.07910566834204,44.76014824052873],[11.078549808060755,44.75979828010566],[11.077932120767105,44.75948544866708],[11.077626683599942,44.75944598588808],[11.076929171926691,44.75941817443432],[11.07620397004448,44.75927832429537],[11.075476838804253,44.759084505518544],[11.074694055656291,44.75874764941056],[11.074010677275881,44.75836397791135],[11.073957469417756,44.758333435797624],[11.0734299216203,44.75802344157105],[11.072909745492597,44.75760977162091],[11.072565703498594,44.757174925934535],[11.072242078541594,44.756604661246286],[11.071999691553588,44.75618594414865],[11.071619713353485,44.75580574778684],[11.070932532849529,44.75531410677982],[11.070543134751784,44.75502408582407],[11.069874721519943,44.75470313366701],[11.06905286402546,44.75433094073394],[11.068462770420059,44.75408057339303],[11.066659130741366,44.75345607232324],[11.066056436871461,44.75320592150112],[11.06512066345746,44.75282676309381],[11.0641243473457,44.75252068726619],[11.06341126334395,44.752362544573536],[11.062712698471756,44.75225813333421],[11.061358276667947,44.75218357696045],[11.060459322441465,44.75212779408656],[11.060060577701652,44.75192794739256],[11.05971890433919,44.751556017616394],[11.05934781729113,44.751067581689625],[11.059171244579055,44.750719681272315],[11.058922463638662,44.75025156675447],[11.059149692288742,44.7501799549276],[11.059097433310406,44.7497757920618],[11.058865872439323,44.749302850311494],[11.058394455879629,44.748834234056986],[11.057605841712338,44.748326328439525],[11.05730151665399,44.74813826719748],[11.056701720031715,44.74776648028577],[11.055929261287606,44.74735729596915],[11.055152825363509,44.746835640632085],[11.054645635688006,44.74640365906866],[11.0539441809135,44.74585815369916],[11.05326523187235,44.74559129336389],[11.052592243425433,44.74513527501109],[11.051930899385292,44.74465205183993],[11.051105796551814,44.74418076405838],[11.050581768142578,44.74365004356643],[11.049976275833135,44.742958745280504],[11.0494591612699,44.742265858018314],[11.049231131380644,44.741531771227415],[11.049066821342794,44.740814534842805],[11.048811956762783,44.740035925415974],[11.048402460346457,44.739170045650674],[11.047904937637506,44.7383147601217],[11.047252543322646,44.73772332944919],[11.04656750971144,44.73725849317535],[11.04553831807634,44.73636770499164],[11.044898583718982,44.73577601491104],[11.04448256468079,44.73508131134502],[11.044230008155953,44.73436564672845],[11.044139888239929,44.734024231018765],[11.044095252885683,44.73385493383791],[11.044055097063675,44.73370261216164],[11.043612288487958,44.73296336171674],[11.043068822477998,44.73223490872557],[11.042451878102309,44.73157078373241],[11.042109806713567,44.73118079349721],[11.041891866782592,44.73073008333487],[11.041810435473165,44.730569500359586],[11.041852336706528,44.72996559914178],[11.04216462897093,44.72950990382206],[11.042718303646595,44.729094909158896],[11.042961220871685,44.729000536611714],[11.043229071597326,44.72889672039597],[11.044005949745637,44.72838768067883],[11.044458621036895,44.72797448680865],[11.044871226567965,44.727498973823465],[11.045076257509669,44.7272276798826],[11.045108113919621,44.72718561401128],[11.045193913517592,44.72707194431937],[11.045257305491225,44.72698792807622],[11.045683436486705,44.72653917935829],[11.04626453116012,44.72618669203944],[11.04651827144903,44.726054369446565],[11.04690931409106,44.7258510554078],[11.047530628927392,44.725587848122316],[11.048187400775948,44.72523397560978],[11.048633123057733,44.72498291035024],[11.048989549953259,44.724706455399804],[11.049357164743114,44.72436678058365],[11.049417568779536,44.72431167790976],[11.049609611909608,44.7240291552326],[11.049662237572335,44.72373114166342],[11.049604771688719,44.72353412729375],[11.049510080126597,44.72335577681045],[11.049374670990524,44.72309714549461],[11.049253142940971,44.72287427223929],[11.049072339099373,44.722523055618545],[11.049964111545947,44.72216907836193],[11.050624491702221,44.72190694314941],[11.050731255232082,44.72187370271058],[11.051032002802486,44.72178009788843],[11.051605786591741,44.72158074014265],[11.05214549560959,44.72149174183155],[11.052279767567802,44.72146960761173],[11.052522219089006,44.72142926201198],[11.053293852378147,44.721304764640244],[11.05358950579239,44.72125712043517],[11.05434614305195,44.72125250291788],[11.05507081711512,44.72139250164483],[11.055825845278274,44.72167597518942],[11.056330407190151,44.72201797572578],[11.056383073713826,44.72221293605025],[11.056432009202721,44.722394139619055],[11.055970197599875,44.722546484572604],[11.055945713347104,44.722664323644295],[11.055927024990332,44.722754298830836],[11.056304447211438,44.72307157854508],[11.056966504598758,44.72358177478394],[11.057871906595608,44.724282945981855],[11.05865413730363,44.7247893257476],[11.05872857413337,44.72483751853564],[11.059399612860526,44.725244016601415],[11.05960600756242,44.725366325274194],[11.060124724763028,44.72575807829305],[11.060396498865236,44.72596401090072],[11.061016340588356,44.726471257961],[11.061105668635927,44.72658485568951],[11.061167541040815,44.72665433188868],[11.061766096395516,44.726400340604755],[11.061879791145445,44.72635212068428],[11.062356169570153,44.72610350894042],[11.062687852300696,44.72596339025681],[11.06334369974403,44.72579252244795],[11.063508183325705,44.725754851840776],[11.064573317838741,44.72554654456959],[11.065063554610681,44.725483658332394],[11.065771958688874,44.725395965796096],[11.066043306600928,44.72536232262547],[11.06625781661678,44.72533592907161],[11.067471199833074,44.72536797878742],[11.068292094778553,44.725371120779656],[11.069074350699406,44.725374940082546],[11.069636096399163,44.72537846508403],[11.070185929256677,44.72538188376941],[11.071265743376937,44.725452322613606],[11.07133905766574,44.72545743623391],[11.071679673393863,44.72548095941946],[11.072101594391127,44.72548225913967],[11.072942484273463,44.7254849696196],[11.074449190258916,44.72561963877593],[11.07587512586455,44.72594480592139],[11.076253731321907,44.725982923125486],[11.076313161322439,44.72598863895791],[11.077192862833522,44.72607374838708],[11.077618269721608,44.726029981597],[11.078100279566996,44.726354301281766],[11.078621169769987,44.72679492820389],[11.07901683347896,44.727264842962946],[11.079450126291183,44.72778375094061],[11.079786762427664,44.72793504242729],[11.079856518962513,44.72789780288199],[11.080318687024445,44.72764631341778],[11.081200490021816,44.72723414972011],[11.082368968414148,44.726717727711076],[11.083467217849858,44.72635559826977],[11.084494583792692,44.725778712784134],[11.085934823956546,44.72509523397047],[11.086032540246618,44.72535451051547],[11.086209538331763,44.72571135978722],[11.086330227889954,44.72566319021969],[11.086446046573814,44.7256170171353],[11.087178416375952,44.72525827424199],[11.087935143466638,44.724887641920034],[11.088912936606643,44.724338613895966],[11.089615216627784,44.723875651550244],[11.08979812223157,44.723723895085605],[11.090314052329317,44.72329569372853],[11.090766343910305,44.72253123495653],[11.091203741450324,44.7217040121332],[11.091397805425942,44.72113331199408],[11.09176271108017,44.72039745954313],[11.092220799818065,44.719794909220326],[11.092323671611469,44.71965439641438],[11.092341040267863,44.71963057845917],[11.092610545754056,44.71927649583044],[11.092653715752277,44.7192197578552],[11.093015394547546,44.718745021795655],[11.09325208373604,44.71843271761701],[11.09369803648025,44.718222309918715],[11.094388089313687,44.7179999558364],[11.094484987785572,44.71796875310953],[11.095499116175375,44.71778712556842],[11.096046728889608,44.71772616950022],[11.097208772735087,44.71738974471408],[11.097966071877831,44.71703373841927],[11.09853215574934,44.7167094510499],[11.098896431801965,44.71637338480946],[11.100152543926432,44.715429805038234],[11.100188018625484,44.715403140231096],[11.101660679136055,44.71441960257921],[11.10232442564522,44.7142380033336],[11.10240643665666,44.71421800403771],[11.10313034808004,44.71404088067231],[11.104248182648318,44.71376739815581],[11.105475779541647,44.71350169552586],[11.106911318755698,44.71305210748915],[11.108111055936467,44.712714876662666],[11.109227366690053,44.71251420395913],[11.110331715097368,44.71233175509406],[11.111770666224574,44.711999078240595],[11.11281207190234,44.71173654903297],[11.113196766160709,44.71163958086734],[11.113782851105142,44.71143969413265],[11.114780341765384,44.7110971409083],[11.114861462875512,44.71107308729194],[11.115393735697193,44.71091462397176],[11.115947037349516,44.71074682818833],[11.116191375147144,44.710674783444695],[11.116686351822683,44.71053057735156],[11.116993520498776,44.71043589173967],[11.117077583384233,44.71069587613961],[11.117126652377811,44.71094105609103],[11.117150849054195,44.711062184493265],[11.117159456295576,44.7111025739856],[11.117260806091018,44.71160932321413],[11.11735715835645,44.7121746638339],[11.117436335301011,44.71261430944118],[11.117612515846934,44.7135292753579],[11.11763976910547,44.713684911278904],[11.117599168384128,44.714636701743004],[11.117683786625342,44.71500382610418],[11.117754616680005,44.71531144164885],[11.117824246442327,44.71561382115466],[11.11788555102462,44.7160727737466],[11.117946052740358,44.71652979667061],[11.118021301015911,44.71686147509058],[11.118213710008888,44.71763661075632],[11.118275734498063,44.718643701727096],[11.118311834080805,44.718887527218854],[11.11834304380275,44.71910163950464],[11.118447120445017,44.71985590156078],[11.11860556057711,44.72142834855038],[11.118854684866015,44.72303890013911],[11.11893601517213,44.72356468028792],[11.119077390105174,44.724993414771774],[11.119179351167949,44.72559945056794],[11.11930556359548,44.72634959841564],[11.119432178702052,44.72710230421392],[11.119497630883284,44.72779055920358],[11.119596235383169,44.72882768542612],[11.119620509033334,44.72896788649204],[11.119931267981826,44.73076140329974],[11.119948753148794,44.73086263248775],[11.120014917243749,44.73157912363589],[11.120026683207628,44.73170761620701],[11.120074880078876,44.732233978662585],[11.120363334346798,44.734241899078825],[11.120600695749301,44.7358758898486],[11.120622161776279,44.73603492416084],[11.120707517599696,44.73666734833084],[11.120895207324814,44.73805794874752],[11.121106232865815,44.739696357190745],[11.121142166155009,44.73997533076648],[11.121351375415303,44.741659361328274],[11.121359139878983,44.74171936932163],[11.12141214791446,44.74215776442713],[11.121696962616873,44.74372787028822],[11.12179694382921,44.744626229835774],[11.121803640889013,44.74468621079947],[11.121810004407514,44.74474308317715],[11.121903071871545,44.74556056050152],[11.122262823553232,44.747084249959336],[11.122381262059848,44.748594412061145],[11.122475414888173,44.74896625810732],[11.122661955869553,44.749705466281185],[11.122794380922835,44.749982388083225],[11.122915807743418,44.75023630282387],[11.123027456340434,44.75069783024532],[11.123811781579015,44.75415359388717],[11.124056087858785,44.754959239572116],[11.124159071712889,44.75543553112596],[11.124209199412038,44.755667564054605],[11.124318223311322,44.756278541838356],[11.124365411306087,44.75654252885141],[11.12446380807444,44.75709432713387],[11.124626227423889,44.75790599356981],[11.124645448629234,44.75800014504358],[11.12466490042829,44.758098826653885],[11.124902530199087,44.7590666509664],[11.125118370761104,44.76010687393769],[11.125264330438792,44.76098637764551],[11.12535758673054,44.76146175860369],[11.125416129885172,44.76175040585869],[11.125440278093771,44.761869672591864],[11.125450005951679,44.76191899300888],[11.125649452256438,44.76287851038015],[11.125673453545826,44.76299453627095],[11.125850695383953,44.763865003224076],[11.125899143876097,44.764152169996706],[11.126054473183228,44.764941473456474],[11.12619982661191,44.76580297402428],[11.126239703683538,44.765932444163205],[11.126558338301477,44.7669664959678],[11.126759501723722,44.76769190972608],[11.126769140734238,44.76772659670644],[11.126836204265436,44.76796970304321],[11.1269034574973,44.768656668198645],[11.126937453349308,44.76900314925072],[11.127200042884285,44.770303574799556],[11.127480289014576,44.771396628114076]]]}}]}
