{"type":"FeatureCollection","metadata":{"code":"042027","referenceDate":"2026-01-01","sourceDbfExportDate":"2026-02-18","upstreamArchiveUrl":"https://www.istat.it/storage/cartografia/confini_amministrativi/non_generalizzati/2026/Limiti01012026.zip","sourceManifestSha256":"70ac8256c4785dc6ed2814c32b6965ae76f9161b51abaa1660059e1c6cbd8ca6","license":"https://creativecommons.org/licenses/by/4.0/","attribution":"Istat, Confini delle unità amministrative a fini statistici al 1° gennaio 2026, versione non generalizzata.","modifications":["Converted from WGS 84 / UTM zone 32N (EPSG:32632) to RFC 7946 WGS 84 geographic coordinates.","Converted from shapefile to per-municipality GeoJSON without geometry simplification."]},"features":[{"type":"Feature","id":"042027","properties":{"code":"042027","name":"Montemarciano","alternativeName":null,"regionCode":"11","regionName":"Marche","territorialUnitCode":"042","territorialUnitName":"Ancona"},"geometry":{"type":"Polygon","coordinates":[[[13.345791385725704,43.6491094586711],[13.345832894216292,43.649244979077174],[13.345851364394244,43.64930527694797],[13.34596556861777,43.64939929903437],[13.346034574219471,43.64945653397382],[13.346124145333896,43.649530366356366],[13.346219469920293,43.649610193255135],[13.346313393913645,43.64973843303902],[13.34652036604839,43.650021022162385],[13.346553035552331,43.650065629914046],[13.346875187665692,43.650286532807584],[13.347087873719987,43.65043237164096],[13.347418090143655,43.650626853008106],[13.347550011080939,43.650699809692235],[13.347675312168427,43.65076910494634],[13.347781948906604,43.65082807743178],[13.347821495536015,43.65084994717943],[13.347865690721067,43.65088830580792],[13.347910829652646,43.6509275413417],[13.348039967823723,43.65103978921492],[13.34819267992541,43.65130855301085],[13.339817811969892,43.65470861692675],[13.339748494084583,43.65473601223488],[13.337205884363705,43.655800493621264],[13.33468076132117,43.65685075065527],[13.332295998130807,43.65782810104645],[13.326497346021226,43.660433869787305],[13.326364862289635,43.660488408198674],[13.322925255583252,43.661933187499386],[13.321005264715836,43.66273964403967],[13.31989745698663,43.66320022264916],[13.31806054134346,43.66399898278777],[13.3119867327354,43.666632434087944],[13.309607693226308,43.66761359544149],[13.307963179919463,43.66841842975102],[13.301525196668347,43.67156472717662],[13.300248626192653,43.672184524855744],[13.300220996321096,43.67214505342925],[13.30012818871478,43.67201801186371],[13.300024119603085,43.67187023346168],[13.299825790230939,43.67158860321835],[13.299776537388238,43.67151668556117],[13.299699660650964,43.671412131056684],[13.29965913645231,43.671355981490464],[13.299638655465982,43.671329744778106],[13.29959006260782,43.67125730250822],[13.299564653623868,43.671219424453994],[13.299541471173306,43.67118486106341],[13.299508926637744,43.67113832647045],[13.299299459650626,43.67083879869175],[13.298363714546,43.66950070895737],[13.297788163355577,43.66877966096335],[13.297407945752,43.66818854637643],[13.297346403006113,43.66809333921177],[13.29729290056855,43.6680105691136],[13.297240741143911,43.66793150799574],[13.297141032569272,43.667777566728994],[13.29704565173191,43.66763030724691],[13.296899206501049,43.66740420804401],[13.29629481318874,43.666756262107526],[13.295606098096268,43.66614299657633],[13.295431401418918,43.66591099984568],[13.295116140358301,43.665490734916965],[13.29515505260536,43.6654712634886],[13.295663204747195,43.66519337597878],[13.296100923345012,43.66495400290632],[13.296591339449758,43.66470146308921],[13.297635051531394,43.66412198770817],[13.298115536344294,43.663860813471324],[13.298668299512796,43.66356990557297],[13.299209973155651,43.66329741855107],[13.299559653658362,43.66315820301884],[13.299837693163974,43.66305769676928],[13.299886171693025,43.66283511637206],[13.299921716416694,43.66267191191286],[13.300038415362723,43.662482957298174],[13.300264776035263,43.66231012594228],[13.300329429024693,43.662260426038216],[13.300634410876672,43.662059871960444],[13.301149519036583,43.66180638275887],[13.301566527436188,43.66152507974547],[13.301844637884592,43.66133903977898],[13.301980118883414,43.6612394026199],[13.302009430535126,43.66121578941623],[13.301590918916679,43.660695903492666],[13.301204130135652,43.66035937672517],[13.301081389548427,43.66024697113575],[13.300651170574264,43.65973652763468],[13.30024312278099,43.65918923454752],[13.299973044168414,43.65866374719097],[13.299954000600259,43.65850926112297],[13.299891851551363,43.65800510285567],[13.299831609577298,43.65755273269134],[13.299787994736839,43.657162735145434],[13.299771454232339,43.6570148330138],[13.299772725429033,43.65655564322726],[13.299878318714331,43.65590796534058],[13.299918261093458,43.65533928482155],[13.299915393534878,43.65495227288139],[13.299903656825345,43.654484570383985],[13.299855465505493,43.6540272445316],[13.299717097704248,43.65360932831205],[13.29948374297801,43.65316348124678],[13.299185996151639,43.65268404852207],[13.299052302449871,43.652157921931014],[13.298990384849446,43.651768634203094],[13.298948854138924,43.65149111221703],[13.29889842950124,43.65147950777946],[13.298813518485765,43.651462451391154],[13.298504951303705,43.651395301550764],[13.297998902703874,43.65129732959115],[13.297219739201507,43.651151123166855],[13.296446646991932,43.650959669377684],[13.295862587658394,43.65094114785412],[13.295265751180455,43.65100413005251],[13.294615099142877,43.65118167044115],[13.294129132824613,43.65132149841551],[13.293651174699361,43.651573557810295],[13.29341134617936,43.65173112872977],[13.293070460344886,43.65190600581221],[13.292755154138565,43.65204840949524],[13.292318639208004,43.65218636925144],[13.291781914382515,43.652310091875115],[13.291233142733558,43.65243876557459],[13.290860999007096,43.6524797696375],[13.290421704823713,43.65262232807697],[13.290031872323556,43.652763026034414],[13.289556646614715,43.65287992353643],[13.289180675769586,43.653128129990165],[13.288499501624518,43.65348683826798],[13.287700086108314,43.653665428106144],[13.286952383123984,43.65426520120235],[13.286397720116288,43.654529115005154],[13.285908509721876,43.65475455701172],[13.285468973165791,43.65493761836516],[13.28520554869268,43.655069049701005],[13.284842017991831,43.65523124837796],[13.284826773154705,43.655191307992894],[13.284800493265761,43.65512702413458],[13.284712918709358,43.65489849178685],[13.284676460266473,43.65451724193017],[13.28482048623189,43.65423274647034],[13.285116423044753,43.65386152095562],[13.285298075900482,43.65353960123119],[13.28547151801652,43.65314596669771],[13.285457018387904,43.652768394638294],[13.284156044288448,43.65225907685898],[13.283635195870408,43.651909518165326],[13.28313482000849,43.65158619625011],[13.282719939471091,43.65133168604517],[13.282161051518756,43.650970043996026],[13.281782741071488,43.65075016843149],[13.281378743649798,43.650517752037885],[13.281122168528785,43.650396838432805],[13.280605062883886,43.65031720857598],[13.280065052774127,43.65008989001249],[13.279552447498686,43.64981202523282],[13.279163500306295,43.64952952063306],[13.278776051658307,43.64922445131473],[13.278324428531732,43.648975803251105],[13.277953805694153,43.64886366099843],[13.277310711782857,43.64884275682668],[13.276825695520639,43.64886543887965],[13.27644494418253,43.64878518048065],[13.276066349867792,43.64873230862581],[13.276012917311881,43.648724847219334],[13.27536415898998,43.64879867354967],[13.274819766943574,43.64881456984106],[13.27413540729751,43.6488672157754],[13.273976536534608,43.64885992083952],[13.273541454524068,43.6488399480574],[13.273140954878178,43.648917966684294],[13.272497956800837,43.648942046050394],[13.272011341161932,43.6489422602712],[13.271541235385175,43.648943979925875],[13.271345108612655,43.648944695831595],[13.271291803880246,43.648934785839856],[13.270861392737103,43.64885476874074],[13.270320026535808,43.64869497508067],[13.26985403520621,43.64850535052231],[13.26950242510633,43.648311443283966],[13.269283925500847,43.648185698417166],[13.269098488853805,43.6480789797716],[13.26875402185413,43.647898307252014],[13.268548215445877,43.64779347151642],[13.26787790238269,43.64738866100307],[13.267829465545146,43.64736121605823],[13.267797274819063,43.64734441163578],[13.266689298533132,43.646755648164124],[13.266611923116384,43.64671352705888],[13.266480087285634,43.646646432724914],[13.266303065366804,43.6465540209078],[13.267118080172539,43.64585283582029],[13.267349681281713,43.6455785913334],[13.267546043219507,43.64515711775782],[13.267720671477395,43.644691443234215],[13.26794398650176,43.6443004709327],[13.268216026559683,43.64385365920104],[13.268437518335412,43.64348075988604],[13.268736732884856,43.64302392747232],[13.269010035767339,43.64259507145254],[13.269183466581943,43.64215644809458],[13.269035339099966,43.641684841136524],[13.2686746693822,43.64127520270463],[13.268004273727744,43.64086814573882],[13.267617706537346,43.6404864812024],[13.267382825784633,43.64005862955612],[13.266988721984973,43.63961422450592],[13.266405671431086,43.63912736800982],[13.266019990538853,43.63871415467777],[13.265557862305618,43.63840282866235],[13.265108830401422,43.638145028526544],[13.264655755886563,43.63787387336156],[13.26418255137531,43.637580961427155],[13.263672311270865,43.63715889043284],[13.26314689060292,43.636872426673385],[13.262662203308029,43.63654842813833],[13.262300514154088,43.63621082932508],[13.261974009411817,43.63584490740529],[13.261771949058229,43.635573366658306],[13.261535399419426,43.63520858509214],[13.261444749356523,43.63484735628369],[13.261283882388287,43.634457240440206],[13.260946850761922,43.63407370190663],[13.260730937261112,43.63382518465914],[13.260566064318084,43.633597267548424],[13.260487872553792,43.63328058717855],[13.260532207002344,43.63303135412953],[13.260665127731166,43.632720294551376],[13.260707323925025,43.63248464560458],[13.260734329432198,43.63238460632401],[13.260763472128115,43.63227098289704],[13.260857638153034,43.632238071343124],[13.261228926511574,43.6321050549992],[13.261270094588433,43.63195497080036],[13.261324984711706,43.63175485913478],[13.261379943010377,43.63152288366277],[13.26142304436829,43.631341269302155],[13.26155167661599,43.63119271977521],[13.261890817342014,43.631081021562906],[13.26204176716204,43.631068543987645],[13.262288215242956,43.63104817226726],[13.262605677306134,43.63100480338272],[13.262656489652784,43.630997861790476],[13.262696386307642,43.63099241190273],[13.262962764540159,43.630815908793096],[13.26312990909392,43.6305350679701],[13.263223211167848,43.63037816922013],[13.263341066027797,43.63007704771682],[13.263425097270677,43.62986234100686],[13.263525239956735,43.62962002446759],[13.263583814134588,43.62947829285217],[13.263679858527395,43.629275727624226],[13.263729660009622,43.62917107173249],[13.263764829398403,43.62914663275736],[13.26403061669701,43.62896194040529],[13.264311251560922,43.62881190917587],[13.264358980223829,43.62878581768235],[13.264549892045908,43.62868145251487],[13.264901830329746,43.62848824195834],[13.264955524485996,43.62845888877113],[13.26514046820781,43.62835778416083],[13.265293033176121,43.62819462624841],[13.265088166221338,43.62801313049142],[13.264943269295284,43.62776646718016],[13.264922568935578,43.62773122932107],[13.265034051819953,43.62738045378449],[13.265077983131244,43.62731129094453],[13.265171020032934,43.62716481414979],[13.26526541796531,43.62701619413211],[13.265378621116032,43.62684991234165],[13.265453446664862,43.626740001591834],[13.265526411706713,43.62663282069649],[13.26571646230452,43.62647266874575],[13.266074839650576,43.62646376686071],[13.266547637265244,43.6263965781993],[13.266606631906692,43.62635386021873],[13.266662577867454,43.62631334937555],[13.266927821553256,43.626121280138314],[13.266990394887795,43.625889368304506],[13.267000418475192,43.62585221756211],[13.267065237238828,43.62561198407076],[13.267125138151515,43.625434188547274],[13.267203470062329,43.625201687284665],[13.267554290394765,43.62508053351478],[13.267814822778845,43.625084391008194],[13.267985409761753,43.6250869153841],[13.268372857602126,43.62504541422785],[13.268429834565161,43.62501874641248],[13.268623730393461,43.624927995829026],[13.268738713030721,43.62487417849317],[13.268786655138962,43.624458509423846],[13.268954810252842,43.62416387393703],[13.26898588390163,43.624121449357204],[13.269066673776873,43.62401114294949],[13.269175146878071,43.62386303924623],[13.26940657719955,43.62376012907273],[13.269451474849953,43.623740165212695],[13.269575616797884,43.623699457352146],[13.26971489788483,43.62365378406186],[13.269892024346172,43.623530119435465],[13.270069150077571,43.62340645456184],[13.270167771189271,43.623311709616786],[13.27020280409111,43.62327805390621],[13.270298299089163,43.623186312163234],[13.270436207539994,43.62307761870081],[13.270482314286554,43.62305788737489],[13.270712847615105,43.62295923138141],[13.270760561268018,43.62293303064228],[13.271064731335374,43.62276600389251],[13.271303652783313,43.622640024060395],[13.271362275735891,43.62258251858395],[13.271546970657482,43.622401343900414],[13.27169755351278,43.622296675901744],[13.271768130794849,43.62227753056345],[13.271949847210292,43.62222823846287],[13.271986323691298,43.62221834351115],[13.272418153923397,43.622278699377866],[13.272593537035638,43.62235301990868],[13.272827049871253,43.6224524476352],[13.272920313604404,43.62251647695425],[13.273100624746254,43.62264026490339],[13.273103524209617,43.62295975625161],[13.273104258958808,43.623040754753845],[13.272979640039795,43.6234234465172],[13.272848267630462,43.623712047940366],[13.272729635495665,43.623874039857206],[13.272679010500738,43.62394316728084],[13.272660572567858,43.62404601617621],[13.272652223715532,43.624093006078574],[13.272580279521897,43.62413942519153],[13.272474465840897,43.62420769573796],[13.272184698332817,43.62440310340421],[13.272077339626549,43.62463669478485],[13.272173956555424,43.625168744930996],[13.272339132522662,43.62553167637313],[13.272452448148966,43.625775010352726],[13.272539609442697,43.62621738707766],[13.272646014229576,43.62640696317718],[13.272728876665202,43.62657041205432],[13.2727489793938,43.626722707507106],[13.272682555787615,43.626878242939966],[13.272727476128908,43.62707462264238],[13.272894191028326,43.62728444737344],[13.273059282064391,43.62760236641399],[13.27317333848031,43.627899689193214],[13.273323173826931,43.62830820710378],[13.2734358324949,43.62867310358959],[13.27350022556412,43.629012798943755],[13.273617155529667,43.62935052659389],[13.273741320364545,43.629746500991054],[13.273869338881022,43.630065807267954],[13.274044353657311,43.63039235594894],[13.274222362645029,43.63067377866299],[13.274389729834255,43.630892579536095],[13.27460600507344,43.63114555861481],[13.274858411287369,43.63138368023573],[13.275052861699661,43.63154744814991],[13.275345128708501,43.63177957380292],[13.27564604230227,43.63165351278941],[13.276157543800059,43.631438533333466],[13.276398080130647,43.63133498947881],[13.276796326885986,43.63127054757417],[13.27731679141136,43.631269043641254],[13.277835137904502,43.63136666914307],[13.278122129257497,43.63139887834788],[13.278316032946844,43.63142064068114],[13.278591097716635,43.631279786038625],[13.278835694051647,43.6310590473383],[13.279230356960735,43.63063912107499],[13.27971608257133,43.63058489257558],[13.280054645050978,43.630509173507924],[13.28022131848164,43.63044061886297],[13.280415911585287,43.630360579588555],[13.280734883616224,43.630096534682586],[13.28094992714049,43.62988172749425],[13.281090731595059,43.629741077433465],[13.2813216741405,43.62950283992295],[13.2816266801288,43.629216810240486],[13.281820216935275,43.6289754738697],[13.281977203531179,43.62869949905356],[13.282130769506278,43.62854969093573],[13.282440330401512,43.62850206181291],[13.282888735735563,43.62848973343337],[13.28325775307923,43.628493886787055],[13.283787775350415,43.62862703684588],[13.284216883361648,43.62882249214622],[13.28474317595794,43.62907731574463],[13.285202870801237,43.62939765813899],[13.28567897968369,43.62973088646974],[13.286066541929276,43.62999541582657],[13.286418941290247,43.63028827340385],[13.286610007843297,43.63044764713337],[13.286708792383644,43.63052946335092],[13.286903803381039,43.63065717831937],[13.286933268433348,43.630635814837774],[13.287118527711906,43.63049606289687],[13.2874888310855,43.63012653832152],[13.287495756057144,43.6299192137226],[13.28749541298312,43.62986277766815],[13.287493728824222,43.62958618610647],[13.28755158803612,43.629223899590556],[13.287567914935835,43.6291492383205],[13.287624045882774,43.62889257455181],[13.287742642935129,43.628600027739175],[13.287835701276855,43.62839893563732],[13.287863478326791,43.628338906763574],[13.287901995487871,43.628220920679865],[13.28794232853824,43.628097370085634],[13.28835481806473,43.62805936029216],[13.288829219400727,43.62806403814646],[13.28892224476802,43.62806504302089],[13.28936659370305,43.62803933635161],[13.289965350571107,43.62809335014734],[13.29014906092828,43.628149463220915],[13.290430806846699,43.62823339898349],[13.290626988066283,43.62833405585094],[13.290944731237463,43.62809703639272],[13.29132405803332,43.62776767301182],[13.291688048168462,43.62761443952205],[13.292101269444748,43.62749986507227],[13.292441274962014,43.62727100781721],[13.292760064296246,43.62696192183923],[13.293043148787783,43.62658665765008],[13.293326131860393,43.6262969230084],[13.293683050860913,43.625914377652826],[13.293912758945151,43.625703170708086],[13.29405296605941,43.62554034497906],[13.294245158793201,43.62528103333432],[13.294694015051146,43.62484100842415],[13.295049748391218,43.624485511156145],[13.29538426325316,43.62404978743723],[13.295816163838696,43.62363290269392],[13.296212467599952,43.623194849401905],[13.296523529213474,43.62277801114633],[13.296774317858128,43.62260201528645],[13.297274538702556,43.622448135413016],[13.297925725730972,43.62223905125247],[13.298373115175341,43.62221319590511],[13.298659716456523,43.62214838188893],[13.298922648721918,43.62201243587322],[13.29922796779996,43.62177586236501],[13.299490944562894,43.62159715149901],[13.299594440394044,43.621527980846984],[13.300119477680488,43.62141816776919],[13.300404587375244,43.621375912773225],[13.300855874095186,43.62118784991755],[13.301220120943816,43.621039077819816],[13.30155550874455,43.620963414612966],[13.30200437234276,43.62091498224506],[13.302292331688653,43.62078258722591],[13.302422914782834,43.62061561266895],[13.302872585286414,43.62040509648952],[13.30351084638612,43.62023247848545],[13.303869482646016,43.62014606899236],[13.303998146430851,43.62011506794273],[13.30396512914241,43.620079672539106],[13.303604560854573,43.61969312518958],[13.303454620585963,43.61953238101968],[13.303329597666773,43.61934353524174],[13.303218537128542,43.61917667085216],[13.303011621971393,43.618983620744295],[13.302903204480321,43.618882466495855],[13.302581870345486,43.618773296813764],[13.30241424645619,43.61871634780318],[13.301947762465149,43.6185178687156],[13.301507367444144,43.61825088351866],[13.30101967081447,43.61797217524781],[13.300595257183259,43.61766857256309],[13.300196295182957,43.617287485521224],[13.300006289954563,43.61705607141457],[13.299680638840782,43.616703729891775],[13.299563300416706,43.61649208309736],[13.29976601885086,43.61638091214691],[13.300254027102898,43.61618696654235],[13.30075406860421,43.61598806476663],[13.30105935131723,43.61575148683959],[13.301325429556718,43.61552989117653],[13.301489989937842,43.615361636844035],[13.301225197130414,43.615124042031084],[13.301255509476494,43.614897829182546],[13.301434758293704,43.61467500395602],[13.301877454058742,43.61441073741192],[13.302071265688621,43.61431857914449],[13.302329852012065,43.614195619178176],[13.302738380393265,43.61418922326283],[13.303359287926105,43.61421080816425],[13.303938256787161,43.61413052667074],[13.304028077031822,43.61411806921308],[13.304797022674453,43.61408456078015],[13.3054697540571,43.61400516174556],[13.305811708255547,43.61394842527279],[13.305958295657808,43.61392410283926],[13.306066734801059,43.61390611021148],[13.306513334005752,43.61395677643475],[13.307126802892128,43.61413168303375],[13.307383266529028,43.614252542852505],[13.307611968115928,43.61450499006673],[13.308046666274528,43.61495222341095],[13.308367901253881,43.61537222917843],[13.308585216814679,43.61563860860783],[13.30885248703352,43.615867090617044],[13.309221544418497,43.615916172815034],[13.309725376652306,43.61598717208245],[13.310256620539107,43.616138158624544],[13.31080917235815,43.61628383623375],[13.311474876998009,43.616452244305286],[13.31202898926627,43.616489823412564],[13.31272257525493,43.616571644110095],[13.313309889569563,43.61677001195446],[13.313706243697021,43.6168540591792],[13.31406236507597,43.61702515253473],[13.31428904821984,43.617205640352296],[13.314568509628593,43.617474160754426],[13.314908350878698,43.61767737617028],[13.315525806911905,43.61782057722206],[13.315948240880711,43.617836108683576],[13.316614106636731,43.61783342678513],[13.317298058060315,43.6177805418019],[13.31781620346836,43.61787797213901],[13.31807154480331,43.61802585783863],[13.318255023222083,43.61816521085371],[13.318327018041966,43.61821875411162],[13.318482015702639,43.618392943582734],[13.318603027302139,43.61856842005256],[13.319039902574445,43.619303617464034],[13.319483605237389,43.619831490513604],[13.319574440165773,43.620147650910184],[13.319654718980841,43.6204462051186],[13.319729080268043,43.62083501195192],[13.319794556364394,43.621143129309594],[13.320019996149956,43.62152171383607],[13.320177965499864,43.62165077496187],[13.320643371710737,43.621876228261],[13.320874853876584,43.62199350095664],[13.320929516672098,43.622193993611575],[13.32100980573369,43.62249254729316],[13.321166622839677,43.62264865834545],[13.32152016353187,43.62286934153203],[13.321850656870758,43.623027876526805],[13.322094315424414,43.62318519928281],[13.322208600268398,43.62348246343065],[13.322226513049742,43.62368884894078],[13.322233867398708,43.62387762867709],[13.32242559013746,43.62413144719344],[13.32259426327008,43.62432311854389],[13.322703453041669,43.624463026883085],[13.322794180562264,43.624734174264574],[13.322848796787378,43.625020194872974],[13.323056452944758,43.62553899033694],[13.323222443802855,43.62586580435308],[13.323495240421979,43.62625609166809],[13.323796871417183,43.62657326366623],[13.324023056694388,43.62687528826699],[13.32440723810219,43.627306366489215],[13.324685180868457,43.627552411870944],[13.324985805877812,43.627941640732296],[13.325139828063804,43.62818787977025],[13.32540439791373,43.6285064522304],[13.325619903156381,43.628745859312765],[13.32584906093567,43.629002754089015],[13.32598035528384,43.62919133594145],[13.326147764403302,43.62936504405825],[13.326613576920368,43.62959495849143],[13.327106830821636,43.62990485422805],[13.327293617654833,43.63004631665701],[13.327563145863802,43.63026116398741],[13.32772447067754,43.630565641004864],[13.327756970603353,43.631190101330986],[13.327822139800466,43.63127765802799],[13.327908108508847,43.631395933936886],[13.32820047121301,43.6317989717085],[13.328283536401852,43.631876844620194],[13.328864358629554,43.632412981672644],[13.328934098535566,43.632477858070494],[13.328973762152355,43.63251236284299],[13.329678716642052,43.63300777547276],[13.330471501522878,43.63351785593665],[13.330694912572122,43.63365117410509],[13.331264490581953,43.6339874147213],[13.331427224884415,43.6341052198936],[13.331908502273004,43.63445361675569],[13.33280155124589,43.63489235360528],[13.333916473850156,43.63531365221779],[13.334047669603587,43.63534702545349],[13.334425400116958,43.63544311645627],[13.334794025359058,43.63553689088076],[13.335270698814961,43.63565832262232],[13.336487312625508,43.636071230557256],[13.337494005219817,43.636366067789396],[13.338503150299875,43.636651799060225],[13.339402844367985,43.63692367925982],[13.339644432358517,43.636997930129276],[13.340215786156499,43.63717353094106],[13.340445501605503,43.63724413002696],[13.341319193004923,43.637498977565954],[13.342190273173559,43.637803434263326],[13.343052913037678,43.63807669557321],[13.343849687096213,43.6383389527641],[13.344696888689537,43.638612789282604],[13.345497761690883,43.63880285695189],[13.346164774307198,43.63898451466709],[13.346703133563569,43.63914406126282],[13.346790449047228,43.639280277906956],[13.346824921368821,43.6393284793092],[13.346725830224573,43.63945829325254],[13.346528297634112,43.639726898969265],[13.34602700092119,43.64029516437777],[13.345351451629044,43.640982598678235],[13.34505316831336,43.6414440966773],[13.344640652849959,43.642040484008405],[13.34415131119137,43.64277483664906],[13.343597549839425,43.64347562918204],[13.342992327798836,43.64432242055164],[13.342952298764281,43.64436895930827],[13.342673217638268,43.644689602699636],[13.342543031969072,43.644839174763774],[13.342132115308685,43.645372473202315],[13.341889152407063,43.645656304060566],[13.341766934460177,43.64580949996828],[13.341684911530832,43.64591840364071],[13.34185523516136,43.64591642363088],[13.341954467489582,43.645917148783774],[13.342051568807532,43.64597422267868],[13.342124738338555,43.64608622337841],[13.342189770447941,43.646214287781646],[13.342262455810504,43.64631955468738],[13.342289298168025,43.64634710812195],[13.342382965039938,43.646443259607494],[13.342611804780633,43.64660785275552],[13.343039737540911,43.646868399780665],[13.343247591988737,43.64704279326587],[13.34341819378269,43.647216353802236],[13.34357984776357,43.64739475703458],[13.34365349734015,43.647556253138],[13.34381111336487,43.64763577857435],[13.343983200695845,43.64774401203492],[13.344191396781039,43.64788012960775],[13.344357627542003,43.64799308599997],[13.344474241709802,43.648105681625445],[13.344648276695397,43.64824084840557],[13.344780255663363,43.64838082503562],[13.344855147268813,43.64844592921078],[13.344878415272246,43.64846615658747],[13.344760934465652,43.64855615634534],[13.344851535175552,43.648608973937435],[13.344942299321618,43.64866403504063],[13.345121543598443,43.64878238617228],[13.345197196729496,43.64873084201437],[13.345299761581009,43.6486613124438],[13.34536173449737,43.64870182729252],[13.345448604818307,43.64878448682492],[13.345477956629152,43.64881385791861],[13.34559892806525,43.64893490392827],[13.345662106336135,43.64900004496515],[13.345791385725704,43.6491094586711]]]}}]}
