{"type":"FeatureCollection","metadata":{"code":"042037","referenceDate":"2026-01-01","sourceDbfExportDate":"2026-02-18","upstreamArchiveUrl":"https://www.istat.it/storage/cartografia/confini_amministrativi/non_generalizzati/2026/Limiti01012026.zip","sourceManifestSha256":"70ac8256c4785dc6ed2814c32b6965ae76f9161b51abaa1660059e1c6cbd8ca6","license":"https://creativecommons.org/licenses/by/4.0/","attribution":"Istat, Confini delle unità amministrative a fini statistici al 1° gennaio 2026, versione non generalizzata.","modifications":["Converted from WGS 84 / UTM zone 32N (EPSG:32632) to RFC 7946 WGS 84 geographic coordinates.","Converted from shapefile to per-municipality GeoJSON without geometry simplification."]},"features":[{"type":"Feature","id":"042037","properties":{"code":"042037","name":"Poggio San Marcello","alternativeName":null,"regionCode":"11","regionName":"Marche","territorialUnitCode":"042","territorialUnitName":"Ancona"},"geometry":{"type":"Polygon","coordinates":[[[13.125928612259562,43.54175437578538],[13.126119552051819,43.54201306009278],[13.126261129692969,43.54222851435882],[13.12635097284832,43.54241475763273],[13.126423336648935,43.54256476265432],[13.126393569512615,43.54281631578931],[13.126388029432306,43.54286313738112],[13.12634127766502,43.54322044464892],[13.12640629069865,43.543492683985875],[13.12649597852561,43.54380904633811],[13.126572706264923,43.544116875048275],[13.126621603162544,43.54456075358859],[13.126745824291868,43.54497489956602],[13.127000262960454,43.545483369386666],[13.127161852532508,43.545855650927315],[13.127164463756047,43.546034357562114],[13.12716606129399,43.54614359296483],[13.127068698338833,43.54648472446867],[13.126975344607704,43.5466691599533],[13.126948819355993,43.54672156417148],[13.12689694635059,43.54682404414431],[13.126719934582198,43.546953972233545],[13.126658278639967,43.546999228744426],[13.126264641922345,43.547216027560914],[13.125710744182777,43.5475781642141],[13.121690110538362,43.54674661098695],[13.121011079791355,43.54668110077535],[13.12041814706482,43.5466529919633],[13.120009193174882,43.546600232997044],[13.119538481804634,43.546594715861914],[13.119270290786496,43.5465188675003],[13.119006556594451,43.5461907745291],[13.118870344323174,43.54578155419277],[13.118772705432823,43.5453934483902],[13.118763733287294,43.545354122799296],[13.118706498803986,43.54510324161263],[13.118693708783365,43.54477959660486],[13.118677218678028,43.54444708207063],[13.118503951006929,43.54408421264308],[13.118326960840307,43.54375748939181],[13.118178365526212,43.543438744372544],[13.118135607671077,43.54317470024608],[13.118142149004752,43.54297711227175],[13.118144707963229,43.542899781092395],[13.118191791201813,43.542591981743335],[13.11838452577572,43.54233294427696],[13.118604755457694,43.542023397632136],[13.118724355063735,43.541735488890474],[13.11875501087905,43.54154982128841],[13.11874768479666,43.54139703582479],[13.118489366715401,43.54137484654648],[13.117957603623948,43.5413355144114],[13.1175619014578,43.541385802402424],[13.117164054592381,43.54140465574878],[13.116756337027667,43.54141486068662],[13.116344282552177,43.54145223058916],[13.11604767653273,43.541458425718325],[13.115798563901363,43.541525927844454],[13.115513052704836,43.54155873061783],[13.115219307330436,43.54142527513357],[13.114832465903195,43.54110611224128],[13.114719642839717,43.54098351765708],[13.114571838727702,43.540822911840095],[13.114383300467788,43.54050785234168],[13.11435878948459,43.54046597145638],[13.11413617782059,43.54010487471363],[13.113981897513701,43.53984456688284],[13.113898470705545,43.5397038070168],[13.113787891016152,43.53935217606793],[13.113684973863744,43.539067770936605],[13.113508008677853,43.53878607130698],[13.11341839762912,43.53846969552123],[13.113429107467242,43.53812719662876],[13.113504926430585,43.5378882162188],[13.11352590104633,43.53782210991169],[13.113582569415257,43.53751846833855],[13.113740749120051,43.537251680935334],[13.114082212374564,43.53704130837274],[13.114289796645803,43.5367277242113],[13.11439550656095,43.53646282723574],[13.114473308233068,43.53612917521539],[13.114496069288117,43.53603155939704],[13.114738531610183,43.535865145797295],[13.114943509054887,43.53560579512129],[13.115101067755285,43.53533002606916],[13.115245335459722,43.535086245756204],[13.11526765158509,43.53496638849697],[13.115288370888878,43.53485511829024],[13.115148408662996,43.53461708415894],[13.114892676464123,43.534450746435205],[13.11476036289865,43.534324973224386],[13.114715099396241,43.5341600495511],[13.11522104245995,43.53341256790715],[13.115267803724468,43.53314529480523],[13.11488924835202,43.53299238747735],[13.114848984638725,43.53299421266366],[13.114405044103822,43.533014343356434],[13.113908191855922,43.53303225242307],[13.113475361078516,43.53312434554958],[13.112916265785838,43.53318504137401],[13.112588474127795,43.533277879122124],[13.11233841536163,43.53342193359206],[13.112221056328472,43.53356120667691],[13.11186973542602,43.533762926638374],[13.111618444288084,43.53343436754881],[13.111358510144985,43.5331151222575],[13.111118316211725,43.532813171441596],[13.110855238860946,43.53258406776111],[13.110439726745634,43.53234244789667],[13.110210496683955,43.53218850294206],[13.110123650476963,43.532130179955026],[13.109930782014741,43.532000653972425],[13.10968131022302,43.53174404937276],[13.109650180643097,43.53170725206352],[13.109582389855737,43.53162711960139],[13.109452085184396,43.531473094543216],[13.109418922672015,43.53143389362248],[13.10922903618184,43.531143632041264],[13.10931783337384,43.53106638237199],[13.109689133810637,43.53074336224093],[13.110081871512508,43.530401688010855],[13.11005385189009,43.53034993548971],[13.109904974187717,43.530074948500435],[13.109613498109518,43.529882876599025],[13.109164982415189,43.52965594479468],[13.108737797167004,43.529378726582635],[13.108325063739954,43.52917751161994],[13.107754138167719,43.528833438880476],[13.107399441368887,43.52865094871629],[13.10735344983782,43.528627285342694],[13.107047892221827,43.52845466043343],[13.106829091298188,43.52833104717646],[13.106579648459306,43.52807443364143],[13.106586634104689,43.52781309642946],[13.106630311360139,43.52759095105224],[13.106648995589756,43.527365204247666],[13.106705625983132,43.52715159675274],[13.106829056101532,43.526737520359546],[13.106821155592792,43.52657575052447],[13.106537307965255,43.52644061592659],[13.106504682269005,43.52642508364826],[13.106193904278914,43.52649478406683],[13.105839377189197,43.52657775504022],[13.105557527228491,43.52664371761995],[13.105217990474483,43.526790974879084],[13.105041386167805,43.52692336839696],[13.104532809237588,43.526995676340235],[13.104286899159934,43.52697300832355],[13.10398978681188,43.52692517250914],[13.103584708663846,43.5268362022408],[13.103398306380583,43.52686991274617],[13.103131869116044,43.52704604654083],[13.102257113320945,43.52737458779917],[13.101872913478102,43.52741090297587],[13.10158714370102,43.52743511438242],[13.101411567406926,43.52744998895253],[13.101137162286172,43.527411902945225],[13.10110241585496,43.527407079725776],[13.100801075399264,43.52725135079603],[13.100338515575265,43.52690784962819],[13.100266970265292,43.526848430980586],[13.100063161518158,43.52667916162832],[13.099871430337794,43.526451970853635],[13.09978926397516,43.52619833766339],[13.099726793324264,43.526007017500895],[13.099689002690848,43.52563019320635],[13.099573788633565,43.52547282273803],[13.099524959256067,43.52540602089789],[13.09947404852298,43.52533636869456],[13.099292759913011,43.52517182236851],[13.099064312828974,43.52495045030994],[13.098820664593987,43.52482415579717],[13.096678853602278,43.52494156218896],[13.096463458649145,43.52489846411613],[13.096221036289565,43.524849956896574],[13.0960060394313,43.52480868839575],[13.095766611580979,43.52476273045063],[13.095265032203782,43.52461867321679],[13.094642374260879,43.52428539409581],[13.094338972863344,43.52414357752582],[13.094239889777839,43.52409726454808],[13.094130717679752,43.52403815988353],[13.093887082738489,43.523911853359955],[13.09348712451978,43.52366961302406],[13.093367848898595,43.52360856697501],[13.09310902870969,43.52347610325373],[13.09296600688906,43.52332818062778],[13.093003515689567,43.52315127763886],[13.093024595928652,43.52305148800468],[13.093207521781489,43.52278384216304],[13.093447417924555,43.52262668947946],[13.093611042269432,43.522530790744185],[13.093113401401224,43.52217051175377],[13.092879137390875,43.52203233044717],[13.09237240278958,43.52173342764474],[13.09163363398835,43.52123773877563],[13.091303185106154,43.5210471532833],[13.091244176361126,43.52101311922205],[13.090785163541897,43.52077250421666],[13.090625269750799,43.52068868638612],[13.090162070840446,43.5204712072971],[13.090006192386653,43.520415074093826],[13.089832368098326,43.52035247756112],[13.089484713921738,43.52028840843919],[13.089127215765922,43.52026507957942],[13.088788240359346,43.52009728814162],[13.088619386384721,43.519887264674935],[13.08843019831071,43.51965096006548],[13.088355507228277,43.519542911958474],[13.088323918044498,43.519497214820916],[13.088154363317006,43.519368242484795],[13.087279793411618,43.51910804292284],[13.087087495260842,43.519050830284804],[13.086745742374918,43.51889198126494],[13.086391142105823,43.51876966015961],[13.086085531899625,43.518641053888445],[13.085804223142388,43.51850702767039],[13.085527727273082,43.518350418033165],[13.085260200180162,43.51862382286292],[13.084911504987565,43.51898017549571],[13.084708219341893,43.51922152844085],[13.084617374084,43.51939460521422],[13.084549290392216,43.51952431439004],[13.084540414926964,43.51955860778839],[13.084463450652244,43.51985599552858],[13.084438201194203,43.520684521837914],[13.084436533871456,43.52073925355976],[13.084445229155945,43.52123410690688],[13.084321955647859,43.521652656579306],[13.084158617512097,43.52202762429641],[13.083925522751155,43.522423092836924],[13.083720098594686,43.52263301066567],[13.082951474058792,43.52265600550324],[13.08165818657797,43.52277723496713],[13.081476131145589,43.52279429919659],[13.081465388819124,43.522635222683554],[13.08145975561944,43.52255180356752],[13.081422296876346,43.522134502767265],[13.0813540195971,43.52194788136838],[13.081215486892166,43.52168274514887],[13.081002046291129,43.52136176696568],[13.08083946258066,43.52119919248462],[13.080749958845685,43.521109692180154],[13.080499442131957,43.52083505388403],[13.080290415018233,43.52044189283775],[13.080182995062545,43.52022515913254],[13.080058080772128,43.51993252450146],[13.07996427282991,43.519688294789674],[13.079872228584884,43.51951602656395],[13.079622608111102,43.519529449973824],[13.079420564863534,43.51974374081088],[13.079311858560533,43.51989786283857],[13.079251195050817,43.51998387196002],[13.079122292861731,43.52018204285828],[13.07896078757454,43.52029856028493],[13.07891878695976,43.52032886200501],[13.078766879518465,43.52041531702823],[13.078267821875821,43.520536684230606],[13.077895323962293,43.52060851252292],[13.077538631424524,43.520703959058096],[13.077099329536118,43.52082150833973],[13.077012388584645,43.520881360104866],[13.076933807629766,43.52093545734477],[13.076880387216313,43.52096887522337],[13.076786571659804,43.5212288118506],[13.076345408374547,43.52142912968155],[13.07593521300704,43.52153830922967],[13.075647834497435,43.521634099913804],[13.07533486152119,43.52171729816275],[13.075144295646092,43.52177848218121],[13.075035138549913,43.52181352803892],[13.074571515357984,43.52195612084084],[13.074124284965455,43.522066616789694],[13.073786622073628,43.52215069203298],[13.073436616794188,43.52223520763352],[13.07337953937977,43.52224761785498],[13.07304032404566,43.522321372942834],[13.072219604914135,43.52253521877513],[13.072079782318447,43.5225717177402],[13.07191158213328,43.52237064907135],[13.071942316002517,43.522230005877304],[13.07197149372101,43.52206681685808],[13.071904854237038,43.5219282761128],[13.071867229984836,43.52185005716474],[13.071506816885964,43.521871916551056],[13.071343095995752,43.522012801556514],[13.071117419273603,43.52210637912755],[13.070971911040441,43.52201253576345],[13.070955214232612,43.52187235369631],[13.070950555554422,43.52183323760915],[13.070881342070226,43.52167815306144],[13.070699872903322,43.521546851589974],[13.07057895501204,43.52145936113303],[13.070176558667798,43.5212711428761],[13.069818866007832,43.52110566372848],[13.06975196189899,43.521074711637446],[13.06932046605831,43.52095955158412],[13.068977797871208,43.520881636500036],[13.068586408562775,43.52076064415207],[13.068108393803909,43.520597621525205],[13.067873640519442,43.52051803486],[13.067519668230691,43.52039802816272],[13.067277069170268,43.520240117521446],[13.066924966423,43.52006360021405],[13.066613775569374,43.51975958200213],[13.066426008844575,43.51945116604542],[13.06625415991002,43.51910914140315],[13.066226030125689,43.51905315394531],[13.066187074560002,43.51891227850601],[13.066148374265609,43.51877232577691],[13.066138397996014,43.51871352908503],[13.0661073783564,43.518530704641115],[13.066062124206757,43.51853269029371],[13.065561550055367,43.518554648252646],[13.065019842680606,43.518501917163725],[13.064648377135631,43.51849713999981],[13.064529513985514,43.51833931788352],[13.064573342983277,43.518117183407774],[13.064642090354806,43.517943678574404],[13.064460319316211,43.517912280507666],[13.064188358390442,43.51786530304317],[13.063704913513513,43.51785100420683],[13.063608977752349,43.51783497467228],[13.063260740251692,43.517776786214434],[13.06300155477167,43.51770997199536],[13.062892498930415,43.517681858551796],[13.062650593726369,43.51748790086878],[13.062786288487201,43.51711394732957],[13.06278250366797,43.51700866488298],[13.062768516105596,43.51661941364253],[13.062778914180106,43.51626792579916],[13.062761711931536,43.51601195273805],[13.06258444067081,43.51572116193921],[13.062371957444556,43.515458634174784],[13.062181677022732,43.51520431805908],[13.06192744312431,43.51501079749058],[13.061657580370916,43.51495287791372],[13.061497349334148,43.51496361734384],[13.061371249208282,43.51497206900942],[13.061111107664361,43.51501283534931],[13.060773531532885,43.51505185428775],[13.060476366120943,43.51509393628506],[13.06015428521628,43.51508738673466],[13.05988825134086,43.51494829984295],[13.059685571680347,43.51473943595355],[13.059436560620933,43.51458804755528],[13.059272859571605,43.51448852394336],[13.058907034833522,43.514244946287],[13.05879614041059,43.514133764197204],[13.058681557936032,43.51401888501489],[13.05847633572016,43.513784821441504],[13.058440425668877,43.51374386378681],[13.058141048999415,43.51343039879972],[13.058099987990163,43.51341369122827],[13.057886692757146,43.513326903477854],[13.057592301582416,43.51317981612642],[13.056575952579411,43.51287382445318],[13.05629827045065,43.5126991306388],[13.056031724608523,43.51250603424318],[13.055726506984088,43.51238183445262],[13.05550511985704,43.51230867319553],[13.055194042848312,43.51237374245711],[13.054930749669431,43.512459622087505],[13.054812758777251,43.51245255956714],[13.05475443632535,43.512449775920516],[13.054623506176515,43.51244352664802],[13.054369170120156,43.51240758823324],[13.054292558243056,43.512396762366734],[13.054037296221333,43.51236894447832],[13.05357603380256,43.51231867459647],[13.053442795365587,43.51229249114814],[13.053239895989558,43.51225261514467],[13.053168633115389,43.51223861045731],[13.052889609108254,43.51213597978959],[13.052706527878145,43.512034443708345],[13.052628268359674,43.511789638784656],[13.052589205642871,43.51172450622767],[13.052501507512735,43.51157828081014],[13.052485521234447,43.5115516247817],[13.052404180010774,43.51139724997742],[13.052313430549788,43.51115259831911],[13.052271142124962,43.51098304247827],[13.05225460011916,43.51091294548394],[13.052227951033894,43.51080001311353],[13.05199558825541,43.510655210710745],[13.05172645366654,43.510561238194505],[13.05141273009162,43.510356291751286],[13.051208514451357,43.51016997476556],[13.051105984348435,43.510020939872554],[13.051054339166399,43.509945869135215],[13.0510228915232,43.50975342031587],[13.051030724511259,43.50950105731685],[13.051041353125825,43.50936651591295],[13.051052477466113,43.5092256925563],[13.05104729184965,43.509009803964425],[13.05092856040661,43.50880694801479],[13.0507722758948,43.508828249524576],[13.04988626067969,43.508942966260314],[13.049225654493243,43.50899117917749],[13.048806110617976,43.509021797330405],[13.048335581587194,43.50909416350152],[13.048273518660476,43.509103708377154],[13.047752140879755,43.50912219846245],[13.047125808204111,43.50900485921625],[13.047035669703076,43.50900617873683],[13.046544585172958,43.50901336715329],[13.046260738686653,43.509017512105544],[13.046212297948541,43.50900934285408],[13.045841676322649,43.50894684615121],[13.045363212118847,43.50877473999341],[13.045031388460608,43.50871447502269],[13.044426917832354,43.50912246781866],[13.044362697672721,43.50916581352579],[13.044124762934437,43.50921475639672],[13.043857588781526,43.50905766588439],[13.043767961178334,43.50901015438203],[13.043626753262442,43.50893529901884],[13.043311803743153,43.508757391811756],[13.04313131556031,43.508689891717474],[13.04307078921287,43.50866725534943],[13.042981948518907,43.508634030288725],[13.042589109008096,43.50853990679287],[13.042206344528005,43.50850394536009],[13.04181093859898,43.508463927787886],[13.041480319997527,43.50842161598151],[13.040949940835446,43.508305347853366],[13.040511984775325,43.508091273223975],[13.040445493948857,43.50804330655475],[13.040268568503409,43.50791567097273],[13.040125361314798,43.50781235924396],[13.039969052234667,43.50767509754499],[13.039908547945421,43.507621966074765],[13.039557580361347,43.50741381220581],[13.039404378498656,43.50730984849698],[13.039204515478673,43.50717422057042],[13.038931448537724,43.50688228114434],[13.03864484587391,43.50657281371505],[13.038316468335568,43.506332346740415],[13.03817462909867,43.506189819688466],[13.038004891840895,43.50601925959631],[13.03785159008411,43.505853624181256],[13.037623824025593,43.50559159000333],[13.037369707480925,43.505398009771135],[13.037205100317781,43.5052433996894],[13.037046400686501,43.50509433793145],[13.037017273896328,43.504843282667764],[13.03701282546778,43.50459135463741],[13.037084002018224,43.504314245205386],[13.037189622800803,43.50408993532736],[13.037412427981966,43.5037219334015],[13.0376440115683,43.503439149215055],[13.037826535528232,43.50316260147603],[13.037971954669874,43.50293238154541],[13.038139566077728,43.5027103794928],[13.03835404665014,43.502495721332174],[13.038584763089565,43.50233900950156],[13.038912178016282,43.50210234851925],[13.039180680052779,43.50186327053751],[13.039376816911332,43.501559230196],[13.03944540815383,43.50133622853314],[13.03953927650458,43.50112133455676],[13.039629289925518,43.500987604945955],[13.039745476065717,43.50087094896645],[13.039875591576687,43.500740307840566],[13.040687993669838,43.49961768366553],[13.041296420979192,43.49919100886762],[13.041794864865675,43.498691697681714],[13.04215244351374,43.498305409822535],[13.042561554757155,43.49790379213015],[13.042933262870543,43.49754400989515],[13.043150876416412,43.497284217093174],[13.043717355876678,43.49734067728269],[13.04392397028578,43.49732433062606],[13.044114195289142,43.49730861014204],[13.04427491026032,43.4972977674688],[13.044535728313639,43.497280173663434],[13.044857797534252,43.4972417526678],[13.04524185538668,43.497205635638814],[13.04527611428934,43.497195654365704],[13.045445046597878,43.497146433868075],[13.045505701007135,43.497128762059816],[13.045555798611248,43.49710898039227],[13.045743667468878,43.497034799742785],[13.045791817981428,43.497015086979516],[13.045882802182332,43.49664723888442],[13.045894033050669,43.49660182616262],[13.045953586708114,43.49624409509737],[13.045981323608208,43.49619359487928],[13.04599768413861,43.4961638071002],[13.046072099232793,43.496028322279805],[13.045993292408907,43.49577452944704],[13.045969675496703,43.49574337394566],[13.045660988652426,43.495336154863686],[13.04564512616088,43.4953052034361],[13.045429817244363,43.494884841092976],[13.04537756005533,43.494565185439264],[13.045367337599787,43.4945047775718],[13.045382656049977,43.49441420355618],[13.04542937580041,43.49413795554731],[13.045756257501939,43.49398682346668],[13.045851596864571,43.493979339944346],[13.046466691897715,43.4939310579654],[13.04659278597358,43.49392115927754],[13.046697351572167,43.49391295095064],[13.047031137752848,43.493865106286165],[13.0470799949608,43.49385600150887],[13.047418938939552,43.49379283681144],[13.047679739801987,43.493578305022034],[13.047773510157922,43.493501170707006],[13.048051085434244,43.49341930287363],[13.048085782442186,43.4934090693435],[13.048284433903573,43.49337465965274],[13.048510589556468,43.4933354847558],[13.048897724723176,43.493299538937045],[13.049512222927081,43.49324248095321],[13.049687353598989,43.493226218889866],[13.050130480110674,43.49324159536297],[13.050328801139608,43.49324847671052],[13.050749258019893,43.49324848823186],[13.050835821970631,43.49324849101841],[13.051355911666587,43.49325705676362],[13.051776189910136,43.49328714122642],[13.051986480509816,43.493301460850134],[13.0525645016714,43.49339420282375],[13.052614072266994,43.49339576694554],[13.05316863860176,43.4934132667273],[13.0532338517885,43.49341758470767],[13.053699656961422,43.49344842954023],[13.05385629920569,43.49347921424129],[13.054204045786301,43.49354755561973],[13.054482206165458,43.49359245026514],[13.054729827723193,43.49363241580174],[13.055004149491213,43.49367668925443],[13.055055800613626,43.49362083579068],[13.055099277502567,43.49357382203552],[13.055486224066462,43.4931553930435],[13.055632567084734,43.49299714184976],[13.055677935851374,43.49298214684717],[13.055968293052617,43.492886180307316],[13.056282789372613,43.492781374017575],[13.056618902127964,43.49266941097721],[13.056889510527569,43.49260851507809],[13.05709356443568,43.49256259642574],[13.057505690807707,43.49257676185989],[13.05767302015771,43.492582513623745],[13.057828426885655,43.49262200406948],[13.058132212080606,43.49269919857372],[13.058201404876046,43.49271678146404],[13.058480876579479,43.49287340142725],[13.058760919568584,43.49285418766378],[13.059025575177506,43.49283602813199],[13.059373241561751,43.492764905595905],[13.059425086819349,43.49275429918733],[13.059663293237163,43.492762706093046],[13.059806250207307,43.4927677531405],[13.06020962600467,43.492973980792264],[13.060331223194508,43.49299196541346],[13.06055310801089,43.49302478312864],[13.060912150706722,43.492985001581516],[13.061415269554162,43.49311115015725],[13.06179787433103,43.49319206854745],[13.062332785884532,43.49310100991483],[13.062967363904875,43.49297488964916],[13.063766509724081,43.49272136637638],[13.064738729492214,43.492421161715946],[13.065154386220293,43.492257809830996],[13.065623478553903,43.49224560518919],[13.066051005186385,43.49239693327932],[13.06644085404207,43.4925856143798],[13.066745406453439,43.492690788773395],[13.066795334364286,43.492708030899244],[13.066792185701146,43.49275315859872],[13.06670878020142,43.4939040168078],[13.067732547335842,43.49400258465921],[13.067748916539498,43.49420006781922],[13.067768306517921,43.494442458842954],[13.067820587092992,43.49476020326577],[13.067917795644753,43.49514837141561],[13.068027278252746,43.49558111666062],[13.068140880830587,43.49593718948631],[13.068291498479477,43.496291942084405],[13.06842384127583,43.49648046251801],[13.068667623320382,43.496827722058136],[13.068906183090533,43.49715683238937],[13.069044964522941,43.497381462677794],[13.069218993937517,43.4977623887206],[13.069372058463173,43.498062815192576],[13.069595317383829,43.49839269184855],[13.069715721445311,43.49852794366123],[13.069821248797435,43.49871774883861],[13.069960879773308,43.499000867800646],[13.070025578652773,43.49927315456574],[13.070039508656755,43.499565327890366],[13.07004759827397,43.499731509428],[13.07005198223392,43.49977782350452],[13.070085767116879,43.50013071430666],[13.069940523925847,43.500766185368434],[13.06977376814307,43.50090717637546],[13.069670954306305,43.50103230452382],[13.069569203679396,43.50117555752204],[13.069498243517657,43.50140766447456],[13.06948190111627,43.50162431960251],[13.069524165682218,43.50183888535385],[13.069543317431815,43.50189704231152],[13.069613543813883,43.5021102915431],[13.069728933636343,43.502308745505076],[13.069995712797157,43.502551317782476],[13.070150059664478,43.50268536151569],[13.070395739089456,43.50279814209746],[13.07065130672213,43.502829676717404],[13.070763657937595,43.502843541273286],[13.071097042319362,43.50288116782873],[13.071210796675546,43.50294621130679],[13.071437922817784,43.50307607928322],[13.071654511430863,43.50326191947619],[13.071811647299455,43.50339135899513],[13.07212661301393,43.503618703586994],[13.07250388451199,43.5037988089546],[13.072835036822834,43.503895030123815],[13.073041498869454,43.503902218662844],[13.073154274313106,43.50390614610154],[13.07334467839384,43.50384083258336],[13.073532965966052,43.50374408255426],[13.073775444122111,43.503487845943525],[13.074084880038395,43.50344529146498],[13.074136357688456,43.50345377350906],[13.074331898517888,43.50348599186799],[13.074513817950079,43.503569541064955],[13.074685190393692,43.503635435065],[13.074879709383422,43.50372302285532],[13.075087417873295,43.50386865954181],[13.07524395599644,43.50398911252545],[13.0754722929985,43.504165522851864],[13.075663916918804,43.504347744200935],[13.075823542260075,43.50446808704393],[13.076012279699135,43.50456503635507],[13.076175877329769,43.50464907054054],[13.076223660779638,43.504669870134386],[13.07645493150188,43.50466160945121],[13.076544471037034,43.5046584117888],[13.076719753494862,43.50459813420722],[13.07694855584593,43.50441440312783],[13.077098308402629,43.50429651671075],[13.077334146710244,43.50440063062369],[13.077380662174303,43.50444848519211],[13.077681658998467,43.50473933396926],[13.077801187268163,43.50486110638145],[13.077957072207406,43.505017592179236],[13.078012730756209,43.50509232357737],[13.078205272692829,43.50535083867666],[13.078223197244704,43.50557077214132],[13.077882376446363,43.50579001843743],[13.077555161807023,43.50598176841909],[13.077265264571837,43.50617668516936],[13.077309491901222,43.50632815699859],[13.07748680133721,43.506618922653686],[13.077721703129908,43.5069841568942],[13.07821598273434,43.50738963916662],[13.078654113659013,43.507558547351316],[13.079057347100166,43.5077602099024],[13.079568501262411,43.50800303035941],[13.080082137077012,43.508236755808554],[13.08034596900758,43.50832943357978],[13.080791641990983,43.5084859844272],[13.081194997991906,43.508597605909664],[13.081435655735497,43.50881857806296],[13.081583194058178,43.509263452272464],[13.081828113923672,43.509682514550775],[13.081968292645678,43.50996245652244],[13.082049523371014,43.51012457002619],[13.082647045688349,43.511188062554965],[13.082996930456435,43.51113419663107],[13.08333263739004,43.51108251228732],[13.083653533498179,43.511026017094046],[13.083965173778703,43.51096985215559],[13.084230286108117,43.510865835131206],[13.084491047452744,43.510788981523696],[13.08499031615854,43.51067208215491],[13.085390137486877,43.5105497683765],[13.085679132703032,43.51043135616616],[13.086087312323972,43.51038523454275],[13.086570745517657,43.51035442347476],[13.087215274136677,43.51038382211708],[13.087436127244544,43.51039389570083],[13.087510656887996,43.510397294035656],[13.08765368329023,43.51050020829806],[13.087829791621997,43.510818009731324],[13.08792371240726,43.510972199148995],[13.088297874450575,43.51129190981742],[13.088726244301437,43.51140710916536],[13.088852992945935,43.511589381891895],[13.0889766584832,43.5117717640154],[13.088916491124976,43.51207101818225],[13.089179952009356,43.51235417750085],[13.08940740203154,43.512562101084335],[13.08956623117776,43.51260432779442],[13.090034093270035,43.51272871015927],[13.090136806315233,43.512746673117654],[13.090525441099556,43.51281463770802],[13.091009801537263,43.51279727909457],[13.091479951454803,43.51279843303837],[13.091544991888796,43.512796558135385],[13.092121954783037,43.512779920491354],[13.09264156590765,43.51280953955963],[13.092752179643254,43.51281584419188],[13.093120362155688,43.512892307383446],[13.093269732178493,43.512923327059795],[13.093421071421504,43.51297434917308],[13.094174875851909,43.51322847735394],[13.094708340397277,43.51284021750567],[13.09517017171331,43.51305704681603],[13.095803943265524,43.51335459426429],[13.096552695917238,43.513064923203665],[13.097301441122282,43.51277524750111],[13.097458401871867,43.512714521589245],[13.097213100434773,43.513206723433676],[13.097060933312376,43.513512049750695],[13.0973697066062,43.51355048234249],[13.097644322664149,43.51349560985737],[13.097907593568564,43.513364617912416],[13.098497051619315,43.51311837837932],[13.098961843788226,43.51290362186765],[13.099432337046146,43.51286421768625],[13.099466392007349,43.51291992373225],[13.099515817053799,43.51300076621007],[13.09963764049594,43.51338351924601],[13.099725227173069,43.51376300118616],[13.0998232474722,43.514205128872035],[13.099944044057668,43.51470945983231],[13.099607666578564,43.51517619304027],[13.099218105220457,43.5157708772973],[13.099737030712227,43.51576124317553],[13.099920564304878,43.51565036937239],[13.099950942476875,43.515632018437934],[13.10012178048593,43.515369297225924],[13.100274940389026,43.5152107442721],[13.101019369506044,43.51592674725064],[13.100745863895371,43.51718348840898],[13.101005979902363,43.51714263240102],[13.101342314011825,43.517085532599985],[13.101662573171113,43.51706502171196],[13.102161548001034,43.51694355597797],[13.102489307705918,43.51680573425528],[13.10260921151067,43.51656734676619],[13.102719516203464,43.516369817070945],[13.10276506957963,43.51631191145373],[13.102827916475281,43.516235377181886],[13.103019996296569,43.51601240104052],[13.103139896624834,43.515774013114815],[13.103357912030251,43.51552309489286],[13.103608228841539,43.515383552408046],[13.10397836529464,43.51509565322887],[13.104261009115897,43.514942374227495],[13.10443176140681,43.51484977432267],[13.104656796291263,43.515066757033715],[13.104804566155929,43.515244505997615],[13.104932951957792,43.51539893889681],[13.105134573391782,43.51567987863707],[13.105432861959814,43.51602017177451],[13.105473419528126,43.516070890279316],[13.10551683914453,43.516125187179824],[13.105730284138163,43.51639210142699],[13.105873962098235,43.516562491188154],[13.106039744844507,43.51675909478572],[13.10614476519141,43.51684817356615],[13.10631975626059,43.51699660410974],[13.106436852367922,43.5170959258197],[13.106776023001379,43.51735381241621],[13.106799698786965,43.51738295968227],[13.106978568671554,43.51760320120926],[13.107093538297574,43.51786906265934],[13.107106956407561,43.51790009056458],[13.107366035663356,43.51820812326274],[13.107386225863204,43.51823215514689],[13.107416434911318,43.51826708032741],[13.107476886542308,43.51824638926876],[13.107842614987044,43.51812119998973],[13.108022104065586,43.51807382946861],[13.108079638767435,43.518058645808736],[13.108316901369628,43.51800059577399],[13.108615020240558,43.51788182941568],[13.10868713004941,43.51785065625337],[13.108785399939201,43.517808173441196],[13.109080724455488,43.51768050339435],[13.109290599801605,43.51762857530673],[13.109527848752347,43.51756987502547],[13.109867292795869,43.51746762276353],[13.109897313020054,43.51745426526564],[13.110230532681694,43.51730599362205],[13.11027137989462,43.51713346637069],[13.110415260475369,43.51697523401678],[13.110485402041412,43.517006131076585],[13.110670323230146,43.517087589035334],[13.110962989377965,43.51725260662022],[13.111050694653061,43.517276456971835],[13.111123694356513,43.517296307473906],[13.111489220645858,43.51739570592375],[13.111590245317927,43.51725702190607],[13.11163065509831,43.51720154881728],[13.111711653342645,43.5169461987812],[13.111727429705097,43.51689646206263],[13.112057732856323,43.516614473164125],[13.112351925527395,43.516347288902175],[13.112703758819482,43.51615455304508],[13.113024617789458,43.51614299073935],[13.113267549195426,43.51594067268334],[13.113288712106366,43.515660816989325],[13.113557022129532,43.515331541819066],[13.113892079941209,43.51530146015386],[13.11402703247108,43.51533035763632],[13.114130676280375,43.51535363025103],[13.114212264449675,43.51537094636242],[13.114330301173824,43.515560255712764],[13.114213225840196,43.51579405191375],[13.113985141182335,43.515941819407935],[13.114012398723032,43.516251439823165],[13.114045665171238,43.516331268336515],[13.114185518353667,43.5166593379951],[13.11439129777995,43.51713808129175],[13.114448885181567,43.51730256115089],[13.11450802989567,43.51744447629511],[13.114543661321166,43.51754808740579],[13.114596718881408,43.517702366150544],[13.114650859162426,43.517952498304396],[13.11463409527818,43.518115155851355],[13.114702745758692,43.51835126031388],[13.114991064928788,43.51858844860775],[13.115196138766125,43.518738606892725],[13.115425533303577,43.518973416949116],[13.115505334469782,43.51914609745814],[13.115647093360561,43.51941107598127],[13.115771841129186,43.51974418972967],[13.115890864838198,43.5198569366778],[13.116071540521233,43.520057489929165],[13.116459549802082,43.52025956874076],[13.116775373781419,43.52044624365911],[13.116940600249391,43.52069236708309],[13.117242478323208,43.52099208096658],[13.117407708366715,43.52123820445867],[13.117609633104117,43.5215235167947],[13.117789096009663,43.5217061057925],[13.11794196366004,43.521997688829046],[13.11800596530775,43.5223014808639],[13.118069023964965,43.522636817556595],[13.118317826211172,43.52297445558533],[13.118356815161421,43.523319663598976],[13.118370176533215,43.52369730605111],[13.118355718083112,43.52416598277881],[13.118489674106803,43.52463380592244],[13.11870332158202,43.52495470538206],[13.118846102128007,43.525098102543225],[13.119236958043532,43.52525055213608],[13.119286253948093,43.52538381791247],[13.119351259690365,43.525566032563646],[13.118887145970964,43.526199485969414],[13.118711824247756,43.52630484517239],[13.118569782080867,43.52649003070962],[13.118560399769374,43.526715443673254],[13.11876579210506,43.526915100549964],[13.118960954038958,43.52701153625907],[13.119169613861494,43.52707608547837],[13.119523173191187,43.5271803641293],[13.119747648468971,43.52718815885361],[13.120031680341725,43.52719802130198],[13.120429454850775,43.52713414563718],[13.120792367945938,43.527058022621354],[13.121263915015863,43.52694196474899],[13.121573978915187,43.52685937283429],[13.121713552549362,43.526822193683365],[13.122002756536002,43.52666320046694],[13.12440132278456,43.52708972147394],[13.124859181091745,43.528411881815074],[13.12517574329935,43.529325983726764],[13.12537043584228,43.529368462873826],[13.12586379937177,43.52948117317202],[13.126343287963827,43.52957187532396],[13.127080416080327,43.52972078089818],[13.127930362775244,43.529893663120106],[13.128359443552366,43.52998093640817],[13.12892185901154,43.53009532669545],[13.129000232814876,43.53011049760057],[13.129091955622975,43.529913615894706],[13.12907662994561,43.52964408091026],[13.129091029200367,43.52938552475885],[13.129100243327567,43.52922008736579],[13.129142098969897,43.52870090193114],[13.129425970817458,43.52792087835452],[13.129586579867768,43.52750993339848],[13.1297724706513,43.527152091720595],[13.130016645740808,43.52687766878394],[13.130170896528393,43.526722930253584],[13.130361126508554,43.52653209367995],[13.130529779052258,43.526465219970646],[13.130585568367259,43.52644302520239],[13.130623131404219,43.52642808113388],[13.13086406176049,43.52649001851996],[13.130991518283762,43.52652278352795],[13.1310454295953,43.52676841416257],[13.131036046132206,43.52712887273091],[13.131077938383093,43.52733442465693],[13.131119508144637,43.52758050191856],[13.131200578824277,43.52781614640547],[13.13133402822759,43.528274969155895],[13.131413857164604,43.52853766663536],[13.131477643989149,43.52879194258969],[13.131571061193773,43.529027139867665],[13.131735758447563,43.52926425830984],[13.131974179246143,43.52958423559376],[13.132165423761828,43.52980238535919],[13.132379484293935,43.530082730907665],[13.132435161063137,43.53062539440418],[13.132672977102393,43.53093638900953],[13.132926852540372,43.5312107894428],[13.133119731358896,43.53152414849616],[13.133233121789694,43.53170836699841],[13.133396591968456,43.53197253557193],[13.13345600073327,43.532008759560085],[13.133835630805406,43.53224022823492],[13.13422471142939,43.53241069626418],[13.134474260377187,43.532757274148864],[13.134664884139347,43.533056469376255],[13.134925565836983,43.53333962170363],[13.135248878670318,43.533679023994864],[13.13552372988127,43.534078700078446],[13.13573564629636,43.53441763559121],[13.135876007830037,43.53461511596135],[13.13610585210221,43.53485436866094],[13.136221395752974,43.534980820915514],[13.13635667555072,43.535128871821065],[13.136390942207328,43.5351488123136],[13.13672077445333,43.53534075015589],[13.137100635828585,43.53546652807383],[13.137629552963023,43.5356004049523],[13.137965951175854,43.53568684579216],[13.138120823810187,43.53572664123598],[13.1384750685343,43.53588485299569],[13.138567711873348,43.535929516863455],[13.138900592678345,43.53608999553906],[13.139332311654048,43.536204882415504],[13.139811562591659,43.536291033644765],[13.140500362675443,43.536365080640294],[13.141108569440078,43.53670763422129],[13.141532854907005,43.53702985024482],[13.141993255306977,43.53733724951123],[13.142480517808146,43.53758515227479],[13.142994636109519,43.53781857445829],[13.14343346468711,43.53799170726671],[13.14254856251378,43.538667540074314],[13.142194845476494,43.538923457589156],[13.141786489036358,43.53923987556401],[13.141436481239673,43.539414629797854],[13.141348581331536,43.53948016249052],[13.141233380593796,43.53956604579555],[13.14083184153849,43.53966614307963],[13.140559933895004,43.539716521176956],[13.140248835529807,43.5397368096783],[13.139718627979835,43.539675015308234],[13.139386567747382,43.53957002026367],[13.13883539368022,43.53942795581593],[13.138271568003962,43.539281845886734],[13.137760478228095,43.539318381606066],[13.13750028859866,43.53940433969148],[13.13709042984366,43.53942819963793],[13.13669631946966,43.53941097370255],[13.136454217954698,43.5393544770188],[13.13632537347138,43.539325385101655],[13.13602048210909,43.539210393453054],[13.13570511496633,43.53903275936445],[13.135485422923859,43.538851656942505],[13.13534199338431,43.53871086059205],[13.135233344742229,43.538604206540825],[13.13491922499449,43.538399515957444],[13.134575461676494,43.538258919548376],[13.134431984282154,43.53815157992601],[13.134132083219294,43.537883350869535],[13.133839881771829,43.5376823648752],[13.13347466152978,43.537589808154614],[13.133137832702493,43.53750522427557],[13.132945959667344,43.53755555787141],[13.132739686128076,43.53760967076644],[13.132560000879128,43.53783224776885],[13.132488611748387,43.53814543534905],[13.13236504951243,43.53851002761708],[13.132157554930643,43.53882364024544],[13.131899729164362,43.53921560033432],[13.131661630751607,43.53966986604144],[13.131416786842209,43.53998032871747],[13.131235831487693,43.54027497295101],[13.131017240123105,43.54051696180486],[13.130662232903955,43.54075488516778],[13.130370807782622,43.54097249956922],[13.130177514740254,43.54122257434729],[13.129949979582344,43.5414243720641],[13.129687312315083,43.541474388961134],[13.129478082761866,43.541400932754556],[13.129174436760119,43.54125886860795],[13.128852837162169,43.54126149981835],[13.128788652200457,43.54126987351354],[13.128518569108277,43.54130510290462],[13.128061184815206,43.541267629115715],[13.127692709996122,43.54117291995372],[13.125928612259562,43.54175437578538]]]}}]}
