{"type":"FeatureCollection","metadata":{"code":"043056","referenceDate":"2026-01-01","sourceDbfExportDate":"2026-02-18","upstreamArchiveUrl":"https://www.istat.it/storage/cartografia/confini_amministrativi/non_generalizzati/2026/Limiti01012026.zip","sourceManifestSha256":"70ac8256c4785dc6ed2814c32b6965ae76f9161b51abaa1660059e1c6cbd8ca6","license":"https://creativecommons.org/licenses/by/4.0/","attribution":"Istat, Confini delle unità amministrative a fini statistici al 1° gennaio 2026, versione non generalizzata.","modifications":["Converted from WGS 84 / UTM zone 32N (EPSG:32632) to RFC 7946 WGS 84 geographic coordinates.","Converted from shapefile to per-municipality GeoJSON without geometry simplification."]},"features":[{"type":"Feature","id":"043056","properties":{"code":"043056","name":"Ussita","alternativeName":null,"regionCode":"11","regionName":"Marche","territorialUnitCode":"043","territorialUnitName":"Macerata"},"geometry":{"type":"Polygon","coordinates":[[[13.165902648042373,42.977835044556805],[13.165759772745847,42.977988808416605],[13.165680224459052,42.97808174287792],[13.16564595815526,42.97811900495675],[13.165444980116563,42.978274887566364],[13.165133287157403,42.978470819449456],[13.164502695021346,42.978574834406146],[13.164029687532976,42.9784705286197],[13.163568002841414,42.978352302219335],[13.163129265066212,42.9782107301847],[13.162814062077608,42.9780826627384],[13.16234017419832,42.97791985964287],[13.161934377884522,42.977948146423365],[13.161258849152844,42.97802226907292],[13.160460698207345,42.97809635093058],[13.15973224543306,42.97820390359589],[13.158834058696419,42.97834013817923],[13.157998898948302,42.97841104810416],[13.15724630328813,42.97847894798542],[13.156401691179685,42.978500672106925],[13.155639340527069,42.97851489649019],[13.154462009171764,42.978557709014154],[13.153958708259886,42.978503980732796],[13.153039006052508,42.978501404822325],[13.152954567411472,42.9784968866291],[13.152488168633209,42.978471900099706],[13.15192676680998,42.97842027428059],[13.151572675189598,42.978397127344394],[13.151217825977058,42.97836275252543],[13.151015886279295,42.97809548568033],[13.15091110205972,42.977950737281084],[13.150734536904377,42.97769605327901],[13.15048303624834,42.97746659956856],[13.150004440051081,42.977096838501666],[13.149777493663427,42.976958776699504],[13.149364870881138,42.97670366076061],[13.14896957301728,42.97638714096756],[13.14863928445188,42.97603449653906],[13.148342974556968,42.97564010292339],[13.14813349782366,42.97526056312574],[13.147983695554872,42.974994797648876],[13.147959438840946,42.974951763888804],[13.147611690499343,42.9746582725903],[13.146888169451088,42.97433790284454],[13.146204639572693,42.97411061356287],[13.145503370569836,42.97389296716832],[13.144795312746878,42.97375659283825],[13.144221576635791,42.97370312526996],[13.144079709386492,42.97369026359301],[13.143323977687672,42.97371091772454],[13.14260108801009,42.973764138230074],[13.142057925797321,42.97389187033757],[13.141422345537288,42.974103978780406],[13.140718883855277,42.974309541034906],[13.140072531355527,42.97458955915209],[13.139486685530164,42.97490339368078],[13.139225697254888,42.97507941122659],[13.138778819489378,42.97522614758735],[13.13822310310421,42.97534981448749],[13.138157020068823,42.97537617942995],[13.137590206478954,42.97560232001949],[13.136981727035097,42.97589895531019],[13.136283956981819,42.97618981618409],[13.135589583007725,42.97644003524113],[13.13522916950638,42.97664214988767],[13.135106200208385,42.97700223389105],[13.134996471843383,42.977422611928745],[13.134901648788043,42.97760836151757],[13.134827478137622,42.977782109373855],[13.134694619661207,42.97808628007687],[13.134139603977944,42.978083854351155],[13.133566584464848,42.978041561658486],[13.132858304172116,42.977947886806795],[13.131474332689422,42.97774359037496],[13.13066516108037,42.977928154323614],[13.130068949125395,42.978134274843526],[13.129707905829006,42.978327392335174],[13.129410819321103,42.97833137649019],[13.129336268277179,42.978271047333976],[13.129220157030542,42.97818520962226],[13.129150823013314,42.978086523443665],[13.128962608583727,42.977818624620134],[13.128661606493354,42.97762692571886],[13.128056100927825,42.97737419857817],[13.127714950962716,42.97726947953883],[13.12710564413008,42.977142933089695],[13.126362388713895,42.97703022315169],[13.12566340166017,42.97698343598827],[13.125153411605803,42.976920819075424],[13.124585170039508,42.976858050786305],[13.12383785207036,42.97695930236711],[13.123440004480035,42.9769691581729],[13.12336340356825,42.97696967152344],[13.123066472204894,42.97697588435513],[13.122470903414468,42.977008627946745],[13.12163411084896,42.97687225215136],[13.12093638141671,42.976798380164354],[13.120251487615938,42.976733045429945],[13.119614867139134,42.97670197826964],[13.119039819871302,42.97658315683446],[13.118686998843181,42.97653285125639],[13.11824170388492,42.976337321075],[13.118026065880102,42.976138014567674],[13.117788234184843,42.975835968410635],[13.117592990854876,42.975712455608274],[13.117429529055354,42.97560580331646],[13.117073356491304,42.97555111172646],[13.116575523558149,42.97544074910799],[13.116287462492457,42.97543987655754],[13.116072660923214,42.97543860715257],[13.115800083096069,42.97553395757081],[13.1155136560616,42.9756973321897],[13.115334859200454,42.97586583331506],[13.115168833939634,42.97608789414986],[13.1149964002839,42.97653527054555],[13.114890517133185,42.9768316937345],[13.114782833390102,42.97710117214568],[13.114606488890361,42.97726058035687],[13.114245964752973,42.97737034823835],[13.11395148711196,42.977367446387966],[13.113511329306132,42.97734052603966],[13.112514114117118,42.97624270754284],[13.11203239488223,42.97571237222087],[13.113201216798306,42.97471594382266],[13.112940149315547,42.97443273069086],[13.112717039322245,42.974121140355976],[13.112399257186935,42.97372292289537],[13.11186311219862,42.97312998590948],[13.111581135673882,42.97271697241192],[13.111155328363498,42.972169579991714],[13.110584850066237,42.97165890242582],[13.111930815533071,42.97111303750415],[13.112753001162156,42.97158313697284],[13.11297888994798,42.97152323656403],[13.113191467914616,42.97135577400641],[13.11337031995079,42.971142257745356],[13.113440648370478,42.97091013919149],[13.113521468643965,42.970605615972936],[13.113531660628684,42.97029913260305],[13.113518048851338,42.96995749401333],[13.113502519956626,42.96967894697839],[13.113559776246051,42.969388777192954],[13.113677586882616,42.96908742306083],[13.113885927246397,42.96876480355889],[13.114102479549235,42.96847339929836],[13.1142948683752,42.968187367284166],[13.114500686643566,42.967918857453384],[13.114684076569484,42.96749809661178],[13.11480565433653,42.96711557614369],[13.114769135057195,42.966752252931656],[13.11471762951918,42.9663939710728],[13.114704014862513,42.966052331745594],[13.114664439804685,42.96568911939504],[13.11460472244069,42.96529962095168],[13.114518206955166,42.96483005694225],[13.114530253553594,42.96450550052101],[13.114566518414806,42.96413055380505],[13.114570471569822,42.96391432967832],[13.114600624903362,42.963769189109655],[13.114708165018456,42.963130576651345],[13.114956224719633,42.96257693700187],[13.115094455869444,42.96207677204042],[13.11515583450089,42.961664905856736],[13.115229441887445,42.96125260013869],[13.11532810653425,42.9608483945467],[13.115393616986921,42.96031483416015],[13.115431134386794,42.95991283151235],[13.115407148977052,42.95955355862032],[13.115207277833505,42.95880897188626],[13.115177601906945,42.9585939587145],[13.11525774311492,42.95832547157877],[13.115369172190862,42.95797482711371],[13.115409451885503,42.957797810291005],[13.115595327294677,42.95732293828244],[13.114826073771152,42.95718407818865],[13.114746527601826,42.95700237283486],[13.114707562846824,42.95664814080109],[13.114755394743359,42.956308790354186],[13.114827623037792,42.95601357793914],[13.114896553668522,42.955668965933505],[13.11497789226065,42.95541844280289],[13.115047543299054,42.95522236142497],[13.114502556780325,42.954953876521174],[13.114682018917287,42.954704322258536],[13.114825396421091,42.95446507057266],[13.114914976491416,42.95433804778907],[13.115403281536414,42.95435422620892],[13.115507563278834,42.953391606125834],[13.115252803893359,42.95164061282186],[13.115134480888804,42.95074003008315],[13.114955508971352,42.950170256783885],[13.114797756480867,42.94973476969131],[13.114688674742006,42.949248010654074],[13.114418552355206,42.948505951167085],[13.114084546779935,42.9477706926219],[13.11384985975119,42.9470543663713],[13.113555965236664,42.946277146383444],[13.11335419163884,42.94564066475157],[13.113143013903915,42.9449550019479],[13.113094572788405,42.944795062458354],[13.11296228297712,42.94435827785598],[13.112909760883415,42.9441808085848],[13.112752678064815,42.94365005154866],[13.112396130067618,42.94289759177941],[13.112224334776714,42.942480613000065],[13.111981971438501,42.94160249644229],[13.111916729393046,42.941267215375206],[13.111827510762737,42.94103183459487],[13.11258603004507,42.93949646463407],[13.114125049323945,42.937262236906854],[13.115139219966535,42.93574915829567],[13.115413188476861,42.93517207525052],[13.115571083358882,42.93478374186891],[13.115845826475178,42.933850995051586],[13.11599497031532,42.9333774447512],[13.116116787167652,42.932999415326776],[13.116229496096425,42.93257669540064],[13.116305053890684,42.93205627677559],[13.116401820701723,42.93167014491572],[13.116436813068317,42.93132225217896],[13.116474560256263,42.93096975933858],[13.116429561771335,42.9308003145028],[13.116349451833667,42.93060962650025],[13.116147771023256,42.930387303242895],[13.115567957459193,42.93005255068449],[13.11502301806349,42.92991911651578],[13.11451043393639,42.929811524441675],[13.114097793688673,42.92968682772943],[13.113560105878392,42.92961614912891],[13.113293420724101,42.9295672263584],[13.11301145706226,42.929518851944586],[13.112743810846787,42.92950147475795],[13.112464391767055,42.92949127233103],[13.112056931057555,42.92949017917272],[13.11153068045689,42.92954512768911],[13.111687538175062,42.92881920867183],[13.111780550867385,42.92851424718071],[13.111998845353737,42.92820477693521],[13.11232552004908,42.927958932662854],[13.112761296197883,42.927695655871965],[13.113209167496558,42.927521976315276],[13.11369064838346,42.9273470851882],[13.11417170345451,42.927257739823524],[13.11467908578071,42.927241723485764],[13.1152001277203,42.92729273843841],[13.115639117103647,42.92735345866534],[13.116250480743338,42.92738095806526],[13.116876224146035,42.927394430894175],[13.117491243143927,42.9274307954518],[13.118003988225759,42.92740331668844],[13.118960153130221,42.92731933865532],[13.119659886616011,42.927294115331705],[13.120373099571685,42.92724139208936],[13.12113370017634,42.92716444674902],[13.121652006613335,42.927082729991696],[13.122327891367714,42.92706735392731],[13.123209098607527,42.92705356951164],[13.12320780364289,42.926988341729704],[13.123203759187907,42.92642352225891],[13.12314194521077,42.9260025913607],[13.123081686511934,42.925559095533536],[13.123047729680822,42.925096643715726],[13.123000651734957,42.92462116089149],[13.122964239875664,42.924167801084415],[13.122889498008922,42.92382836701351],[13.122717640240381,42.92345642238166],[13.122543272100986,42.923138589071314],[13.122309354908724,42.92280039565696],[13.12212145848033,42.922555076814874],[13.121992159206997,42.92236166518282],[13.121913244934369,42.922188944884766],[13.12233235094515,42.92199826021059],[13.122765363799411,42.92192411701623],[13.123122293016051,42.92185721896269],[13.123578846464715,42.92176871900512],[13.123922951067527,42.9216932776894],[13.124368890204872,42.92153763129571],[13.124764387069767,42.92140631256437],[13.125113453417256,42.92126766403396],[13.12542285197888,42.921085430677245],[13.12581144083973,42.920850817376746],[13.125950641384097,42.92068823226921],[13.125977473551638,42.92021908477704],[13.12601300926533,42.91988017298551],[13.126012889709125,42.91946601956286],[13.12596544282064,42.91903106604697],[13.125951902701502,42.918599390103864],[13.125882524718618,42.91811120724567],[13.125819997390014,42.917771333995496],[13.125815056571316,42.91755993170627],[13.125818025638182,42.91737525437814],[13.125748589733234,42.916427898060896],[13.12545360231152,42.91531311818101],[13.1253156608885,42.914944454574034],[13.125120495966007,42.91440679138506],[13.124977553822813,42.91400904730616],[13.12590442036094,42.913718989690416],[13.126388509996463,42.913539450418185],[13.12684731132918,42.913302298556786],[13.127221772746706,42.91308619866622],[13.127661690399279,42.91279570534619],[13.127977059867185,42.912428678460294],[13.12817579470645,42.91201184280933],[13.12827317107756,42.91154464806774],[13.128421771528577,42.91115663441533],[13.128646295533626,42.910621821562174],[13.12890687117669,42.9100767031653],[13.129070045003644,42.909494587525685],[13.12926656006239,42.90913635299514],[13.129569332055263,42.90881029271653],[13.129922228076905,42.90845540886745],[13.13034742843884,42.90817444156665],[13.1306491377269,42.90796996247453],[13.131039579495056,42.907627224323],[13.131238929403583,42.90744895240696],[13.131488653879828,42.90729136784964],[13.131652499286227,42.90717740331912],[13.13187322754794,42.90672375299802],[13.132102566712135,42.90649037516871],[13.13238803820939,42.90631799090772],[13.132742963840121,42.90631416019822],[13.133183065621921,42.90634776285847],[13.133635385924373,42.906380921874856],[13.13399221086632,42.90631399399443],[13.134578664604815,42.90601817351307],[13.134729032135658,42.905931702726996],[13.135079381226353,42.905630916274994],[13.135585045091666,42.90518045415934],[13.135931589729102,42.905005851030126],[13.136265819519183,42.904921726764584],[13.136782667519457,42.90486700543819],[13.137347227217843,42.904747530847615],[13.137830565096605,42.90460398371919],[13.138041410069961,42.90450631449782],[13.138639532499825,42.904111013058426],[13.138939552936655,42.904019117209906],[13.13912690913645,42.9038907861836],[13.139264747556018,42.90380026147693],[13.139541412781064,42.90354264594443],[13.139892583306358,42.90330033787989],[13.140003831841858,42.90322428074911],[13.140350910401414,42.903103665078596],[13.140672949478986,42.902974952962076],[13.14116349114119,42.90293917197425],[13.141527428198026,42.90307003826459],[13.142120011548213,42.90332316741654],[13.142416757934686,42.903456466071106],[13.142675647122369,42.90357313011795],[13.142821568787271,42.90364887118468],[13.142964436427672,42.903724722774555],[13.143395109792003,42.90402873118232],[13.143733292881993,42.904277568717944],[13.1441031457739,42.904633298887696],[13.14437066019976,42.90501524691269],[13.144511521660066,42.90528924454591],[13.144578212908856,42.90550740998371],[13.144701613225287,42.90584056336585],[13.144763072201936,42.905935120277846],[13.14489986901101,42.90614849296309],[13.145148546300641,42.90643208462369],[13.145508352977016,42.90677466917732],[13.145722008302778,42.90694698706207],[13.145971938343854,42.90720352091934],[13.146097800501831,42.90752757986788],[13.14619579380698,42.90793818299825],[13.146200500791199,42.908145090920236],[13.146214855160494,42.9084957039181],[13.146254328543238,42.908764374077805],[13.146365789416679,42.90914747789176],[13.146494150285395,42.90941742466727],[13.14678949442452,42.90980285865672],[13.147014741037662,42.9100107673858],[13.147458301458093,42.91032329575819],[13.147803852498855,42.910589860382025],[13.148068212043041,42.910787343889886],[13.148394006923091,42.910942080971985],[13.148816913507554,42.91112930564416],[13.14925196614701,42.911406121784744],[13.14964923326995,42.91157626723336],[13.150316790460119,42.91180412086882],[13.150948033001942,42.91199277477521],[13.151362463364833,42.91209926723413],[13.151727114177154,42.91219406049357],[13.151982132855311,42.912252321800395],[13.15234930441319,42.91224798396765],[13.152682909242486,42.912199848130705],[13.153220204993906,42.91222083769707],[13.153936488067366,42.91226232851661],[13.154028732445443,42.91226797812462],[13.154543102771541,42.91231230348601],[13.155774060971474,42.91240259732213],[13.156939725328659,42.912387211951064],[13.157126184945161,42.912427697661386],[13.157256752224376,42.91245671198097],[13.15761956765377,42.91256956094025],[13.15796635623176,42.91266181385441],[13.158081042628828,42.912692323386224],[13.15850770714107,42.912798344590506],[13.158827849728398,42.912777690186985],[13.159174304671044,42.91269305466368],[13.159660553224473,42.91277439427454],[13.159914915676314,42.912913691199414],[13.160164986422005,42.913080154233214],[13.16056507150718,42.91320064048842],[13.161007074949543,42.91321605899824],[13.161243887953852,42.91309489358911],[13.161420540863803,42.9129444062016],[13.161572178789907,42.91274080948067],[13.161736006793724,42.91258178515155],[13.161862241332193,42.91245564187066],[13.16207563056363,42.912668453976174],[13.162083473470394,42.912830229231815],[13.16219245254509,42.91294780627076],[13.162248924359025,42.913013275614446],[13.162443794845565,42.91304219099121],[13.162733470352213,42.912887584875804],[13.163062568911245,42.91295437538997],[13.163292404526231,42.9130022752085],[13.163882060833915,42.91334542946955],[13.164249814866967,42.91339505288207],[13.164778943236245,42.91329473933541],[13.165365149651231,42.913268872498314],[13.166166751265024,42.91316762431019],[13.16642274055533,42.91314928730385],[13.166566008229932,42.913139561289285],[13.166999172569477,42.913114764041005],[13.167676130608763,42.91302705357121],[13.168512561711383,42.91289750825894],[13.169448253675577,42.912786844046394],[13.170896502545341,42.912693479289004],[13.171642334254264,42.912638523374085],[13.172712538337931,42.912559657146836],[13.174447056720943,42.912307238735885],[13.175309128845424,42.912149696558615],[13.175877630329605,42.91204339128738],[13.176667328180166,42.91181195576851],[13.177395624499175,42.91157825667953],[13.178201495864766,42.91135972366562],[13.178780363537854,42.91127103189667],[13.179273092620404,42.91117648482096],[13.180502480405048,42.91137911017142],[13.18417205567343,42.91198308781355],[13.187464462088814,42.91253324195638],[13.191074912707398,42.913031122109025],[13.193806906940262,42.91348910227062],[13.196779028015033,42.914010224962034],[13.198815858348445,42.914331551762984],[13.199268557492243,42.914413954490456],[13.199898122294725,42.914260268234244],[13.200481251804915,42.91400924920918],[13.201404356050228,42.913804249913824],[13.202106000584466,42.91371992902934],[13.203992506700933,42.91336243404903],[13.20455393879683,42.91333277515372],[13.20505977669805,42.91329615488817],[13.20563861305479,42.913207328710534],[13.206279757111142,42.913089194939054],[13.207175039513308,42.9129707049169],[13.207902017481153,42.91289892088279],[13.2086274629176,42.91280468004476],[13.209326939795389,42.912688882538966],[13.210100034154047,42.9126198875143],[13.210864568460304,42.91251518890178],[13.211407642859585,42.912396138286994],[13.211704210935414,42.91225465940115],[13.211965348693877,42.91213249253236],[13.212259183931724,42.912085648179826],[13.212592123845793,42.91207337530606],[13.212984324934789,42.91207692357362],[13.213373796174627,42.91217510547021],[13.213723887635517,42.91236927423125],[13.21421391733226,42.91272934491891],[13.214560391012824,42.913094708929215],[13.214879682980479,42.913465575237886],[13.215184638141345,42.91389549180214],[13.21538205019847,42.914230337727396],[13.215569380777008,42.91455205003866],[13.215772281538136,42.91483267214488],[13.216104718203859,42.91517153791183],[13.216510175131317,42.91554822473897],[13.216844127183531,42.91581950750099],[13.21721899462043,42.91601725272317],[13.217691587207117,42.916121355478005],[13.21819260759725,42.91628292922534],[13.218566253293769,42.91646270819318],[13.21873035676477,42.91666822883964],[13.218848946097678,42.91687993130061],[13.218988920685792,42.917090844083425],[13.219022880095753,42.91713347392074],[13.219250206181336,42.91741882307956],[13.219437261726942,42.917736037210496],[13.2195524793854,42.917898344516985],[13.219668926713226,42.91807861315704],[13.219777086701141,42.91827261271673],[13.219939752697956,42.9185908067373],[13.22009873734866,42.91899008720396],[13.220237830845923,42.91927755915791],[13.220399843614965,42.91958669303087],[13.220561259550665,42.919931862417386],[13.220701263153208,42.92018778814299],[13.220862973879091,42.920492430748986],[13.221038765595994,42.920868580404516],[13.221244816674442,42.92128412650081],[13.221503128355835,42.921747259507534],[13.22166030746515,42.9221646102424],[13.221857816992854,42.92258947412365],[13.221992387286637,42.92298965369605],[13.222094240778404,42.92331451279578],[13.222264877688021,42.92374937220723],[13.222328862682522,42.924102639656354],[13.222450912478697,42.924498779523894],[13.222586123353537,42.92495295336065],[13.22265989191845,42.9253148633677],[13.222713336452603,42.92605116282626],[13.22268792978576,42.92670934616638],[13.222511926083229,42.92704672397926],[13.222346435560297,42.92731393562882],[13.222231328341891,42.927511761538746],[13.221973921563409,42.92791291761267],[13.22172815200853,42.92839467397128],[13.221505577105065,42.928812549861384],[13.22128816943015,42.92917171219091],[13.22105218816753,42.92970712513597],[13.22086418283104,42.9302722774495],[13.220423142763835,42.931571545336865],[13.220294280722959,42.93179238497371],[13.22014803823023,42.93211740569804],[13.219940118659183,42.932570750072536],[13.21981896367377,42.93299387971606],[13.219581712191296,42.93346631346845],[13.219351766040925,42.933866450518785],[13.219107445115746,42.93423560589558],[13.21878980311228,42.93465248399423],[13.21843123527242,42.93514289944105],[13.218078744105183,42.93554305615724],[13.21765753275253,42.93605829014279],[13.217228346102075,42.93650179046803],[13.216087574116166,42.938322047759534],[13.216038495044634,42.93872450807346],[13.216177314867517,42.939007492775886],[13.216336925428761,42.93932572381704],[13.216535049855398,42.93966954369094],[13.216863421309128,42.94021563349793],[13.217130973370933,42.94072345154085],[13.217531176890347,42.94128939589345],[13.217822588041727,42.941832345240066],[13.217992657646878,42.942303244891],[13.21816151547865,42.94280119833223],[13.218365852011829,42.943369869036864],[13.218583920594742,42.94387050675175],[13.218707823172823,42.94424857378831],[13.21886568314735,42.944719922748845],[13.218915659756227,42.94518174966916],[13.218898742016991,42.94574058136305],[13.218833216857647,42.946260692345106],[13.218760349797398,42.94676306842086],[13.218648933757569,42.9471498233226],[13.218501163188204,42.947587439937756],[13.218344207577825,42.947980377490126],[13.21817136984096,42.94840991567083],[13.217964280802274,42.94878669658301],[13.217671013033014,42.949202672681864],[13.217442494344048,42.94949021134763],[13.217357561820416,42.9495923827498],[13.217162338475225,42.94982917320652],[13.21689471101888,42.950172173731616],[13.216590696632343,42.95047600194854],[13.216122808275475,42.951116748744404],[13.21571220202114,42.95169910894265],[13.214502836656557,42.951982310961334],[13.214169989440768,42.951999088888385],[13.213679729204129,42.95199916229299],[13.213284536366434,42.952045246951265],[13.212747200890483,42.95202904622197],[13.212279265824632,42.952086812680925],[13.211691503127122,42.95209497445883],[13.211286525947123,42.952132409419775],[13.210784036435015,42.95213292107378],[13.210302645523003,42.95217316845522],[13.209724673128687,42.95223497982636],[13.20915892535977,42.95229633705023],[13.208767089070266,42.952346784112784],[13.208455344432542,42.95244829960974],[13.208241115673237,42.95263175534068],[13.207915650876492,42.9529363497249],[13.207676967552699,42.95312070497007],[13.207401006626016,42.95338746219179],[13.207098453273948,42.95366870298609],[13.206916950864237,42.95401751268823],[13.206662386456044,42.954328496551064],[13.206593164894752,42.95439181799619],[13.20633415498287,42.95463769092852],[13.205993087737404,42.95498336961134],[13.205715273452638,42.95522318076583],[13.205536801491263,42.95548184349215],[13.205295670108711,42.95576532057645],[13.205103137719945,42.956042506031864],[13.204944246370914,42.9564535044039],[13.204875503526226,42.95670362627247],[13.204693980652165,42.957052433216646],[13.2045344718368,42.957454449418705],[13.204377097970314,42.957842882616916],[13.204138432388662,42.95838736287943],[13.20388201638212,42.9588064496965],[13.203584956156542,42.959348575491774],[13.203236541003907,42.95994661013982],[13.20312441184946,42.960459424140474],[13.202975285037512,42.960924080150264],[13.202790085924068,42.9613990661854],[13.202629943128192,42.96179210051365],[13.20258534732777,42.96212686436022],[13.202577424873803,42.96237024520789],[13.202592748662134,42.96272981541999],[13.202444839594477,42.96321243273833],[13.202310669092233,42.96353698576495],[13.202101580853489,42.963706735914144],[13.201787326027603,42.96386234622522],[13.201477344200047,42.96394577125126],[13.201059442464347,42.964019659147716],[13.200739671654333,42.96404942250277],[13.20036976420186,42.964108038278134],[13.199926179762226,42.96416485931256],[13.199644009894977,42.964206742615275],[13.199262788202207,42.964234258700365],[13.198719233245107,42.964308254148754],[13.198338012109431,42.96438078419737],[13.198076019725434,42.96449394866241],[13.19771589237665,42.964651233180895],[13.197391840057904,42.96484320502947],[13.19713167877252,42.964983310319155],[13.196659959661698,42.9651671990474],[13.196315110195634,42.96527890095309],[13.19596964905675,42.9653366046837],[13.195686247510139,42.96540553369436],[13.195435251445543,42.96554529858863],[13.194478017159799,42.96683640869716],[13.193567212976829,42.96822484437755],[13.192890312381335,42.968366729112596],[13.19188932652493,42.96852050082785],[13.191236568736874,42.96870200541928],[13.190603680584326,42.96886026901341],[13.190063740909734,42.96894309420459],[13.189210714430079,42.96910942250452],[13.188412415547804,42.96922422043044],[13.187344461966942,42.96924985837124],[13.186410099310129,42.96939213706597],[13.185730114735328,42.96948907614813],[13.18494311874991,42.969589930608976],[13.184188498164803,42.9698516538921],[13.183629244834572,42.97010171831894],[13.182993541086148,42.9703995950136],[13.182509181181654,42.97066941985564],[13.18197100144592,42.97095921931011],[13.181512322088942,42.97120108976777],[13.181000736904856,42.97147640628367],[13.180490681254465,42.97172915599756],[13.180003862423437,42.9719630474331],[13.179544875673841,42.972155403335435],[13.178853190768224,42.972396782517805],[13.177799748599854,42.97277293139494],[13.177389682852962,42.972918472807926],[13.176719688362677,42.97316354871696],[13.176663827493286,42.97317787851173],[13.176126158475524,42.973315792685185],[13.175786052381683,42.973473662166256],[13.17550506179929,42.973604090558155],[13.174984270106439,42.97383470043376],[13.174623402926603,42.97402795222834],[13.174189482562634,42.97413834091317],[13.173902299924794,42.97433340030284],[13.173626722476122,42.97456404968516],[13.173238630847534,42.97476279325871],[13.172697377336231,42.9748725947044],[13.172102585271992,42.975051873291534],[13.171694314153491,42.97522433907182],[13.171184220799901,42.97538701536823],[13.170592512378196,42.975476140144636],[13.170023708283322,42.97563195077835],[13.169592198598453,42.97577824686926],[13.169037177618812,42.97586602480322],[13.168467738410593,42.97605786459271],[13.167737748797872,42.97627806636009],[13.167193999659313,42.97644195246348],[13.166634633580058,42.97664692000732],[13.166453488275465,42.97691462315711],[13.166371083872573,42.97723724704419],[13.166166058829496,42.97755984106076],[13.165902648042373,42.977835044556805]]]}}]}
