{"type":"FeatureCollection","metadata":{"code":"048054","referenceDate":"2026-01-01","sourceDbfExportDate":"2026-02-18","upstreamArchiveUrl":"https://www.istat.it/storage/cartografia/confini_amministrativi/non_generalizzati/2026/Limiti01012026.zip","sourceManifestSha256":"70ac8256c4785dc6ed2814c32b6965ae76f9161b51abaa1660059e1c6cbd8ca6","license":"https://creativecommons.org/licenses/by/4.0/","attribution":"Istat, Confini delle unità amministrative a fini statistici al 1° gennaio 2026, versione non generalizzata.","modifications":["Converted from WGS 84 / UTM zone 32N (EPSG:32632) to RFC 7946 WGS 84 geographic coordinates.","Converted from shapefile to per-municipality GeoJSON without geometry simplification."]},"features":[{"type":"Feature","id":"048054","properties":{"code":"048054","name":"Barberino Tavarnelle","alternativeName":null,"regionCode":"09","regionName":"Toscana","territorialUnitCode":"248","territorialUnitName":"Firenze"},"geometry":{"type":"Polygon","coordinates":[[[11.194751081102488,43.59857334567194],[11.194624096650665,43.59894493816234],[11.194605512874302,43.598999317045944],[11.19446002315159,43.59940157156639],[11.194399463135907,43.59957211695963],[11.194380476435796,43.5996248972602],[11.194318043092684,43.5998511986602],[11.194274847778528,43.60000758066589],[11.194261384699418,43.60005969663813],[11.19424021690376,43.60014041079726],[11.194219302727259,43.60030327264204],[11.194191595825774,43.60054173034256],[11.194166876085902,43.60075446621181],[11.194162683769378,43.60079056194837],[11.194098841014736,43.60090883644736],[11.194049967691225,43.600998532616046],[11.193935260053289,43.60120906517279],[11.193895578036694,43.60128188723703],[11.193845689783913,43.60137936408342],[11.193700119324774,43.60166379613394],[11.193490696488153,43.60207298505873],[11.193470338889648,43.60211839397895],[11.193267088819791,43.60257184734591],[11.19318125762148,43.602763208575425],[11.1930850922607,43.603025948566525],[11.192949838663552,43.603395325188416],[11.192931344804103,43.603445741269184],[11.192920020273059,43.60347683715158],[11.192809294699225,43.60377876535682],[11.19278802712864,43.60393223727141],[11.192725230744694,43.60438449152019],[11.192681685343441,43.60469959500986],[11.192665721429337,43.60483495750166],[11.192627876744314,43.6051558679595],[11.192612510406864,43.60528616513358],[11.192586966946884,43.605502744747405],[11.192546118598305,43.6057376400298],[11.192492900322797,43.60604366497658],[11.192483745178004,43.60609192454602],[11.191780875849894,43.60582433596037],[11.19157614672881,43.60574493432423],[11.191254866362652,43.60562041192624],[11.190762906860401,43.60542968319676],[11.190627928920158,43.60533555928825],[11.189669657032413,43.60466731331257],[11.18892346895441,43.60424943073881],[11.188221128153996,43.60396121465362],[11.18779150497845,43.60378490807909],[11.186749814466404,43.60341768758217],[11.186319328156884,43.603318383516],[11.185875673993547,43.603216040624254],[11.185812730287866,43.60320152042901],[11.18491181724113,43.60295764251677],[11.184552231858833,43.60272886445549],[11.184087486129426,43.602433177436126],[11.183486031426954,43.601904447741305],[11.182873819727192,43.60176308059194],[11.182260633452909,43.601594718228405],[11.181441569548364,43.600872051182094],[11.180726149785576,43.5999313104903],[11.180222494723985,43.59936468156822],[11.179675825584605,43.59897894627285],[11.179162371470438,43.59882667142684],[11.178880008888347,43.598865525736635],[11.178706238000013,43.59888939206983],[11.17835341889644,43.5990219666641],[11.17803856465803,43.59918270978772],[11.17791383169827,43.59924663638876],[11.177684074690559,43.59974622147184],[11.177613317868202,43.60018875323531],[11.177293327968492,43.600505480604646],[11.177260393654999,43.600517627613755],[11.177172217559583,43.6005565861632],[11.176860278980586,43.600662208543696],[11.17672768489206,43.60070983633208],[11.176643108882814,43.60061665524349],[11.176301913749585,43.600240747534514],[11.175654214543474,43.60014503740784],[11.174962721062071,43.5999827510081],[11.174767064651173,43.5999368323602],[11.174144791681062,43.59987186487855],[11.173672584448136,43.599822683698264],[11.173580103371451,43.5997919949153],[11.173183677284571,43.59966082926819],[11.172624774454514,43.59940338020435],[11.172226217797153,43.599219844103],[11.17172461837288,43.599063509907765],[11.171597207413956,43.599023786245006],[11.170947375283895,43.59882143785587],[11.170810229088675,43.59877879825049],[11.169844111790997,43.59843675817072],[11.1696595597914,43.598403480936135],[11.169559656475247,43.59838532536653],[11.169117995648822,43.59830561663954],[11.16907004195071,43.59829705758925],[11.168896395535024,43.598265671798984],[11.16796703705839,43.59830867774675],[11.167906919803917,43.598311360650094],[11.167540595414108,43.59844002624213],[11.167499328046647,43.598453850152175],[11.167491787409533,43.59848143142603],[11.16747516396645,43.59853573994912],[11.167451265687193,43.59861137154546],[11.167425105356747,43.598694255400304],[11.167380295825817,43.59883521105894],[11.167283236927807,43.599022744028],[11.167229982929172,43.599125834852785],[11.167146388780482,43.59936807974203],[11.166972039100665,43.599877837478935],[11.166524497619376,43.600525589309754],[11.166270847378035,43.60105261598178],[11.166195195063002,43.601066674391916],[11.165960714380775,43.6011096987329],[11.1657289882678,43.60115281084535],[11.16554875711976,43.6011851135374],[11.165397229696186,43.60121225485825],[11.165327465819562,43.601224759597116],[11.164879833050604,43.601304280264976],[11.164792392613208,43.60133333183794],[11.164727368984403,43.60135471871175],[11.16460882588336,43.601393738626584],[11.16442299514129,43.60145521533929],[11.164252139684738,43.601511893606535],[11.16411470875452,43.60155754099857],[11.164060907536088,43.601575409653485],[11.163986015046568,43.60160011723215],[11.16393382392076,43.60163849574346],[11.163816450895172,43.6017247249004],[11.163774894987453,43.6017553630531],[11.163720921972955,43.60179495200689],[11.163680611295792,43.60182452300404],[11.16350743892097,43.60195185285797],[11.163382434153851,43.602043726492944],[11.163213263925003,43.60235255378879],[11.163173114868103,43.60242584587748],[11.163042096705501,43.60231954463173],[11.16212202153187,43.601573257162684],[11.16208845114305,43.60154600032498],[11.162040520564926,43.60152160107678],[11.16145746212692,43.6012248025248],[11.16104032303811,43.60089762131308],[11.160966149140355,43.600839299915464],[11.160807332766208,43.60071487754765],[11.15996609272249,43.60007202747201],[11.159712712978205,43.59985987680237],[11.159121088704465,43.59936463439844],[11.159083435158054,43.59933295100241],[11.159021502790317,43.59928102203293],[11.158853246533168,43.59918382183807],[11.158438720321435,43.59894434905732],[11.158294948552696,43.59886128974331],[11.158161263529783,43.59878405879928],[11.15806452134693,43.59872520101179],[11.157879282189235,43.59861249948114],[11.157232765340023,43.598219144551415],[11.157084779266995,43.598129104258526],[11.15621536429395,43.59741714222272],[11.156063790431176,43.597293016779105],[11.155836258895667,43.59690883687637],[11.155351867367669,43.596090940527446],[11.154781439216912,43.59538139757906],[11.154178701199669,43.59480751820713],[11.15343514385072,43.59440199768323],[11.153048056897067,43.59419093256594],[11.152965832107542,43.594146091342395],[11.152632381124908,43.59398953906655],[11.152467958093613,43.59391234196827],[11.152209887546604,43.593791177986134],[11.15135202709371,43.59335714388139],[11.151325072957205,43.59333632035614],[11.15074206759918,43.592885430579656],[11.150714929952056,43.59286465988299],[11.150069828307728,43.59213875713002],[11.149768952195371,43.59154837299972],[11.149708111561623,43.59142854473736],[11.149683588579304,43.59138070409247],[11.14881526124488,43.591378241136134],[11.148736740057485,43.59137791508262],[11.148681469182671,43.591377688425865],[11.148314101355817,43.59137663253213],[11.148259999328966,43.59137652955912],[11.148213682136326,43.591376333335496],[11.148145748380673,43.59137617159575],[11.147932955308065,43.591375698483304],[11.147816638511257,43.59137549156949],[11.147767457417785,43.59137536880202],[11.147730452602412,43.591375326894415],[11.147536690715212,43.591374678131],[11.147392647878094,43.59137423101783],[11.147186535881643,43.591373524718385],[11.146811159076632,43.59137291160374],[11.146772070631803,43.591372904028276],[11.146512018838829,43.59171944153604],[11.146442911152432,43.591916917014586],[11.146264624082752,43.59242638211781],[11.146127374925866,43.592659505740805],[11.146086838865784,43.59272835673208],[11.14580900725687,43.59320025823767],[11.14576747005366,43.593226362402156],[11.145461941899677,43.59341728006397],[11.145338944693798,43.593494093298354],[11.145256771653044,43.5934466857427],[11.145215936413452,43.59342070915952],[11.145095808767183,43.59334450393382],[11.14506790313801,43.59332678960498],[11.14501967964009,43.59329610217511],[11.144994332799532,43.59319135195641],[11.144980742146226,43.59313530068878],[11.144888825483493,43.59275796818035],[11.1448716322922,43.5926862881303],[11.144862619103138,43.59264850254139],[11.144797854176417,43.59237805984099],[11.144763957483317,43.592237450185536],[11.144735746473854,43.59211391132164],[11.144724194103569,43.592066157508505],[11.144716827850035,43.59203863417846],[11.14468232677867,43.59189306571671],[11.144670709843655,43.591844049869984],[11.14455845585354,43.591597423833655],[11.144187001565264,43.59077982746102],[11.144146972085807,43.59069231123883],[11.144058931581606,43.59052852753458],[11.143993309239917,43.59040614777643],[11.143930343875805,43.59028867474175],[11.143669051765132,43.589800984778634],[11.14363120892221,43.58952075148328],[11.143593516645469,43.58924216574224],[11.143551409372414,43.58892982546201],[11.143595600380324,43.58887814552188],[11.144146065601486,43.58823438276509],[11.14448285512059,43.587914968792774],[11.144581335098174,43.58782156778455],[11.144604648554074,43.587799456207414],[11.144853075260674,43.58756383968209],[11.14480315400183,43.58720462569484],[11.144324142795648,43.58697051335326],[11.143736222861145,43.58671276317678],[11.14341820060202,43.586573336487064],[11.143818903732694,43.584961178973174],[11.143840895513232,43.58487269798198],[11.143797385048037,43.58480268910559],[11.143696476078857,43.58464031957262],[11.14363070845421,43.58453449758031],[11.143585330541194,43.58448629314896],[11.143347534596868,43.58423368113895],[11.143083689538821,43.58377943698375],[11.142912240781547,43.58348552792465],[11.142814693513799,43.5835471174692],[11.14270486987678,43.58361627345544],[11.14250033624545,43.58374535732605],[11.142382470745144,43.583752718206],[11.142347066930292,43.583755078268766],[11.142003850216586,43.58377643878082],[11.141684676575853,43.583796662463506],[11.141017740361017,43.58315188449379],[11.14032223627008,43.58239959230885],[11.140268666435462,43.58233040522968],[11.139980815880005,43.58195863379444],[11.139854962351128,43.58179608591801],[11.139905758755882,43.58166955440141],[11.140037058785207,43.581342486947555],[11.140043396339712,43.58118764697625],[11.140045024468348,43.58113985195246],[11.14004773909228,43.581075777425475],[11.140059815352284,43.58074629930479],[11.140062594277289,43.58066771746281],[11.140050933118324,43.58056331107856],[11.14004845895674,43.58050296227035],[11.140009261752713,43.58020853201328],[11.140070661353628,43.58020738217271],[11.140117976458015,43.58020651768156],[11.140165996768065,43.58020559674503],[11.1405858591087,43.580197780397825],[11.14064257188467,43.58019659108862],[11.14070061984033,43.580204801972634],[11.140724237743965,43.5801522200255],[11.140875994651175,43.57985240475109],[11.140896299012795,43.579813757980844],[11.140943964462352,43.579721151724016],[11.14095713223507,43.5796955690807],[11.141001739442862,43.57930061485901],[11.141025605260372,43.579089302854136],[11.141070247499098,43.57869403007886],[11.141084474426652,43.5783806220463],[11.141098063223687,43.57808125216008],[11.141039365160415,43.57768315697524],[11.141032983783337,43.57763971047658],[11.141020653959519,43.577556015639296],[11.141016443471925,43.57752458192839],[11.141022377138617,43.57699324680594],[11.141041054472442,43.576734038674026],[11.141085919850745,43.57607817190978],[11.140770564515748,43.57609083292987],[11.140766179635461,43.57596711381901],[11.140611476730331,43.57597001182554],[11.140217183320969,43.575502447098614],[11.139759568581338,43.574907762536704],[11.13955225638813,43.57482385743644],[11.139370812331281,43.574770981191946],[11.13932701797694,43.57475829527276],[11.139298615836898,43.57421859981398],[11.139412747480065,43.57403188489451],[11.13994296894639,43.57379236045666],[11.140460743983061,43.57363860247478],[11.141199334776257,43.573687791928954],[11.141883493445413,43.573686225539944],[11.142237125613583,43.57353103400995],[11.142420509129874,43.573376783236014],[11.142562519432577,43.57301621995611],[11.142823531670372,43.57269394158309],[11.14318484120774,43.57249358473683],[11.143599461560859,43.57231248453931],[11.144073653626487,43.572071011630385],[11.144561029592143,43.571666429257554],[11.14462749315571,43.57154525859167],[11.144674619505746,43.57145952985088],[11.144833829133942,43.571164541069066],[11.144904573618328,43.57111374872465],[11.145220701424176,43.57088872460168],[11.145281077453776,43.57084207215533],[11.14533830114453,43.57080185269229],[11.145475811929586,43.57070448559896],[11.145565012679784,43.57064144862896],[11.145595014885506,43.57062041143806],[11.145643298074866,43.570568114428184],[11.14568025681694,43.570528272583836],[11.145821699958327,43.57037517294699],[11.145859024870854,43.570292514392605],[11.145893370179191,43.57021654762508],[11.145919120103267,43.57015752365772],[11.146321584854615,43.569930736513875],[11.146456574861807,43.56985467280402],[11.146532090408568,43.56981190141388],[11.146781118341314,43.56967313610915],[11.146958581122362,43.569635038250205],[11.147123467533127,43.5695995264212],[11.147282637733337,43.56956534088698],[11.147367883527899,43.569546935148615],[11.147435518153612,43.56953250955708],[11.147519801937722,43.569516271005774],[11.148012470256509,43.56982557099049],[11.14805039509861,43.569847367785016],[11.148208720102453,43.569768235148345],[11.148288361830952,43.569728429239674],[11.14853707230566,43.56960412088441],[11.148877061567473,43.56906650369952],[11.149077681748294,43.56898984382226],[11.14921591273951,43.568937024207244],[11.149451728019427,43.56884691535669],[11.149700022223957,43.568752037827046],[11.14974446261391,43.56873505609892],[11.15040456398976,43.56884193590032],[11.15047380241806,43.568853059212614],[11.150542791412567,43.56886343625455],[11.150609556688414,43.56882703140222],[11.150656058473649,43.568800860797545],[11.151100229924761,43.56855647878549],[11.151131960949819,43.56830358506287],[11.151138053449081,43.56825945227763],[11.151158292324475,43.56808799604154],[11.15116736139361,43.56801464189802],[11.151158623559086,43.567910882854264],[11.151149478231805,43.567807989547326],[11.151144939206754,43.567757122108766],[11.151125878593215,43.56752956602308],[11.151144741451942,43.567392119869375],[11.151149261879397,43.56735868175118],[11.151202341286238,43.56699014649766],[11.151213403073431,43.56691294619069],[11.15122465754999,43.56683441148276],[11.151471060452666,43.56645161298931],[11.151404294494478,43.566325715532386],[11.15138422477385,43.56628857244762],[11.151350558716691,43.5662243288676],[11.151285327483276,43.566103961432],[11.151077742321366,43.56602477327594],[11.15103735364509,43.566009589470184],[11.150477194567781,43.565796400255266],[11.150258271800938,43.56571300485403],[11.150180714337862,43.56568356558655],[11.149314421662272,43.56534871473083],[11.14857945350782,43.56487633017267],[11.148523138513546,43.564848911520414],[11.147760437996892,43.564477551446664],[11.14727872063963,43.56416246726597],[11.147239392333638,43.56396339049284],[11.147226364193864,43.56389694810127],[11.14721353181054,43.56383235502641],[11.147206997088885,43.56379916167855],[11.147172921526849,43.56362422730317],[11.147567968603374,43.563589532193056],[11.147632701087819,43.5635841838056],[11.147691336059339,43.56357847006989],[11.148072062377237,43.563447488418035],[11.148217325421593,43.563397512689875],[11.147897900826298,43.56329967249969],[11.147780947737614,43.56326380675259],[11.147434940963262,43.56315785895371],[11.147316032397054,43.563121827787846],[11.147003017244467,43.56302416537718],[11.146788909104567,43.56301251021524],[11.146184126559026,43.56297652033515],[11.14594186954982,43.5632151687151],[11.145801272678494,43.5633528651202],[11.145757986140413,43.56352535297712],[11.145703648936909,43.563741862054975],[11.145633278684675,43.56378735092695],[11.14559853680609,43.56380997357569],[11.145567557101284,43.56383003060536],[11.145525500924018,43.56385644973245],[11.145413069641124,43.56392739425658],[11.145380061100957,43.56386997767667],[11.145339514789907,43.56380060859074],[11.145257811744468,43.56366022331839],[11.145228352556463,43.56360672337584],[11.145220299170182,43.56357529436634],[11.145200838310576,43.563499326639565],[11.145180319175894,43.56341914785351],[11.145149245086358,43.56329800238042],[11.145072963597883,43.563000326444836],[11.145065811190626,43.562972124605366],[11.145056202041234,43.56293463906445],[11.145005488476507,43.56267243111117],[11.144976380488087,43.562521783488776],[11.144966013257847,43.562468029557586],[11.144945836647922,43.562362945868436],[11.144904507913566,43.56215448591081],[11.144865439987157,43.562075473647404],[11.144712253494419,43.561768527091075],[11.144590504311045,43.56152400218322],[11.144557762085327,43.56145839761903],[11.144437409179655,43.561384730022155],[11.144390066436173,43.56135575074191],[11.14368453991116,43.5609255501644],[11.142844303684956,43.560275027006476],[11.141832778446496,43.55968173131579],[11.141274108609196,43.55933227503849],[11.141159237418925,43.55926069547831],[11.140895828963618,43.5590960342718],[11.140342449385571,43.558503144352834],[11.140186276014187,43.5579388291149],[11.14016859636808,43.55787422060504],[11.140161096771845,43.557845255100574],[11.139999944790743,43.557222012319656],[11.139886110940639,43.55700024973293],[11.139574405461087,43.556392625214215],[11.139355111741699,43.55579347573141],[11.139287253220296,43.555610591357805],[11.139245626437576,43.555498399727654],[11.139195559453775,43.555502258704685],[11.138813911064915,43.55553166786204],[11.13874679317638,43.55553683888905],[11.13862829949725,43.55554597053208],[11.138018227581977,43.5552737660647],[11.137949068314962,43.55524354721708],[11.13786906815013,43.554731825819744],[11.13754700463634,43.55402654939902],[11.136969599569502,43.553452099679205],[11.136814054994803,43.553277249762274],[11.136679710987627,43.55312622731223],[11.1364395423507,43.55285621133648],[11.136401786269388,43.552813401365036],[11.1361754971461,43.55235047086741],[11.13619900218608,43.55222329180966],[11.136210298484208,43.552160122734264],[11.136219961778414,43.552106059205975],[11.136237642473915,43.55200716399033],[11.13599163258277,43.551253818258125],[11.135977157075471,43.551209490729704],[11.135960013509843,43.55115699071069],[11.135938458343194,43.55103116709634],[11.1358508466214,43.55051976085063],[11.135971986645806,43.55009431636563],[11.136070045617192,43.5496758858974],[11.136081660606395,43.549626123057685],[11.136092682733352,43.5495809182655],[11.136111824184114,43.549497450016],[11.135738642392983,43.54922349878456],[11.135703410464446,43.54919837635546],[11.134708093605262,43.549028207833764],[11.1340474461967,43.548878740154855],[11.132994980550885,43.54887137796301],[11.132481599565887,43.54885714710188],[11.132412602175583,43.548855234587506],[11.132222580205713,43.54891351572302],[11.132160536161015,43.54893263248299],[11.132053717569486,43.54896541509853],[11.131959951338507,43.5489942319059],[11.131900105614228,43.549012680842495],[11.131854030076328,43.54902670046604],[11.131788040183347,43.549046963896195],[11.131714138301914,43.54909930269544],[11.131567140386814,43.54920304221978],[11.131395746789488,43.549324100849354],[11.13131658066848,43.5493796006971],[11.13125422942198,43.549375802371955],[11.131134146334437,43.54936675178376],[11.131074111431175,43.54936239694232],[11.131000494968829,43.549357080700275],[11.130916449326554,43.5493510323759],[11.130721293840146,43.54933697307794],[11.130617482773205,43.54919516491576],[11.130591390604232,43.54915952232515],[11.130553457204078,43.549107700786166],[11.130491852349008,43.549023550845305],[11.130435182913597,43.54894613832044],[11.130518502456402,43.548843074186415],[11.13056428824371,43.54878675298367],[11.130651711027102,43.548679510076894],[11.13067225221664,43.5486537145014],[11.130673894457608,43.54862293106642],[11.130680546794226,43.548523063646485],[11.130696245256035,43.5482749881546],[11.130436254858592,43.54792035991701],[11.130476798116955,43.54792004979279],[11.13056544170424,43.54792016199181],[11.130960659317823,43.54792103085623],[11.13111824265562,43.54792145169991],[11.131197810502503,43.547921575084054],[11.131288606726853,43.54792122969702],[11.131237698742051,43.5478799967257],[11.13115872583333,43.547817978470924],[11.131016163580535,43.547706093824324],[11.130831295691218,43.547561244893835],[11.13086151580655,43.54753398665649],[11.130891934372425,43.547505651445846],[11.130926191779885,43.54747402125041],[11.131035642597547,43.547372542164126],[11.131064380468946,43.547345871555144],[11.13111735073331,43.54729686237391],[11.13105373602057,43.547249182674335],[11.13096073225238,43.547184826487346],[11.130913548133003,43.547152219895025],[11.130853266766009,43.54711056636556],[11.130685797166946,43.54657345924938],[11.130650910175659,43.5462859875235],[11.130764674397227,43.5463032329517],[11.130808987128285,43.54630995020619],[11.13086533907845,43.546318491351236],[11.131074034895503,43.546350128362256],[11.131209471379707,43.54623630278296],[11.131248440346896,43.546205022211225],[11.131304207650977,43.546158945568344],[11.131362177166999,43.546110766833365],[11.131357916144683,43.545624526620074],[11.131392498329394,43.54451559296528],[11.131129238810166,43.54370197104639],[11.131075725651707,43.54348024923694],[11.130984296001081,43.543101417551185],[11.130767676486077,43.54257423058915],[11.130686489803033,43.542026510410906],[11.130803881870165,43.541991325963174],[11.130849858041824,43.54197754541446],[11.13089654949753,43.54196355072299],[11.13110292695419,43.54190169476365],[11.131373896296399,43.54186537181048],[11.131474302711036,43.54185191204856],[11.132273254097374,43.54174480711993],[11.133540624865432,43.54153207236991],[11.134637358231123,43.54139454222821],[11.135648772319085,43.54129461072455],[11.135819955200592,43.54128817380876],[11.136398481601788,43.5412664151064],[11.136604252413678,43.54125813830288],[11.136805126486035,43.54122992439514],[11.137151698829358,43.54118097955796],[11.13741343088098,43.54114457101771],[11.138274815341127,43.54100240352913],[11.138499199653014,43.540959938360366],[11.138720783250198,43.540918050092486],[11.138839906321882,43.54089305163267],[11.139045848252598,43.54083422829892],[11.13931827190208,43.54075783331517],[11.13938041918574,43.540725944090994],[11.139363304362526,43.540700557427165],[11.13913169653177,43.540383110355265],[11.13863249217962,43.54009438439619],[11.138587627400426,43.54006872996951],[11.138538591705823,43.54003978971442],[11.137956571038314,43.53970280174298],[11.13682302889369,43.53914775724484],[11.135714856076591,43.53825908438588],[11.135297065773589,43.53791062540049],[11.134618132962439,43.53734317498365],[11.13443755859181,43.53716162710425],[11.133668369100652,43.53638877107486],[11.132687051681764,43.535578461323674],[11.131900887100542,43.53469274505448],[11.131408868431446,43.534169409024855],[11.131168021045339,43.53391407543193],[11.130887072097064,43.533592387331716],[11.130587705736758,43.533249607142736],[11.130523159328215,43.53313851987134],[11.130152959783073,43.53250138733139],[11.129832697884542,43.53184107147991],[11.129641817328421,43.531340413467284],[11.129023774208344,43.5313609326995],[11.128370670822456,43.53133462474916],[11.127251901289005,43.531289550409035],[11.127189630419346,43.531287041282354],[11.125934474435645,43.53099076103782],[11.125704652947475,43.5309365104622],[11.123648421994462,43.530524089775014],[11.123584308331656,43.530514570051864],[11.1234395947345,43.530493872160925],[11.121745070629778,43.530244764804415],[11.120153259935876,43.530022199043245],[11.119626209877467,43.52985924852079],[11.11941116622382,43.52979275934999],[11.119290200218073,43.52975536189965],[11.11898785130296,43.52966188179198],[11.118752084209046,43.52958898664897],[11.118232438582673,43.529238465706726],[11.117707667044836,43.528723081753824],[11.117386624549553,43.52840777628489],[11.115923230008942,43.52725537430663],[11.114993428432728,43.52649825409475],[11.114388417514792,43.52547400451841],[11.11418112822857,43.52509724118456],[11.11391274331931,43.524609428379584],[11.113713899259652,43.524244923456706],[11.113489691766826,43.523833916365454],[11.113354956961778,43.523519022700825],[11.113273928721975,43.52332468715811],[11.113058587689979,43.523195442042166],[11.11289881814648,43.523099550682105],[11.112793664045112,43.5230364385288],[11.111898661422721,43.52285569181093],[11.111323216382477,43.522739473762314],[11.110707931639697,43.52253704654311],[11.109846194567671,43.52225353041694],[11.108412388123933,43.52158669358546],[11.10712120948596,43.52110629009073],[11.105826918737884,43.520535889812244],[11.105303083008494,43.52040709148131],[11.10513019251796,43.52036458025974],[11.10456645901842,43.52022596621083],[11.10318031373245,43.52021546827608],[11.101974988126615,43.520158037224064],[11.10168069503335,43.52014401264594],[11.101303447060426,43.52005865981767],[11.100931846774321,43.51997511165666],[11.100776435948625,43.51994043188134],[11.100643370131507,43.519909931401166],[11.10057295814653,43.51989362465451],[11.100433366245808,43.519861213485754],[11.10036622563572,43.519836523239455],[11.099017272384387,43.5193375941728],[11.098760915716623,43.51924528638793],[11.098688815489204,43.519219149253175],[11.098193147296458,43.519040455731385],[11.098061580585151,43.518992927954514],[11.098003800855864,43.518972059520166],[11.097876850037839,43.518926831040545],[11.097780645854249,43.51890944282325],[11.097433098328892,43.51884704131634],[11.096921165919952,43.518756035770814],[11.09686867090504,43.518746764128174],[11.096815497054305,43.51873543310685],[11.096534494165407,43.518675470771484],[11.095584804672683,43.51847318366189],[11.094487668424192,43.51823218351216],[11.09352530772835,43.517952688263065],[11.092587764274604,43.51803288588136],[11.091163327553224,43.517986927232386],[11.089955555324991,43.517765914741425],[11.089029693612657,43.517467707067205],[11.088109490975215,43.51717084439914],[11.08784108134646,43.51708425255037],[11.086802408095917,43.51674306685433],[11.086015378242255,43.51652333342633],[11.085501703746974,43.51631896926351],[11.085399203734355,43.51627774125205],[11.08525802229626,43.51622201933349],[11.085235848264011,43.51626162263261],[11.085199883232129,43.51632365068789],[11.085029005930124,43.516622368101004],[11.084522401205342,43.51700076869415],[11.0841007461015,43.51723215727078],[11.084027008133129,43.517273190419466],[11.083784847246758,43.517405572809075],[11.083709145568177,43.517447978643126],[11.083493438959001,43.51771081542246],[11.083469307136127,43.517740282294994],[11.08336451085009,43.51786824713761],[11.083297982262522,43.518032284685596],[11.083250464024509,43.518149446836745],[11.083216513245302,43.518131759742005],[11.083183035119824,43.518114288220374],[11.083147093212247,43.51809554701877],[11.083031394722543,43.518035220569274],[11.08298693358498,43.5180120362678],[11.082885562401335,43.51795917123727],[11.082633129549215,43.51782755332779],[11.082199895637322,43.51748302776306],[11.081780854972068,43.517149781468405],[11.08166311643721,43.51705871615227],[11.081546672723027,43.516969350487635],[11.081469139692686,43.516909528453596],[11.081221649283325,43.516718776624],[11.080663421401262,43.51634106993495],[11.080480216089962,43.51620585486375],[11.080437258110202,43.51617414065775],[11.080401315124615,43.51614760567567],[11.080356771534682,43.51611226829599],[11.080261984895664,43.51604466222698],[11.080129873815167,43.515947211086605],[11.080517772915188,43.515678137063986],[11.080891788057064,43.51540121094425],[11.081000205336528,43.5151348644611],[11.081022526781693,43.51507993815074],[11.081103010907242,43.514882082770974],[11.0811427658635,43.51478437631113],[11.081204862381911,43.51462967851267],[11.081243865196399,43.51453241519984],[11.081293752117624,43.514407966095035],[11.08146786812171,43.5139804943426],[11.081485063180082,43.51394773450743],[11.081590849256619,43.513802393654096],[11.081886414850262,43.513384234251134],[11.082495352185928,43.513276735826445],[11.082721092792587,43.51323721337356],[11.082790382932801,43.51322469571852],[11.082902538034958,43.51322952990738],[11.083021782326114,43.513236131014914],[11.083635396926768,43.51327019609507],[11.084255163327917,43.51330461749621],[11.084382991259327,43.513311717034014],[11.08464170249176,43.513279986568804],[11.084872029330379,43.513252683728226],[11.085127049982416,43.513222222416594],[11.08526968306987,43.51320547398085],[11.085404694747377,43.513119689699586],[11.085542387021022,43.513029453406304],[11.085764695380265,43.512887095703306],[11.085875998921606,43.512817067370605],[11.086078926396915,43.51243795784015],[11.086123444388313,43.51235621585604],[11.086305429022875,43.51201609445763],[11.086562432317512,43.51130684801895],[11.08659389068814,43.51122201099771],[11.086605547551894,43.51118660168492],[11.086644390756058,43.51108250540413],[11.086743498126639,43.51081733267829],[11.086787338827948,43.510702827455816],[11.086812880870802,43.51062897788163],[11.086869979109446,43.510475126339095],[11.086893432222466,43.510411670346805],[11.08723726117272,43.510090737316],[11.087316496486803,43.510016778618635],[11.087552622680647,43.50979637168305],[11.087845647267438,43.50975608103572],[11.088459899654548,43.50967162004513],[11.088685373761106,43.50964061653861],[11.08888125689889,43.50967080143012],[11.089079477145662,43.50970156093779],[11.089701348818283,43.50979805974595],[11.090326012838828,43.50989529553924],[11.09045149158016,43.50991451728687],[11.090941768384182,43.50989432348514],[11.091242112958616,43.50988198707563],[11.091314115247226,43.509817641834566],[11.091371204775218,43.509767675944104],[11.091434631253202,43.50971357379334],[11.091572578424277,43.50959037284304],[11.091650334551117,43.50952336496436],[11.092422832915194,43.5086088345489],[11.092992298025221,43.50790510745525],[11.093452944810393,43.50753993271091],[11.093679318635168,43.507362601924456],[11.093947011249723,43.50721257094432],[11.093979783624528,43.50719434254332],[11.094546917648902,43.50687302269668],[11.094588686225556,43.50684941775559],[11.09492809141648,43.506726697398996],[11.095106507611158,43.50666218554263],[11.095480558164057,43.506526936002786],[11.096333463987158,43.50615113911011],[11.097274348352942,43.50545858527062],[11.097983139247638,43.5048513191278],[11.098717575550967,43.50427058864427],[11.099137836962377,43.5040838114094],[11.09933266864319,43.50399630144796],[11.09947278282749,43.50393257904541],[11.099780416782405,43.503890571315104],[11.099837619495744,43.5038820758784],[11.099906477313935,43.5038739101105],[11.100543892192764,43.503786842687084],[11.10158871093407,43.50359656077822],[11.1023686167031,43.50325807698204],[11.102889032669701,43.503016651501945],[11.103135526881562,43.50290181815931],[11.103810895070191,43.502403177555614],[11.10453538536395,43.50189462445802],[11.104746361766898,43.50172696886382],[11.105173335149779,43.50138766170351],[11.105435531741117,43.501157461605665],[11.105678938362114,43.50094375570882],[11.105726812451962,43.5009015391443],[11.105749490043289,43.500881864531316],[11.105930766426175,43.50082010851235],[11.106087928550023,43.50076663362732],[11.106210937131273,43.50072476556979],[11.1062965268727,43.50069617633781],[11.106378338461393,43.50066874525294],[11.107106527643397,43.500424634422245],[11.107406223420837,43.5002904167885],[11.107441960002111,43.50027246301075],[11.107476339794676,43.50025525906008],[11.107642273091933,43.500180654551464],[11.107878997074714,43.50006783064504],[11.107917471788276,43.500047741799406],[11.108428838608386,43.49980087638875],[11.108487738931649,43.49977339374533],[11.108553329811274,43.49974126404246],[11.108590007908225,43.49972198605894],[11.109147448083593,43.499428016695795],[11.1093683918947,43.49931145073009],[11.110353626663477,43.49883406394001],[11.110513866373886,43.49870777043387],[11.110970718010655,43.49834466226276],[11.111009055440466,43.49831778501363],[11.111232429788794,43.498142536667025],[11.111902910571061,43.49747530653459],[11.11202087929054,43.49735578773111],[11.112069491522803,43.49730812996428],[11.112178427638602,43.49716163993495],[11.112305782195389,43.496993691474124],[11.112683921836062,43.49649501220755],[11.112856648684154,43.49604743609886],[11.112872097342677,43.4960073565333],[11.112918072228734,43.49588658804624],[11.112978375012876,43.49573191219422],[11.113012861008993,43.49564256384869],[11.113020120440742,43.49558872451779],[11.113029644644294,43.495540492410015],[11.11303683602454,43.49550090583],[11.113125592458875,43.494974190729494],[11.113294228546517,43.4943873349338],[11.113401312767616,43.49401467908053],[11.113783435849736,43.493269291642385],[11.114651021236499,43.492613964713065],[11.114829894393134,43.49254738947945],[11.115273759439305,43.49238279886542],[11.116055065528121,43.49209276302308],[11.116402320547339,43.492042953911884],[11.11657991884245,43.492017478406055],[11.117124833898542,43.49193931305366],[11.117352425707262,43.4919066651092],[11.117526165144861,43.49188361146046],[11.117568650539887,43.49187564724264],[11.117639201620547,43.491827894845585],[11.118293528650906,43.49138500731516],[11.118332117918664,43.49133541398713],[11.118407323267002,43.491238655321496],[11.118825174228592,43.4907009281761],[11.119074608626368,43.4903800983114],[11.119476238806401,43.48984141972958],[11.119559210330811,43.48975872005557],[11.11967539991732,43.48963974218906],[11.119779569042448,43.489540044075895],[11.119905069372411,43.48941539275453],[11.119943041391181,43.48937632877442],[11.12015757926888,43.48916211885323],[11.12025627445761,43.48909358738725],[11.120881196089071,43.48867097347894],[11.120912479226133,43.488629439248776],[11.121202760233237,43.48820219123465],[11.121281368960073,43.488089706853415],[11.121256188373525,43.48798946823758],[11.121126030437026,43.48750576592351],[11.121035052140218,43.48738174607818],[11.121007300840853,43.48735380758408],[11.120975589531414,43.487304169132344],[11.120864435239033,43.487148822322986],[11.120676070282657,43.48689056445096],[11.12036019392258,43.48645923282233],[11.12033997085763,43.486431511055265],[11.120282255558749,43.48635190063179],[11.120216659099716,43.48626213761798],[11.120180224835035,43.48616944394284],[11.120138850799421,43.48606417957941],[11.120123075847914,43.48602404609928],[11.119995844918906,43.48570528881391],[11.11991802196438,43.48550234446819],[11.119867178163792,43.484755961831006],[11.119700251146533,43.48451868998459],[11.119670071320694,43.484478749750785],[11.11965062014494,43.484448143063986],[11.119585327492409,43.48437298659636],[11.11938606134684,43.48407150957721],[11.11927163245412,43.48395602938506],[11.118565251259744,43.483240437492796],[11.11799258903943,43.48242268994276],[11.117935963697548,43.482290421627596],[11.117889195244647,43.482182820754204],[11.117629540954848,43.48157514779291],[11.117650680139494,43.481451884017076],[11.117678293482667,43.48130041231894],[11.117774182615126,43.48076984089196],[11.117793927490965,43.480742391918206],[11.117878228198371,43.48064202811611],[11.117961566717263,43.48054000373604],[11.11803608071222,43.48044818768255],[11.118095902498602,43.480374523989695],[11.1181537466965,43.48030421308615],[11.118230637202194,43.48027216550682],[11.11847227654012,43.48017034473897],[11.118590611058147,43.48011900661837],[11.118872139042931,43.47999333145565],[11.118961321173368,43.479983081989616],[11.11912275943874,43.47996443365435],[11.11935876401588,43.479937225353815],[11.119458859071072,43.47992566294886],[11.119709568079502,43.479896769420414],[11.120508901800758,43.48012504738016],[11.120824285904831,43.48024212177424],[11.121079919980138,43.480337858089534],[11.121464038488524,43.48048146305199],[11.121499061958277,43.480494485529334],[11.121679994147822,43.480571517347755],[11.121825796283655,43.48063395729358],[11.121929658866527,43.48067845458118],[11.12208120817591,43.48074327800455],[11.122264377046793,43.48082178093432],[11.122595671666085,43.480861699584715],[11.122639459590962,43.480866944265415],[11.122707058577793,43.480875107897475],[11.123170948860746,43.480931204967746],[11.123324523306245,43.480839513212665],[11.123697203598782,43.480617647538025],[11.123873360338953,43.48051277137996],[11.123936742474784,43.48044366203348],[11.12421991376845,43.480137568859185],[11.124234189805433,43.48007387759406],[11.124253062824556,43.479996349987836],[11.124271529880946,43.47993500469879],[11.124337721418414,43.47965705647805],[11.124100116599232,43.47922099972287],[11.123712708649062,43.4787509915228],[11.123144056658052,43.47840139905742],[11.122363709992486,43.47836186903235],[11.12192739432638,43.47844996353298],[11.121823490926106,43.47847094224627],[11.121738694739081,43.4784629658688],[11.121103979414382,43.47840325953118],[11.120719432081183,43.47801422305382],[11.12048261501771,43.47725328328592],[11.119949805352253,43.47686699378724],[11.11964799937786,43.47661818054794],[11.119558824624985,43.47654466258826],[11.11960008566261,43.47648513370303],[11.11963728019412,43.47643879724532],[11.119664775498418,43.47640453223642],[11.119764894000733,43.476279753727376],[11.119863163052079,43.4761572910451],[11.120146126591658,43.47602379852425],[11.120459163926206,43.475876117107404],[11.12081974676807,43.47581515073696],[11.121356423943237,43.47572440812766],[11.122571781050736,43.47547674518446],[11.123539949170523,43.47514362398796],[11.123598177049526,43.475123755287086],[11.123703194736224,43.47513038573676],[11.124230045239035,43.47516681545828],[11.124398131011294,43.475309855139706],[11.124465474822028,43.47536717623398],[11.124727059799444,43.47558976558709],[11.125370459504612,43.4759559684128],[11.12655275155384,43.47652823559676],[11.126970072979711,43.476731859804794],[11.12702119157812,43.47675680220161],[11.127370420870529,43.47692719958664],[11.127835170222761,43.477132451740104],[11.128387694630524,43.47737646391659],[11.128759874976543,43.47756700375739],[11.1291682408641,43.47777622958179],[11.129409690712935,43.47786141391952],[11.129457917073484,43.477878446868374],[11.129535906938248,43.47790599385995],[11.130026203010564,43.47807920204106],[11.130073462077924,43.47809621403817],[11.130168534794292,43.47813482777855],[11.13025754392281,43.47816098397677],[11.130325977476623,43.4781732144642],[11.130668323908685,43.478240668451924],[11.130803312319166,43.478267179011],[11.131141487102445,43.47833358745136],[11.131536559929813,43.47866836930442],[11.131864473616718,43.47885133547254],[11.131950272752961,43.47889135694233],[11.132073333361221,43.478949525926666],[11.132168439251966,43.47899319041349],[11.132254172282668,43.47903314895804],[11.1326876074205,43.478700920091605],[11.133220838333719,43.47839383988547],[11.133985349064304,43.477983395274315],[11.13484743063469,43.47753510803097],[11.136096343394911,43.47718763142624],[11.136679375222526,43.4771542234394],[11.13674990468407,43.47715046122051],[11.13695187188031,43.47713849520808],[11.13700267238195,43.47713556270605],[11.137256228208006,43.4771209280184],[11.1380780767606,43.47728563494032],[11.138438479706528,43.47751299443426],[11.13863444377179,43.47763538279988],[11.13911099427668,43.47817570381547],[11.139695264857508,43.47861496230121],[11.140083713529298,43.47876075646009],[11.140511774581983,43.478977838457645],[11.140590512339225,43.47901913187559],[11.140713571433992,43.47908268764805],[11.141027224844942,43.479244575770906],[11.14111639294219,43.47929059321489],[11.141154985434348,43.47930955206073],[11.141205087217743,43.47933418478643],[11.14132651478721,43.47939394196131],[11.141373141212293,43.47941683172322],[11.141607867131848,43.47953147458011],[11.141682720034732,43.479567902243694],[11.141800734999048,43.479595760494995],[11.14184033787705,43.47960509111578],[11.14246800185442,43.47975153710191],[11.143298211937452,43.479889037571965],[11.143450534743444,43.47991319299439],[11.143586868646011,43.48000967909451],[11.143671535016383,43.48007816647773],[11.143620706395723,43.48013206775211],[11.14359721587713,43.480164659764405],[11.143579655162382,43.48018860567793],[11.143489500693647,43.480311688259086],[11.1433953462536,43.480418631399445],[11.14334486230321,43.48047620961706],[11.143319186142678,43.480505431847774],[11.143288151652035,43.48054089707524],[11.143268921571119,43.48056288886557],[11.143231357693175,43.480605889501426],[11.143198858827452,43.48064313073862],[11.143169317752935,43.48067642407977],[11.143130886639574,43.48072032513564],[11.143107382788168,43.480747098918584],[11.14307932064756,43.48077917327724],[11.143050254763429,43.4808124108563],[11.143000627677242,43.48086916699627],[11.142958791556275,43.480917000850575],[11.142939157713613,43.48093947016315],[11.142916324804386,43.48096560554936],[11.142892799816368,43.480992556162],[11.142861854879706,43.48102801509096],[11.142836718454319,43.48105684802454],[11.142813148964887,43.48108373102457],[11.142779835779534,43.48112187610159],[11.142738891862976,43.481165716986474],[11.142521679029944,43.48139692269524],[11.142461021914526,43.481461847589436],[11.142439613873533,43.48149360166922],[11.142402593207745,43.48154790805673],[11.142346303245134,43.48163207178212],[11.142324909807844,43.481663507725386],[11.142302791997063,43.48169652483614],[11.142281188027859,43.48172861750621],[11.14226311902741,43.48175587630345],[11.142262681411596,43.48178309365241],[11.142261811250165,43.481835677935734],[11.142260812737753,43.48186861072323],[11.142260872850851,43.48190084836921],[11.142260415018683,43.48194078602776],[11.142280055369662,43.48199096177259],[11.142298043138656,43.48203615326916],[11.142313913386321,43.48205992075165],[11.142330308491227,43.48208447344579],[11.142358887052382,43.4821266166546],[11.142390532214144,43.482173410557664],[11.14254549786765,43.48227251362567],[11.142610256489744,43.48231434139183],[11.142642649236283,43.482328622223164],[11.142863510167755,43.48242308869935],[11.142902946049148,43.48244012318288],[11.143032453666224,43.482495611282395],[11.143102748564209,43.48252886401038],[11.143174361387072,43.482562702451794],[11.143213379793648,43.48258114387492],[11.143294853893458,43.482619624358435],[11.143375366821616,43.4826576717089],[11.143409914659877,43.48267399902958],[11.143443252711645,43.482689753864555],[11.143484843877454,43.482709400299555],[11.143530312414988,43.48273088644683],[11.143562570706665,43.48274614286773],[11.143816084384792,43.482865844622104],[11.144072444487442,43.48296311210892],[11.144162512664881,43.482996636126906],[11.144255280368807,43.48304714496533],[11.144283851687707,43.48306457008143],[11.14432286443916,43.48308835419279],[11.144383367329251,43.483125033975384],[11.14442470622537,43.48315007908527],[11.144481723807106,43.48318467405697],[11.144546655938585,43.4832217298492],[11.14458249200762,43.483242154664175],[11.144653407684643,43.48328332549054],[11.144681677638108,43.48329911203356],[11.144743830946226,43.48333451090041],[11.144811305460056,43.48337288563664],[11.145058644803758,43.483513885948696],[11.145363925083862,43.483745259694984],[11.145417435381093,43.48378592478437],[11.145461494455327,43.48410169576212],[11.145467796198695,43.484147522988096],[11.145474556630562,43.48419743391289],[11.145479439551869,43.484233153789546],[11.145485203609033,43.48427483036689],[11.145490628054734,43.484313655454955],[11.145529879217724,43.48459898053028],[11.145595945105805,43.484681055046245],[11.145617168021762,43.48470743987293],[11.145640577029473,43.48473657759093],[11.14565930483654,43.48475986235928],[11.145699816635382,43.484810078748225],[11.145723382516307,43.484839418794316],[11.145746138597078,43.484866597776445],[11.146132068783288,43.48506831509786],[11.146434858962913,43.485110462688255],[11.146518369997457,43.48512209053813],[11.146982311407124,43.4851237210197],[11.147022840689067,43.4851237880366],[11.1473268094036,43.485134053237445],[11.147586058563796,43.485080658818944],[11.147649871228586,43.485067560983815],[11.147719377272718,43.48503869730443],[11.147965914568035,43.48493631973943],[11.148201907009787,43.484845846815496],[11.148249941016099,43.48482735920096],[11.148289520785791,43.48483817996188],[11.148532474858131,43.484902847339654],[11.148660673916778,43.4849369691587],[11.148696088994619,43.484946395021865],[11.148761439819733,43.48496353722859],[11.148822437519279,43.48500615966796],[11.149090591402368,43.48519161766468],[11.149424967805073,43.48544650997167],[11.149586257349897,43.48556958451227],[11.149707014503448,43.485735856948374],[11.149879006634466,43.48597285428797],[11.15005619143049,43.48621312656322],[11.150137621523157,43.486328792251214],[11.150353367939962,43.486626497984695],[11.150379854046786,43.48669158912879],[11.150397432065631,43.48673244349218],[11.150426173965842,43.48679924435553],[11.150446575759071,43.48683840505605],[11.150538368033486,43.487061488302515],[11.150595861125014,43.48722435359093],[11.150552358240763,43.48736771141015],[11.150546714652284,43.4874173025539],[11.150542829647813,43.48745128733018],[11.15053959197263,43.48747960903054],[11.1505357069296,43.487513592906595],[11.15053046502675,43.487559415529596],[11.150523159788943,43.487622606928205],[11.150519174121083,43.48765727519773],[11.15051894455247,43.48768523055918],[11.150518633655421,43.48772685188429],[11.15051702224315,43.48796631412041],[11.150516741602274,43.488016243742834],[11.150516526108037,43.488056093089234],[11.150516312990405,43.48809593968946],[11.15051611955034,43.48813052219536],[11.150519805006056,43.488169724587394],[11.15052242040322,43.48819766333188],[11.150534059404928,43.48832234657066],[11.150539760878493,43.488374725260435],[11.150543442206617,43.488408862992074],[11.150547084811725,43.488442641293034],[11.150551317330851,43.48848189011341],[11.150555558686555,43.48852121350012],[11.150559193905005,43.4885549226085],[11.150562296991843,43.488584440474895],[11.150566465368541,43.488622334502246],[11.150571311849557,43.48866727758672],[11.150576027444606,43.48871100669657],[11.1505804311642,43.48875187210778],[11.150583411002579,43.48877955458068],[11.150586393347801,43.4888072379066],[11.150592872820907,43.48886735167082],[11.150597296687165,43.48890843549784],[11.150600982511984,43.48894262806438],[11.1506052835812,43.48898251667269],[11.150610145304338,43.48902778270882],[11.150615114070657,43.48907369501631],[11.150618801155105,43.48910788755763],[11.150622333488311,43.48914064687682],[11.150626102578425,43.489175581602694],[11.150629139922144,43.48920373299788],[11.150632177205319,43.48923188259322],[11.1506352145557,43.489260033987854],[11.15063886349304,43.48929381306257],[11.150641935587425,43.48932221141225],[11.150646994578702,43.48934962155427],[11.150654306087922,43.489389169884866],[11.150660696316782,43.48942373744519],[11.150666020130394,43.48945254542169],[11.15067154761163,43.489482701061675],[11.150676671545847,43.489510163103056],[11.150682000351619,43.489538971884855],[11.150687327991019,43.48956778248901],[11.150692289801881,43.489594613700355],[11.15069891610022,43.48963043016818],[11.1507073241677,43.48967588787544],[11.150715733516936,43.48972134645804],[11.150724142816227,43.48976680323981],[11.15073044829494,43.489800896979155],[11.150735645765922,43.489829000516295],[11.150742558063698,43.48986632246485],[11.15074947281067,43.48990364346629],[11.150754912156549,43.48993333435279],[11.150771733044563,43.490023541951935],[11.150782541175326,43.490081875185886],[11.150788844139162,43.4901158960354],[11.15079668924504,43.49015824174897],[11.150804374782643,43.49019971527848],[11.150810854973747,43.49023472142709],[11.15081919145849,43.490279759983224],[11.15082544372721,43.49031353597519],[11.150830653983654,43.49034168338448],[11.150838006813057,43.49038151724558],[11.150845570943844,43.49041037308853],[11.15085225035215,43.490437125145085],[11.15085931885076,43.49046522227536],[11.150869830355369,43.490506730855046],[11.150880276212202,43.49054834061299],[11.150951788254625,43.49082907750585],[11.151013948345835,43.49107332888084],[11.151093846159977,43.49138933305676],[11.151107027507685,43.49144029865084],[11.151125835267997,43.491486263787365],[11.151136883642971,43.49151324152768],[11.151147934340273,43.49154021472109],[11.15116119619209,43.49157258289266],[11.151174552559556,43.491605174382784],[11.151190281190594,43.49164355309178],[11.15120825755999,43.49168741612776],[11.151222492295844,43.491722278087146],[11.151235962135031,43.49175503310647],[11.15124890008476,43.491786635722995],[11.1512600574797,43.491813894122544],[11.151275679522977,43.49185205422732],[11.151291300350904,43.49189021435258],[11.151306923862924,43.491928379827314],[11.15132242241228,43.49196622981171],[11.15133500571567,43.49199707195466],[11.151347922069158,43.49202879471793],[11.151358199844891,43.49205391771543],[11.15140513573941,43.492168643372885],[11.151510475865301,43.492425554232746],[11.15152161788722,43.49245272105252],[11.15153275377194,43.49247988888699],[11.151546665532123,43.49251337657263],[11.15156246027292,43.492552349141874],[11.15157812677821,43.49259098377275],[11.151592383756688,43.49262593710212],[11.151618996942592,43.4926906572367],[11.151635720940146,43.49274743295499],[11.151644413404004,43.492777568564705],[11.151652262072924,43.49280480457402],[11.151660108309468,43.49283204152887],[11.151667953349582,43.49285927940598],[11.151675798365243,43.492886516382484],[11.151686779874058,43.49292465393949],[11.15169978687727,43.49296988540532],[11.151712493744222,43.49301411767702],[11.151725296670088,43.49305872090279],[11.151735060918998,43.493092670215304],[11.151743120601349,43.49312072610725],[11.151752181208748,43.493151299571835],[11.151767698931423,43.493215819779664],[11.151775886427846,43.493249144185064],[11.15178407510599,43.49328246676664],[11.15179362988661,43.493321345186885],[11.151800455059172,43.493349114579814],[11.151807279034507,43.49337688489513],[11.15184058629973,43.49351270302004],[11.151852030575562,43.49355923074491],[11.151859007390108,43.49358618421987],[11.151869472640245,43.493627189334084],[11.151912650681124,43.49361893818962],[11.151983185144484,43.49360537102109],[11.15206906169024,43.49358574698013],[11.152106039752276,43.49368680451672],[11.15226420375363,43.494117803847],[11.15258327610093,43.49477318109207],[11.15263776656889,43.49488510322876],[11.15290287141568,43.49552073820559],[11.153110971439315,43.49601968308085],[11.153170959975037,43.496563263900185],[11.153196448880317,43.49679422425479],[11.153201811941422,43.49684798221793],[11.152976862130274,43.49781398450015],[11.152899717943901,43.498000759036124],[11.15268123276974,43.49853641249477],[11.152700352453786,43.498762645127805],[11.15270934285976,43.49886835155229],[11.15271208571233,43.49889944638677],[11.152722374843055,43.49902241144618],[11.152744694580942,43.49928597812248],[11.15310017916999,43.499891545483685],[11.153958299797631,43.50037058925845],[11.154011674977927,43.50039862557098],[11.154175841325108,43.50048804166052],[11.154313109601786,43.5005622076105],[11.154384958750539,43.50060103341168],[11.154456438328205,43.50063965544136],[11.154626700535518,43.50073165174829],[11.155101178221026,43.50120441285542],[11.155626942385917,43.50173459887664],[11.155681940310354,43.50179013158282],[11.1558196505269,43.50192918156394],[11.155989312741315,43.50217808913553],[11.156749400272671,43.503289233153254],[11.156850647670765,43.50344038874768],[11.15698273014153,43.503586420702995],[11.157147135202043,43.50376897652712],[11.157249870081083,43.50388304971525],[11.157321958315517,43.50396140547441],[11.157494583463025,43.504148425546965],[11.157543224691816,43.50421023873118],[11.157698212254122,43.504406019146536],[11.157740471410325,43.504459025316315],[11.158061029562242,43.504777124898254],[11.158458028285846,43.505156794056845],[11.158967402130585,43.505912502160655],[11.159140264543465,43.50638654843509],[11.159155727165933,43.50643271397997],[11.159186571662902,43.50652066256591],[11.159216177396527,43.50656377688047],[11.159263570163004,43.506632794436676],[11.159352255092784,43.50676275116058],[11.15961773699256,43.50715175383958],[11.160063405539455,43.507854637770826],[11.160443801832036,43.508468803464105],[11.160499696851259,43.50864904845108],[11.1606038673549,43.50898644679732],[11.160667868516061,43.5091937915741],[11.160853587953758,43.50963146988388],[11.160870325855067,43.50966717008558],[11.160970720736705,43.50963388769168],[11.161012438452401,43.50961975863198],[11.161067515135093,43.50960107846906],[11.1613225991922,43.50951455569054],[11.16247920852398,43.509339610645796],[11.16296165764579,43.50928696041299],[11.163141048435179,43.50926738328743],[11.163477136783383,43.5092306242426],[11.163585983354201,43.50921470843361],[11.163754781754282,43.509189661087845],[11.163866671200674,43.509173358757806],[11.16390378035611,43.50916779491193],[11.163948464912657,43.50916121333613],[11.16432295634597,43.50910597878922],[11.16438798596989,43.50909638890389],[11.165313232294363,43.50902483900013],[11.16597455286363,43.50918338149712],[11.165980445588163,43.50928246264014],[11.165985875729747,43.50937373082445],[11.166005584836444,43.50970501656343],[11.166007674671166,43.509768719455096],[11.165966709322644,43.509948005267496],[11.165921885446915,43.510144171841965],[11.16584397111625,43.51048419116929],[11.165826743761597,43.51056502367073],[11.166273380483434,43.51131163259141],[11.166798406960806,43.51161825358746],[11.167094677974456,43.511791275111456],[11.168160347223425,43.512185240430185],[11.168938022754954,43.51282776617406],[11.169747858055352,43.51367676465818],[11.169850518499137,43.51376199976841],[11.170296576251316,43.51414354975664],[11.171055803348587,43.51461533730251],[11.171808586781845,43.51490716625529],[11.172183537192284,43.515039559838876],[11.172510306757266,43.51515494036271],[11.17283811175351,43.51518832396825],[11.172957333151318,43.5152004644105],[11.173478302891787,43.51489343075536],[11.174125405006901,43.51499817253554],[11.174628137159837,43.51547727524462],[11.17472750128129,43.5155719660499],[11.175347545913624,43.515956335764734],[11.175400749357125,43.51533491356859],[11.175408544151209,43.515243870518304],[11.175543323982094,43.51486314252822],[11.176287648172679,43.51526314827637],[11.176877471790966,43.51549501836714],[11.177469888144657,43.51579886832678],[11.177943146715426,43.516573184017595],[11.178405671768278,43.517392724559706],[11.178945419972656,43.5176075313683],[11.179640992917786,43.51802645230021],[11.18042793993487,43.51892082823964],[11.180848561691077,43.519606100011984],[11.18136713587226,43.520262486974914],[11.181992786780022,43.520799778883195],[11.18225625880696,43.521075492212574],[11.182584273676072,43.52141875234189],[11.182957102241353,43.52214994743722],[11.18347020268483,43.522653364255575],[11.183977923503832,43.52267005411207],[11.184120583191541,43.52267470107323],[11.184411201688357,43.5225109099073],[11.184518290628322,43.52245049776232],[11.184620811552,43.522392773169834],[11.184769358143365,43.5223088991197],[11.184927015618813,43.52222034873087],[11.184975385587554,43.52215885370157],[11.185031077425265,43.52208812200324],[11.185459388625253,43.52154388385518],[11.185999889514635,43.52075021183105],[11.186186119943494,43.52053638005031],[11.18626696106788,43.52044355633394],[11.186332593301517,43.52036841639077],[11.186376775374486,43.52031762820129],[11.186547160525583,43.520121188401404],[11.186581170545882,43.52008129590884],[11.186723556974604,43.51987304986175],[11.187016743119662,43.519443206375044],[11.187132640293825,43.51909466429567],[11.187154291240237,43.519028782429835],[11.1871797205174,43.51895258718862],[11.187235681265015,43.51878399822503],[11.187284544716373,43.51863673849797],[11.187754671188406,43.51760589537868],[11.18777749572962,43.51755584322378],[11.18816063509822,43.51687405019984],[11.188113108917456,43.51650908838848],[11.18809887404079,43.516401097740285],[11.188085530808392,43.51629987087296],[11.188074124729303,43.51622727901311],[11.18771653655131,43.51550581975632],[11.187769996782404,43.51530493081418],[11.187778756793701,43.51526838905709],[11.187791779031095,43.515225002856575],[11.187899821028648,43.515242947543584],[11.18875066065087,43.515385288590736],[11.18951915277912,43.51576673712942],[11.190141886703195,43.51588085881439],[11.191105930529314,43.516195522322406],[11.192038758313577,43.51667284522027],[11.192521872969069,43.516992039061726],[11.192926059608132,43.517259080187095],[11.193307757888434,43.51758088742276],[11.193615226542963,43.51784010840523],[11.194049485870147,43.518210466303714],[11.194100385676833,43.51825397567349],[11.194274249769837,43.518359644432095],[11.194631745455576,43.51857691444194],[11.195184613052438,43.519151546417326],[11.195317910754902,43.519147445351805],[11.195378313293212,43.51914558633346],[11.195963231360503,43.51912758483988],[11.19633008457428,43.51909352338058],[11.19644368344636,43.51908237134437],[11.196424899489834,43.51890247930674],[11.196412345829977,43.518785058264264],[11.196369739035056,43.51838650827671],[11.196477129396174,43.51760876022179],[11.196473336840418,43.517573293737925],[11.196432309928216,43.51725531733801],[11.196408074508144,43.51706615873798],[11.196334127239597,43.516977692852215],[11.195958638163395,43.51652955404046],[11.195933711807724,43.51649978882186],[11.195898918956951,43.516457519447485],[11.195800212678977,43.51633952426087],[11.195447721369105,43.51582445146617],[11.195465481866462,43.51546807983417],[11.195475223696608,43.515291699402596],[11.195476682800058,43.51526527636892],[11.195158788193135,43.51502827964728],[11.194438452293722,43.51495207516921],[11.193698695976993,43.51468737888629],[11.193314381787635,43.51446056038188],[11.19309210423261,43.51432964201178],[11.192894595438345,43.514000289416856],[11.192789550713172,43.513806768494334],[11.192774870935565,43.51377522757708],[11.192629081901101,43.513501168381836],[11.19256928634959,43.513449748856516],[11.192510168636232,43.51339900599601],[11.192055021151287,43.513007964335465],[11.191901256020195,43.51287585642321],[11.191872073348167,43.51286005598473],[11.191736414260022,43.51278660243179],[11.191370755912615,43.5125880375857],[11.191239029613328,43.51246034128887],[11.190935296293915,43.5121650659066],[11.190927019873882,43.51212921065401],[11.190824043929439,43.511683078041806],[11.19077490247812,43.511470173112734],[11.190829726418558,43.51123068906619],[11.19088031177085,43.51101756601491],[11.190843290521643,43.51084700833701],[11.190734182589823,43.5103681494584],[11.190414114305073,43.51016990953828],[11.190240655071952,43.51006247388161],[11.19009265231913,43.50989423728433],[11.189901184118066,43.509676589619616],[11.189828849742076,43.50959436331791],[11.189871208267567,43.509446834379474],[11.189892171567323,43.50937483070898],[11.18991515688229,43.509299425319256],[11.189158941840152,43.50854353930251],[11.189084759156078,43.508106616265856],[11.189064600028372,43.507987106892344],[11.189047886189186,43.50788008570952],[11.189015844585846,43.50766461667024],[11.188968571258215,43.50735323409206],[11.188948173005716,43.5072187124974],[11.18893603617253,43.50713843445259],[11.188885659937064,43.50681106892856],[11.188881647260796,43.50677093869868],[11.188836831949995,43.50631651289987],[11.188808393242494,43.506030520726085],[11.188810382170065,43.505969091079],[11.18882714253682,43.505532382473504],[11.188823227323011,43.505504012212974],[11.18879167399541,43.50488600083848],[11.18848784828994,43.50469373435611],[11.188447226374382,43.504676133379974],[11.188352132291056,43.50463409337997],[11.188035364631551,43.504495310193036],[11.187800841355562,43.50382450972979],[11.187798683799873,43.503673825942506],[11.187792573995008,43.50325745744175],[11.187588220714902,43.50296923356269],[11.187440774182054,43.502759940873496],[11.186933665596266,43.50241849464578],[11.186610839631976,43.50200977164759],[11.186695264641381,43.501639719417945],[11.186849557244239,43.50144524155892],[11.186990957423244,43.50126490238462],[11.187006491578346,43.501223380557974],[11.187031024098527,43.50115780897044],[11.18710961584561,43.50094704698527],[11.187123496063464,43.5009073053587],[11.186565839847804,43.50050770747294],[11.186475048158206,43.50044380660602],[11.185943131631245,43.50006942576759],[11.185840479896564,43.499997175872004],[11.18579368176473,43.49996423767973],[11.185207141797438,43.49963493906093],[11.184707972463055,43.49935472613002],[11.18457889231602,43.49931240609122],[11.184236627870273,43.49920021278981],[11.183644052985514,43.499005900575305],[11.182438671457595,43.498506700239936],[11.182077340469998,43.49833243292879],[11.181972047975265,43.498279366937396],[11.181469121697132,43.49802999777108],[11.181048024628165,43.49770193693651],[11.180871030573309,43.49756420636571],[11.180594750081113,43.49727653175971],[11.18036988435653,43.49704253950111],[11.179689235314111,43.496344216671666],[11.179020480517933,43.49567814017164],[11.178855433158434,43.49551375112481],[11.17799725878474,43.49469274775522],[11.177479597499076,43.49405433204032],[11.177242646921597,43.493311523067185],[11.176850206852244,43.49258727275308],[11.176794394036994,43.49248430403329],[11.17677904246349,43.49245598183572],[11.17648492868725,43.49218696508944],[11.176264643952226,43.49198465673539],[11.17606433234267,43.49180069050087],[11.175960706320234,43.49170623375093],[11.175922232081572,43.49167095130698],[11.175656337623623,43.49147843662232],[11.174881035622075,43.49091643502415],[11.174666847319426,43.49058666625304],[11.17463861399778,43.4905434117828],[11.174436160239868,43.49023188460728],[11.174439325891075,43.49016199953325],[11.174441992026425,43.49010345365093],[11.174457226889057,43.4897900085954],[11.175045018896176,43.48928360939661],[11.175200807424547,43.48907953821785],[11.1753084926524,43.48893806316149],[11.175470206871664,43.48872627947588],[11.175561106656987,43.48849425744973],[11.175651458575135,43.48826363058403],[11.175741550619732,43.48830396496627],[11.175791301477643,43.48831701901851],[11.175815604415659,43.48833702957081],[11.176367822494608,43.488583193192476],[11.176489185229682,43.48862182491821],[11.176676526388334,43.4886815487076],[11.177593794386386,43.48897396318393],[11.177909802359553,43.48905470488975],[11.17803007372182,43.489085456589294],[11.178389176412361,43.4891771798966],[11.178480520685433,43.48920052386748],[11.179266290383216,43.48940128220957],[11.180007146417243,43.48955931985355],[11.180699468978384,43.489707088602316],[11.182050366635547,43.49013149942977],[11.183192522946836,43.49025374894182],[11.184366566899179,43.49023131598464],[11.185516843699634,43.49057848424192],[11.186679509136411,43.49058325605628],[11.18779982610535,43.4904443995807],[11.187986097280193,43.490415477654516],[11.188718461224362,43.49030100115196],[11.188814939222162,43.49028554850818],[11.189041131230852,43.49024950711607],[11.189196320768222,43.4902140888172],[11.18925160390438,43.49020119595827],[11.189477450839204,43.49014840214241],[11.18975078828482,43.490085189803665],[11.18981195340326,43.49007036067451],[11.189855983288409,43.49005992242265],[11.19001079954386,43.49002450206647],[11.1904178542269,43.48976166779836],[11.190539800601803,43.48968301119718],[11.190699744631514,43.48958382372252],[11.19076083340378,43.48953862068894],[11.190807611975362,43.489358661341235],[11.190901166298248,43.48899875433477],[11.191140518123754,43.488778072503],[11.191815733685596,43.4884857081513],[11.191944359952071,43.48843125424425],[11.192014636068704,43.488400401324604],[11.192565237356105,43.48816549524206],[11.193064403486126,43.48789482201826],[11.193098886274985,43.48787613620361],[11.193220184073336,43.48781078082705],[11.194129471844738,43.48799141329881],[11.194250799047904,43.48806224928327],[11.19430554270287,43.488092523023965],[11.194581961106616,43.48825347642142],[11.19467893250246,43.48830950530387],[11.194787009110465,43.48837303993707],[11.195047104796862,43.488519005222926],[11.195076844980575,43.48854046671825],[11.195163757398218,43.48855005236824],[11.195523686268634,43.48858590652986],[11.195680034974133,43.48799071965661],[11.195751897686513,43.48771714929823],[11.196119922301408,43.48746472290167],[11.196213352685742,43.487400476083856],[11.196365958851676,43.48729554298991],[11.196395744746996,43.48727474137338],[11.196444688651228,43.487241388306856],[11.196500138454034,43.487207558129455],[11.196854094960049,43.486993664767624],[11.19693976015689,43.48694182821011],[11.197168119084512,43.486803697087396],[11.197238291740916,43.48676118191265],[11.197410739595934,43.486577781797735],[11.197738378397801,43.4862293412562],[11.198568235060359,43.48592525547474],[11.199578871268173,43.48549163001048],[11.200102988029649,43.484941308559385],[11.200587409864328,43.484319717275405],[11.200683125610935,43.48415413539218],[11.201029523119024,43.483554877060435],[11.201058646783778,43.483424054921244],[11.201103139864873,43.48322478396003],[11.201146491961572,43.48303039799266],[11.201239994880975,43.482909928487395],[11.201465413669057,43.48261908047837],[11.201827554354786,43.48243959463593],[11.20197556620248,43.482366147459196],[11.202678839670755,43.481983435734406],[11.203271202193989,43.481653340394914],[11.203673883681423,43.481428942307126],[11.204084705222598,43.481200004487285],[11.205227663614584,43.48070834234225],[11.205509113171868,43.48058727258328],[11.205804357598645,43.48054533377716],[11.2060042389228,43.48051694008069],[11.206123074820034,43.48050042721234],[11.206297770292627,43.480476127046664],[11.206404109631917,43.48046133627557],[11.206565173571471,43.48043893308053],[11.206850041599747,43.480399316841904],[11.207145643044493,43.480389503736085],[11.207411757909053,43.48038057901572],[11.207947267454637,43.480362991196706],[11.208146781638172,43.48035626168809],[11.209301298318332,43.48048466199172],[11.209388299821272,43.48049433776812],[11.210301128419527,43.480773816048234],[11.211170123291227,43.481207202464354],[11.21114269521041,43.48141532132069],[11.211121802559347,43.481577298966265],[11.211345651027877,43.481951130927364],[11.211946028827587,43.483155037965545],[11.212967093810672,43.48402665677444],[11.213517544371037,43.48433823447994],[11.214242425871689,43.484749277928515],[11.214627462142845,43.48496926207022],[11.214909798756523,43.48513059359672],[11.215115429667243,43.48524805279201],[11.215568531735721,43.485506914446916],[11.217038797866193,43.48640772462917],[11.217149940068136,43.48647554821786],[11.217914605678303,43.48699784962494],[11.218329314448562,43.48728153354413],[11.218404503131383,43.48732496782862],[11.218471774192027,43.48736409159321],[11.21944931692337,43.48792447064051],[11.21961773412231,43.488021464313924],[11.220836211334403,43.48853802520699],[11.221829117433321,43.48863577727953],[11.22208837111838,43.48863654447961],[11.222424552135903,43.48863719640622],[11.223436939626016,43.488640523791034],[11.22502368161793,43.48874470061468],[11.226658536745502,43.48881190309799],[11.228330684359598,43.489220501502416],[11.229095186300698,43.4894959676192],[11.229519242369252,43.489648422683665],[11.229634106765259,43.489690292187824],[11.230588443794435,43.490418991281636],[11.232078789995802,43.491623108360464],[11.233249958919606,43.492167786999126],[11.234634346335282,43.4924828737033],[11.235731514681545,43.492722527195674],[11.236061137156526,43.492941175195746],[11.236068212334422,43.49304908315648],[11.236127988915964,43.49391453562177],[11.236141057904764,43.49410110895542],[11.236319869208389,43.49428330470395],[11.236353091217028,43.49431826879992],[11.237143918115317,43.495134935103664],[11.237967193666675,43.49565904734803],[11.238285942470212,43.49577228553237],[11.238477690353543,43.49584040480921],[11.238561101341617,43.49587003630155],[11.238831939775373,43.49596625033225],[11.239109765626782,43.49599323781814],[11.239911834035663,43.49607114361208],[11.241187482409,43.49611816530151],[11.242389976386434,43.49619361901842],[11.24332957073747,43.49651732618908],[11.24365721517616,43.49701511008005],[11.24390413519991,43.49735161754925],[11.244373651525523,43.4979914680099],[11.245150609366378,43.498264330243444],[11.245978347243192,43.498572204940636],[11.246051033355462,43.49871772959646],[11.246069615440016,43.49875493239594],[11.246086071921043,43.49878788119264],[11.246205478579647,43.49902693873585],[11.24578388685279,43.49966549376334],[11.245506825000689,43.49995216662449],[11.245479659734164,43.4999802713044],[11.245454359951689,43.50000644849994],[11.24536697380823,43.500096866723744],[11.245686980299098,43.50038770597312],[11.246699397196274,43.500529910609096],[11.24691082749569,43.50055938000049],[11.247089052868906,43.500584838755216],[11.247138656385966,43.5005917022452],[11.247179960932794,43.50059775017028],[11.247217160874861,43.50060264975493],[11.247266771967116,43.500609583270816],[11.248133320635404,43.500731277315346],[11.247949839297327,43.501036515340274],[11.247535270499336,43.50153087748709],[11.24723460916278,43.50209502883287],[11.246996959119558,43.5024464481891],[11.246969780417825,43.50248660162972],[11.246932704767124,43.502541653056504],[11.246882830061526,43.50261516474433],[11.246335568496834,43.50304860311216],[11.246101767466662,43.50323377660672],[11.245356101701132,43.503806668043616],[11.244473098861812,43.50467937955119],[11.24385867905247,43.505456771872986],[11.243707296992424,43.50604499440911],[11.243710064704349,43.50646070420709],[11.243711236309421,43.50659319730116],[11.243714250534689,43.5069002231145],[11.243689179868756,43.50735227718749],[11.243680756033344,43.50750413879673],[11.243669758085781,43.50770243912747],[11.243649555077402,43.507929278010145],[11.24364731080444,43.507954774346935],[11.243635309577538,43.5080947606741],[11.243616927943366,43.50827972257426],[11.243662210428814,43.5082707705655],[11.24427623116357,43.508149383168615],[11.24447656458634,43.50810977714487],[11.244889448451866,43.50800602699001],[11.245215095116995,43.50792419674102],[11.245502259721862,43.50785203556865],[11.245837008637148,43.50776791598279],[11.24611392401334,43.50766714485008],[11.24672456905599,43.507444920842495],[11.246935511587171,43.50736816066498],[11.247337060170542,43.5072925474812],[11.247948332327004,43.50717742691516],[11.247995358675844,43.50716850461607],[11.248323653728146,43.50710675967988],[11.249545412108095,43.50702869360504],[11.25035691832313,43.5072288092375],[11.251509899089134,43.50796242258854],[11.25234648041004,43.50817103300888],[11.253180054920545,43.508298663129814],[11.253315056062895,43.50860213177371],[11.253390448860408,43.50899404063151],[11.253453100912969,43.509319716646424],[11.253614191880319,43.50986898866948],[11.25363781211785,43.50994619603294],[11.253673623111881,43.510011781140626],[11.253888143562953,43.510399189194004],[11.254061634562158,43.51071231435694],[11.254153952863847,43.5108289624222],[11.254188436033548,43.51087251306587],[11.254214853773757,43.51090594482567],[11.254580910245997,43.51136835512508],[11.254898411452018,43.511786866587514],[11.254928162750403,43.51182736980027],[11.255219424465961,43.51221228495857],[11.256194533350689,43.51284015078471],[11.256715462420223,43.51306666074221],[11.256748936684295,43.51308113979033],[11.25679022999021,43.513099140716264],[11.256822367382208,43.51311306809199],[11.256872737515954,43.51313510986996],[11.257125117054175,43.513244955025506],[11.257966545096837,43.513912623768206],[11.258506922814316,43.51446918722419],[11.258736752254963,43.51475100690825],[11.258775929376075,43.514799280442325],[11.258817780883936,43.514850656970324],[11.259077409169077,43.51516921353611],[11.25950889250023,43.515790951966714],[11.260138476051498,43.51634956225405],[11.26017464851257,43.516381292421165],[11.260260573630665,43.51648146765488],[11.260362297838787,43.51659984595403],[11.26039029397435,43.516632345534276],[11.26082099624942,43.51713358336315],[11.261317018485357,43.51782606730175],[11.26201378934978,43.518586530277176],[11.262039854058063,43.51861401378124],[11.262631402670834,43.51923146046695],[11.262695224834125,43.5192839906137],[11.262788055199554,43.519360111011466],[11.262904895823988,43.519456757485955],[11.262950386209944,43.519494085445544],[11.263423005706578,43.51988226665177],[11.26389973982104,43.520137106703665],[11.264382513254365,43.52039448393078],[11.264569365742107,43.52045205110709],[11.264621142602307,43.52046763276575],[11.26467898081896,43.520485058932785],[11.264753845974026,43.52050804608864],[11.264828066766281,43.52053120443394],[11.264885199623937,43.520548195180744],[11.26493841923275,43.520564269426814],[11.264974184642837,43.52057506935382],[11.265144701171534,43.520627590333376],[11.265184094117036,43.52063914124846],[11.265240068209426,43.52067785957282],[11.265805565990293,43.5210595716296],[11.266630117237504,43.521601457207794],[11.266749503928684,43.52170464814554],[11.266981304292209,43.521905167771],[11.26700415339415,43.52192492824322],[11.267078002519382,43.521987967123636],[11.267243818898743,43.5221295123252],[11.267738270952647,43.522776980195665],[11.268247796410524,43.52349617687321],[11.268673818768102,43.52429806391398],[11.268826141499977,43.52506036403357],[11.26882144277803,43.5251352328017],[11.26878918560813,43.525660186648125],[11.268772313036957,43.52593480340664],[11.268876075028963,43.52639193793696],[11.269315383126862,43.52688742903127],[11.269815174896634,43.52734570062158],[11.270302608927578,43.527804216382286],[11.270992964123517,43.52839375405675],[11.271517696108004,43.52878117418014],[11.27170569671114,43.52891981547264],[11.271840226732436,43.5290445604128],[11.271885672628006,43.52908665226954],[11.271930203256465,43.52912793124587],[11.271990966959956,43.529184258895036],[11.272354726200794,43.52972625757589],[11.272392366311468,43.529923309042644],[11.272462240497102,43.53028235567292],[11.272443831600771,43.530345748895265],[11.27241761201064,43.53043603895144],[11.27240422349268,43.53048216553976],[11.272265002755619,43.530961564077806],[11.27208147875365,43.5316765140333],[11.271866596185264,43.53254515114916],[11.271625083997632,43.53369343544038],[11.271591358873357,43.53385916846616],[11.271544555880844,43.53408797426402],[11.271538126599802,43.534121159787],[11.271514533678248,43.5342370107007],[11.2714930795988,43.53434235839288],[11.271395252177308,43.534823480036806],[11.271259677158778,43.53547459490479],[11.271172209993074,43.53556975657646],[11.271088448181935,43.53566192368522],[11.271064191679358,43.5356885800053],[11.27053381635647,43.53627220301991],[11.27000790089386,43.53676885659759],[11.269882102768934,43.537029702585436],[11.269766765840759,43.53726885741029],[11.26954946991529,43.53807451130856],[11.269278830706282,43.53879111329129],[11.269228816563619,43.53895715007106],[11.269140842927305,43.53924512724767],[11.269087962324065,43.53941801249234],[11.26902277707822,43.53963469643622],[11.26901492149829,43.53966079345729],[11.26895769419636,43.53986701892258],[11.268807599703672,43.54040321878708],[11.268732273436434,43.5406992235514],[11.26860264697215,43.54120862279907],[11.268564177299352,43.54136568369914],[11.268540877417983,43.54146075435685],[11.26839870307129,43.5420410206285],[11.268284589565335,43.542628532441874],[11.268262454005042,43.54335827845483],[11.26850140961304,43.54411885713574],[11.268959972019502,43.544794041216164],[11.26910016025244,43.54498703039],[11.269174855192551,43.54509060332409],[11.269455987158265,43.54547748253031],[11.269589331123905,43.5458330141152],[11.269110120074158,43.54582649568789],[11.26877113159548,43.54580354244582],[11.268572622653187,43.54579010146088],[11.268390355748545,43.54577775943061],[11.26811423269601,43.54573822094285],[11.26795088776926,43.54571483127133],[11.267506757468297,43.54565123400451],[11.267329053888847,43.545636781064026],[11.266826493242306,43.54559589929602],[11.266438980945836,43.545564374677994],[11.26587338637613,43.545737063403756],[11.265723161791094,43.54578293549786],[11.265619022484486,43.54581473006843],[11.26556924764086,43.54582998081433],[11.265482545751647,43.545856463021366],[11.265398739261506,43.545882124236385],[11.26507933786006,43.54611008388209],[11.264891857855146,43.5462436904295],[11.264869417929384,43.54631472634503],[11.264809728601596,43.54648856106223],[11.264758859331678,43.5466390513115],[11.264735728349402,43.546707673452445],[11.264703004745034,43.54680529804668],[11.264649167646391,43.546822139745146],[11.264372658795642,43.54690863498922],[11.264283204462549,43.546937070640084],[11.26414112890236,43.54698223355054],[11.264002615332506,43.54702626325888],[11.263883389470298,43.54706462992983],[11.262865958827144,43.54667061849123],[11.261989592497692,43.546075711796135],[11.261946720535153,43.54605964485462],[11.261831307903204,43.54601625177671],[11.2617692252196,43.5459929486364],[11.261643964269894,43.54594590564035],[11.261010337789154,43.54570793150817],[11.260402590268054,43.545997361806286],[11.260280640032716,43.54605550697171],[11.260232003573098,43.54608217858586],[11.260073792942306,43.546168932879254],[11.25997664319577,43.546222237459006],[11.259916547090608,43.546255215879754],[11.259871040768946,43.546280164225344],[11.259480081544169,43.54649451659162],[11.258893025582784,43.5469457595014],[11.258819681065544,43.54700223999382],[11.258740122339297,43.54706329207621],[11.258707478766414,43.54708830715089],[11.258659430740007,43.54712500486813],[11.258581203466544,43.547185290405544],[11.258498206853144,43.547249295103796],[11.258471912533286,43.54726961696687],[11.258424781023585,43.54730573913236],[11.258397465832948,43.54732656916307],[11.258361021430519,43.54735727586199],[11.25831428588666,43.5473965126953],[11.258268665204309,43.54743500987007],[11.25820434663216,43.54748961707005],[11.258131844429988,43.54755118476223],[11.25809964780188,43.54757853543579],[11.258072703274795,43.54760134161452],[11.258018730384759,43.54764679894219],[11.257964232938187,43.54769276362208],[11.257900880539166,43.54774604329852],[11.257821841881178,43.547813182777084],[11.2577680587958,43.54785876048875],[11.257689142397316,43.547925502189955],[11.257383431639177,43.548026081249226],[11.256845656686588,43.548203380863576],[11.256100118422824,43.54841757022188],[11.255887031340414,43.54847880920888],[11.255885869174007,43.54856380878173],[11.25588474802719,43.54865007348645],[11.25588437426899,43.548681193702585],[11.255881330986728,43.548906601480205],[11.255983353260794,43.54912494517698],[11.256130862881061,43.549439943030485],[11.256177304528887,43.54954002690381],[11.25669298012923,43.550421219219736],[11.256835325167506,43.55057165554257],[11.257479134425058,43.55125204680095],[11.257986442517138,43.55190830280942],[11.258298588050149,43.55297358509427],[11.258689273745514,43.55382122241593],[11.259296591517083,43.55450250792782],[11.259372665779773,43.55460749328351],[11.25974041051756,43.55511499260015],[11.259772627841286,43.555645578129536],[11.259678410120136,43.55597279175165],[11.259591941376435,43.556272678442234],[11.259498668108606,43.55659639232675],[11.259756596500802,43.557203549198064],[11.259959325617388,43.55765873171529],[11.260059125385917,43.55834104484075],[11.260263435179606,43.5587914432363],[11.260423446975288,43.559144178524626],[11.260779649394427,43.56006401370499],[11.260808851812548,43.56011888702348],[11.261165871194228,43.560795113840435],[11.261246129966587,43.560946663928554],[11.261282863526558,43.561043919534924],[11.261555381404069,43.56176547587814],[11.26158955495957,43.56185702678216],[11.26161598326314,43.56192712264893],[11.261630753777602,43.56196554412868],[11.262109349973288,43.562838376946054],[11.26229251528009,43.563762139016376],[11.262303113875602,43.56404786405642],[11.262329908064535,43.56476081652745],[11.262476610931328,43.565424916183034],[11.262494300317314,43.56550487295394],[11.2625835860162,43.56557858516978],[11.263017780935204,43.5659356923756],[11.264410992132653,43.566106175316506],[11.265503543895434,43.56618356115963],[11.26606674818923,43.56634346485257],[11.266228162763388,43.56652033863283],[11.26667360543856,43.56700671087049],[11.267097599996253,43.56758129329972],[11.26742935294392,43.56803426463454],[11.267450735230856,43.568063254063546],[11.267487092713043,43.568112846024455],[11.267534820675492,43.568178121209954],[11.267942564948777,43.56749474748375],[11.26825401529846,43.56688531346616],[11.268603466803052,43.5659689956254],[11.268867483706433,43.566404938002826],[11.26930743545442,43.566909415712296],[11.26977383048513,43.5674583855795],[11.270164979397352,43.567981836902234],[11.27067237097618,43.568962168663994],[11.270754660355903,43.56923364116042],[11.270786873353192,43.56933990797103],[11.270814642951704,43.56943173359539],[11.27082826472771,43.56947654506105],[11.27094095432517,43.569848203905515],[11.270904929207214,43.570866344094355],[11.270750384839985,43.57147236993688],[11.27073818696492,43.57152112493826],[11.270728717223578,43.571557757899356],[11.27063514374205,43.57192514378201],[11.270305707680803,43.57271501585315],[11.269897097020062,43.57335216208527],[11.269875565896722,43.57338576617212],[11.269814378638422,43.573481092249246],[11.269767515981824,43.57421132637385],[11.27021125324483,43.57481476671119],[11.271027265918638,43.57543781765137],[11.271141686893815,43.575516577014234],[11.271303697978025,43.575625903695155],[11.271353833976185,43.575659827549046],[11.27186601542352,43.57600638770792],[11.27212614030114,43.57630289308447],[11.27237064980153,43.57658159720337],[11.27293088925566,43.57731776525484],[11.273214431034496,43.57802342095795],[11.273244985434296,43.57809484273496],[11.273242460668326,43.57869882563236],[11.273180867816695,43.57895147344621],[11.273157059102987,43.579048353616905],[11.273134045954556,43.57914370081262],[11.273117133733376,43.57921479911838],[11.27304996305373,43.579494302730424],[11.272898887463505,43.57969255015611],[11.272654586861416,43.580013128870945],[11.272542514824993,43.58016166885373],[11.272527405391532,43.580190222410415],[11.272481942899272,43.5802799221457],[11.272126769455916,43.58096226554874],[11.271536728165264,43.58173931510571],[11.27077644720231,43.582600777252665],[11.27031986168616,43.583067687240515],[11.270282352167722,43.583106562723856],[11.269980349299926,43.583416934534455],[11.269893985909693,43.5835056818735],[11.269846712043613,43.583555861878544],[11.26970310226912,43.58368437976313],[11.269538395293589,43.58383275301493],[11.269304127046343,43.58404361455582],[11.269096272942432,43.58436287285656],[11.269045466695584,43.584535243118665],[11.268983258979583,43.584742661077335],[11.268953454029718,43.58484293495837],[11.268940715414479,43.5848875838764],[11.26892905800488,43.584926989115715],[11.268846393397938,43.58521193439579],[11.26874517504081,43.58556734082088],[11.268286802907125,43.58622471031993],[11.268260076918443,43.586304152002725],[11.267997293316467,43.58708484153365],[11.267920649963513,43.5871882137842],[11.267876555022706,43.58724686636844],[11.267441891549366,43.58782756621302],[11.267415677713382,43.58786260966758],[11.267379726583572,43.58791061822813],[11.267312997805794,43.58799976450164],[11.266606579266197,43.5883199059102],[11.265547948116298,43.588579500034626],[11.265403690909643,43.58861387252225],[11.264990976060991,43.58864938603901],[11.263909689496264,43.588742524052364],[11.263637670182378,43.588801377700506],[11.263553208099367,43.58881966919461],[11.263473482241832,43.58883692140853],[11.262902125979585,43.58896056475345],[11.2625767498035,43.58912007170275],[11.262531176434727,43.58914348269369],[11.262196683299578,43.589307670980645],[11.262018145247465,43.589468881859766],[11.261979968629047,43.58950335593959],[11.261944234855838,43.589535618035775],[11.261615564548174,43.589832387404],[11.261513723066207,43.58992444108087],[11.261408050125626,43.590079596212796],[11.26135538133332,43.59016167187395],[11.260997393153174,43.59069097290291],[11.260817858355136,43.59149191720564],[11.260774514339555,43.59168579286394],[11.260749462701185,43.59180351529627],[11.260713010182485,43.591974814403315],[11.260703758970193,43.59201827780296],[11.26069219939674,43.59207261033961],[11.260619139270803,43.59241591745539],[11.260614046217789,43.5924452805649],[11.260564007597022,43.592680367498275],[11.260377912828323,43.593334568009844],[11.260298587301747,43.59360899279215],[11.260279395506323,43.59367578354051],[11.260208139217522,43.593728062688854],[11.260121050181152,43.593791708019864],[11.259982317303558,43.59389168671749],[11.2599444045122,43.5939192813846],[11.259918824129617,43.59393804160917],[11.259881726830388,43.59396525007072],[11.25985447945046,43.593985214643794],[11.259820264523244,43.59401033032144],[11.259736065468099,43.59407213905248],[11.259556078951029,43.594204196947274],[11.259186002585322,43.59425626331353],[11.259174867418327,43.5942069634814],[11.259113332843512,43.59396958212729],[11.25898306682504,43.593467948372414],[11.258889201406152,43.593461702387636],[11.25846147206552,43.593433240751715],[11.25783128212813,43.59340103312426],[11.257443716069625,43.59338132259203],[11.256684505214546,43.59324237837568],[11.256483587765487,43.59320564270947],[11.256333591650193,43.59317815562157],[11.255856707891997,43.592930965690314],[11.25556301868573,43.592779197736505],[11.255035323955351,43.59224938936536],[11.254895015619354,43.59217812538528],[11.254828070183603,43.59214412272676],[11.254738434723048,43.59209859630123],[11.254403960437674,43.59192870951614],[11.254070394982131,43.591847204951215],[11.253966779818203,43.59182191871637],[11.253779805441923,43.59177613713228],[11.253577237487626,43.59172660116439],[11.252903757150094,43.59156213393076],[11.252119444828999,43.59129172680711],[11.251783865511959,43.59117505215615],[11.251598934201551,43.591110682490466],[11.2512466194574,43.590947122767446],[11.250576286731295,43.590635616925425],[11.250501894298614,43.59060104708648],[11.249857762607716,43.59028675019777],[11.2492780650012,43.590003886746835],[11.248363713192651,43.58940062421741],[11.247774769314168,43.58896817915068],[11.24759958881971,43.58883941849662],[11.246861908765183,43.588322704856274],[11.245988087153547,43.587808664191556],[11.245377970842856,43.58747189746982],[11.24532284741122,43.587441504214674],[11.24509019259272,43.587313095567424],[11.244222419005288,43.586960989240154],[11.243260983866252,43.58675477424277],[11.242655484544084,43.58653313392828],[11.242532618379453,43.58648773861536],[11.242444986179889,43.58645538164497],[11.24240832865131,43.586441929018356],[11.242268322917093,43.58639144947057],[11.242148914917928,43.58634830166426],[11.242047705985673,43.58631187094817],[11.241924881437455,43.586268172280434],[11.241452890286514,43.58609696824402],[11.240621619307989,43.585726110737625],[11.240026529714184,43.58537762802202],[11.23974187868013,43.58505006923869],[11.239595383475445,43.58477382493882],[11.239486021405193,43.58449685179195],[11.239462979994139,43.58404261508801],[11.238690320955442,43.583836983378106],[11.238218287499866,43.58371135390835],[11.237933655559251,43.58338379012366],[11.237294805281666,43.58285607540257],[11.236535865862319,43.582429748677896],[11.236126623581294,43.582248679399484],[11.236037835837788,43.58220960702492],[11.235893657048452,43.58214519310837],[11.235669412172916,43.58212925813264],[11.234900189387114,43.582074591419946],[11.234239397888524,43.58205849135587],[11.234075992444062,43.58205500626767],[11.233871258663338,43.582049691667244],[11.232782705231982,43.582422114034316],[11.232002280258893,43.58271197534717],[11.23186732138079,43.582762484712276],[11.23158494027158,43.5828680961096],[11.231540151471117,43.582890382776235],[11.231479974887508,43.582919923573975],[11.231135275210395,43.58308611751149],[11.231059653389993,43.583122844880414],[11.23095800418996,43.58317172499435],[11.230911021068154,43.583194372090134],[11.23067276029144,43.58330967503049],[11.230349770195843,43.58339579139178],[11.229736769145779,43.58355917627758],[11.229662414157318,43.58357899583654],[11.229397174466117,43.583649698082766],[11.229127235296655,43.58382371749869],[11.229051515004791,43.58387253128772],[11.228846886435774,43.58400444637996],[11.228792268744694,43.58403965598577],[11.228638950336807,43.58420087406217],[11.228479376291604,43.58436844097038],[11.22843465138897,43.58441581161708],[11.227970527035943,43.58470180045225],[11.227574703328182,43.584945764994856],[11.227192849479696,43.58489140242174],[11.226852503306555,43.584842793470834],[11.226667389944417,43.5848054207747],[11.226633223864027,43.58479854493403],[11.2265374041434,43.5847791539998],[11.226290877810007,43.584727684316654],[11.226134456577693,43.58475403812772],[11.225626151147683,43.58483967426658],[11.225282155200079,43.58486171627102],[11.224612864788066,43.58490442466179],[11.223522935806907,43.58529561255758],[11.223365944576582,43.585351869956476],[11.223245497997027,43.58535184724487],[11.222449347713876,43.58535169396546],[11.221873362111552,43.58518281943921],[11.221406991038345,43.58529993253278],[11.221264270731032,43.58527891883837],[11.220921290590747,43.58522833915032],[11.22040076880978,43.5855531409956],[11.219633282789475,43.58559570416997],[11.219107140344224,43.58555623363701],[11.218963521865577,43.585545490762414],[11.21788123728281,43.58575558151933],[11.217058456342713,43.58572397907221],[11.216956801771108,43.585720075432626],[11.21677208803831,43.58571299660463],[11.216735242597059,43.58571156576993],[11.216479595973233,43.58570174503619],[11.21548921925558,43.5853788084131],[11.215169045870384,43.58526115265919],[11.214534995668599,43.58502815195128],[11.213709479805367,43.58488609421042],[11.213500407103572,43.58485011510133],[11.212994073416981,43.58479087442869],[11.212642076926295,43.58474968958107],[11.212464642493796,43.58467936671793],[11.212313721804266,43.584619469011606],[11.211862810332864,43.58444064195126],[11.211642597820617,43.584286377506366],[11.211281222473708,43.584033222719825],[11.211041883056428,43.583934886242446],[11.210942423096922,43.58389401188218],[11.210873221204903,43.583865480608345],[11.210789365286619,43.58383095983861],[11.210701164233946,43.58379470879784],[11.210014692687363,43.58351242413544],[11.209869642682163,43.583452776992004],[11.209180033691075,43.58330427551085],[11.208296622664866,43.58311403333146],[11.207901622240291,43.58301226866991],[11.207789182906252,43.58298341843948],[11.207158791487835,43.58282088419912],[11.206946520505337,43.5827455207556],[11.20665122400424,43.58264067810771],[11.206581556227054,43.582615944728865],[11.20657952847886,43.582643598630696],[11.206576432942047,43.58268372274674],[11.206573207855016,43.58272640285014],[11.206548161300997,43.58305777542672],[11.206421971920161,43.58368149514666],[11.206393667657062,43.58371706655518],[11.206275094673309,43.58386440763298],[11.206215756427339,43.583938142150906],[11.206155127762221,43.58401347992192],[11.206020106974524,43.584181257331025],[11.205936550412423,43.58428509443801],[11.205921722681722,43.58432170662192],[11.20581157689258,43.58459363615784],[11.205716988691998,43.58478154409213],[11.20563666480802,43.584941565480854],[11.205592179780966,43.585030051161674],[11.20552349189933,43.585154184616094],[11.205479794611586,43.58523325055002],[11.205255248279162,43.585639805826375],[11.205224398457712,43.58568542121077],[11.205097712140244,43.585872755036775],[11.205060302801659,43.58592802030245],[11.204916469139228,43.58614073705588],[11.204761669667622,43.58636962988392],[11.204589336635024,43.5865929515587],[11.204567730250456,43.58662093181333],[11.204451468744338,43.58677160009229],[11.204323834876892,43.58693619235081],[11.204256085650925,43.58705186132247],[11.204217864509584,43.58711519498547],[11.204189308047663,43.587163004196064],[11.204124233413456,43.58727221347386],[11.204030766167172,43.58742918640443],[11.20386890291907,43.58770140017684],[11.203669414165395,43.58834451439929],[11.203519092921606,43.588602810246854],[11.203438650327886,43.58874113219632],[11.20336082575976,43.58887486477918],[11.203296988248413,43.58898462775525],[11.20314489826831,43.589245999587156],[11.202420995764935,43.59011531102271],[11.202213119274766,43.59035986079866],[11.202131402881902,43.59045572992643],[11.201969834079161,43.59064625708656],[11.20191756484001,43.59069906778087],[11.201706826406157,43.590912398801734],[11.201512480617703,43.59114955015055],[11.201481447870094,43.591186834986324],[11.201172210820976,43.591627592983556],[11.201116427864457,43.59170709978635],[11.200712271885793,43.59217407529769],[11.200478733618406,43.59253219323901],[11.20041430178132,43.592630890409595],[11.200352494506824,43.592726080438894],[11.200278185767718,43.59283970966948],[11.200246470579554,43.59298433821414],[11.200162561082802,43.59336699451023],[11.20014623276095,43.59344144002593],[11.20012947439566,43.59351785304915],[11.200124155024435,43.593545454025325],[11.200066019516646,43.59381619804162],[11.200042887898302,43.5938877348358],[11.199899777478509,43.59433161044666],[11.199784691362934,43.59464301705467],[11.199769779181528,43.59468414003241],[11.199628470338476,43.595067137296084],[11.199556313076846,43.59531906102271],[11.199493301470314,43.59553905490393],[11.19944694766577,43.59570089391559],[11.199397675406344,43.595872912966804],[11.199394546171149,43.59592836736205],[11.199388910274843,43.596028245300545],[11.199381875577295,43.596152564901935],[11.199360038295836,43.596539914190394],[11.199313003683283,43.596603846161045],[11.19925011248492,43.596689331392255],[11.198977040783706,43.59706049894369],[11.198923286344325,43.59713356297829],[11.198653200154517,43.597283979844974],[11.198418533577863,43.597414696785144],[11.198304026725578,43.59747861726327],[11.198046587704491,43.597539324806554],[11.197517921149531,43.59766480923435],[11.197427426453114,43.59766741208315],[11.196808607987794,43.59768531516489],[11.196565103118191,43.59769241290064],[11.19619135058987,43.59775331271547],[11.195690564497447,43.59783499671783],[11.19557753670693,43.597899455985186],[11.195347458074599,43.598030667313644],[11.195265764398444,43.59807725585941],[11.19497325698252,43.598359340635355],[11.194924671952341,43.59840625365721],[11.194837509484682,43.59849012818398],[11.194751081102488,43.59857334567194]]]}}]}
