{"type":"FeatureCollection","metadata":{"code":"048013","referenceDate":"2026-01-01","sourceDbfExportDate":"2026-02-18","upstreamArchiveUrl":"https://www.istat.it/storage/cartografia/confini_amministrativi/non_generalizzati/2026/Limiti01012026.zip","sourceManifestSha256":"70ac8256c4785dc6ed2814c32b6965ae76f9161b51abaa1660059e1c6cbd8ca6","license":"https://creativecommons.org/licenses/by/4.0/","attribution":"Istat, Confini delle unità amministrative a fini statistici al 1° gennaio 2026, versione non generalizzata.","modifications":["Converted from WGS 84 / UTM zone 32N (EPSG:32632) to RFC 7946 WGS 84 geographic coordinates.","Converted from shapefile to per-municipality GeoJSON without geometry simplification."]},"features":[{"type":"Feature","id":"048013","properties":{"code":"048013","name":"Dicomano","alternativeName":null,"regionCode":"09","regionName":"Toscana","territorialUnitCode":"248","territorialUnitName":"Firenze"},"geometry":{"type":"Polygon","coordinates":[[[11.616567145632576,43.99878314303641],[11.61632996020598,43.99879115922539],[11.61626736961738,43.99879324790422],[11.61581154166857,43.99880839098299],[11.61556604361489,43.99888830717911],[11.614889334502182,43.999108610520196],[11.614588272352545,43.999306190062256],[11.614525196546746,43.99934757333431],[11.614498345164705,43.999365116827065],[11.614077067206791,43.99964038637739],[11.61384427205153,43.9997928806164],[11.613749743250894,43.99985495069793],[11.613671580972127,44.000080795481026],[11.613575430999472,44.00035861308873],[11.613398036362748,44.00095946562433],[11.613347455330478,44.00113134590325],[11.613442213523387,44.001655858892185],[11.613364724732428,44.001808433718395],[11.613249210163097,44.0020181494754],[11.61299366963485,44.00216354492555],[11.612576979250754,44.002402659704515],[11.611546855207475,44.002732329935135],[11.610690812077577,44.00312103386846],[11.610417320259339,44.00327401040384],[11.610142565288864,44.003428391741366],[11.610021164688206,44.00349637044716],[11.609075560888316,44.00409257698588],[11.608960968846597,44.00416486635679],[11.608746836520863,44.00429985551286],[11.60750107660846,44.00487595888998],[11.607108633589165,44.00505751980541],[11.605934453139415,44.00558849719357],[11.60575022304273,44.00562937421967],[11.60514292195077,44.00576388493848],[11.605091631788087,44.0057752215124],[11.604711464686508,44.0058595029963],[11.603849819720674,44.00612223901797],[11.603567924159425,44.006312599934915],[11.602856344015793,44.006793113485955],[11.60263627734156,44.006899339777],[11.602301094132974,44.00706154743372],[11.602165893596693,44.00712687293638],[11.601781387430323,44.00731278393307],[11.601240902764934,44.007383220797784],[11.600778967379867,44.0074430924067],[11.599498979950932,44.007319752334354],[11.59899027860132,44.007184782390475],[11.598651328680045,44.00709586054271],[11.59846412848727,44.007046182837605],[11.597178172456477,44.00673332961915],[11.596071590618113,44.006560769348745],[11.595414951577274,44.00649404615632],[11.594907758648018,44.0064428323541],[11.594856869439623,44.00642175641663],[11.594787207949642,44.00639300330116],[11.594487645069062,44.006269143809085],[11.594082084828528,44.00610146941186],[11.593729469828043,44.00587511737747],[11.593510222935853,44.00573437486295],[11.593371870599391,44.005645274376015],[11.593106955699268,44.0054753662622],[11.59236476734996,44.00476299816067],[11.591955765135161,44.00422105504619],[11.591636703251961,44.003798187839294],[11.590707335345371,44.00279292435901],[11.590107129111184,44.00218532717542],[11.58916894176933,44.001549378385725],[11.58853523435382,44.00074446344426],[11.588037844012264,44.000492397850444],[11.587974038244521,44.000460048788746],[11.588000603351624,44.000358428348115],[11.588011555494672,44.0003161938015],[11.588166468436036,43.999721967009336],[11.588249261694147,43.999705266616616],[11.588308196413871,43.99969335018237],[11.588876604052478,43.99957857710643],[11.588970103112079,43.9995596977776],[11.589124599771374,43.99948502907354],[11.589654156874525,43.999229077307525],[11.589973968334224,43.99890925316131],[11.590164427378863,43.99871867880255],[11.590335253679108,43.99854728781765],[11.590379547761327,43.998508313872485],[11.590402308470551,43.99848812647936],[11.590688518099896,43.99823388458437],[11.590866038107995,43.998076278748265],[11.590959792366148,43.99799304087577],[11.5913159531467,43.997579818337],[11.591505043514516,43.99705334702922],[11.59171211568949,43.996701220771335],[11.591728287463008,43.99667404043926],[11.59185359144799,43.996460458817296],[11.59186337683456,43.99643036864876],[11.591871982465973,43.996403486982494],[11.591882319220078,43.996376950456636],[11.59209641874377,43.995805434693075],[11.59214333876452,43.995679340575826],[11.59248414927771,43.99519448682028],[11.592497200970575,43.99515479076485],[11.59260639341494,43.99482269155614],[11.59262736372077,43.99475911030927],[11.592706621565952,43.994361149937156],[11.593356746238832,43.99411230529282],[11.593654494349733,43.993790433773555],[11.59362280562316,43.99327797567231],[11.593567006899328,43.99285609700287],[11.593981882975452,43.99236050450049],[11.594211077570243,43.99196816331137],[11.594319021326095,43.991638020993],[11.594333790026928,43.99159209871054],[11.594347731736654,43.991549719963],[11.59436508992671,43.99149648857553],[11.595276011919065,43.99122370080618],[11.595764136856987,43.99097852431373],[11.59603642611906,43.99076906912251],[11.59613817324792,43.99069092378686],[11.596325359832068,43.99042447511573],[11.596173407034387,43.990068920779684],[11.596067370595913,43.989639182197195],[11.596174232696635,43.98954060393386],[11.596330445363106,43.9893964907278],[11.596369414126727,43.989360231129176],[11.596458497660192,43.98927842914612],[11.596500655216026,43.9892397759705],[11.596536676189343,43.98920678307819],[11.596678927647277,43.98907640791607],[11.597150501065057,43.98874125034469],[11.597450557625004,43.988473334481924],[11.597808188712838,43.988096071499676],[11.597689976564148,43.98738751422077],[11.597329194688626,43.98654942763656],[11.597176761612213,43.98591367359986],[11.597072654859305,43.985525013896684],[11.596968018617218,43.98513515878905],[11.596952214804752,43.98504563213224],[11.596885733703724,43.984673360292796],[11.596923691278702,43.984114303464914],[11.596843228717164,43.98371964436888],[11.596824769595333,43.98366456036706],[11.59674249916829,43.98343075287371],[11.596659062312323,43.983192999627256],[11.596663380022184,43.98303187837274],[11.596676248643147,43.98255329540546],[11.596678211528744,43.98249086851567],[11.596679117587113,43.98246264359552],[11.596680027283272,43.982417292710736],[11.596683424264434,43.98225158544005],[11.596687950250182,43.98205861961873],[11.596694293092392,43.981787615070225],[11.596763095949264,43.98150695397446],[11.596886700264967,43.98098196105126],[11.597228171185044,43.98050581851515],[11.597216041661724,43.97995711709235],[11.596699279148835,43.97925762239663],[11.596133099084865,43.97856825293036],[11.59560432003648,43.97795005422693],[11.595091034263383,43.97704340105563],[11.59494326889201,43.97622747471788],[11.59500972502544,43.97567303347798],[11.595016594964047,43.9756135948409],[11.59502328942034,43.975527900539056],[11.595065114073602,43.975018285054816],[11.594813581092218,43.97468188202712],[11.594334034931956,43.97454872876405],[11.59325439867319,43.9746632840785],[11.59244484522789,43.974681667429834],[11.591459680943503,43.97438892011015],[11.590912324774052,43.973843146416264],[11.590201374842858,43.97354866753683],[11.589085497813132,43.973402915042875],[11.588138539014329,43.973365030455916],[11.587936561577813,43.97335693528803],[11.587364672322522,43.97339551186464],[11.587291959046357,43.973400433902654],[11.587220072684602,43.973405249827366],[11.586730824529248,43.973438274744225],[11.586017794382549,43.973382400147706],[11.585808890230297,43.97331672858702],[11.584842351039722,43.97301287658273],[11.583844014172355,43.97270235504009],[11.583171059385954,43.97242047725985],[11.582201549047456,43.97219932130187],[11.581417299624796,43.97193795625892],[11.580369570200075,43.971637523988214],[11.579719993225057,43.97131908460745],[11.579299269199021,43.97110351009662],[11.579229818374827,43.97108074853839],[11.578502592142554,43.9708424056343],[11.57817977673489,43.97041048803779],[11.578118844017752,43.97032888831861],[11.577977341721702,43.97008433787788],[11.577943705633178,43.97002673479518],[11.577516380898487,43.96980229943986],[11.577348358089877,43.96970497953681],[11.576490312082333,43.969208741389714],[11.57625278288138,43.96904750051376],[11.575334479147505,43.968424531448875],[11.574494287275671,43.967732229160895],[11.573576471291434,43.967118196567526],[11.57348015654287,43.96705284306981],[11.573208999341512,43.96689057460296],[11.572610026475349,43.96653226085061],[11.571765535784161,43.96622274768359],[11.571672765670279,43.966188745770246],[11.571619241842107,43.96613947909145],[11.571554303381864,43.966079869048066],[11.57151642569533,43.9660451737136],[11.571478368295882,43.96601012588564],[11.571127606431068,43.965687842682435],[11.570907139464971,43.96542870773684],[11.570710514392127,43.96519780362095],[11.570323333167712,43.96474261105597],[11.569372340590524,43.96407977413166],[11.568698413001323,43.96385895061268],[11.56806059936643,43.963650120719045],[11.567830229833545,43.96351401815803],[11.567738137104968,43.963459575763416],[11.567380126011358,43.963248139467325],[11.567165273105914,43.963121060846795],[11.567022936439217,43.96297754585609],[11.566969939676387,43.96292415243741],[11.566767297339355,43.96271984346092],[11.566712692594765,43.962664817765415],[11.566588675768243,43.9625398134252],[11.566521436886125,43.962208226770954],[11.566508463405226,43.96214589188613],[11.566501434366788,43.96211246511626],[11.56648165183406,43.96201767086131],[11.566399758012357,43.96162576681632],[11.566394307788562,43.96143809900568],[11.566391078970712,43.961316583828676],[11.56639027101955,43.96128859653431],[11.566389078681999,43.96124612987808],[11.566386282817733,43.961154804508155],[11.566384045109839,43.961078722569425],[11.56638193733502,43.96099978278475],[11.566379881380598,43.96093026371703],[11.566375402427944,43.960771013468865],[11.566235814944749,43.96020695135986],[11.56596625839827,43.96012377057692],[11.56590859810017,43.96010607751463],[11.565442059814277,43.959962337112565],[11.565228446420466,43.95989646960712],[11.564766390998612,43.95954630760965],[11.564679107307102,43.95948011080329],[11.56445539669579,43.959310620807656],[11.564323096327145,43.959218465488696],[11.56426025105141,43.95917453015311],[11.564230707948472,43.95915408187733],[11.563491719269258,43.95863901570425],[11.563336109663949,43.9584846830575],[11.563257175980505,43.95840608301827],[11.562954683695741,43.95810637907605],[11.562809051637206,43.95806938151932],[11.561811173365601,43.957816928053795],[11.560956300701182,43.95768759670135],[11.560180311053658,43.95756990432764],[11.559587771200091,43.95736668664471],[11.559445277703944,43.95731788141064],[11.55937259004832,43.95729290780449],[11.559231580569909,43.95724454981411],[11.558909634004788,43.957098773574124],[11.558727025038637,43.95701593380402],[11.558536656577077,43.95692957446685],[11.558189332818124,43.95677273078165],[11.55769445932115,43.95658819191353],[11.556948054351983,43.95630984166653],[11.556913897916873,43.95629985750977],[11.556829923756478,43.95627535737427],[11.55676880909849,43.956257523637895],[11.556705866718039,43.95623915188205],[11.556451743086141,43.956164933930225],[11.555701715240893,43.955946103197626],[11.554238493088464,43.955537687338044],[11.55384770901112,43.95527745758798],[11.55364195178163,43.95514044072852],[11.553571381536198,43.95509344544344],[11.552611744432326,43.95451168885478],[11.551281685046943,43.95401022569116],[11.551059745771132,43.95395042817019],[11.550603847908581,43.95382759262696],[11.55010913787433,43.95369429591579],[11.549601528601558,43.953516426382464],[11.54931204626327,43.953414989014846],[11.548784399939391,43.952733523570636],[11.548305492134165,43.95224453060577],[11.54801559356369,43.95194939791717],[11.547486820895688,43.951240940763576],[11.547469144798981,43.95119181811766],[11.54736106563262,43.95090126608907],[11.547319215629985,43.95078860384006],[11.547288930343587,43.95070733993091],[11.547145310315997,43.95032123218367],[11.546814608605406,43.94958134371446],[11.54613993476454,43.94895716316732],[11.545148091901398,43.9486343103684],[11.54487389598047,43.94854505523622],[11.544535008417164,43.948434740023465],[11.543941853331269,43.94818686292081],[11.542939914391896,43.94777702732936],[11.542242852255603,43.947283867423444],[11.542050704719063,43.946853859364516],[11.542031322326569,43.94681037474451],[11.541995707007196,43.94673077927842],[11.541912229397369,43.94654396343015],[11.542006420745285,43.94583061481305],[11.542223312965131,43.944853441821586],[11.54223138785188,43.94475827767413],[11.542270699655818,43.94429325206653],[11.542281302915525,43.94416790851355],[11.54236345717032,43.94386609448917],[11.542453630893297,43.94353384909155],[11.54283113647796,43.943291928747676],[11.542925251293271,43.94323161522423],[11.542963047585406,43.94320739389109],[11.543569316679944,43.94288778332782],[11.543931423952685,43.9423215185948],[11.543944349658112,43.94226041361371],[11.543975427780003,43.942112090288965],[11.543996540463533,43.942012133904186],[11.54407399387493,43.941647604836156],[11.54372232408176,43.94099820611015],[11.542917165556796,43.94023286068145],[11.542414434327558,43.93983891114349],[11.542171332504331,43.93958078145112],[11.542073992350545,43.93947742197888],[11.541774963339883,43.93915990029153],[11.541511270920456,43.93888980205492],[11.541472654221357,43.938850001840436],[11.54131897306025,43.938692880225894],[11.541260748081905,43.938668084487375],[11.540595660190332,43.938384859681115],[11.540470969937612,43.938335189655845],[11.54039887513684,43.93830654792331],[11.539891445719645,43.938104405407756],[11.539830893419683,43.938080169382985],[11.53963240165104,43.938001142481816],[11.539025832324096,43.93786475672886],[11.53890594679035,43.93783780504408],[11.538575705373159,43.93776354566797],[11.538299245773109,43.937684695673255],[11.538226109466414,43.937663623151956],[11.53793245965603,43.93757977309585],[11.537562014254437,43.93752430007684],[11.536781986031029,43.937407265714484],[11.536018865959042,43.93733418352409],[11.535566934091579,43.93725418714219],[11.535848231844605,43.93661771651854],[11.5359515744787,43.93645005855584],[11.53617456670215,43.93608828419895],[11.53671517444603,43.93561711243997],[11.537265873486746,43.935372425292904],[11.537568047176618,43.93523803565072],[11.538203560948933,43.93494489794121],[11.538418536423633,43.93448379766612],[11.538438321996573,43.93444050678109],[11.538451101515031,43.93441257005463],[11.538563769651219,43.93382491035621],[11.538863835656167,43.93297193805901],[11.538972409395736,43.93230328717685],[11.538989981996037,43.93161865288831],[11.538981128195816,43.931515030254154],[11.53891550110782,43.93074699814719],[11.538925517994091,43.93058426807836],[11.5389295879216,43.930515813901415],[11.538965051037385,43.929935607760164],[11.538750032237038,43.92927414995544],[11.538480650739452,43.92900921614666],[11.538203963446172,43.928737093791895],[11.537881155757205,43.92846967086455],[11.537752119827823,43.928364508076],[11.537544391005047,43.927873947271145],[11.537573408882762,43.92750799340149],[11.537593026275275,43.92726063435984],[11.537610049060692,43.9271327867173],[11.537656751178622,43.926782047913655],[11.536988310319613,43.92664580312433],[11.536642766513088,43.92657537024767],[11.536541530275422,43.926554735294225],[11.535638443817907,43.926574790972666],[11.535035662588768,43.92658817351514],[11.534884540880826,43.92660792039737],[11.534746866232751,43.926625932583434],[11.534579768365312,43.92664794146608],[11.534509804314396,43.92665711105325],[11.534456762466464,43.92666400714173],[11.53424800125557,43.92669095925695],[11.534204089736395,43.92669734199605],[11.534074681276419,43.92672547329099],[11.534010557616861,43.926739878929496],[11.533223193017466,43.926914275740174],[11.53275884200297,43.92701713546451],[11.532579726039717,43.92705680501003],[11.531041483869846,43.92742852894236],[11.530946232081734,43.927430637332094],[11.530898471764901,43.92743167962084],[11.52990934797428,43.92746263331493],[11.528372459795955,43.927352620052616],[11.527874262431395,43.92741319156951],[11.527816163689955,43.927419992135405],[11.527559817556421,43.927450291957484],[11.527243634218264,43.927488649896915],[11.52718343179403,43.92749593245494],[11.527075260978325,43.92754619127282],[11.526634676907838,43.92775402404069],[11.526220857651943,43.927949433617115],[11.52606403529257,43.92805740016789],[11.52567071708517,43.928329513307986],[11.525392267525822,43.928521875455345],[11.525291919797331,43.9285911878928],[11.524255286533721,43.929386814304685],[11.524158595039882,43.929419921949496],[11.523424358098433,43.92966661115556],[11.523077961949808,43.929783107421414],[11.52304006342675,43.929789534880605],[11.522982943054485,43.929799329271766],[11.521918473679975,43.92997571476974],[11.521633925278252,43.930022513087835],[11.520460531083172,43.9299674244412],[11.52041196368037,43.92993789239892],[11.519271561481242,43.929246357646015],[11.519142827799143,43.92914791145109],[11.519110248867497,43.9291230184731],[11.518846722648158,43.92892105710711],[11.5183575203098,43.92854626167489],[11.51737376108649,43.92796473607815],[11.517058365252321,43.927575547140904],[11.516554218281252,43.92739395429938],[11.516375299926409,43.927329507945394],[11.516274917161427,43.92727106019014],[11.51623327846921,43.92724653526582],[11.51614426568719,43.92719476309917],[11.515749536463526,43.926965159565334],[11.515424827055702,43.92627902843506],[11.515407592047449,43.926243470533315],[11.515363905813288,43.926185309079266],[11.515310286198066,43.92611363908197],[11.515223483435156,43.925997728486706],[11.515169521492613,43.92592570132721],[11.515140322150561,43.925886751554565],[11.515027066500034,43.92573573526288],[11.514929581383614,43.92560568864251],[11.514899099457685,43.92556502851588],[11.514863212498877,43.92551715692995],[11.514463383989808,43.92519284209451],[11.51389020207754,43.92513287208863],[11.513798913000475,43.92512622315489],[11.513637287723803,43.925112614230706],[11.513483552017277,43.92509925728643],[11.513200504683763,43.9250765051182],[11.513168112327659,43.925052645293945],[11.512966912549857,43.92490392690418],[11.51275937823483,43.924750119323654],[11.512621787407745,43.92464818090955],[11.512540208686698,43.924613097397334],[11.512474152716983,43.92458453192305],[11.512261586477903,43.92449294604849],[11.512215778248121,43.92447332632772],[11.512025509899095,43.92439120262756],[11.51195082430909,43.924304736525315],[11.511816548622892,43.92414949673823],[11.511750531547401,43.92407313510235],[11.511078466934952,43.92379842020392],[11.510973157563862,43.9236342522425],[11.510682104458738,43.923178300747324],[11.510581293522497,43.92310049485106],[11.510411623970933,43.922969629108415],[11.510205766352678,43.92281064627789],[11.509384672916662,43.922612614374],[11.508511365589687,43.922505755549636],[11.507904539874167,43.92199689676066],[11.507742397482572,43.92178425762165],[11.507719876200582,43.92175472257138],[11.507350873649688,43.92127079018705],[11.506772008061182,43.92113044390303],[11.506348162416884,43.92103140653875],[11.506243677067799,43.92100699134524],[11.506215552797888,43.92063397434739],[11.505975524395954,43.92030875399716],[11.50588207085456,43.920182127713694],[11.505629666443559,43.9198013198958],[11.505576211983204,43.9197206716142],[11.50539744341233,43.91931944784899],[11.505542218261345,43.91891112663124],[11.505535403896886,43.91886455620388],[11.505489779941557,43.91855214773167],[11.504809507287886,43.918368999631255],[11.504405004942935,43.91832918568364],[11.50419885655165,43.91830896343318],[11.504062852548072,43.91829541199435],[11.503984048076326,43.91828805737249],[11.503757411857539,43.918100199074956],[11.50359697134697,43.917967935875055],[11.503440936792058,43.91784133887561],[11.50335889294527,43.917731308228994],[11.503105832414642,43.91739350610928],[11.502843849075855,43.91722739300883],[11.502791859657327,43.91719352395661],[11.502558742077435,43.91704533518804],[11.50251752245857,43.916889658374885],[11.50245184472362,43.91664222460605],[11.502436934079114,43.916586011479744],[11.502366459723762,43.91632031781278],[11.50207760518701,43.915732464613335],[11.501909442149234,43.91539032371989],[11.501876261061186,43.91532269573491],[11.501905418631186,43.91519067169288],[11.50210211483875,43.91429975976847],[11.50213789907821,43.91413750860658],[11.502404322358764,43.91384800643437],[11.50246515266248,43.91378214227235],[11.502557248709198,43.91368257870314],[11.502662048229409,43.91356841150379],[11.502774980205487,43.9134846007046],[11.502872269215588,43.913409638057054],[11.502946160116391,43.91335284903631],[11.50307741357291,43.91325551676088],[11.503543152658327,43.91290027474515],[11.504612827321266,43.91257071027635],[11.504889350785858,43.91246304929649],[11.505642140970508,43.91216999394879],[11.506438412695934,43.9115583065129],[11.50679692341909,43.910902204512126],[11.506764127078212,43.910831528147256],[11.506746993145944,43.910794579212684],[11.506542021607725,43.9103522897364],[11.506359215958023,43.90995731287933],[11.505828558540754,43.90942546746276],[11.505708197650302,43.909305777647845],[11.50567635728789,43.90928428308638],[11.505420645091807,43.90911609245312],[11.505317924067679,43.909049974788495],[11.504978723210975,43.90882632747814],[11.504905023302053,43.90876205327806],[11.50413081790559,43.90808968243499],[11.50409659493237,43.908061026213836],[11.503397013768623,43.9077249624885],[11.503184813928382,43.90762321538018],[11.50281549149819,43.90742189547545],[11.50261987086276,43.90731535793154],[11.50248163532522,43.907239945731526],[11.50221626109124,43.90709524573541],[11.502181404950482,43.90705878612531],[11.501844853141819,43.90669098404389],[11.50171666408716,43.90655119856957],[11.501681283259849,43.90651275246005],[11.501696914800643,43.90646365076619],[11.501716644505494,43.906402840512655],[11.50193463413298,43.9057239207923],[11.502000984979983,43.90567294620631],[11.503045396688012,43.90488019867109],[11.504129499293093,43.904316317075605],[11.505048583000967,43.9036659325576],[11.50591996454297,43.9031673938781],[11.505953716672634,43.90314649301953],[11.506009641171763,43.90311405493514],[11.506232420410145,43.90296830377521],[11.506276506982767,43.902939439471275],[11.506368388900208,43.902879620775714],[11.506496871784565,43.90279597360429],[11.506651145315187,43.902695161682516],[11.506709387435786,43.902657589108756],[11.506966618592221,43.902489432709224],[11.507167667493052,43.902370973134595],[11.5073230492928,43.90227884308447],[11.507962929133807,43.90190035259872],[11.508853993224543,43.90120451236113],[11.508881818438388,43.901174804140034],[11.509484622402123,43.900480423172425],[11.509986683802468,43.89998321387234],[11.51041485400876,43.89950563329904],[11.510409165318189,43.899442797194],[11.510400581995905,43.89936850676356],[11.510394100851345,43.89931217227121],[11.510374950812327,43.89914647286269],[11.51034306088239,43.89912693437767],[11.509611102249192,43.89870017853341],[11.509557941601171,43.89866918504415],[11.50946850069138,43.89859212103237],[11.509420070006417,43.89855039241466],[11.509375981476735,43.898512405584],[11.508957786585599,43.898151772227074],[11.508834517579272,43.89804587135106],[11.508633155072276,43.89779771808726],[11.50860124204607,43.897757770872616],[11.508453728291663,43.897577049682205],[11.508418588266629,43.897189304487576],[11.508407311929355,43.897064883972135],[11.508454302888502,43.89668436691112],[11.508463054488887,43.89661349584628],[11.508059385391224,43.896557112751424],[11.507935726034567,43.89653957181998],[11.506946756065474,43.89667390193262],[11.506587460532483,43.89673238269221],[11.50611804211642,43.89680899786159],[11.504779494530164,43.89665829874757],[11.50438983048007,43.89669373647636],[11.503998084732391,43.89672945440453],[11.5039099902439,43.89703268776168],[11.503881585817686,43.897130464559986],[11.503834878927808,43.897291234670774],[11.50381578445684,43.897496372815326],[11.503798670424807,43.89768023948175],[11.503765469305364,43.898038261796295],[11.503757621287379,43.898121227566115],[11.503738100039092,43.89853484259939],[11.503731247538516,43.89868000763708],[11.503348713284181,43.89895991043744],[11.502970170470128,43.89923688662155],[11.502211906670029,43.8997126689248],[11.50191466703332,43.89989924675231],[11.501788681317432,43.899971031630876],[11.50089038198339,43.90048215505944],[11.500822693292394,43.900520639198945],[11.500516092101524,43.90069515494311],[11.5004860394426,43.90071601191485],[11.500314796496381,43.90083484798209],[11.500033337966554,43.90103016875059],[11.499940707524557,43.9010944112799],[11.4997658931674,43.90121576099964],[11.499619590602107,43.90123224859642],[11.499550299806181,43.90124005760118],[11.4991650024285,43.9012834786327],[11.498852071480893,43.90131874342618],[11.498576147830832,43.901349836767686],[11.49834685601695,43.90126324331695],[11.49807180307376,43.901159378136086],[11.497855466638477,43.901077794263],[11.497423578176779,43.900708044792616],[11.497352686876711,43.900647334327786],[11.496859621650954,43.90022532905033],[11.496779588552696,43.90016771986484],[11.496469647402327,43.89994504122603],[11.496167424921367,43.89972790653816],[11.495860441579131,43.8995884495695],[11.495503458165185,43.89942627774569],[11.495316524266775,43.89934135633532],[11.495240888239072,43.89930699471663],[11.495091906438617,43.8992741823905],[11.494348636790168,43.89911040794913],[11.493888029463564,43.899099140154334],[11.493376449248117,43.89908662181218],[11.49290819495217,43.89950199126264],[11.492295583500754,43.8997404435151],[11.491541353720724,43.89927072541663],[11.491048804698824,43.89850718991512],[11.490986053678446,43.89840488347312],[11.490634657377816,43.89783197480284],[11.490548448296176,43.897257646052495],[11.490450611928317,43.89640446917642],[11.490009358033724,43.8956758235479],[11.4896174322463,43.89523420486188],[11.488689135077033,43.8947682619305],[11.487732603151095,43.894221896387165],[11.487293570615812,43.89384431906813],[11.487148431665537,43.893640292452496],[11.48688371751273,43.89326801495773],[11.486028509019873,43.89276446231873],[11.485270675523074,43.892204747071666],[11.484838587757626,43.89139485218229],[11.484634514496785,43.89067903010575],[11.484565174674854,43.89056800403678],[11.484538838472682,43.89052516376019],[11.484465385233262,43.89040724232047],[11.484293177022028,43.89013068194935],[11.48426124070385,43.890079771280355],[11.484197285133646,43.88997792740911],[11.484179908120412,43.88995005559775],[11.483433726159744,43.8893456536763],[11.482715890648608,43.888848074711625],[11.481952800732019,43.88845951392718],[11.481556498860655,43.88790992272265],[11.4810302254086,43.88722810434626],[11.480446632373733,43.886664571940635],[11.479491799318742,43.88615411278981],[11.478698291610504,43.885631140993496],[11.478081157198018,43.885158355976955],[11.477648474897292,43.88433043896005],[11.477502469113636,43.883811415446104],[11.477601471021025,43.88319704502772],[11.477660922976847,43.882529512359774],[11.47781035548654,43.88225021670283],[11.477972833737297,43.88194653490047],[11.478692402325121,43.88158879426796],[11.479425145153101,43.88124877069683],[11.480254754884728,43.880843615282295],[11.480725106103161,43.88042700516773],[11.480807025917754,43.880354445838286],[11.481566588041892,43.879761732796524],[11.482053563920816,43.87949905820164],[11.482536424599143,43.87913743493064],[11.483570189478561,43.878853863571955],[11.484356556588073,43.878718642620285],[11.484768974352539,43.87864772201381],[11.485730725569706,43.87842872045476],[11.486668721071698,43.878237239012364],[11.486826151725383,43.87820680103878],[11.487483852844765,43.87808443759162],[11.487580666650867,43.87806752467793],[11.487637046942426,43.87805767591115],[11.488484763853188,43.87790957669614],[11.489440492543716,43.87754662316039],[11.490178745105629,43.877341458996106],[11.491250871078007,43.87708399171439],[11.491764525992478,43.87686570960468],[11.49191975491011,43.87680011220884],[11.492865310214839,43.876400526421335],[11.494087003040235,43.87614877017413],[11.49566212748661,43.87601532970788],[11.496061816949918,43.875965964591195],[11.496409822608696,43.875923024501326],[11.496562141555764,43.87590417402071],[11.497445251843166,43.875796279065646],[11.498386175488053,43.8756830664581],[11.498634117753042,43.87565323230182],[11.499490247286284,43.87558948176257],[11.500222008669905,43.87582555567495],[11.501047625225823,43.876055510834],[11.501216818372713,43.876100902603724],[11.50230054607039,43.87612217883064],[11.503452478655724,43.875988894428566],[11.5043428944108,43.875852329036505],[11.50543113294624,43.875684407912516],[11.506326474917186,43.875427064986134],[11.506550255928767,43.87536274240763],[11.507284266851567,43.87505852557669],[11.507505053613002,43.87488881503685],[11.50851409654945,43.87411318311613],[11.509271062580359,43.87376343249371],[11.509982815221589,43.87359697954548],[11.510035159617996,43.87358531230654],[11.510918001977453,43.873268066533115],[11.511732954869107,43.87281798772496],[11.512802629333233,43.87250635176346],[11.513771685202201,43.872169911336144],[11.5147275375719,43.87181574579023],[11.515489548880447,43.871699225194426],[11.515716867790248,43.87166446378042],[11.515828103433009,43.8716474541159],[11.51651575747667,43.871722336550135],[11.517069291373963,43.87186319348868],[11.517488610369377,43.87177361229307],[11.517604849338934,43.87171055276868],[11.518328385281386,43.87132224866951],[11.518967287309744,43.87083098420434],[11.519615198755258,43.87025848803994],[11.519912331488179,43.86989977849278],[11.519939104694222,43.86986748061628],[11.520017841648773,43.86977242974557],[11.520512360139364,43.869104276045896],[11.520996709429948,43.86849036480683],[11.521400847278073,43.86804028200108],[11.522014840406293,43.8678417958235],[11.522088374187117,43.86781802548783],[11.522805981164597,43.86742403738043],[11.5232349107778,43.86696134219305],[11.523555841997634,43.86661518004775],[11.523679696966635,43.86650852370677],[11.524060170253424,43.86618088059647],[11.524533270720024,43.86589132122468],[11.525216579947077,43.865570102075694],[11.52622198675273,43.865214745379376],[11.527038614670468,43.86480953687942],[11.527868803573343,43.86443103246521],[11.52868693112498,43.864061791527135],[11.52919576546282,43.86373540903752],[11.529301085245011,43.863675040905825],[11.529669582455524,43.86346381920519],[11.529871646357158,43.86332197447145],[11.530106697815977,43.86315710625097],[11.530358388016742,43.86298036529763],[11.530426108627314,43.86296311797604],[11.530470721893966,43.862951385774934],[11.531037566904397,43.86280723882568],[11.531167475448992,43.86277134798974],[11.531281647212934,43.862743825996276],[11.531729797774036,43.862805283587555],[11.531850629803499,43.86282252757297],[11.531935456780797,43.86283441315756],[11.532007671288172,43.86284457595444],[11.532391233007067,43.86286188154411],[11.532751957958624,43.862877330711946],[11.532818194376599,43.86288023110632],[11.53287788378404,43.862877277719534],[11.532997803162422,43.8628703846989],[11.533066346864935,43.862866358805576],[11.533121924951116,43.86286308502498],[11.53319028466826,43.86285912256024],[11.533277813585832,43.86285400648167],[11.533503684152787,43.86284081024293],[11.533575451722534,43.86283660268595],[11.53362190897791,43.86283386862545],[11.533744954594363,43.86282663626463],[11.533795969949306,43.86282366685871],[11.533957664965433,43.862814244285396],[11.534030342886984,43.86280999643644],[11.534066082996636,43.86280792404646],[11.534307611848293,43.86279380526776],[11.534417626034687,43.86280221389426],[11.534487912687291,43.862807546180996],[11.534609131833964,43.86281676115447],[11.53504129246284,43.862849694902664],[11.53518969904071,43.86286096897166],[11.53540619751622,43.86287746032962],[11.535529109241377,43.86289585799557],[11.535903991179053,43.862951939194744],[11.53652063438157,43.863041767724944],[11.536783655919876,43.86303590681467],[11.536881148724037,43.86303372863143],[11.537627045058539,43.86301716020238],[11.538289740850905,43.86303623382644],[11.53847106760344,43.86304139154144],[11.538562974092983,43.86304410156842],[11.538686051471037,43.8630476437992],[11.539074953600448,43.863114323091494],[11.539284488613754,43.863150223693154],[11.539712269430042,43.86322359198802],[11.539801663454403,43.86323891748046],[11.54096127605956,43.86329415262949],[11.542200836117283,43.86347364257349],[11.542375567156517,43.8634905138181],[11.542533572550486,43.863505747603554],[11.542599924243433,43.863512179870156],[11.542751799739184,43.86352697090832],[11.542820091186346,43.86353348410521],[11.542860829552986,43.86353742536006],[11.542980405938215,43.86354899987747],[11.54348783661786,43.863598042315466],[11.543789398003645,43.863643143770695],[11.54387791125758,43.863655891813465],[11.544352560715325,43.863725795698244],[11.544413901730463,43.863734977424755],[11.544602168147005,43.863762753781906],[11.544738483361673,43.863780753736464],[11.544800827468999,43.86378894144093],[11.545039867670946,43.86382004415651],[11.545135348304676,43.86383231273533],[11.545447807425077,43.86387289934398],[11.54567524014645,43.863902618123475],[11.545778594009997,43.86391613589855],[11.54679492715981,43.86395166304104],[11.547024901086138,43.8639600115036],[11.54709319144642,43.863968492099026],[11.547617102383711,43.86403491042221],[11.54787560735885,43.86406744297832],[11.548180315576197,43.864267897509365],[11.548598530542266,43.86454301847236],[11.548656587660522,43.86458121069365],[11.548997600669157,43.86486612633006],[11.549401580345213,43.86520343671175],[11.54942866382746,43.865225844708405],[11.54945384849959,43.86524761443259],[11.549493606047923,43.86528124667631],[11.54955152048407,43.865329922429865],[11.54962405860704,43.86539121130777],[11.549818065583064,43.865554649420815],[11.550824167201814,43.865802280143456],[11.55099718760481,43.86576517152734],[11.551055701593208,43.86575262109483],[11.551120626761554,43.86573869756064],[11.551429288906778,43.86567252773069],[11.551761349047398,43.865601277672404],[11.552095481177929,43.86548915012193],[11.552239491225192,43.86544082327756],[11.55258572073421,43.8653246362282],[11.552654102420831,43.86530168612875],[11.55271395635804,43.8652815996977],[11.55276735589953,43.86526368056153],[11.552941177737837,43.86523590377187],[11.553422423478906,43.86515900272663],[11.553484199658632,43.8651486181475],[11.554175980344382,43.86519551854641],[11.554428002694731,43.865212609005475],[11.554489453980079,43.865216785975576],[11.554541035351127,43.865220283347796],[11.554582467782723,43.8652230947722],[11.554856475027625,43.8652731633935],[11.55554694561317,43.86539919096777],[11.555678936608277,43.86541315915631],[11.555948937469301,43.865443613659274],[11.556160855136113,43.8654668828063],[11.556622578888563,43.86539426854781],[11.556828349171257,43.86536190728523],[11.557526597104541,43.86510318390511],[11.557937206906683,43.86482655219824],[11.558107176768628,43.86471204255383],[11.558416482088516,43.8646700755561],[11.558451627140306,43.86466557884873],[11.558517646096453,43.86465643259497],[11.558612590591423,43.86464302432011],[11.558663943679958,43.86463642587794],[11.558789175072693,43.864723682477795],[11.558822930670505,43.864747166805856],[11.55894883801688,43.86482418477231],[11.559112909989004,43.86495060594056],[11.55953114825669,43.86541840747913],[11.559909095819162,43.865599005024066],[11.560129277743567,43.86570198902082],[11.560391581820243,43.86566835399783],[11.560808869233698,43.86561484637754],[11.561180679789388,43.86557949860239],[11.56134290420862,43.86555459627877],[11.561798822392191,43.86548460501655],[11.562220361852752,43.86544813834054],[11.562193408076434,43.865554124615024],[11.562135167213102,43.86578317108103],[11.562339304081169,43.865875149431496],[11.562390904031613,43.86589839169036],[11.562477778824698,43.86593754366797],[11.562828975190993,43.86605876939781],[11.562894781670188,43.86608107499178],[11.562966735757751,43.866035868690496],[11.563294452428433,43.86582918208431],[11.563978314645349,43.86552572537706],[11.564452751138438,43.86527198417135],[11.564891431920703,43.865055057441495],[11.565091290830564,43.8650339854026],[11.565274591111253,43.86501484973988],[11.565436515787255,43.86499779835439],[11.565685624592144,43.865075484136696],[11.565777987721761,43.865104593109244],[11.565827913096642,43.86512043646673],[11.565865224359229,43.865132407260155],[11.565892612573654,43.86515203055579],[11.566237886358024,43.865402948820226],[11.566557498558941,43.86589094639863],[11.567057618285046,43.86633371704167],[11.567152557604004,43.86641776845906],[11.567508320410958,43.866877941503645],[11.567550209558753,43.866938397204784],[11.567999234793827,43.8675871664492],[11.568386512466116,43.867911577762605],[11.569119589915031,43.86817419088004],[11.56957136177448,43.86855116733808],[11.570043692693973,43.86911674871262],[11.570244386101026,43.870021562938945],[11.57031834779376,43.87022836361897],[11.570409806409947,43.870484088963146],[11.570541333587347,43.87085234819441],[11.570849176654667,43.87111255604355],[11.570894725735563,43.87115202141238],[11.571161469848901,43.87137841959568],[11.571446373412165,43.87146346811281],[11.57178552673218,43.87156468781611],[11.572346449465892,43.871729865422374],[11.573538855032167,43.8719640952977],[11.574263093433323,43.872019798276796],[11.57468583151507,43.872010268493476],[11.57469007098464,43.872156259347015],[11.57469126573615,43.872197426303366],[11.574737302406035,43.87378275280551],[11.574522690976407,43.874867983734624],[11.57418334275611,43.87594702247643],[11.573732847806854,43.877046570767895],[11.57280792256227,43.87782368655022],[11.57231891600225,43.87838872685383],[11.57206093179653,43.87868681993336],[11.571767002404787,43.87966579232774],[11.571942893967353,43.88057116063145],[11.571972970264767,43.88064133049996],[11.572095747032995,43.88092851584887],[11.572122721873127,43.88099174823276],[11.572427310837998,43.8817036632304],[11.57345496925285,43.8833101003027],[11.573799788166676,43.88370692556392],[11.573867178455092,43.88378459461086],[11.573889157827672,43.883809639877704],[11.57421461553096,43.884184300959895],[11.574467007773551,43.884382418903876],[11.574794392462556,43.88463939918667],[11.575318167100061,43.88495681890524],[11.575417711220899,43.88501710666571],[11.57562522894561,43.88514285238967],[11.57625826374979,43.885677771835965],[11.576770457977512,43.88600833970921],[11.577066776227765,43.8862402396237],[11.577608688841854,43.88697077732536],[11.578247945996605,43.88822580538472],[11.578636170846256,43.8891443738322],[11.579095139130267,43.89025941526944],[11.579654407210821,43.891102092228216],[11.580177545548308,43.89197259166743],[11.58054580884541,43.892788065916],[11.581220751183242,43.89306541828066],[11.5821745402964,43.89310515780513],[11.582480464460268,43.893117966370895],[11.58274758188146,43.89306933714686],[11.583667428314383,43.89290216230377],[11.58404890489807,43.892844571948196],[11.58428110988857,43.89280974700258],[11.58458810632609,43.892763441407375],[11.585076428090613,43.892690098212675],[11.586236606704372,43.892456755477774],[11.586780270137432,43.89233651027564],[11.58737112236247,43.89220597486093],[11.58874271879865,43.8919678155332],[11.590007048052838,43.89184011232122],[11.59020324154641,43.891914440620944],[11.5904215856431,43.891994698099424],[11.59049738577813,43.89202255995443],[11.590581149255927,43.89205387484928],[11.590690373520475,43.89209470930316],[11.59092444237345,43.89261158663974],[11.59084293978329,43.89331568861557],[11.591089062937806,43.89382328962644],[11.592028535496924,43.89395502425531],[11.592709608556657,43.894443744363244],[11.593810851845063,43.8948598954592],[11.594616977539165,43.89478756307556],[11.5954671308932,43.89515538283009],[11.596119383969487,43.89526660213763],[11.596911430548875,43.89487045724353],[11.597653013810145,43.894745551261614],[11.598512492527032,43.89504111060433],[11.59919354026405,43.89524168927425],[11.600105040756121,43.8953019683684],[11.600844467324572,43.89569927886385],[11.601672146030415,43.89612158389741],[11.602930079894184,43.89641703384848],[11.603472730368274,43.89660414821077],[11.603713800381076,43.89668727066381],[11.6044294524035,43.896824006744225],[11.604817001115526,43.896860183123934],[11.60492384072617,43.89620489318011],[11.604934871354256,43.896137235631336],[11.60585662037289,43.89557601238746],[11.605955072661688,43.89552582228441],[11.606036287911198,43.895484581293715],[11.606709222918301,43.89514240451977],[11.606806173879162,43.895081669969095],[11.607533401216516,43.89462841046215],[11.608455729378239,43.89441595899295],[11.608618106804386,43.89437855595047],[11.609139165878434,43.89407650179673],[11.609712994547978,43.8935072357942],[11.610419577539336,43.89343706651812],[11.611279586494652,43.89317431707023],[11.612080941785202,43.89299393161006],[11.612943454117966,43.893073235261824],[11.613432493173264,43.8931124531579],[11.61365530989647,43.89313029415544],[11.614255290207943,43.89317825948081],[11.614587488344222,43.893150032109524],[11.614674049921012,43.89314261852722],[11.614995059263176,43.89311471367299],[11.615123700195754,43.89310362527569],[11.616334677845018,43.893202165062284],[11.616939423554543,43.89317800315848],[11.617199938487387,43.893167310679665],[11.617342139995397,43.89316157027231],[11.618494269773974,43.89331522249592],[11.619429444505633,43.89334779440257],[11.620209071652642,43.89324901323469],[11.620317126972095,43.89321130847215],[11.620374928876828,43.89319096808435],[11.620430222389933,43.893171883565884],[11.620487792128719,43.893151531342035],[11.620602351454641,43.89311139742502],[11.621006434302952,43.89296948712886],[11.621245691670774,43.89280695542362],[11.621595366183445,43.892569412757304],[11.621719705228887,43.89248494512364],[11.621927585953188,43.89249147248479],[11.622879133214525,43.89252134347219],[11.623439682321296,43.89256826552661],[11.623597498591407,43.89258153371102],[11.623891289926288,43.89260613047405],[11.624069741033612,43.89263595002324],[11.624744137780572,43.89274858912461],[11.625471430623097,43.89286691905587],[11.626002496165402,43.89305277904951],[11.6262906428709,43.893235220153755],[11.626348307132048,43.893270142169236],[11.62566765531299,43.89373969910213],[11.625539236093715,43.89382816866049],[11.625467726675435,43.89395754076218],[11.625126461357125,43.894577607908644],[11.625112041403142,43.89460380587068],[11.624421278489475,43.895033830984396],[11.623186400723629,43.89554837925132],[11.622799166087859,43.895706269280566],[11.622350662631096,43.895889137394256],[11.622110036685436,43.895987248174336],[11.621990740172862,43.89603500291781],[11.621940147688646,43.89605520560342],[11.62173951478452,43.89613531900159],[11.621640522052965,43.896174846396605],[11.621057741986206,43.89640754790187],[11.61994560861294,43.89688322967094],[11.61949795330592,43.89709008700772],[11.619165390938843,43.89724378091339],[11.619041026692221,43.897301348956304],[11.618920767826122,43.8973571697076],[11.618443503767523,43.89783601180652],[11.618276648695016,43.89828999881444],[11.618261402282567,43.898429329574434],[11.618241092582718,43.89861493001818],[11.617696916194356,43.8992666348766],[11.617190326050673,43.8995360753865],[11.616829377274414,43.89972845465433],[11.616731924139241,43.89977948292958],[11.616633813861933,43.8998315444516],[11.61656358334012,43.8998688589239],[11.616528577333861,43.89988735338186],[11.616358996747623,43.89997291577443],[11.616122654091813,43.9000924507605],[11.615679679566371,43.90031584464967],[11.615200953483715,43.9005572644644],[11.61378143464662,43.9011212743392],[11.613121987953365,43.90139743920814],[11.6128275428962,43.90152091954891],[11.612484388580922,43.90167156630086],[11.612444884762894,43.90168879930297],[11.612412945704623,43.90170279541531],[11.612320819242349,43.90174333437172],[11.612070084617477,43.90185336128581],[11.611364341183535,43.902229768743595],[11.611271434923834,43.90228613536848],[11.61114556525979,43.902362363334646],[11.610924624608826,43.90249627646294],[11.610884080156698,43.90252045895061],[11.610810100725969,43.90256459815629],[11.610697719088428,43.90263139962135],[11.610296953820097,43.90287514542475],[11.61024708670085,43.90288974609955],[11.610206395409913,43.902901810568274],[11.609624165577006,43.90306983971758],[11.609349970750133,43.90314898607182],[11.608071443156641,43.90324121591092],[11.607503392346551,43.903232010996284],[11.607425412631725,43.903230738501875],[11.607149340250686,43.90322625933066],[11.607108371724808,43.90323267945729],[11.606617249657036,43.90330964358755],[11.606490001454965,43.90332958408182],[11.606072433658083,43.90339496067169],[11.606007735553723,43.90341785686231],[11.605877576534642,43.90346343605596],[11.605385045628513,43.90363590966548],[11.605260074818412,43.90367966996402],[11.605165791672022,43.903712685977226],[11.604646157613958,43.90383469000881],[11.60460345360195,43.903844815861554],[11.604517102259969,43.90386513855178],[11.604269229679945,43.903923301503525],[11.60421053908904,43.90393704737552],[11.604027983604151,43.903980434091174],[11.603896266502188,43.904011737618774],[11.6034559128264,43.90408435505621],[11.602882476246055,43.90417890214432],[11.602169538374465,43.90420843876935],[11.602044979250078,43.90421307315576],[11.601875631692312,43.90421985329396],[11.601329027583448,43.90422190349874],[11.600905525166809,43.90422396455798],[11.600616123117888,43.90419452522999],[11.600497522367812,43.90418226620368],[11.599678351185155,43.90409848250949],[11.599296368018955,43.90400639479252],[11.598898489929134,43.903909512244326],[11.59796080422949,43.903822810544526],[11.596997458462527,43.903718677183534],[11.595763176482926,43.90368371760452],[11.594966245149415,43.90368382381894],[11.594787212987866,43.90367275738582],[11.59466341913593,43.903665019198584],[11.594415566691287,43.9036503542304],[11.594250975777154,43.90364026704619],[11.593780161859499,43.90361173342651],[11.59250270495081,43.90344267151439],[11.591649042604475,43.90357008680115],[11.590676024690167,43.90381759295769],[11.589784624791092,43.903648397641255],[11.589554217556037,43.90365163828675],[11.588739283444424,43.90366309593885],[11.588099603464233,43.903700103274],[11.588018939630956,43.90370643300795],[11.587903601035629,43.904005150910706],[11.587727861674688,43.90446029758909],[11.587605246897963,43.90478602067321],[11.58739286434939,43.905350204111876],[11.5872847619974,43.90549784682281],[11.586628678124029,43.90639388445295],[11.586003617874136,43.90691669987358],[11.585931677837843,43.90697687286454],[11.585754796853331,43.90700369874977],[11.584830694476729,43.907145850522355],[11.583793855078346,43.90735838274999],[11.582615371397969,43.907300021659616],[11.58238106398237,43.907288373463174],[11.582296298614834,43.907284218434576],[11.58172442303259,43.90759425463286],[11.581538207088,43.9078955713158],[11.581333662934302,43.90835911819714],[11.580694569310426,43.90854486556545],[11.579983811257279,43.908688738028815],[11.579793374392972,43.90872728611373],[11.579070235331752,43.90899571045837],[11.578809355371689,43.90929870797061],[11.57888982688624,43.9097200428421],[11.57926344995303,43.9100087107678],[11.579118717064448,43.91020658309832],[11.5789571149997,43.91042751730053],[11.578781336163539,43.910667830477294],[11.578415864745173,43.910856147856165],[11.578833034849831,43.91128788566338],[11.578933336137434,43.91187983330546],[11.578911543476972,43.91191846519218],[11.578698834473158,43.91230471732115],[11.57867346533165,43.91234904167255],[11.578656110809217,43.912381270987915],[11.57883248266665,43.912670012206895],[11.578883944453521,43.91275426067704],[11.578810843411539,43.91308002720392],[11.57835786735111,43.913549420532284],[11.577863379147193,43.91411918505947],[11.57777656923838,43.91421977838743],[11.577065386237908,43.91498309728928],[11.576719125162748,43.91493611409661],[11.576662410417565,43.914928347283286],[11.57662098976853,43.914923000271564],[11.576580547435949,43.91491795619004],[11.576323126934872,43.914882804432295],[11.575878308305576,43.91496486515287],[11.575354894887251,43.91512845315473],[11.575307432049707,43.915144019716315],[11.575248317576497,43.915162551801515],[11.575145025206286,43.91519447490579],[11.57510414038873,43.91520740543936],[11.574492011669237,43.915275548270735],[11.574399014634254,43.91528607096776],[11.573967648010855,43.915149441733014],[11.573872290528511,43.91511906664857],[11.573526307527372,43.915008891416775],[11.572964177171434,43.914626934080616],[11.572859478524267,43.91455648249183],[11.572833476747558,43.914538328863266],[11.572790926198984,43.91439129144085],[11.57276370368072,43.914295650577415],[11.572754603532436,43.91426639323119],[11.57274753525273,43.91424052846438],[11.572721492113502,43.91414907185692],[11.572628264646271,43.913822695191],[11.572686151293082,43.91342314496285],[11.57270384169488,43.913300687911395],[11.572711119961893,43.9132509104075],[11.572741530162743,43.913041041939],[11.572772242964978,43.91282909678256],[11.572659558625991,43.91223742356095],[11.572516956055466,43.912061168924325],[11.572400019519218,43.91191643989634],[11.572330679846866,43.911830683380785],[11.571979375656227,43.91169295160522],[11.57187463723001,43.911651887616735],[11.571208648582006,43.91144180406962],[11.571104455231923,43.91140813770889],[11.570324454521408,43.91137452978148],[11.570280979675848,43.911372656048556],[11.569415483350861,43.91151817798384],[11.56863630003405,43.9116437453691],[11.568009181144753,43.91154080834738],[11.567939262959097,43.91147450386803],[11.567447895026286,43.91100852422537],[11.567424926080125,43.91098674216059],[11.566990304309241,43.910726415552745],[11.566626171973473,43.91094058109866],[11.566528742069947,43.91099788359218],[11.565747238539322,43.911069464517766],[11.564821142799516,43.910964223526975],[11.563925344083678,43.91098433914188],[11.563552057713204,43.91111394788205],[11.563176832153626,43.911244229156765],[11.562756434540669,43.911604790054504],[11.5621747591312,43.91168986851734],[11.561943071897199,43.91179466813423],[11.56188205538681,43.911822440040545],[11.561819431175495,43.911850331710646],[11.561734959748144,43.91188880342724],[11.561882072144309,43.912704795891784],[11.561909944255634,43.91365433053248],[11.561876876801747,43.91360912945684],[11.561841370282192,43.913551178603846],[11.56180401266283,43.913496843572524],[11.561587546308973,43.91317477626545],[11.561471400357398,43.913002114365966],[11.561076135549428,43.91249779622398],[11.560438068057271,43.9119944191609],[11.560186768807853,43.91179748001291],[11.559374773922904,43.911158445832015],[11.558796307241925,43.91095533144013],[11.558312703581032,43.910786103076916],[11.557161737516878,43.91008262073928],[11.556553916867228,43.90992066615427],[11.556165913302355,43.91038401561003],[11.555940504312739,43.91066294928995],[11.555550914298678,43.91114504818561],[11.55484803679846,43.911890036848995],[11.55459834783573,43.91206994446407],[11.5537003054197,43.91271699528301],[11.553140569242652,43.91313876006073],[11.552723110415464,43.91345331139911],[11.55250585025673,43.913617012851134],[11.552186822927727,43.914067767940985],[11.552000832264461,43.914330551305056],[11.552096643657261,43.91482358776837],[11.552869107349652,43.915121434752386],[11.553463021628591,43.91561233633231],[11.553994085394915,43.91579853116916],[11.555146520281598,43.91595281561382],[11.555547654765192,43.91630396860353],[11.555258538666733,43.91682362216199],[11.555065766713508,43.916917315586936],[11.554791837438525,43.917050141178755],[11.554687693583386,43.917381096515356],[11.55470466789482,43.91745430337993],[11.5547172065248,43.917508124550984],[11.554758922385222,43.917688429350044],[11.554783183212235,43.917793113451744],[11.55495842522202,43.9181043053121],[11.555343546412221,43.918662890998924],[11.555435540451361,43.919065976831924],[11.555387576922554,43.91940016907302],[11.555326013634463,43.919707655731706],[11.555258197407595,43.92008730855562],[11.555069381872222,43.92062272361381],[11.555043433381737,43.92070569235944],[11.555033975327662,43.92073593353395],[11.554948870308575,43.921008055955895],[11.555344914539452,43.921530384752955],[11.555541205579278,43.92175107257404],[11.555534839229757,43.92211134282169],[11.555592207754422,43.92257822616224],[11.5556970404194,43.922990028417395],[11.55582483802484,43.92335629926298],[11.555895536500023,43.92355278826105],[11.556094808540008,43.92413353600226],[11.556037400094144,43.92475604287742],[11.555333180990532,43.924600742549046],[11.554846804648404,43.9242965128126],[11.554377498068186,43.92409993764649],[11.553823657252117,43.92425637634507],[11.553534228795098,43.92447892553746],[11.553794579927626,43.924959277170124],[11.554054226106294,43.92527758578512],[11.55423221301487,43.92557971372974],[11.554257162318677,43.925630004412376],[11.554423001910592,43.925962583635375],[11.554840884836114,43.92641239903131],[11.554768215059978,43.92675164505588],[11.554498157069823,43.927135821388575],[11.55412074110037,43.927558411403055],[11.553667076367848,43.92801871746875],[11.553068712420268,43.928518269930656],[11.553497862397247,43.92901285365612],[11.55399633227868,43.92930781604095],[11.5540768906288,43.92933888888447],[11.554138466598909,43.92936264071931],[11.554658171959726,43.92956310762579],[11.554761990759669,43.929566842470265],[11.554856484466244,43.929570186228666],[11.554892416069695,43.929571611551964],[11.555428615455774,43.929590885044504],[11.555492513725705,43.92957842252519],[11.555947476225182,43.929489242070595],[11.55635586852099,43.929426081003996],[11.556730391661885,43.92944470624929],[11.55710680411218,43.92963586092186],[11.557264074141921,43.92971572570212],[11.557545405310973,43.92985859516178],[11.557827241770449,43.930008393228],[11.558195564747095,43.9302041586836],[11.558597319194876,43.93041379881638],[11.558664104383228,43.93044864776143],[11.558961947552188,43.930604140855294],[11.559138549262416,43.930696215829705],[11.55953101418154,43.93085377342295],[11.559578478352208,43.93087297953781],[11.559921359157583,43.931011785029355],[11.560425738034251,43.93123567511281],[11.560473836823503,43.93125702650864],[11.560635726641788,43.93132888715184],[11.560947712684122,43.93112381990617],[11.561405120072198,43.93104153589479],[11.561630277218923,43.9310595967905],[11.562018554269251,43.93109094545526],[11.56281877011459,43.93120775044301],[11.56314305331037,43.93127632123608],[11.563511487167629,43.93135439781074],[11.5640035778727,43.930992225201365],[11.564515087329593,43.93071964617983],[11.565004858265159,43.9308737067677],[11.565209661527012,43.93093812815166],[11.565909597426733,43.931570633111086],[11.566102135384437,43.93173578875459],[11.566132962033185,43.93176220308082],[11.566349401039558,43.93194788795419],[11.566468315378707,43.93195570789225],[11.566961577734842,43.93198814733158],[11.56747294427457,43.931983242587734],[11.567662088165113,43.9319814324477],[11.567733651987014,43.93197982331905],[11.568405736000104,43.93196470826717],[11.568850644428382,43.93217077740554],[11.56913603315981,43.93272255521844],[11.569416067426499,43.933097642992834],[11.569559111071666,43.933289240656634],[11.570009417046915,43.93390933037921],[11.570262866764255,43.93392645385267],[11.570509210761617,43.93394309748018],[11.570688009878362,43.93390639523324],[11.57164224380786,43.93371051316009],[11.571759321161597,43.93368086673875],[11.57202420113365,43.93361187914344],[11.572043276957645,43.9338424399646],[11.57205022469271,43.93392640458357],[11.572131086052117,43.93428471116342],[11.57229593026302,43.93492922767025],[11.572477547974424,43.93516822278349],[11.572559994899338,43.935274403710544],[11.573057417015344,43.93583039776649],[11.573250929828761,43.936316237006686],[11.5732670195844,43.93635686268682],[11.573325320517142,43.9368417214102],[11.573279561827826,43.937441463980235],[11.57324373614985,43.93781883532744],[11.573236734671095,43.9378925884436],[11.573379067181243,43.93821102608135],[11.573416016287078,43.938293692345],[11.573626819345254,43.93855903665303],[11.574363909062244,43.93889354656198],[11.574524452856618,43.93895615243596],[11.575149630431069,43.93919994523348],[11.5758396659228,43.93959852854007],[11.576145001881976,43.9400327966825],[11.57625227564743,43.94045878481037],[11.576280348551546,43.94056993408798],[11.576370101264192,43.940798794946005],[11.576476383986583,43.941069689898924],[11.576553186137122,43.94127309438263],[11.57671893752756,43.94171255037913],[11.577052845230089,43.94222709515781],[11.577512054857705,43.942689398169314],[11.578117148447767,43.94306737651155],[11.578659037567306,43.943712372989474],[11.579246843520242,43.944410349205455],[11.579496200986847,43.944989911737],[11.580002317647763,43.94574372972845],[11.580711917130564,43.94623187254421],[11.581123228980662,43.9465219315222],[11.581452889404618,43.94675318809199],[11.58150556192267,43.94679013690385],[11.582261865609858,43.94720518905872],[11.58246561136043,43.94731222894883],[11.582829385774529,43.94750336491877],[11.583116218951675,43.94765403030912],[11.583928739424374,43.94785622520023],[11.583972896672119,43.947868730868805],[11.58472842585886,43.94804970154159],[11.585117733772352,43.94869361862331],[11.585148942988175,43.949413165172686],[11.585087932753366,43.95001775902663],[11.585133075608855,43.950124775056715],[11.585254104756817,43.95040113372498],[11.586067703276187,43.95105794882039],[11.58666654882525,43.95164759691466],[11.587482133825109,43.95234937203545],[11.587908607683659,43.952699834445795],[11.588570859513156,43.95302694419819],[11.589212126801359,43.953444557348405],[11.589083359649754,43.95418635901181],[11.589042674323997,43.954420740752994],[11.588929945656576,43.95498149351047],[11.589061203971298,43.95570777314117],[11.589229933951055,43.95579229069105],[11.589749179623363,43.95605229906294],[11.590576468660103,43.95644767884523],[11.591237539628901,43.95682639354419],[11.591294048883576,43.95686369094961],[11.591754415189076,43.957168208435476],[11.592291123709895,43.957759236578276],[11.592513896379337,43.958230246417415],[11.59258105407469,43.95837223674704],[11.592716637382233,43.95865889485949],[11.59302410833513,43.95970978434013],[11.593211500216299,43.96057883462026],[11.593252636261894,43.96067767417083],[11.593434218658338,43.96111396554433],[11.594233043686861,43.9614983902685],[11.594325451497053,43.96154389899541],[11.594377237529862,43.96157015795544],[11.595141171097591,43.96195750816514],[11.595651731354778,43.96255424245571],[11.595692770383415,43.9626022078854],[11.596263311538348,43.963301438854174],[11.59644339161862,43.963521544328735],[11.59719228954751,43.96411672782546],[11.597850211733943,43.96491204422647],[11.598385458168258,43.965395039262454],[11.599161266095196,43.96603461243608],[11.599733957182169,43.96631207678423],[11.599802701248102,43.96634530009252],[11.599871212030747,43.96637857458697],[11.599866607026149,43.96643283198173],[11.599841022902755,43.96674247869473],[11.599837544788155,43.96678397087788],[11.59983095222086,43.96686212123956],[11.599819703892097,43.966993567700676],[11.599812986196374,43.96706405376951],[11.59982516438924,43.967219694186944],[11.599850783958018,43.96754877171276],[11.599861103067733,43.967684261132526],[11.599895326142775,43.968133639060646],[11.599901487079316,43.96821452681361],[11.599876636243089,43.968480374133385],[11.59986684452904,43.96858524683111],[11.599835240677692,43.96892132079356],[11.599827068654028,43.96900849770199],[11.599817367989212,43.969036492578404],[11.599660409398643,43.96948945875817],[11.599561357429668,43.969775313176804],[11.599549258415628,43.96989551410698],[11.599544033825614,43.96994661013532],[11.599538784232958,43.97000047521998],[11.599527332210174,43.97011499389323],[11.599516844056787,43.970219493454444],[11.599504458031275,43.97034320405627],[11.599499367664214,43.97039226409871],[11.599492814662494,43.9704581394239],[11.599488514955565,43.97050140860648],[11.599484037702585,43.97054635102585],[11.599474586421344,43.970641934500904],[11.5995077932609,43.97077350324296],[11.59952592903306,43.97084518989237],[11.599547213003909,43.97093188074444],[11.599700966589738,43.97154575301059],[11.60011178362236,43.97209554267535],[11.600164698251136,43.97216596640203],[11.600281123972927,43.97224064557798],[11.600334382334648,43.97227416444519],[11.60084404790309,43.972600098957024],[11.60141363947182,43.97308229681421],[11.602429232098483,43.97371413301184],[11.602643837618407,43.97384653885911],[11.603507773126694,43.97450207913752],[11.604249541471603,43.97521441832153],[11.605100015745705,43.97613134354345],[11.605717921759707,43.97657640445966],[11.606121739240912,43.97697232919358],[11.606249366063462,43.97720283145047],[11.606338341791094,43.97736352264885],[11.60626175818045,43.97746598317201],[11.606043891047358,43.977757378122625],[11.605981111622713,43.97793723002745],[11.605888806000006,43.978202070694984],[11.606326459187205,43.97851619451553],[11.606362188960546,43.97853737018651],[11.606446246189483,43.97858718479202],[11.606838454937266,43.97881961624214],[11.607156435321215,43.97953260689271],[11.60728665363396,43.97994377710993],[11.606933807171831,43.98071259809705],[11.60689794044687,43.98078369500228],[11.606658495230421,43.98125907057909],[11.60671366669029,43.981330914353215],[11.607147573933256,43.98189556944012],[11.607751543516374,43.982800656351586],[11.608038876113785,43.983131802838464],[11.60814221212823,43.98325089294024],[11.608244649704712,43.98409484690248],[11.60835914222841,43.98446509427928],[11.608429874299064,43.98469382426666],[11.609206285313082,43.98505421676849],[11.610295265002145,43.98536244215387],[11.610952854870066,43.98549917171078],[11.611465577497647,43.98560577559249],[11.612191269933978,43.98573322650445],[11.612314848265063,43.985767389862204],[11.612774283168124,43.98589446116457],[11.612964383296909,43.985946815032],[11.613153755268065,43.98599984427897],[11.613244817761307,43.986009004336296],[11.61334582074395,43.98601929629534],[11.613409619603981,43.986025747218456],[11.613680500517631,43.98605331176703],[11.61401574229034,43.98608782116954],[11.614515920044878,43.98613918033593],[11.614736130457894,43.98613031156559],[11.615552158734854,43.98609747199349],[11.61569831979249,43.98612006477674],[11.616382878471127,43.98622774821971],[11.616425825626797,43.986234522185065],[11.616653946416589,43.986270266511525],[11.617430027305513,43.98605441091602],[11.618053852388515,43.98577901878596],[11.618347673425415,43.985797039478214],[11.618566520725459,43.98581224568451],[11.618652581010286,43.98635049118252],[11.6189311900802,43.98673123567443],[11.61941998910563,43.98707114510339],[11.619264537410873,43.98743483490773],[11.619099051741482,43.987924799223556],[11.619703948552974,43.98863567373672],[11.620592250509038,43.98905644253706],[11.621735942586932,43.989471339843206],[11.622322460055099,43.98976397700886],[11.622228966776358,43.99018927092757],[11.622388644674785,43.99077080514943],[11.622861018977323,43.99094902132654],[11.623082687258046,43.99124954670704],[11.622778060394875,43.99189625260979],[11.622361348245857,43.9922168681595],[11.622295593097698,43.99226745821023],[11.62188685518018,43.99233086345473],[11.62108320034616,43.99220526509378],[11.620588261485972,43.99257674975944],[11.620451255473835,43.99314708976226],[11.620005346775597,43.993499440288716],[11.619860811513135,43.993898893727156],[11.620137304513563,43.99451376322895],[11.62049432832492,43.9952753533495],[11.620508935074845,43.995306511231504],[11.620665122817728,43.995496067222724],[11.620716052513107,43.995557858405164],[11.62106230906091,43.99597804580663],[11.62147979490692,43.99633476573171],[11.621554764506042,43.996398889222725],[11.62213206265156,43.99676376312027],[11.622198932646489,43.996930777674066],[11.622300199703451,43.99718304825215],[11.62231310966323,43.99775895025425],[11.622304838966025,43.998137269784635],[11.622292178550445,43.99864068112193],[11.622286675747866,43.99885790183968],[11.621672855176852,43.99907910141517],[11.621565023886394,43.99910858581242],[11.621439969122177,43.99914182371244],[11.620602551651295,43.99936441979159],[11.620341489970073,43.9994337736075],[11.619954483617553,43.999411692316485],[11.619255694885059,43.99937181886499],[11.618766039120272,43.99934387458599],[11.617412644120044,43.998977107615204],[11.616684767723031,43.99878010728502],[11.616567145632576,43.99878314303641]]]}}]}
