{"type":"FeatureCollection","metadata":{"code":"048035","referenceDate":"2026-01-01","sourceDbfExportDate":"2026-02-18","upstreamArchiveUrl":"https://www.istat.it/storage/cartografia/confini_amministrativi/non_generalizzati/2026/Limiti01012026.zip","sourceManifestSha256":"70ac8256c4785dc6ed2814c32b6965ae76f9161b51abaa1660059e1c6cbd8ca6","license":"https://creativecommons.org/licenses/by/4.0/","attribution":"Istat, Confini delle unità amministrative a fini statistici al 1° gennaio 2026, versione non generalizzata.","modifications":["Converted from WGS 84 / UTM zone 32N (EPSG:32632) to RFC 7946 WGS 84 geographic coordinates.","Converted from shapefile to per-municipality GeoJSON without geometry simplification."]},"features":[{"type":"Feature","id":"048035","properties":{"code":"048035","name":"Reggello","alternativeName":null,"regionCode":"09","regionName":"Toscana","territorialUnitCode":"248","territorialUnitName":"Firenze"},"geometry":{"type":"Polygon","coordinates":[[[11.581772127985,43.76542184058379],[11.58186882066694,43.76595243912664],[11.581875230694143,43.76598879701521],[11.581885764131213,43.766049257630584],[11.582625041473891,43.766640151518],[11.582696682692028,43.76669742871255],[11.58286041942662,43.76698613107341],[11.583140349016933,43.7674796949568],[11.582945563056857,43.76810623452168],[11.582817832878897,43.76804188593945],[11.582054700470605,43.76765729988758],[11.581340465395476,43.76708510478011],[11.581038177975131,43.76684295855014],[11.580817766304298,43.76669535180257],[11.580435910500631,43.766439626578844],[11.580257857850254,43.76632038606281],[11.579885257354027,43.7662150744173],[11.579315610456497,43.7660540070427],[11.578436540593078,43.76585732598064],[11.578385199262847,43.76583062282249],[11.577839288946977,43.765546684689504],[11.57744249506488,43.76524980118407],[11.577067174028855,43.764924866752885],[11.576647895886307,43.764997349398385],[11.575975320349265,43.7652466094557],[11.57533386897206,43.765351122562045],[11.574932923620954,43.765448777034806],[11.574682169858555,43.76550985511604],[11.574162376652733,43.76584569429228],[11.573949030078218,43.766053131849084],[11.573792673420686,43.766205158616145],[11.573416444804197,43.76632976091879],[11.573208456493232,43.76639873974884],[11.573005649701754,43.76646598265109],[11.57266381286852,43.76641396533046],[11.572584095080552,43.76640191081627],[11.572283480260538,43.76635620088607],[11.571687797560797,43.76608150592354],[11.570837135537722,43.76616551320449],[11.5706999011947,43.76617906492721],[11.570543666726001,43.76619448644865],[11.570388828269948,43.76620978450482],[11.569892834456972,43.76580191082115],[11.569770725513312,43.765701495412614],[11.569615963089982,43.76557561526671],[11.569585722451265,43.76555091838887],[11.569555966549924,43.76552660314952],[11.569435651225684,43.76542870581415],[11.569114242057045,43.76516705577207],[11.568586728042925,43.764654059284496],[11.568550929830737,43.764621608161455],[11.568529216156211,43.764601320023054],[11.56846018365393,43.76453266504539],[11.56842596849342,43.76449966688644],[11.568388370025154,43.764463407205405],[11.568357799960442,43.76443357281491],[11.56799944556967,43.7640804979589],[11.567955525994336,43.76403702350507],[11.567930575974065,43.76401210819463],[11.567896551540546,43.76397809539465],[11.56778017451545,43.76386459293961],[11.567727837600383,43.763799529105874],[11.567734140540503,43.76364573850021],[11.567763584006084,43.762966413929824],[11.567770696143716,43.762802360950595],[11.567680924385233,43.76215613369956],[11.567240868775302,43.76174286523476],[11.56709417768056,43.761725904372426],[11.566747196327,43.761685785707826],[11.56665410488116,43.76167502154165],[11.566068011321033,43.761913275534624],[11.565634893882892,43.761917772308195],[11.565322983222721,43.76192100832671],[11.564511800740629,43.76163707713172],[11.56445280355967,43.761616426036035],[11.563786086637007,43.76171242447677],[11.562885869812476,43.76186767857008],[11.562143146827616,43.76192935888065],[11.561403414456212,43.761569041439316],[11.561153605657477,43.761447360869994],[11.560514518784384,43.76131763438404],[11.559745189917287,43.761046769185384],[11.559123777128155,43.76045746541661],[11.558710876705078,43.76042667542579],[11.558550113525126,43.760414594367276],[11.558288823097634,43.76039513908242],[11.557674138583927,43.76043017392681],[11.55755045071754,43.760437220182226],[11.557508113589124,43.760439633025044],[11.557241347412504,43.760376278989824],[11.556780255360463,43.76026685665093],[11.555888234517719,43.759719829469724],[11.555289388434856,43.7596789838677],[11.554352259356575,43.7592587774999],[11.553513810025006,43.75908345278383],[11.553224234609138,43.75902289963005],[11.55199502312181,43.758744253929045],[11.551716199612132,43.758503526409314],[11.551324451199067,43.75816500909274],[11.55067412304592,43.75747726624576],[11.54976511678424,43.7568403118181],[11.549580661248221,43.756538598507916],[11.549444733476186,43.75631626149472],[11.549312078569958,43.75625635087292],[11.548380926869351,43.755835809476714],[11.548299690747886,43.75582411664162],[11.547871127260894,43.755763314776516],[11.547668613315828,43.75573465494339],[11.546922509949852,43.75571528088676],[11.54622714428446,43.75541560754985],[11.54619755878839,43.75537230297836],[11.54609368238471,43.75521426168854],[11.546027504511937,43.755113998182274],[11.545607125538288,43.75457415873492],[11.54523580829832,43.75431233025576],[11.54514947222813,43.75425348223566],[11.544737351784988,43.75398130782315],[11.544058861854905,43.75379834649806],[11.543772678097314,43.753755059643154],[11.543721333976562,43.75374734093414],[11.543657320947085,43.753737935264496],[11.54333776570595,43.75369079778494],[11.543271163300105,43.75368098857525],[11.543184409085995,43.75366306117935],[11.542861173172106,43.753597429188346],[11.542732619460564,43.753571279933844],[11.542535268767566,43.75353065551159],[11.542206288455734,43.753461449088086],[11.54177125512688,43.75334640778507],[11.541578209133064,43.75329535799336],[11.541075750041722,43.75316248198215],[11.539664379975216,43.75297779010929],[11.538574513941093,43.752758924458526],[11.538305904670327,43.752714874934185],[11.53822533110893,43.752701697112975],[11.538114866534778,43.752683606666274],[11.537489469101892,43.752580457939764],[11.537411341469904,43.752568688275325],[11.537224635062179,43.75255933045424],[11.537143786706771,43.75255662454637],[11.53681089388677,43.7525415095639],[11.536751760330588,43.752538321106954],[11.53642836462992,43.7525274967414],[11.536312316199856,43.75253220657026],[11.536252965055466,43.75253474351346],[11.536011895679078,43.75254470043838],[11.535957404964469,43.752547006867665],[11.535910857533722,43.75255249252609],[11.535474578261926,43.75258918819454],[11.53543750298442,43.75259450031559],[11.535348239203591,43.75261225042581],[11.534759980794533,43.7527265955741],[11.534606617899108,43.752719911259334],[11.534168827366045,43.752700830842734],[11.534109279966254,43.75269825523311],[11.533939168150432,43.75269090439959],[11.533682840909973,43.75263382975266],[11.533619904029297,43.752619663229424],[11.533583406458181,43.75261150709447],[11.533484058658235,43.752589411116524],[11.533424830473955,43.75257606257677],[11.53290973117756,43.75247497196746],[11.532848637213554,43.75246287907456],[11.532666478550828,43.752481471473715],[11.532466062565573,43.752502156526845],[11.532403244332656,43.75250863084074],[11.53224181215422,43.75256670529786],[11.532134021795743,43.752605651808366],[11.531950599826294,43.752671983352506],[11.531915891865308,43.75267974572926],[11.531421545719022,43.752791629103804],[11.530839453590287,43.75283153936296],[11.530792824014423,43.75283032164341],[11.530342325489235,43.75282454428093],[11.530040419848872,43.75277329339024],[11.529967023999955,43.75276083399026],[11.529489543103587,43.75266416985938],[11.529365696744334,43.75263909964244],[11.529299095590245,43.75263811017701],[11.528644829792755,43.752628050598986],[11.527672369605309,43.75254153324389],[11.527107896700764,43.75234608171291],[11.52686568695447,43.75226226849658],[11.526828136463818,43.752212466152685],[11.52677389491808,43.75214073943596],[11.526710219812266,43.7520563220424],[11.526587746682335,43.75189413009668],[11.526568908059453,43.75186910468173],[11.526484793186132,43.75175769567534],[11.526457907402055,43.7517220791362],[11.526125346339885,43.751198231810754],[11.525413302474233,43.750732292590875],[11.525014364256702,43.75047551124323],[11.52518679159006,43.7498504616669],[11.52486431353269,43.748975253262785],[11.524380233464335,43.74839172601974],[11.523736441882887,43.74814485196118],[11.523379337959174,43.74804100780864],[11.523340856392371,43.74802981390985],[11.52329666168622,43.74801708325577],[11.523242620639998,43.748001341431525],[11.522843735442843,43.747885466086196],[11.522128907092386,43.74772118349717],[11.521304298331573,43.747604336349205],[11.52086315565301,43.74715489805711],[11.520173534872367,43.74699904946999],[11.519413866598713,43.746970372314394],[11.519341882507906,43.74697443147834],[11.519300358348266,43.74697667354265],[11.519258734537054,43.74697887907456],[11.51921712214879,43.74698106093022],[11.5191702382245,43.74698349408425],[11.51911442932589,43.74698636624474],[11.519027823816549,43.74699078728486],[11.518972255431002,43.74699364957001],[11.518932680911181,43.74699567923958],[11.518807513506022,43.747002170462586],[11.518671212215263,43.7470096768523],[11.518051210205943,43.74704546878454],[11.517979891705167,43.74704443713356],[11.51789725317391,43.74704288426782],[11.517725122994738,43.74703939460266],[11.517405247018802,43.747033233919595],[11.517332959352487,43.747035745399785],[11.517104028353483,43.74704414423433],[11.516946580246467,43.747049943811426],[11.516860594320658,43.747052767635914],[11.516735734946003,43.747056838656796],[11.516598997704643,43.7470090138514],[11.516558867389005,43.74699515112785],[11.516520851307295,43.74698194948758],[11.516485163597876,43.74696945103335],[11.516441109055565,43.74695393704321],[11.516395942664488,43.746937941532366],[11.516243900483595,43.74687860213603],[11.51594082748021,43.746759229693595],[11.515324488043342,43.74640878409533],[11.515289012906347,43.746388747338806],[11.51525356866814,43.74636876571256],[11.515213040607978,43.74634589604686],[11.515182632943143,43.746328621596014],[11.515132291418436,43.74629998064733],[11.515083353143897,43.746272105590165],[11.515026903492913,43.74623966274771],[11.514993089087422,43.74621079289316],[11.514962853879274,43.746184736154035],[11.514933274423926,43.74615885674388],[11.514496517125616,43.74578264784618],[11.51429756430029,43.745183795893176],[11.514104644045984,43.74472886621247],[11.513267305372185,43.74460323835976],[11.511963738216004,43.74431679217375],[11.510840274646826,43.74388231769842],[11.50962132924527,43.74353996338142],[11.508733445338258,43.743392903857384],[11.50852082856598,43.74335705835863],[11.507119550400333,43.74310871655122],[11.506835003185383,43.7428844794512],[11.506809543449044,43.74286496933083],[11.506766939478506,43.74283088238863],[11.506659160849065,43.74274596921183],[11.506618932773264,43.742714827349424],[11.50646686960042,43.74247065269847],[11.506451070060448,43.742444612747825],[11.506419022100124,43.74239332149428],[11.506385185584524,43.742339196450494],[11.506325900179903,43.742243794899146],[11.505514215624029,43.74184681099319],[11.505445467911215,43.74184705842886],[11.505389221333196,43.74184734945524],[11.505301727636823,43.741846820401584],[11.505237929669526,43.74184622716397],[11.505191775126397,43.74184644531092],[11.505145084140999,43.74184663468821],[11.504583166704338,43.74184509686211],[11.504534432837927,43.74184483918976],[11.504477427638982,43.741844568373494],[11.504436836938712,43.741844258165884],[11.504388050512638,43.741843961067495],[11.504339120614805,43.74184364818637],[11.504290399611143,43.74184331179706],[11.504074399661171,43.74184317262729],[11.503980655488018,43.74185023180354],[11.503843527517965,43.74186055128511],[11.503753305028438,43.7418682911767],[11.503708495962691,43.741871798832996],[11.503662434135414,43.74187531322201],[11.503616220367721,43.741878847129],[11.503570125590963,43.741882375708244],[11.50352095078161,43.74188613743917],[11.50347177476191,43.74188990007579],[11.503422706640821,43.74189365942614],[11.503373506204905,43.741897432459396],[11.50332438791238,43.74190120997373],[11.503275134936013,43.7419050039238],[11.503227889614893,43.74190860889902],[11.503180628185842,43.74191230424295],[11.503135074007062,43.74191581359694],[11.50308965216748,43.74191931012888],[11.503044196143922,43.741922820897095],[11.502998917950816,43.74192633765436],[11.502953799352275,43.74192986980406],[11.502908922573829,43.741933423647794],[11.50286425952871,43.741937010605525],[11.5027880732615,43.74194322400349],[11.502722332647869,43.74196067808171],[11.5026766564356,43.741973029591435],[11.502605695962956,43.741992265421445],[11.502539737230462,43.742010179751894],[11.50249411342219,43.742022568755665],[11.50244860367011,43.74203492373014],[11.502405395146619,43.742046654747966],[11.502362295602493,43.74205837886027],[11.502322887875716,43.74206860762681],[11.50227646951368,43.742081153504266],[11.502224634091958,43.74209477150133],[11.502189826693959,43.74210516145105],[11.5019990629283,43.74215714338976],[11.501925822577077,43.742176513368264],[11.50188167984969,43.74218842041093],[11.501837335160415,43.74220036877441],[11.501792910217345,43.74221232878227],[11.501748557409794,43.742224261983104],[11.501704088929278,43.74223622110922],[11.501659652314697,43.74224817051663],[11.50162143155676,43.74225845857907],[11.501582907753566,43.74226868663931],[11.501544630610542,43.742278963305914],[11.501506519907966,43.74228918139324],[11.501447816561742,43.742304914911514],[11.501270010405799,43.74234219992469],[11.501196128185395,43.74235726269675],[11.500413630581152,43.74251742330782],[11.499914989958281,43.74230605285696],[11.49906095942065,43.74194379397504],[11.498333910474953,43.74148251539659],[11.497785060558378,43.741125376212864],[11.497595272027924,43.740742377842864],[11.49757394332988,43.74022964643724],[11.497518130164401,43.74010113486527],[11.497476087876137,43.74000433243896],[11.49742287643757,43.73988181430561],[11.497033324117957,43.739805610993734],[11.496884520232378,43.73977653928508],[11.496348718987623,43.74003134363288],[11.496081529291988,43.740084327728205],[11.495927627549582,43.74011485791911],[11.49569237293804,43.74016168265967],[11.495634404330724,43.740172553235944],[11.495479182098595,43.74010005722567],[11.49530504918739,43.74001813414594],[11.49516810005505,43.73993569028387],[11.495072010489043,43.73987798232922],[11.494553610740239,43.73956636756072],[11.494404870502663,43.73958380438384],[11.49432837206296,43.73959285596026],[11.494126802585168,43.73961660413603],[11.49403198025262,43.73962775817686],[11.493979128028785,43.73963396221403],[11.49388980496794,43.739644442351604],[11.493828745608182,43.73965160430765],[11.493614431021927,43.73967690833181],[11.493409841628452,43.73969508225289],[11.492582390825163,43.739769258399754],[11.492439557181815,43.73978152809607],[11.492278280560253,43.73979626452328],[11.492212928879816,43.739792499840114],[11.491739131798514,43.739763467252956],[11.491683984681815,43.73975989382905],[11.491479270694008,43.739747701683505],[11.491294728916982,43.739736528692475],[11.490652427853584,43.73963743115426],[11.49037565567132,43.73959472677678],[11.490169906839174,43.73956298115353],[11.489103247888982,43.73945085123668],[11.48902926339354,43.739443184336416],[11.48882288524175,43.7394212728518],[11.48870657397971,43.739452982062126],[11.488006745321373,43.739643772745],[11.487889657058197,43.73967569162306],[11.486847367889624,43.73999550282745],[11.485996991833767,43.73985195122159],[11.485804808198901,43.73978410533458],[11.485341779222109,43.73962311529487],[11.484685827066551,43.739376285498004],[11.483881370902285,43.73914168384104],[11.48275508918821,43.73893207979025],[11.481674210096914,43.73893225827762],[11.481615855262055,43.7389322844621],[11.481578168104248,43.73893229018902],[11.481500890996877,43.73893232313393],[11.480881679457708,43.738744911417236],[11.48080629906392,43.73872204631062],[11.480696080677893,43.738688703115564],[11.480001450437207,43.738406672089106],[11.479406795645946,43.73836007747736],[11.479353141918155,43.73835587233926],[11.47929597033178,43.73835133927077],[11.479191673812332,43.73834321915642],[11.4787656097833,43.738550542534014],[11.47860320869924,43.73885880305967],[11.47857593898998,43.7389105537876],[11.478552433088566,43.73895523339275],[11.47847772008161,43.739096997307236],[11.477869999245895,43.739416300265454],[11.477171872207506,43.73935041105202],[11.477056418808287,43.739319797898446],[11.476791700681002,43.73924960575182],[11.476418555099823,43.73915066185481],[11.475922178506936,43.73900836263971],[11.47538782496368,43.73885777625603],[11.475278594623244,43.73882827253115],[11.47515824542284,43.73879563780312],[11.475019129684341,43.73875729346079],[11.474676368253848,43.73866281212072],[11.474640499175909,43.73865293259571],[11.47459694873564,43.73864074168966],[11.473828098412667,43.73866658676467],[11.472899441546149,43.73873171235006],[11.472803869592253,43.738766944054184],[11.472712830795768,43.738800413694776],[11.472483535397796,43.738884771145024],[11.472204844446175,43.73905286501229],[11.471791897789885,43.73927788557273],[11.471517717358598,43.7394019365696],[11.471459040531323,43.739428486259754],[11.471353023132462,43.73947645406759],[11.471196685223171,43.739524854047175],[11.471081172919291,43.73956133411186],[11.471023606759772,43.73957701028349],[11.470962965126079,43.739591039579594],[11.470801004673584,43.73964145588756],[11.470186944810077,43.73980779578986],[11.469978429600705,43.739870826827044],[11.469292452483154,43.74007899340708],[11.469118564390323,43.74013409851153],[11.46908626353941,43.74014446380799],[11.469005784719851,43.740169142568476],[11.468825664907198,43.74022437561958],[11.468464171540969,43.7404932861773],[11.468448705987027,43.740106240297834],[11.468440794284483,43.73995365897162],[11.468416554664929,43.73987622290405],[11.468303411326735,43.739533677256595],[11.468214998143504,43.739265195979996],[11.468175541879242,43.73922107942864],[11.468091904138857,43.73912779295],[11.467889667558838,43.73890308252392],[11.467642476561824,43.73862931557277],[11.46701442591343,43.73785057565885],[11.466365274326346,43.73716232232947],[11.465960577438137,43.73675689997156],[11.46536823828872,43.736166453378985],[11.46471114807891,43.735586403418566],[11.464040177649908,43.73496136025108],[11.464023079918972,43.73492999334852],[11.464010531348254,43.73490608949682],[11.463985948788356,43.73485926198013],[11.463960278294989,43.73481027996577],[11.46380718545167,43.734518001832434],[11.463779394283929,43.73447261831576],[11.463791813257084,43.734363275140076],[11.463796622882818,43.73426515784767],[11.46381595561115,43.733969333452016],[11.463819954713745,43.73391471988828],[11.463837432923308,43.73366050127136],[11.46393973576897,43.733460010335456],[11.464171902818142,43.73300426285421],[11.464253278797177,43.73284244763587],[11.464299695132812,43.73280885704591],[11.464855234510981,43.73244108124326],[11.465642394675452,43.73195591213051],[11.465959462794709,43.731210781846556],[11.466400892605035,43.73054624843191],[11.466438070078,43.73046891639658],[11.46664265740459,43.73013713586409],[11.466661450879522,43.73010533644923],[11.466724546636359,43.730003638343],[11.466759051203349,43.729948401920915],[11.466855699580739,43.72979203257931],[11.466903704120853,43.72971382371767],[11.467005755963099,43.72945967327914],[11.467056686869643,43.72934368435303],[11.467197415083126,43.72900520844889],[11.467264507027592,43.728749410677565],[11.467379845740973,43.72830799961809],[11.467388991572008,43.72800168290662],[11.467402121607236,43.72764125967246],[11.46738718500587,43.72697532435157],[11.467204498550412,43.72645706825563],[11.466870749800343,43.72588805279832],[11.466581938249265,43.725617617185364],[11.46655795249755,43.725596734537426],[11.466431648043098,43.72547437072645],[11.465650777759182,43.725203116913434],[11.46525255572375,43.72518019922157],[11.464729923142068,43.725150961894585],[11.463519118298482,43.72529412677124],[11.462203911568748,43.72531347929434],[11.46134974173141,43.725070786586876],[11.460719834339164,43.72454414806623],[11.460465984703355,43.7238023264631],[11.460268634059535,43.72292423387853],[11.459756283219843,43.722539114070216],[11.45856984436637,43.72236657864624],[11.457557060187398,43.72219029506292],[11.457356763772715,43.72214958703864],[11.457165770292624,43.72210867765438],[11.456855840508455,43.72204331622021],[11.456306409052218,43.72196509696773],[11.455897304115004,43.721917109349846],[11.455840568301612,43.72190082075968],[11.455641601029589,43.721873597301844],[11.455507435352738,43.72185622422279],[11.454529310990113,43.72161614638282],[11.454462078161939,43.72156581956789],[11.45399145542742,43.72121353508741],[11.453277032860699,43.72074269194293],[11.452595669211236,43.7203971827108],[11.45252908321462,43.72036259890664],[11.452067130656484,43.71991783901906],[11.45206548085757,43.71932319290778],[11.452831410191845,43.71864544227395],[11.453217200098647,43.71806093273744],[11.453412903678986,43.71738146699314],[11.453282835826078,43.7166279662808],[11.453001372948636,43.715814691360904],[11.452773197020349,43.71509030729288],[11.452449038135493,43.71414289473268],[11.452180896321275,43.713486941861085],[11.452172491101932,43.71345799570311],[11.452159046644981,43.71343133928455],[11.452141696035735,43.71339059957774],[11.452066531997882,43.71321024072415],[11.452067516294786,43.712397613883624],[11.452066458233077,43.71210731156013],[11.45206539481167,43.71165695803524],[11.45206533906623,43.71159413132378],[11.452065059828449,43.711562580656626],[11.452064988945786,43.71152150242624],[11.452064757535092,43.71143407539017],[11.452065845997582,43.71133141566919],[11.452064846859944,43.71128632555754],[11.452065775129528,43.71090985856248],[11.452067388663167,43.71079728001831],[11.45206756669463,43.710040981330074],[11.452066478385532,43.70932972677535],[11.452074973874925,43.70867413099124],[11.452074102285486,43.70863149520359],[11.452068718277404,43.70850543899496],[11.452067558259076,43.70845548858007],[11.452067668347798,43.70834183212544],[11.45206775769455,43.70825060945449],[11.452067409631558,43.70805570634627],[11.452067472080754,43.707982171798555],[11.452067650093333,43.70778096478242],[11.452068976426053,43.707737228390876],[11.45206735069187,43.70760648345744],[11.452068016639215,43.70594437132393],[11.452067956884095,43.704953984714344],[11.452583244004373,43.7040470726601],[11.452971072530293,43.703210421213946],[11.45334567682665,43.70204992563725],[11.453679480549434,43.701106389555214],[11.453920323576773,43.700317909583475],[11.454312798926217,43.69929207962208],[11.454510054590395,43.698196163167076],[11.4545454639516,43.697999575841294],[11.454691050033663,43.697006059590954],[11.45474033123969,43.69654131963253],[11.454747702261841,43.696493892330054],[11.45475433892793,43.69642847450198],[11.454776847672578,43.696292301132566],[11.454789964347635,43.6962054199224],[11.454847957547877,43.695831138236905],[11.45488246775396,43.695615403195625],[11.455018778347622,43.69508807429018],[11.455057997159905,43.69493636615749],[11.455086084664408,43.69482772287787],[11.455137585981477,43.694619579958974],[11.455347638498038,43.693939750912065],[11.455641698428174,43.69324015794581],[11.4558395099921,43.69261466217312],[11.455996452257093,43.691900008584604],[11.45607322337674,43.69134914244986],[11.45608238368205,43.69119363415433],[11.45610802789316,43.6906821324849],[11.456112618557142,43.69018683884219],[11.456066979428103,43.68998073883261],[11.456038087838968,43.68984293037123],[11.455837688369451,43.688923250222054],[11.455741795325194,43.68816888304193],[11.455687977649504,43.6877198376547],[11.455678281418015,43.68764008679389],[11.455669789059554,43.68756733467236],[11.455672376459315,43.687487803254264],[11.455731645296165,43.686629626403814],[11.455792991501097,43.685700943364225],[11.455793459566541,43.684800578834],[11.455744343954047,43.68390128007337],[11.455660794397186,43.68337411705993],[11.45559349705271,43.682941142608115],[11.45555733217287,43.68235894276999],[11.45555502449625,43.68232072878642],[11.455525450658785,43.6818714022102],[11.455517417242193,43.681718633971315],[11.455510951513114,43.68142130139537],[11.455501730378213,43.680998350971024],[11.455500944411833,43.68097149115183],[11.455495790981939,43.680660251251496],[11.455494018374749,43.680550874626846],[11.455493545530786,43.68051411579502],[11.455485691732353,43.68007632136194],[11.455482910707815,43.679927334252234],[11.455431894907314,43.67962229676123],[11.455355574068717,43.679173318349854],[11.455333896214103,43.67903604141415],[11.455265363081207,43.67872553334612],[11.45516642379154,43.678283584696764],[11.455132031152111,43.678171087929236],[11.455037728535636,43.677874396731106],[11.455023656017069,43.677829548664256],[11.45500306721529,43.67776442400542],[11.454966702137625,43.677649448550156],[11.454939809238875,43.677562068229776],[11.454897021533515,43.677381847325854],[11.45487270436902,43.67727941789568],[11.454853676673174,43.677199274020516],[11.45477447621101,43.676854336224984],[11.454382837612306,43.67637655956423],[11.453820257524413,43.675965477862185],[11.453742293904595,43.67590667956845],[11.453695476917469,43.67587137168793],[11.453666764953649,43.67585173110177],[11.453587377487056,43.67580616710482],[11.453542698478556,43.675780637102996],[11.453504554766841,43.67575821883878],[11.45340740816385,43.67570333200772],[11.453300897804562,43.675642524610446],[11.453256950251662,43.675617434371404],[11.453180956888108,43.67557404901021],[11.452697527442012,43.67529751844743],[11.452498284274114,43.67518354674348],[11.45206494853895,43.67479669250035],[11.452064731455977,43.6747308671085],[11.452070307999678,43.674287731815745],[11.452033310365929,43.674245421938025],[11.451662501097475,43.67385095300031],[11.451692824715916,43.673385117833625],[11.451800445596643,43.673252255485096],[11.451984878437083,43.67302931073945],[11.452068498000997,43.672929085540694],[11.452008458887763,43.67280593497552],[11.451909373867354,43.67260316232934],[11.452069005034925,43.67248719160237],[11.452475367346349,43.67218585333471],[11.452563568590138,43.67214344348762],[11.453016693825745,43.67192438208273],[11.453120434078546,43.67187591183566],[11.45317888321642,43.671848996376724],[11.453649409609996,43.67164168398734],[11.453786486165939,43.67158128761605],[11.453845552478729,43.67155510316005],[11.4539120984039,43.67152475049342],[11.454403024592262,43.67117206799168],[11.454417384499832,43.67109230329589],[11.454436578204936,43.67100253074617],[11.454476520345342,43.67076532806114],[11.454116680210342,43.67045793407956],[11.453724065312603,43.67025928563528],[11.45316998071983,43.67005509962273],[11.45283970252344,43.669864113146154],[11.452718279429469,43.66981478802488],[11.452641537085071,43.66977821517822],[11.45246956772824,43.669702854191556],[11.452391419368636,43.66966890620727],[11.452359075260421,43.66965486516842],[11.452266428635827,43.6696148042264],[11.452066350944348,43.669529575654714],[11.45142466022702,43.66953434423013],[11.451011670989699,43.66944416635226],[11.450495878389566,43.66926615666712],[11.450000480714202,43.66897966358392],[11.449437215134974,43.668244445966124],[11.449299695036894,43.66760814129168],[11.449221838922012,43.667371215754464],[11.449101681550257,43.66700914691343],[11.449062742030767,43.66668615757114],[11.449130742702229,43.666427793447134],[11.44918137141124,43.66622412788645],[11.449375200127683,43.66580580833884],[11.45004431285107,43.66548533844965],[11.450353890449833,43.66524460950079],[11.450430589859712,43.66517045442724],[11.450489822195479,43.66513749469195],[11.450599024174743,43.665051888372396],[11.450813196912955,43.66488062123091],[11.450750122562257,43.66441678930573],[11.450742797781322,43.66436292546608],[11.450702398632364,43.66427708969868],[11.45062179729136,43.66410582986059],[11.45037008918779,43.66357410384978],[11.450352119017184,43.663526161312944],[11.450321677498525,43.663462597527705],[11.450204466151686,43.66324902573048],[11.45011100409439,43.66307996180472],[11.449879813802132,43.66266175194968],[11.449863955031574,43.66263508108711],[11.449789950591711,43.66251061876398],[11.449689319558232,43.662342550039554],[11.449597184975019,43.66218887954961],[11.449576775550264,43.66214829384121],[11.449543232907404,43.66208598750863],[11.449316552918063,43.661620406067954],[11.44909999957359,43.66117486976277],[11.448977239334244,43.66085428023435],[11.448945416599006,43.66076418489083],[11.449061947631382,43.660239313039014],[11.449695657519959,43.659964622254314],[11.45016577534471,43.65993653338443],[11.45069424287901,43.66012327672889],[11.450972098204742,43.66020263548112],[11.451026806585263,43.66021968064672],[11.45110091076394,43.660240580981984],[11.451152270925983,43.66025525433254],[11.451309078937811,43.6602991580975],[11.451684272078683,43.66035069677327],[11.451862596113719,43.660372842603216],[11.452067516647283,43.66039805207652],[11.452120543985489,43.66037663769165],[11.453378037732316,43.65984296855245],[11.453422709119156,43.65982161505843],[11.453501726841376,43.65977061500765],[11.45353147751641,43.659751752688216],[11.45431688975667,43.659244186873615],[11.455269990515626,43.65828733384125],[11.455739028060465,43.65701675112367],[11.455736469452848,43.65667157993947],[11.455733283565031,43.65620704637251],[11.455732495657534,43.656096276944005],[11.455733575687963,43.65604673452926],[11.455733074085897,43.65596965692192],[11.45573063069867,43.65559436688316],[11.455613376473774,43.65522774008904],[11.455474236994922,43.65478055153322],[11.454979438621578,43.65359370876218],[11.454210486377765,43.6517644951895],[11.454089235012818,43.65099504041758],[11.453960146217833,43.65018524089141],[11.453532421578926,43.64881687778386],[11.453470141389849,43.64812493849333],[11.453397638910035,43.64733417918842],[11.45338351327283,43.64607397901571],[11.453555936944756,43.64482777976298],[11.454111334220793,43.64385246517636],[11.454459660354484,43.64333487031146],[11.45449271247797,43.64328485701394],[11.45455669390772,43.64318485889074],[11.454849397378409,43.642755731320904],[11.45488247408002,43.642706579931364],[11.454929628523159,43.642634934679805],[11.454976321184422,43.64256437346928],[11.455079857790404,43.6424655157729],[11.455294891994665,43.64226013254767],[11.455618806303162,43.64195049252196],[11.455675520921218,43.64187608622816],[11.455732897904788,43.64180071758138],[11.45584428047629,43.64165436092886],[11.456156768259902,43.6413404406402],[11.456263240403493,43.64123312732744],[11.456564076076,43.64091184472359],[11.45700978213444,43.64044082547235],[11.45784162553992,43.63955858622706],[11.458967045892441,43.63857998664427],[11.459598358496487,43.638047403494035],[11.459809418940566,43.637868481622306],[11.459854124850535,43.63783074535132],[11.459973789255857,43.637730037721376],[11.46007125548436,43.6376542124247],[11.460104677522148,43.6376281744071],[11.460281029767538,43.637490920743495],[11.460450239567933,43.637359382199115],[11.460664389276337,43.63719275245597],[11.461051276636,43.63689166261921],[11.461245811543023,43.636739429819066],[11.461652799918088,43.63644192863832],[11.461892406601958,43.63626608382632],[11.462122930813779,43.6360969033877],[11.462255615312216,43.636002129800644],[11.462284968437567,43.63598298651648],[11.46230613749457,43.635959389920274],[11.462415705345515,43.63588224656322],[11.462468293568367,43.635843990030416],[11.462520083464652,43.6358033692078],[11.462856492512568,43.63553565203591],[11.463102795130386,43.63533963884828],[11.463455778078545,43.63505872513313],[11.463684221640257,43.63487692181931],[11.463742179062287,43.63483043389739],[11.46394900195096,43.63466656253618],[11.46398978995596,43.634635207208596],[11.464056206954806,43.63458440038703],[11.464279648449638,43.6344138989349],[11.464657268583089,43.63412574593076],[11.46488676173479,43.63395062259838],[11.465153889214296,43.63374677985462],[11.465258392936297,43.633668845363346],[11.465504003453292,43.63348567935547],[11.465617013316022,43.63340139975024],[11.465860874791618,43.63321940878382],[11.466123283312427,43.63302357624895],[11.466461279800411,43.63277132748735],[11.466657805873771,43.63262505329978],[11.466684982237634,43.63260616476374],[11.466742686905228,43.63256469491961],[11.467061602953185,43.63233754263589],[11.467401194609867,43.63209543889969],[11.467668043122712,43.63190498655261],[11.467708111189165,43.631876090841864],[11.467810132528053,43.631803352329236],[11.467886401607561,43.631749787821065],[11.468050846267024,43.63163211023177],[11.468269560301197,43.631475954996674],[11.468415991713227,43.63137188165104],[11.468661034743429,43.63118896598982],[11.468688943654687,43.631168230697895],[11.468869308475982,43.631033901349596],[11.468976556258651,43.63095403858181],[11.469305108454094,43.63070943601783],[11.469471116022765,43.63058583778919],[11.469823334748995,43.6303235953676],[11.469932505057868,43.63024055595517],[11.470068372229195,43.63013721037719],[11.470174658156099,43.6300563966785],[11.470360739830573,43.62991484825871],[11.470542789302094,43.62977634623935],[11.470673085233912,43.629677236897805],[11.470724885905543,43.629637834806054],[11.470764649814384,43.629632345170606],[11.471047941605756,43.62968566056971],[11.47154879557071,43.62977982573578],[11.471632012162434,43.62979493167775],[11.47174400554253,43.62981872928859],[11.471812352126712,43.62983364179882],[11.472422614971265,43.62996664220283],[11.472699322432986,43.630027290825645],[11.473250613512148,43.63023566162108],[11.47355160910941,43.63034903645078],[11.473699660578333,43.63039053420174],[11.473870013463328,43.630436901544954],[11.47417966656439,43.63052118182473],[11.474430051763814,43.63058933091104],[11.474485422776233,43.63060439139199],[11.475086832268811,43.63076808092855],[11.475147525452881,43.63078459962936],[11.475533894295056,43.63076047102991],[11.475617395698086,43.63075640805417],[11.475602262675327,43.62978434560218],[11.475622026215909,43.629492948058704],[11.475642559751275,43.629190120747005],[11.47564858230113,43.62910131837561],[11.475930279725468,43.628929032016075],[11.47621462504217,43.62875510112079],[11.476507071759563,43.62857625886839],[11.476630937059804,43.628527622620545],[11.477089540003222,43.628347544834256],[11.47741966661412,43.628219058405854],[11.477848983356925,43.628051963878676],[11.477936106821936,43.62802647112248],[11.478224751131307,43.62794200791714],[11.478336270794099,43.62790938235739],[11.479327887049683,43.627619220767535],[11.479747408617829,43.627497570679054],[11.479968744176475,43.62745450072121],[11.480153021418124,43.62741448574378],[11.480352778284823,43.62737413440272],[11.480866191811824,43.627275201872585],[11.481383389926435,43.62711766089434],[11.481539523756167,43.627071502169954],[11.482375677232284,43.6267584693459],[11.482647232180142,43.626655779076536],[11.482686922425636,43.62664141196029],[11.483515668669,43.626299268880956],[11.483917652681594,43.62612846354363],[11.4843614526241,43.626370913338114],[11.48485664738229,43.62665726289157],[11.485335754452583,43.626853924322866],[11.486064393899106,43.62709017159985],[11.48664183673005,43.62726668119191],[11.487308936575737,43.627513263584135],[11.487485190039243,43.627579207412914],[11.487559820096992,43.62760734594897],[11.487648846884337,43.6276409774324],[11.487950037876804,43.62771508549944],[11.488048472453015,43.62773927672193],[11.488152901546387,43.6277649741758],[11.488312084057307,43.6278050715868],[11.488350192693435,43.6278146516265],[11.488571864116356,43.62785640475615],[11.488820289309189,43.62790311010137],[11.489037215408771,43.62794381502918],[11.489201649567185,43.62798487362095],[11.489280363319242,43.62800447389939],[11.48933638507796,43.628018392938976],[11.489651389013888,43.628096902653475],[11.489712157094647,43.62811202361039],[11.489790135036126,43.628131446892354],[11.489824283001875,43.62814007552938],[11.48990094073094,43.62815925379534],[11.489952692410895,43.62821070739301],[11.490198824538526,43.62845871803694],[11.4903487863459,43.628779811293555],[11.490379368147844,43.62889226778124],[11.490428416325338,43.6290734528569],[11.4904360841798,43.6291018075582],[11.490464266045564,43.629211070506976],[11.49047674485563,43.629259773084854],[11.490487006543892,43.62929870458175],[11.490494120827703,43.62932655993662],[11.490554138478199,43.6295584162109],[11.49060143172267,43.62979147901974],[11.49063633961903,43.62996498958023],[11.490651558334871,43.630017926255036],[11.490673687880395,43.630095439062224],[11.49070507683045,43.63020534690874],[11.490715207657882,43.63024068336309],[11.490806306586636,43.63056132688143],[11.491004731974318,43.63088856548594],[11.491231978048333,43.63126332962517],[11.491658515377909,43.63168620061508],[11.49245639048422,43.63220631854908],[11.49250476444399,43.63223794201769],[11.492614552066383,43.632309646960444],[11.492754096619118,43.63240059614394],[11.492856464746149,43.632443262927005],[11.493099987818056,43.632544760447345],[11.493733892435902,43.63280895889054],[11.493801010651277,43.63283693223608],[11.493946625425172,43.632869806115586],[11.49427470742503,43.632943781223524],[11.494356163034364,43.632962161134685],[11.494965653243996,43.63309983583696],[11.495577314414914,43.63322718396257],[11.495613976484625,43.63323479794365],[11.495708683945663,43.63325445404776],[11.495759320045753,43.63321763842831],[11.495946991806735,43.63308108278411],[11.496015403904945,43.63303122223405],[11.49608762891932,43.63304376921501],[11.496152366306788,43.633055348886224],[11.496220153985998,43.63308535541287],[11.496580256869338,43.633262398738054],[11.496764758094526,43.633351787917434],[11.49685780327333,43.63340793705529],[11.497323991554703,43.63369024520252],[11.497492460065343,43.633766338595336],[11.497558183532506,43.633796722581614],[11.497517583825493,43.633842804956],[11.49748067472127,43.63388620187537],[11.497603173550923,43.63395134854771],[11.497892157439912,43.63413400130476],[11.49813145713389,43.63428522209475],[11.498277849512325,43.63437777224667],[11.49861516300687,43.63456770098285],[11.498768893384158,43.634654249331746],[11.49900133003483,43.63478511793364],[11.499174118044987,43.63492384558728],[11.499281360634718,43.63501009383608],[11.499411990207456,43.63511503785663],[11.49980938989899,43.63543421243723],[11.499972993115028,43.63569402485649],[11.500057595325007,43.63582849442004],[11.500100222893382,43.63588426126651],[11.500128763600467,43.63594207678156],[11.500233897679495,43.636108689257455],[11.50031960398629,43.63619752278482],[11.500377899239602,43.63625607089767],[11.500446031939006,43.63632912106225],[11.50053803010198,43.63642407516072],[11.50071399156284,43.63660785643994],[11.50080262413613,43.6366998659606],[11.500941316612732,43.63676767255266],[11.50103439069653,43.63681377941841],[11.501332532338079,43.6369572865069],[11.501430368181454,43.63700588994916],[11.501702284401178,43.63713896779823],[11.5018821335052,43.637109318504834],[11.501970387309184,43.637120839947116],[11.502464223395574,43.63718530525319],[11.502593609171369,43.637202195384354],[11.502693207191284,43.63721519646814],[11.503217055232788,43.63728890778287],[11.503251670387256,43.6372937784142],[11.50339881383473,43.637314482345595],[11.503760939905728,43.63740547888687],[11.503843084385082,43.637437716042],[11.504198934235976,43.63758304268516],[11.504310241476242,43.63771090381573],[11.504354132334482,43.637763291091375],[11.504482144873467,43.63789564422712],[11.504620125561953,43.63803853265418],[11.504826489281871,43.638252122881916],[11.504937647420993,43.63836956401349],[11.505132114600602,43.63857152518401],[11.505469026247745,43.638919720299505],[11.505694946626372,43.63915331112576],[11.505777459736787,43.639237408871],[11.505898641961899,43.63936091913406],[11.506098443252082,43.63956455784295],[11.506143483917247,43.6395986444605],[11.506419254037658,43.63976461403195],[11.506475466946466,43.63979844460199],[11.506677545023239,43.63992006031675],[11.506810647858824,43.64006480697114],[11.5069232820722,43.6401219261383],[11.50705745567819,43.64020519723528],[11.507105166230234,43.640234805882315],[11.50723697446413,43.6403166070561],[11.507631850044362,43.64057471056068],[11.507702356501413,43.6406237941007],[11.50779989346706,43.640629588902314],[11.507957647194592,43.640607860173915],[11.508167640964075,43.64050908350384],[11.508224063399037,43.64048175936644],[11.508300050164861,43.640432209600974],[11.508630895306723,43.64020525054927],[11.508907590866237,43.64009466171889],[11.509079522390076,43.640077470352495],[11.509364385285,43.640136358758106],[11.50944225815927,43.64017910471216],[11.509464981378601,43.64024140158612],[11.50953970664512,43.64028727155335],[11.509616212814164,43.64033437366599],[11.509681355152297,43.64037480155335],[11.509762493716757,43.64042441376413],[11.509809903629103,43.640455340613556],[11.510015895723498,43.64062099762042],[11.51014522408211,43.64072627471636],[11.510179854031167,43.64075730033482],[11.510468512027357,43.641016911120886],[11.510514600918459,43.64105955524802],[11.510555749488192,43.64109601346644],[11.510824627476152,43.64135514593498],[11.510951417422515,43.641478364549435],[11.51097643771162,43.6415003237646],[11.511086535587117,43.64159694315535],[11.511175474608946,43.64163291522404],[11.51132456121974,43.64169786686055],[11.511461388011893,43.64175511867983],[11.511519352681342,43.641779613762345],[11.511715682571298,43.64186173077014],[11.511760546866073,43.64188061275396],[11.511817934622824,43.64190440817875],[11.51194394657113,43.64186323245233],[11.51208388231608,43.64181836594519],[11.512264729059098,43.64175998370126],[11.512589043986257,43.641653943558126],[11.51269301937594,43.641564499572596],[11.512814603649124,43.64145990668927],[11.5128993593774,43.64138699369334],[11.513007846800239,43.64129345074927],[11.51320974264812,43.641292614536745],[11.513301554091955,43.64129233246897],[11.513389234691823,43.64129178556289],[11.513924298172673,43.64128987534673],[11.514077321563928,43.64141956216516],[11.514376066968593,43.64169507285426],[11.5144521773406,43.641765948257905],[11.514516116731537,43.64182232370373],[11.51455726424643,43.641841663646055],[11.51461937732443,43.64187111869157],[11.514921779890454,43.64202244107219],[11.515153885618844,43.642090444577335],[11.515195146151072,43.6421052358555],[11.515727700000301,43.642296151424276],[11.515824460683605,43.64233083836678],[11.516130017160256,43.642440375948965],[11.516219141683026,43.6424676253515],[11.516399155756615,43.642522879191155],[11.516438689020328,43.64253031876627],[11.51686510085826,43.64249675055535],[11.51707133927326,43.642423812327436],[11.517114575928602,43.64241249829974],[11.517157861174697,43.64240854997295],[11.517254946308721,43.64239999751656],[11.517351279173587,43.64239088892168],[11.51741254887751,43.64237486106946],[11.517462386139803,43.6423604905808],[11.517517507530052,43.64234431274089],[11.517683833283618,43.64229894606323],[11.517797810742262,43.64226728845114],[11.51782536807511,43.64224993882157],[11.5178856373483,43.64221199536656],[11.518060060192038,43.64207156559751],[11.518131537981834,43.64199882164641],[11.5182811999411,43.64194118567396],[11.518669570432147,43.64178808305151],[11.518901673508099,43.6418132107972],[11.519027347715493,43.641826203375736],[11.519105325907683,43.64183519289322],[11.51913661470029,43.64186944523018],[11.519183049350126,43.641921589668634],[11.519215031793793,43.641956150819134],[11.519269365753255,43.64201702294079],[11.519380375210098,43.6422148890585],[11.519400325544606,43.64225087066523],[11.519450855374458,43.64234148911825],[11.519496156575844,43.64242159945115],[11.519550388565134,43.64248751662711],[11.519691446765725,43.64265897017461],[11.519717343653408,43.642690447494836],[11.519888914566618,43.642744244274134],[11.519947910191384,43.64275110208098],[11.520011751142905,43.642753072038786],[11.520091402661986,43.64275890690335],[11.520144823325245,43.64268829502766],[11.520176108682719,43.64264750982536],[11.520232853680266,43.642571932890036],[11.520218431377081,43.64253278804927],[11.520264176338662,43.642545379811246],[11.52030098629144,43.64255548828302],[11.520329017040387,43.64219472746333],[11.520333222662607,43.642140612775755],[11.520460524314753,43.64204625605252],[11.52049313166568,43.642022266717596],[11.520618658985075,43.64192578358568],[11.520676692098952,43.641737385660775],[11.520688980867202,43.64169059175031],[11.520711862096157,43.641613297445964],[11.520737140014875,43.641544573051306],[11.520914044965012,43.64133219449893],[11.520954868964427,43.641285179653984],[11.520989977777766,43.64124377143403],[11.521359657613823,43.64126479667311],[11.521847266103634,43.64128787515401],[11.521987114306985,43.64130735564965],[11.522118340980356,43.64132461063023],[11.522533030369445,43.64138077724398],[11.522600820908805,43.64139811061402],[11.52281686738701,43.641454352217686],[11.523096782073013,43.6415270308109],[11.52323253498147,43.64159826047091],[11.523386813783702,43.641678682263525],[11.523608744508264,43.64179565616741],[11.523826338303211,43.64187803618264],[11.523864249520331,43.64188054170426],[11.524124329438928,43.64189772978269],[11.524275449396665,43.641852518398835],[11.52447887620645,43.641659865967995],[11.524534486666106,43.64160414250715],[11.524565737295012,43.64156477224398],[11.524612948178342,43.64149449448412],[11.52478110747759,43.641195219020865],[11.524801329270197,43.641158229896895],[11.524815039754152,43.64113331270898],[11.524832634286126,43.64104339065496],[11.524840135522142,43.64100695456501],[11.52485600807732,43.64091540848875],[11.524913510905511,43.640856761848305],[11.525037410587453,43.640737373931216],[11.525058484330883,43.64071430178142],[11.525099508949868,43.64067319642218],[11.525133996064945,43.6406412581073],[11.525201945132164,43.64057451753548],[11.525238645087512,43.64061094182122],[11.525270613396827,43.64064252678031],[11.525362009136566,43.64073304332016],[11.52548719073809,43.64085681969857],[11.525493794528897,43.64092155582261],[11.5254989391227,43.64096739132621],[11.525515088467388,43.64111200030135],[11.525487001900647,43.64118045920199],[11.525445662014098,43.64128121815093],[11.52542430947302,43.641446185960596],[11.525440990017655,43.64156244240438],[11.525450890407676,43.64163143640553],[11.525475450591564,43.64180260568408],[11.525454015820207,43.6420094773901],[11.525440335096832,43.64205347092632],[11.525430461404547,43.642082015575106],[11.525420151307847,43.64213546586111],[11.52545500152028,43.642193929573274],[11.525506167240579,43.64227764437644],[11.525746399739148,43.642411082345404],[11.525787948230786,43.64243421340314],[11.52608690181673,43.64235530503959],[11.526339571050345,43.64220746107556],[11.526302921162769,43.642052459789895],[11.526347969673756,43.641979556855105],[11.526415184603188,43.64189140312201],[11.526519394737951,43.64175473165601],[11.52659831893008,43.64165102525832],[11.526622983229805,43.64161037211971],[11.526904020691406,43.64114633777007],[11.526934323619527,43.641094434031935],[11.527089380534074,43.64106586062518],[11.52732053814153,43.6410232396902],[11.527439052496712,43.6410022368539],[11.527464680100616,43.641136807465315],[11.52747394681571,43.64117533255197],[11.527534123684383,43.64149532975238],[11.527481904506654,43.64158652064762],[11.527220805162006,43.64204247663014],[11.527152919639521,43.64216102487946],[11.527236850532466,43.642300540806076],[11.52733953573685,43.64247202159499],[11.527488655725099,43.642450119234006],[11.527606766924468,43.64243276981778],[11.527870147058167,43.64239408252299],[11.528084725977756,43.64236219727938],[11.528222853761662,43.642342284815314],[11.52826363549825,43.64233627902565],[11.528349935945725,43.64232361064285],[11.528838656348277,43.64224448101416],[11.529101873526002,43.64220186169193],[11.529189544056083,43.6421917445899],[11.529461039779221,43.642297807477675],[11.529805189656651,43.64243545101446],[11.529875605612801,43.64242328628889],[11.529986304909873,43.64239640972076],[11.530083970836209,43.64237551559861],[11.530505549646772,43.64228488611856],[11.530598953281096,43.64233469977382],[11.530704189267091,43.64240100162645],[11.530746203915083,43.64241461269632],[11.530833864033836,43.642462333091025],[11.530874859469028,43.64248396823331],[11.531052795223301,43.642578381115186],[11.531076784836126,43.64260560516111],[11.531116418353585,43.64265277862155],[11.531289444502814,43.6428541146676],[11.531323676028988,43.64288908985805],[11.531349034074998,43.64292409058567],[11.531507215383835,43.643109030045],[11.531862333812821,43.64298357634436],[11.531985357915799,43.64293890269591],[11.532140352607245,43.6428338945534],[11.532284831665468,43.64273165291584],[11.532403809439222,43.64282817995457],[11.532489410259105,43.6428982719602],[11.53252112125994,43.64292449979919],[11.532561166392393,43.6429576899693],[11.532589344283274,43.642980385650304],[11.53264254696547,43.64302408848053],[11.532681862173954,43.64305657539797],[11.53321320533553,43.6430834283087],[11.533291633096614,43.64308748216027],[11.533781879985872,43.64311334934883],[11.533834486011811,43.643116309852836],[11.534248422640193,43.64313828978062],[11.53445623218325,43.6431899200792],[11.534553813142981,43.64321440328963],[11.534614835985721,43.643229878140616],[11.534679846877296,43.643246814903804],[11.535034388434715,43.64333635677603],[11.535083795764391,43.64334246512836],[11.535564314916181,43.64340116972056],[11.535721506916085,43.64342340148694],[11.535801367526965,43.64343470755682],[11.535859340454124,43.64344598801396],[11.535911746649532,43.64345638630384],[11.535970580538981,43.64346788438871],[11.536341434982436,43.64354045644934],[11.536524801417286,43.643537946512936],[11.536856251893662,43.64352640548898],[11.536959508688378,43.643523791984734],[11.537506059943684,43.643507151602826],[11.537557025486084,43.64350582687872],[11.537667544342549,43.64349195083487],[11.537711787199088,43.64348617361147],[11.537998018604453,43.64345530531291],[11.538035799290146,43.64345102567583],[11.53809867926749,43.64344389787219],[11.538187181399286,43.643433855321426],[11.538240407904748,43.643427812569904],[11.538801121410096,43.64329194831027],[11.53885404951828,43.64327912315688],[11.538985666976002,43.64341340639236],[11.539074482033213,43.64350431585065],[11.539147655556429,43.64357868925896],[11.539253016836158,43.643686164866295],[11.539372258467225,43.643807819601726],[11.539443425299947,43.64383377351378],[11.539759266577736,43.64394894524987],[11.539815171162376,43.64396701250327],[11.539941525001668,43.64389216068826],[11.54006315604977,43.64381901548875],[11.540284734384722,43.643686086575904],[11.540514353213613,43.64354833434824],[11.540670551832818,43.643536050611026],[11.541175169417022,43.643486270752355],[11.541275265103868,43.643484938249124],[11.541348117640588,43.6435293001374],[11.541457709154802,43.64359812239987],[11.541561653780196,43.64366333637376],[11.541610470690124,43.643694456345514],[11.5418082742219,43.64382055067484],[11.541922208343067,43.643892302889356],[11.542034913802363,43.64396460724059],[11.542172150029574,43.64405166909564],[11.54250122896827,43.64440488933453],[11.542546931587296,43.64445655248925],[11.542571336707748,43.644483227332586],[11.542743738334302,43.64466919864472],[11.542914611872238,43.64484546626634],[11.543040957105344,43.644975799678555],[11.543119660973824,43.645056987406754],[11.543220299546704,43.645152686836646],[11.54335960411299,43.64528493367729],[11.543542452034984,43.64545943554163],[11.543598639836482,43.64551304549451],[11.543713375072533,43.64562023258321],[11.543861355500692,43.64568229223148],[11.543970954062086,43.645728363293124],[11.544484232224255,43.64594496554773],[11.544648409754164,43.64584059940644],[11.544776270829948,43.64576077019248],[11.544868590986212,43.64570193402684],[11.545026882523612,43.645601934670566],[11.54509597157305,43.64555784970737],[11.5451499065381,43.64552270799629],[11.545239927463397,43.645539501996666],[11.545425180072312,43.64556987823094],[11.545505052102088,43.645582019079676],[11.545650478976919,43.645601828807145],[11.545716968534308,43.645637925670805],[11.545820256950437,43.64568864909072],[11.546185442564152,43.64587719131606],[11.54635285639424,43.64596225105972],[11.546445515193666,43.646009307759144],[11.546555790581568,43.64606355635368],[11.546640786875273,43.64610154146547],[11.546687063751047,43.6461181326748],[11.546782718887517,43.646161881893775],[11.54698490033394,43.64625335592162],[11.54750732550609,43.64648983400695],[11.547565307900332,43.646544227603066],[11.547606959531711,43.646581990989354],[11.547646862766246,43.64662171382628],[11.547724510176057,43.646695106743564],[11.547765935856125,43.64680441980233],[11.547801709954827,43.646894817096936],[11.54781398667915,43.64692432102412],[11.54784280173171,43.64698576295104],[11.547858473522009,43.64701925809673],[11.547896811244028,43.64710028572234],[11.547937998247095,43.6471841246463],[11.547971703069994,43.64721482981306],[11.548224168050346,43.64742809052659],[11.548285779574472,43.6474824739237],[11.548673705353954,43.647589779654716],[11.54870971347147,43.64760023896209],[11.548845945207145,43.64756742631714],[11.54888519106412,43.64755831866113],[11.548963647205905,43.64754160770938],[11.548967285969827,43.64748252570182],[11.548952837927345,43.6474128295042],[11.54893561157225,43.64733156529871],[11.548926650108783,43.64728533890383],[11.548912596431785,43.64721274103194],[11.548908421371387,43.647186566079824],[11.548880039881913,43.6471208938488],[11.548845552939767,43.64703575781681],[11.548865883615234,43.64696244139194],[11.548875584351975,43.64689445188869],[11.548925635111454,43.64670723182089],[11.549085138906616,43.646611835781115],[11.549268194977696,43.646621796709354],[11.549372840577492,43.64669091345028],[11.549486501264054,43.646765264400415],[11.54973984473424,43.6469334650768],[11.549899981907448,43.64701816698477],[11.549983107630055,43.647062817120435],[11.550108784732224,43.64712803694361],[11.550148392000478,43.64714803854088],[11.550383279158224,43.64720014633525],[11.55039865653412,43.64726229366409],[11.550515321647609,43.647374456594896],[11.550747670935737,43.647481385800106],[11.550842800750655,43.64752557910002],[11.550808732204873,43.64753759434728],[11.550717981373634,43.647566597329735],[11.550542421052315,43.64753897552327],[11.550319643313623,43.647466149575905],[11.55020786835762,43.647450573614606],[11.550029787609848,43.647398341824896],[11.549955513572453,43.64737649213191],[11.549723204783222,43.64741779444401],[11.549621428826404,43.647445051020526],[11.549519513233127,43.647472731092364],[11.54937410910119,43.64751280628049],[11.549305094063527,43.64753227803279],[11.549281123027026,43.647560554050116],[11.549207858136901,43.64764734171461],[11.549186402587372,43.64767318101902],[11.54914448153164,43.64770934587054],[11.549023879196705,43.64781296135647],[11.548981381484165,43.647849274969516],[11.548921138761527,43.64789908478196],[11.54887583656689,43.64791542154038],[11.548736686369699,43.64796572496675],[11.548587255023715,43.648011116511555],[11.548470228887998,43.64804839298556],[11.548327200318516,43.648142941655735],[11.54824899286958,43.64817343838991],[11.54817911019664,43.648200095707985],[11.54812747728573,43.64823617699142],[11.547830773554896,43.648231780444114],[11.54769424824377,43.64822996684683],[11.54764819731894,43.648229083258514],[11.547578862255936,43.64820686527419],[11.54715207713254,43.648117021367504],[11.547064412111876,43.64809558271109],[11.546971846535405,43.64807296032263],[11.546811686672545,43.64803414634627],[11.546757665695509,43.648021091592916],[11.546719763033293,43.64801963522203],[11.546654279274772,43.64801749625882],[11.546549339357954,43.64809021965668],[11.546529721132417,43.64812373902374],[11.546477091846938,43.64821256165535],[11.54644962103019,43.648258867437626],[11.546402555541595,43.64833884329361],[11.546377005084814,43.648376462764055],[11.546338755522997,43.648431218287136],[11.546317758770535,43.64846161076852],[11.546301963875369,43.648485588359144],[11.546239313688679,43.64850265287856],[11.546191802707565,43.64849618477807],[11.545906654184824,43.64845515190218],[11.545837648293192,43.64844197507678],[11.545730314896328,43.64842148961169],[11.545647845426465,43.648405747736525],[11.545569504244359,43.64839081057467],[11.545519582518681,43.64838139680068],[11.545390652681764,43.64835675355622],[11.545364427280845,43.64838651416107],[11.545261402314976,43.64850267226066],[11.545230502513295,43.64859467916532],[11.545173314681081,43.64876588607222],[11.545159172292472,43.64883444419822],[11.545109083673042,43.64907610390435],[11.545090637026743,43.6491652267733],[11.545212041877443,43.649187225268385],[11.545223286272257,43.64921144842573],[11.545300159159103,43.6494028879541],[11.545299339350498,43.64943058338908],[11.545292652477759,43.6495913310835],[11.545287198098523,43.64972170816981],[11.545286076562872,43.64974951116671],[11.54528132218082,43.64986176994945],[11.545279594742272,43.64992209586266],[11.545277071154786,43.64997746050464],[11.544852135424767,43.64995162497959],[11.544656979006309,43.64994891244154],[11.544361988342732,43.64994472713802],[11.544141408728292,43.64997015897135],[11.543927017226292,43.64999487814835],[11.543849038903954,43.65000386879115],[11.5437276749564,43.650051777550814],[11.543649711603662,43.65008220717566],[11.543584866077145,43.650107682594786],[11.543437522101344,43.650157531745165],[11.543072460047194,43.65028030485947],[11.542994611825092,43.650306486261094],[11.54259880717386,43.65055913442079],[11.542468921521241,43.65062987384263],[11.541913426209664,43.65093242421047],[11.541835018714417,43.65097632471004],[11.541751829154661,43.65111459148313],[11.541729968481295,43.651151502960154],[11.541741225381067,43.651191942620514],[11.54175556047638,43.65124029911349],[11.541771831351888,43.65129521129641],[11.541777233939316,43.651321567172936],[11.54180634102556,43.6514562783574],[11.541815642278683,43.65150529066166],[11.54180303694092,43.65153136293162],[11.54175140008471,43.65162965291012],[11.541660602080581,43.651800535276],[11.541645151250128,43.651825236557016],[11.54155002122287,43.65197713291514],[11.541717710914,43.65205598432309],[11.54181250345622,43.65210054106804],[11.541857245539143,43.65212114436761],[11.541290006999619,43.65232486350033],[11.541275915320917,43.65235027909577],[11.541195835568844,43.652494404256295],[11.541130274530161,43.65262629730496],[11.54106461761518,43.65275880469362],[11.540875238861883,43.65291171460084],[11.540914866166428,43.65306205549441],[11.541103036858985,43.65323250896508],[11.541364586435542,43.65340099932822],[11.541436604817859,43.65344766204751],[11.5414422839002,43.653495319770634],[11.541451760898504,43.65357926136288],[11.541470097647734,43.65375905026723],[11.541474147925632,43.65379934503983],[11.541484152445907,43.65389887007581],[11.541236660730025,43.65421080616154],[11.541054019116702,43.654314022209135],[11.540879595578389,43.65441158637644],[11.540607100140416,43.65456663525978],[11.540038862880564,43.654912402610336],[11.539720969764186,43.65523583620134],[11.539622700674943,43.655335819143176],[11.538901684014283,43.655594749061684],[11.538888488149812,43.65590291687537],[11.538876703275928,43.65617172457294],[11.539465192254472,43.656599817554394],[11.539932160159358,43.65680515226608],[11.540596168085496,43.656952823335146],[11.540622026630112,43.657063105394144],[11.540671772380893,43.65727526613027],[11.540300223142001,43.657580645697436],[11.540007562142415,43.65799231355496],[11.540154404802296,43.65853940135232],[11.540151773767835,43.658611351087934],[11.540146535314284,43.658774066704126],[11.540143397194267,43.65886289419985],[11.540132366247736,43.65918701060142],[11.539768012852996,43.659663296308885],[11.539098454901962,43.66025440826863],[11.538840415154686,43.660899394966336],[11.538914344547257,43.66103505625097],[11.538991137766464,43.66116392092722],[11.539241329705211,43.66158375769298],[11.539816490800597,43.661860065422474],[11.540190713414656,43.662039838562386],[11.541047117452177,43.66234484345299],[11.54132025378248,43.66245441370912],[11.541389845554791,43.66248281339535],[11.54185434334527,43.66266909642943],[11.542033719300868,43.662728350090816],[11.542342557612363,43.662830367121025],[11.542697041483796,43.66294745951005],[11.543008634286894,43.66305200556087],[11.543577679262008,43.66324297882581],[11.54360978480897,43.66325782402034],[11.544766725187044,43.663792724653646],[11.544841375851334,43.663822807551426],[11.54505873514149,43.66391059177824],[11.545675210636468,43.664159635368094],[11.546194081915095,43.66436516317222],[11.546461091497653,43.664470365700794],[11.546558358707166,43.66450883348978],[11.547661874972814,43.66479961543665],[11.548420470674527,43.66499427908936],[11.548915813973533,43.66512278200797],[11.550077876840449,43.6656190525288],[11.550838114800536,43.66575343012536],[11.550919940252244,43.66576795174116],[11.551027597165652,43.66578692227321],[11.551957498456716,43.66607227287062],[11.552348299923434,43.66651371889439],[11.552857679018734,43.6668264641091],[11.55389340018987,43.66697438078584],[11.55490052687122,43.66703289238616],[11.555957219250498,43.6670902861032],[11.55618725524527,43.66719868707228],[11.556576702163857,43.66738254386988],[11.556817780810642,43.66749419342669],[11.557058183803418,43.667605858494476],[11.557199153825007,43.66780389932765],[11.557291594222958,43.667933764334904],[11.557348371520606,43.66801352485624],[11.557647897318375,43.66834895343401],[11.557674136893095,43.66837537676508],[11.557852067716054,43.6685545523035],[11.557997758876983,43.66870126129261],[11.558102454506765,43.66880926325395],[11.558348005651599,43.66906256302886],[11.558502858807469,43.66916612978389],[11.558546042400975,43.669194888005315],[11.558634833496274,43.6692542165553],[11.55896077639471,43.669472003963946],[11.559133085807552,43.66953168691298],[11.55957114797173,43.669683416957376],[11.559766265034225,43.66975102879134],[11.560395319496745,43.67004606283672],[11.560462555974029,43.67007760264754],[11.56052498417836,43.670112217780535],[11.561010023195085,43.67038098594303],[11.56110415158565,43.670460560843914],[11.561209769068897,43.670550551845054],[11.56127248673402,43.67060413156314],[11.561673950856015,43.67094523825293],[11.561741595260488,43.67100255536725],[11.562305311170403,43.67141340681196],[11.562943730948943,43.671719622363184],[11.563219629893082,43.67185209107461],[11.563381875543358,43.6719298826234],[11.563574776297184,43.671962863869545],[11.563652872014428,43.6719764777208],[11.563747411710438,43.67199259101821],[11.56403150742607,43.672041571601945],[11.56407463713741,43.67204976559907],[11.564203657584228,43.67207428103831],[11.564707060986038,43.67216987087704],[11.564824493327047,43.67218985946568],[11.565222316189125,43.672257585209856],[11.565288512138377,43.6722687847848],[11.565451007256707,43.67229643754396],[11.565644028184076,43.672329273929805],[11.56571619824157,43.67232511219683],[11.566073346087274,43.67230451566762],[11.566270250998668,43.67229315962413],[11.56641115329553,43.67228511693655],[11.566687096324372,43.672272452654845],[11.566929180895889,43.67226136155709],[11.567010144744104,43.67225788375583],[11.56710649088342,43.67225335614295],[11.567191137465647,43.67224949923573],[11.567594211921756,43.672393499604304],[11.568152902760337,43.672696064012634],[11.56866241454795,43.67300873509908],[11.56903023986201,43.673198540938394],[11.569554176359706,43.67326778833503],[11.57011068073374,43.67322825835631],[11.57019930256021,43.67320818703977],[11.570446787266286,43.67315242528684],[11.570639540554525,43.67310823977327],[11.570803192241417,43.67309432528429],[11.570928752567847,43.673083895089995],[11.571005237600742,43.67307785108677],[11.571084043814285,43.673071698966986],[11.571332272633887,43.673099291835534],[11.5716822047998,43.673138868927474],[11.572735466015564,43.67340326500424],[11.573203867458645,43.67356493924405],[11.573590995417423,43.673699360991506],[11.573635924135338,43.67371890488336],[11.573949692468089,43.67385848683766],[11.574211351889936,43.673975038727015],[11.574266989241465,43.673999788227626],[11.57443883417184,43.674076166389895],[11.574837240195388,43.674400317214115],[11.575090290266333,43.67467066870066],[11.575357191856957,43.6749558162605],[11.575779575431666,43.675540409337074],[11.576217395659777,43.676214919039026],[11.576302922201956,43.67642227502261],[11.57650807241035,43.67691964137574],[11.57661814855093,43.67696875724433],[11.577064539078314,43.67716819039053],[11.577719606302038,43.677256950775174],[11.577976191189544,43.677291565944806],[11.57826237028726,43.67733023497568],[11.57913066129555,43.67732864047736],[11.580396302645237,43.677336072441165],[11.581328099902084,43.67736904100831],[11.581842005584756,43.67749247999312],[11.581986057749614,43.67752049175312],[11.582630109051275,43.677645731237355],[11.583024462523147,43.677832550069965],[11.583059969691506,43.67784938430164],[11.583214226210458,43.67792234915302],[11.5833012342319,43.67796368609765],[11.583382561580063,43.67804717207399],[11.583702960842393,43.678376178132005],[11.583833303091884,43.67850987018127],[11.583903459664457,43.67858931373878],[11.584293228851129,43.67903067219276],[11.584350808423363,43.679095870914765],[11.584522470989512,43.67929025145585],[11.584550480600408,43.6793219676043],[11.584702910473277,43.67947157872411],[11.584999739675645,43.67976291395436],[11.585151240507912,43.67991160911189],[11.585249873455162,43.6800084154394],[11.585633135178233,43.68035761805011],[11.58593418246952,43.68063217528366],[11.586189074551156,43.680788503531964],[11.586286967663826,43.68084854336809],[11.586625976258517,43.68105646001813],[11.586762205666727,43.68114000855547],[11.586908447971092,43.681229665094314],[11.587080947489733,43.68133549324889],[11.587559299286525,43.681586706088446],[11.587706817436542,43.681664176961434],[11.587753364048769,43.68168861075746],[11.58818352052744,43.68191451874837],[11.588362910980551,43.6820087254593],[11.58958835836126,43.68252116176687],[11.589657912158168,43.6825607448389],[11.590093096743663,43.68280846609537],[11.59033372453426,43.682945433803944],[11.590730113669887,43.683171057906236],[11.591093439613223,43.68337786041807],[11.591139951497803,43.68340433381814],[11.591364533601695,43.68352381280963],[11.59190284241761,43.683810190831885],[11.591999405090922,43.683861562052655],[11.592634340727498,43.684199336886444],[11.592714439430488,43.684241947942546],[11.5929008493976,43.68431935583074],[11.59464725114831,43.68504439009882],[11.59648600196621,43.685965983774416],[11.597890109922009,43.68630353805979],[11.599351556472199,43.686242945178044],[11.600473987187305,43.68580323690714],[11.601625416279392,43.685173784002714],[11.602359303157517,43.684643867334],[11.603175716798468,43.68430113845197],[11.604237734608585,43.6841868966098],[11.605809154473626,43.68437614693605],[11.60698786260613,43.684664374498674],[11.607761850303106,43.68494114963633],[11.607958215597248,43.68501136744102],[11.608633452037292,43.68541911334911],[11.609092589294278,43.68572341445259],[11.609178616556147,43.68581054518672],[11.609378864295385,43.686014325281064],[11.609740742085554,43.68634819103998],[11.610215832116529,43.68700359433902],[11.610703426182793,43.687946821119304],[11.610983342185188,43.688678710041394],[11.611279565655591,43.68950025920757],[11.611649779465015,43.690311113195094],[11.611701200576393,43.690920104241755],[11.61172641530185,43.691218713291775],[11.611668434573533,43.691758251851134],[11.611646881561562,43.691958817185494],[11.611631761825217,43.69269123220394],[11.611630890347753,43.69273348421184],[11.611566350105322,43.6929358408419],[11.611297361371385,43.69377922378793],[11.611185394166094,43.69412952495338],[11.61109573102517,43.69441136272909],[11.610839589239802,43.69467473084302],[11.610809969785137,43.69470500701653],[11.610585183619433,43.69493635252501],[11.61046818396592,43.69505394595291],[11.610433005107122,43.69508874191121],[11.60997273473439,43.695552939520155],[11.609893179985335,43.69563300620414],[11.609840268469064,43.69568636910211],[11.6093960385344,43.69613385372854],[11.608606039076005,43.69708825980993],[11.608498450833405,43.69727140451958],[11.608427969291352,43.69739129006749],[11.608396710231322,43.69744453059419],[11.608355358795752,43.69751519835218],[11.608016708631876,43.698092100218716],[11.607937236038861,43.69823367950978],[11.607694164819176,43.69866668318979],[11.607202142387665,43.69919094395591],[11.607160469410758,43.699237082133855],[11.606942145400271,43.69939797857614],[11.606186302523822,43.69995258141786],[11.604962209557865,43.70062875445517],[11.603943787985777,43.701183179901605],[11.602989684933537,43.701808289534256],[11.602230231375687,43.70229369671188],[11.601284372002468,43.70281938336705],[11.60079881087778,43.703357142048745],[11.600751357511108,43.7034077428937],[11.600755135251516,43.7034554792205],[11.600806117599982,43.7040997637665],[11.600978247836679,43.70463605269278],[11.600949723310814,43.70541100074826],[11.600674334699118,43.70593046942073],[11.600162273767063,43.70636792044838],[11.60011182123945,43.70641145577522],[11.599080469383857,43.70695712934794],[11.599023016010184,43.706986551070685],[11.598678979755185,43.70716187677096],[11.598230420784159,43.70739062816414],[11.597954976746568,43.70765862162235],[11.597396683746934,43.708201894910545],[11.597198369993187,43.708782626345],[11.597059754581291,43.70959609036055],[11.596836671005063,43.710465494797425],[11.59676542674559,43.7106796609985],[11.596562038417536,43.71129105462474],[11.596388953906509,43.711612606818264],[11.596268230491967,43.7118373573591],[11.596193997326605,43.71197537075787],[11.596051746375133,43.71223447715412],[11.595958697199793,43.71240418101145],[11.595849184141226,43.71260375632903],[11.59536411052427,43.7134430979029],[11.594982879747286,43.71410415371733],[11.594937929177423,43.714182172227325],[11.594890646455813,43.714264165638824],[11.59479000520005,43.714451626683335],[11.594626403551997,43.71475635546579],[11.594358640422582,43.715248874007294],[11.594341311878262,43.71528392578511],[11.594278902686991,43.71536230723869],[11.5937743407869,43.71600918283827],[11.592720682229736,43.71661832901237],[11.591713891856815,43.717163378218416],[11.591147243859423,43.71733166710327],[11.59109419700512,43.71734772355693],[11.590998639017755,43.71737601850337],[11.59040247141316,43.71755326373837],[11.58930379665971,43.717695220034024],[11.588942637932572,43.71768413065178],[11.588122951579804,43.7176589578368],[11.586901799990986,43.71783967924961],[11.58566594131925,43.71789177821204],[11.585551551939666,43.71789672824616],[11.585497115118525,43.717891605738764],[11.585410007079549,43.71788386077638],[11.583893306689426,43.71773670920907],[11.582656408204745,43.717565921083256],[11.582495805129039,43.71754343835544],[11.582392366096377,43.71756317715294],[11.581879253302096,43.71766520690667],[11.580921138112762,43.71847916412498],[11.580457694804824,43.71885889475868],[11.580335159753488,43.71895955918139],[11.580142418842062,43.71911722875727],[11.57940427732083,43.71957647363457],[11.579089758751685,43.719772011376705],[11.578722239727393,43.719982030393886],[11.5777447927214,43.72054065552129],[11.577468666082463,43.72096122462132],[11.57731665623332,43.721198795926696],[11.577299118557523,43.72122579707092],[11.577162506409252,43.72143613979818],[11.577201806921721,43.72264171635373],[11.577142328941752,43.72357041466272],[11.57727353155243,43.72395384805507],[11.577341050026712,43.72415115583534],[11.57782653254477,43.725049549641625],[11.577832609214962,43.72534892833059],[11.577836053333307,43.72551858958861],[11.577836581137552,43.72554657054123],[11.577837672588524,43.72559850706094],[11.577782161508559,43.72565940458407],[11.57776197724082,43.725681489262996],[11.577732785674815,43.72571358384826],[11.577543720987157,43.725920859144324],[11.57746636839998,43.72600565854167],[11.577351530707194,43.726131679109656],[11.577097038447333,43.726308977017794],[11.57696560079279,43.7264013266833],[11.576890627265108,43.72647033385226],[11.576655293789125,43.726687594670445],[11.576472871610061,43.72686683622085],[11.576411452031383,43.72692718477729],[11.57621450106953,43.7271206991756],[11.57587131541416,43.727314866706735],[11.575742906659537,43.72738752257202],[11.575680191098645,43.7274230034104],[11.575402368665554,43.72758018302128],[11.575064847979501,43.72786433397297],[11.574998666430595,43.72792020722467],[11.574611494650398,43.72824626117845],[11.574296187122,43.729000653886395],[11.574182311637296,43.72945789366001],[11.574102231201596,43.72977123101632],[11.574083953080272,43.72984275273883],[11.573866890533306,43.72995584752387],[11.573709161480418,43.73003802753934],[11.573530701646964,43.73013100775405],[11.573379550616634,43.73020975912477],[11.573245759506728,43.73044657399456],[11.57317170986981,43.73057764437066],[11.573091028389117,43.73072045252244],[11.572998895182634,43.73175792472011],[11.572512199630903,43.73257019385295],[11.572193459158344,43.73315039911065],[11.57215648629561,43.733217701965884],[11.572121117879329,43.73328208305183],[11.572051974996358,43.73340826130199],[11.572048854662409,43.733453896569834],[11.572011892059544,43.733887602711874],[11.571977950124419,43.73430188323844],[11.571997727370418,43.73434132979729],[11.572090956994906,43.73452734728061],[11.572303793374086,43.73495179709807],[11.572911881662247,43.73552332546039],[11.573567289068858,43.73603976328909],[11.574120679202455,43.73640497386173],[11.574552015878412,43.736689554880954],[11.574657343143745,43.73675905314504],[11.574781272365978,43.736840720706404],[11.575252231527788,43.73710920975672],[11.576192948995779,43.73790730998426],[11.576465762889105,43.738477375906314],[11.5768382147954,43.7390541977686],[11.577053007514602,43.739283439551095],[11.577118067824674,43.73935400064267],[11.577931670465338,43.74022698123332],[11.578374723173788,43.74071217027772],[11.579235304830384,43.741377001111495],[11.580084658695341,43.7420690903817],[11.580845639861458,43.74272715511464],[11.582133523503645,43.7435083571304],[11.582559178537151,43.74363453368658],[11.582840773338544,43.74371808355234],[11.582907102731209,43.743737591532025],[11.583204997940761,43.7438265278306],[11.583319384027234,43.743859138243494],[11.583380129170056,43.7438767473566],[11.583591770091697,43.74391880114897],[11.584531088872556,43.74410237771267],[11.585717864727732,43.74455269900626],[11.586908530113314,43.74538106404177],[11.588177934585763,43.74601856069215],[11.589129424701825,43.74648318090612],[11.589471513916424,43.74703765292621],[11.589556724028135,43.7471757614895],[11.589690850032913,43.7476926715171],[11.58973549327918,43.74786497119653],[11.589451519406362,43.748170348821986],[11.589351793828502,43.74827759035687],[11.589153904685693,43.74849038921504],[11.588955726354618,43.74860425488836],[11.588208599073765,43.749034012506655],[11.587866949190447,43.74933411602061],[11.587534407529272,43.74962650145626],[11.587180225437718,43.74993770360036],[11.587077636364326,43.75002785814246],[11.586820460146713,43.75025391097771],[11.586676597634812,43.75073435050738],[11.586636269978479,43.75087931874184],[11.58663897961179,43.75123039084566],[11.586622299487441,43.75170795000177],[11.586536701942203,43.7519069631055],[11.58641910522966,43.75218072923482],[11.585967347714755,43.752650132377845],[11.585941056018271,43.752682202922905],[11.585578014708869,43.75312712413218],[11.585594570606608,43.75319804888968],[11.58568464019104,43.75358388475617],[11.586099545725311,43.754276757247254],[11.58613526424562,43.754443711407106],[11.586141425425978,43.75447254152818],[11.586255034015343,43.75500251372188],[11.586182682312135,43.755520713463646],[11.586170586961888,43.75560736857249],[11.586164809061499,43.7556484823631],[11.586160112251203,43.755682169909555],[11.586122008132339,43.75595088455185],[11.586078512378267,43.75657806534701],[11.586060720236496,43.75683460651293],[11.585889836084007,43.75747782449851],[11.585657406816324,43.75771642876056],[11.585388526999491,43.757992243395016],[11.585306809330758,43.758076138207116],[11.584865169170808,43.758432468858295],[11.58451450012852,43.75871530483794],[11.58440445708989,43.75880419761762],[11.58431935530699,43.75887294159972],[11.584054388903136,43.75908697986659],[11.58374621841835,43.75933591545757],[11.583177259034795,43.75997001925494],[11.582676532053343,43.7607466330504],[11.58265876293814,43.76112742917654],[11.582656210611312,43.76118437987829],[11.582654230750922,43.76122998405479],[11.582652229349314,43.761275260991376],[11.58265089663364,43.76130542397217],[11.58270612225384,43.76145395171766],[11.582719831727074,43.76149108899232],[11.582741269812287,43.761549245695335],[11.582755014055213,43.76158675672372],[11.582799679646156,43.761707378327],[11.58283557405718,43.761803219001074],[11.582876262368606,43.761911983792004],[11.582857837710035,43.762001137821855],[11.582752812141042,43.76251857923813],[11.582354057424416,43.76335590896128],[11.58195993746965,43.764301173259845],[11.581935578494365,43.7644465214066],[11.581772127985,43.76542184058379]]]}}]}
