{"type":"FeatureCollection","metadata":{"code":"050026","referenceDate":"2026-01-01","sourceDbfExportDate":"2026-02-18","upstreamArchiveUrl":"https://www.istat.it/storage/cartografia/confini_amministrativi/non_generalizzati/2026/Limiti01012026.zip","sourceManifestSha256":"70ac8256c4785dc6ed2814c32b6965ae76f9161b51abaa1660059e1c6cbd8ca6","license":"https://creativecommons.org/licenses/by/4.0/","attribution":"Istat, Confini delle unità amministrative a fini statistici al 1° gennaio 2026, versione non generalizzata.","modifications":["Converted from WGS 84 / UTM zone 32N (EPSG:32632) to RFC 7946 WGS 84 geographic coordinates.","Converted from shapefile to per-municipality GeoJSON without geometry simplification."]},"features":[{"type":"Feature","id":"050026","properties":{"code":"050026","name":"Pisa","alternativeName":null,"regionCode":"09","regionName":"Toscana","territorialUnitCode":"050","territorialUnitName":"Pisa"},"geometry":{"type":"Polygon","coordinates":[[[10.280768235755916,43.74734491001255],[10.280720284502932,43.74735273238593],[10.280452014596094,43.747397120031806],[10.280100456470425,43.74744053842151],[10.28003083777561,43.74744892824733],[10.27995803576723,43.7474566765982],[10.27990183153037,43.74746317746502],[10.279464875689623,43.747523404199434],[10.27906639445631,43.74758935815121],[10.278942208663556,43.74760970643522],[10.278862476795451,43.747619540391334],[10.278797819126481,43.74762726709236],[10.278740367244255,43.74763421713334],[10.278693085210582,43.74763989366389],[10.278512053955001,43.74766045253707],[10.278408433612631,43.74767195171822],[10.278283383559554,43.74774029384394],[10.27824800635903,43.74775893396554],[10.278101234867966,43.74783728707855],[10.277997305980087,43.74790130944373],[10.277942444134418,43.74793520372358],[10.277831024578992,43.74800391154697],[10.277758305534228,43.74804852905753],[10.277638830797532,43.74814548436119],[10.277606670844822,43.74817175325536],[10.277512043509166,43.748249022032695],[10.277477903549345,43.7482769796289],[10.277415012428568,43.74834274954639],[10.277374188950093,43.74838571283096],[10.277254566274744,43.748509760934446],[10.277072907781992,43.74869961499762],[10.27701410073421,43.748761348564564],[10.27695616010809,43.74882335513892],[10.276932069629543,43.74884398462747],[10.276515378596153,43.749190892509105],[10.276482126110501,43.749218927228156],[10.276430381436105,43.74926148993674],[10.276403868516852,43.749290998010544],[10.276338086426257,43.749348364851414],[10.276150361993288,43.74952434008149],[10.276057628348767,43.74961188684669],[10.275907849383302,43.749753408985406],[10.275851576490602,43.74980631783567],[10.275806009012484,43.749850347343205],[10.275784400584929,43.74987103351345],[10.27471347743111,43.750738643334415],[10.274421036539684,43.75100213915895],[10.27428851165373,43.75112153527205],[10.27397533849434,43.75140368559908],[10.273782588433741,43.75157735212008],[10.273640932347252,43.751704983285556],[10.273655117249083,43.75164179948166],[10.273665733169043,43.75157865545236],[10.27368544837738,43.75146138719408],[10.273704315971841,43.75132612077247],[10.273714633730581,43.75122696484844],[10.273826362867387,43.751126678577684],[10.273966786510229,43.75100063747671],[10.274217416254476,43.75077567529342],[10.274334567954302,43.75067082615654],[10.274532447482182,43.75049372594921],[10.274744598167342,43.75030385277832],[10.274905309702266,43.749975673898575],[10.274939121739331,43.74981323000871],[10.274993184619575,43.74958078068557],[10.275004883206924,43.7492542649339],[10.27503549341558,43.74894104387436],[10.27506758574152,43.748697584851634],[10.275226284441407,43.748274888826884],[10.27527723938563,43.74804247399297],[10.275328768656914,43.747837064140676],[10.275304408306248,43.7475672244646],[10.275371120867065,43.747199577491536],[10.275480483431142,43.746939499255056],[10.275567253698492,43.74663915683449],[10.275524267392157,43.74636952414804],[10.275517624249318,43.746056718604635],[10.275568576380499,43.74582430358925],[10.275640496614255,43.74570195027084],[10.27572927198587,43.74549612440048],[10.27579861023668,43.74525224924988],[10.275851568384578,43.74511435080443],[10.27593780973962,43.744789253437865],[10.275873429636775,43.74439614997744],[10.275963202486123,43.74423073806556],[10.276111287711437,43.74404000540393],[10.276144186318719,43.74383480309021],[10.27628424081709,43.74341231436796],[10.276370141615452,43.74307146371586],[10.276363207921028,43.74274515557643],[10.276524465181232,43.74244397938641],[10.276540741527958,43.742187191536814],[10.276535815693213,43.74195540010124],[10.27653903936392,43.74177825542652],[10.2765399979587,43.74174429492897],[10.276543766152004,43.74164203881214],[10.276544921679442,43.74150736212215],[10.27665173928597,43.741274322412515],[10.276663479444034,43.74119090595256],[10.276684107400989,43.74104436528054],[10.27680425614113,43.740884812405255],[10.276828768507313,43.74085139908758],[10.276843357239384,43.74079620385711],[10.276898072758193,43.74059403845256],[10.276967925999982,43.740374916249706],[10.277054680083545,43.740074572568936],[10.277088716055157,43.73977706889736],[10.277101550735107,43.73950456173252],[10.277170253844247,43.73923143020137],[10.277185145347913,43.739055691085525],[10.277256145414292,43.73889057875998],[10.27734466645398,43.73867349948327],[10.27741394180014,43.73842737283755],[10.277498969599073,43.738046014528095],[10.27759945937739,43.73751592020759],[10.277641680121574,43.73672761997596],[10.277551358999624,43.73612988080047],[10.2774111945006,43.73567000517492],[10.277251550354602,43.73516982983442],[10.277113974775785,43.7348314755919],[10.277031605876205,43.73475361345866],[10.27688277072059,43.73461571808385],[10.276674489126943,43.734455977949246],[10.27655795941413,43.73444245306865],[10.276217785493241,43.73440363186184],[10.27617505616572,43.73439885528917],[10.276102331766008,43.734390478063375],[10.275972166945762,43.734421053419105],[10.275452268855211,43.73441788193027],[10.275274769358493,43.7344535983237],[10.275169288411044,43.73447503394747],[10.274897890221427,43.73455909545049],[10.274859576939495,43.73454573439381],[10.274598438741,43.7344548966307],[10.274534433813825,43.73440108238316],[10.274607048838273,43.73436819638428],[10.27504605757159,43.734168297912596],[10.275083396937806,43.73415133947912],[10.275119835529482,43.73413476744393],[10.275208348155044,43.73409452132783],[10.275267008975712,43.7340692971058],[10.275278495853636,43.73400339866064],[10.275332917396705,43.73388317099629],[10.275387044377954,43.73376358406225],[10.275440807889842,43.733569788898926],[10.275458699257785,43.73351979894899],[10.275527082391239,43.73334109576106],[10.275560366635403,43.73312097680647],[10.27563102246158,43.73297303227244],[10.275737542558678,43.732726490673684],[10.275766041681905,43.73264738992108],[10.275810829584675,43.732523088167824],[10.275861771559525,43.73229067262327],[10.275896018728771,43.73219575095713],[10.275937483412172,43.73208204053782],[10.275962269333297,43.73201375877111],[10.275985260824157,43.73194985668847],[10.276043496197676,43.731821737426024],[10.27607939751255,43.73174351554272],[10.276109513246872,43.731677901488354],[10.2761768564203,43.73130874691376],[10.276283025379932,43.73106403284099],[10.276300009813513,43.73098748435923],[10.276332413280025,43.73084031408356],[10.276370561613701,43.7306688161045],[10.27645787858069,43.73036942502369],[10.27650384191793,43.730282188513314],[10.276582771961975,43.7301374751214],[10.276668650385899,43.72983719864016],[10.276691328444954,43.729758264392295],[10.276699871449221,43.72972783593778],[10.276727145942779,43.72963177456064],[10.276738689698949,43.729590988782554],[10.276738084153854,43.72953741372758],[10.276787914785498,43.72944330898073],[10.276737205173044,43.72948522831741],[10.276734481483409,43.72938846752117],[10.276822082787792,43.72912863127588],[10.276862370811102,43.72903364088183],[10.276937814520267,43.72885673513872],[10.276967616729351,43.72878658369786],[10.27700524507705,43.728709606328366],[10.277045529428609,43.72862849261681],[10.277076174834928,43.728567531842714],[10.27716165332688,43.72830999609622],[10.27721205656814,43.728130213241954],[10.277265575365464,43.72794193103283],[10.277311538716528,43.727678056885985],[10.277331969925882,43.727560779543786],[10.277477701951556,43.727245004019835],[10.277528933429437,43.72704311271692],[10.277655742086322,43.72678191725583],[10.277689558043798,43.72670967595997],[10.277760841125223,43.72656332023238],[10.277850778599547,43.726413752195526],[10.277960668845594,43.726180676352456],[10.278011273301965,43.72596371758301],[10.278040215746639,43.72588548639611],[10.278069609689739,43.725805661874304],[10.278104844621028,43.725708589992436],[10.27813432384749,43.72562752917114],[10.2781471462141,43.725592533701395],[10.278170265846908,43.725527810333034],[10.278181605793849,43.72541738735787],[10.278216549869324,43.725077104235375],[10.278223148071243,43.724966734282326],[10.27823028715821,43.724847354435745],[10.278352608172844,43.724717236713836],[10.278412405271464,43.72465398752009],[10.278615430166617,43.72442212007585],[10.27862710608618,43.724095601961174],[10.278750492643173,43.72376783482562],[10.278652183566278,43.723523581859844],[10.278702581114134,43.72326641114061],[10.278751205638887,43.7229259746682],[10.278724784082605,43.72255936633675],[10.278620238931364,43.722228919026115],[10.278596463576104,43.722153007089474],[10.278571702066007,43.72207473816821],[10.278544618230718,43.72199001065163],[10.27850662874422,43.72192469677033],[10.278466932303235,43.72185628934129],[10.278271216176297,43.72151775144566],[10.278000760803245,43.72105933262012],[10.27780454673518,43.720735139870925],[10.277708303500766,43.72058765422832],[10.277477673808223,43.72025033987965],[10.277342141373756,43.72000650170936],[10.27718723269398,43.71987317616044],[10.276988693319591,43.71973133407535],[10.276863811003293,43.719550403258864],[10.276748666904755,43.71938962217048],[10.276555045623061,43.719186948385136],[10.275818099384978,43.71882827434733],[10.275792768920702,43.71880415128257],[10.275767429268887,43.718779535803996],[10.275676387239852,43.71869254843369],[10.275609016758416,43.718628023399035],[10.275431154059994,43.71829011580859],[10.27544008098104,43.71824499692378],[10.275501227997998,43.71793593526303],[10.275523532498907,43.71779387655156],[10.275550440031415,43.71762250483646],[10.27545272741291,43.71740525284388],[10.27545143839322,43.71734449212113],[10.275449862925948,43.717270228814584],[10.275384561500331,43.716971581245396],[10.27541717758122,43.71689468539883],[10.275493918564091,43.71671375366759],[10.275656152372658,43.71644182909292],[10.275673729596788,43.716412370366605],[10.275649622436799,43.71615378042847],[10.275608884534106,43.71597959996433],[10.275640133979179,43.7155416295703],[10.275651813620762,43.71537943069493],[10.275694471277717,43.715378954543006],[10.275763507627264,43.71537818391394],[10.275827555447918,43.71551456074409],[10.27586093135132,43.715581932257685],[10.275965681275812,43.71552463366403],[10.276211865981418,43.71539031596795],[10.27626903833366,43.71535812260273],[10.276308567902475,43.71530853090433],[10.276370028582365,43.71523117487538],[10.276392898105579,43.71520217825058],[10.276540969284666,43.7150161038384],[10.276686545888634,43.71471060022597],[10.27686414186556,43.71415938536095],[10.276919164350563,43.7136815697256],[10.276943352962583,43.71357093556652],[10.276963931552347,43.713479171506684],[10.276985070658482,43.713384578469054],[10.277008009989316,43.713281528694765],[10.277021431297841,43.713221281568636],[10.277030516777302,43.71318856716936],[10.277052357270506,43.713109883300135],[10.277074218639632,43.71303072378871],[10.277096220808108,43.71295124126095],[10.277139024940173,43.71279725793185],[10.277147492318381,43.71276145490134],[10.277221645284214,43.71243566700149],[10.27725081125946,43.712369308537234],[10.277264761867631,43.71233546108005],[10.27729491091451,43.71225934673838],[10.277325801355577,43.71218395341436],[10.277358825788092,43.71210343194109],[10.277374615796699,43.71206473153824],[10.27738458198801,43.712016053320035],[10.27740218377282,43.711930644041566],[10.27741916745561,43.7118478689947],[10.277437705208694,43.71175790859955],[10.277456663165887,43.71166581949227],[10.27747132755338,43.71159482580019],[10.277505247804033,43.71147498790577],[10.277532107411599,43.711380440639346],[10.277559504260575,43.71128430898261],[10.277586196851248,43.71119055500715],[10.277611584007884,43.711102314276324],[10.277635829786668,43.711017726559966],[10.27766809598469,43.71095151609486],[10.277716748998113,43.71085152900551],[10.277858384948138,43.710564764282886],[10.278086595813265,43.70991393961187],[10.278190059207645,43.70967193094814],[10.278200302754469,43.70927790000751],[10.278377781346904,43.708868493617736],[10.278518318430635,43.70847300509473],[10.278624258034109,43.70820170661739],[10.278639378921486,43.70803721778118],[10.278708043654213,43.70776408526652],[10.278817657659259,43.70751975617058],[10.278993692631113,43.70704283585698],[10.279151062667417,43.7065638731782],[10.279251204525057,43.70602027368161],[10.279340717745278,43.70570638901881],[10.279480954347155,43.70529739757591],[10.279640374979042,43.70491520185177],[10.279742809520414,43.70447962167486],[10.279832029534882,43.7041522349268],[10.280042396953036,43.70353987107955],[10.280162527289443,43.70306132473349],[10.280151559660258,43.702545979381576],[10.280217625493998,43.70215132341965],[10.28030517473282,43.701891483064486],[10.280486871141184,43.701536048039834],[10.28053547084981,43.70119560988144],[10.280579759757819,43.70065263454678],[10.280662993649337,43.7001902567551],[10.280923521912447,43.699167628892354],[10.280900853369111,43.69897877536904],[10.280860421660597,43.69882841531652],[10.280835259472942,43.69866662836908],[10.280971911955731,43.697944791739815],[10.281107184780625,43.69730400527124],[10.281191848258388,43.69690913994348],[10.281443074855886,43.69632332642627],[10.281613833169844,43.69560110634931],[10.28200783586932,43.69472781963949],[10.282055846946989,43.69436037540596],[10.282225729657,43.69359764651943],[10.282313546374905,43.69335130800936],[10.282326975835645,43.69310805414666],[10.282452009168722,43.69286129703297],[10.282518274314587,43.69233157945182],[10.282618604813472,43.691799227617835],[10.282648711435964,43.691637541822125],[10.282655197364642,43.69160359999616],[10.282702675804943,43.69137735580339],[10.282723307934353,43.691229749450684],[10.282767273927336,43.69091518494842],[10.282738831819733,43.69045405830699],[10.28274266539325,43.68976072092491],[10.282790093103294,43.68936627185339],[10.282816899089434,43.688877513307794],[10.282827399786918,43.688496983578844],[10.28266808497824,43.68800806385562],[10.282655373812934,43.687411702865425],[10.282624297087168,43.686826802796325],[10.282597009725315,43.68641968623382],[10.282323234760636,43.68579924278325],[10.282180587674883,43.685364157637444],[10.282000714108694,43.684783177366626],[10.281842614658453,43.68435051602399],[10.281605843394722,43.68386471413389],[10.281447412728664,43.683416299055665],[10.281060836380616,43.68280960354791],[10.2810438989518,43.682780062502964],[10.281015754774693,43.68272307621013],[10.280767682314803,43.68222865901339],[10.280611035102835,43.681863508783685],[10.280244908184082,43.681419669862976],[10.279728258059198,43.68118911877205],[10.27944019470188,43.681311929271295],[10.279315621860798,43.68136502957867],[10.278876843258852,43.68155206311941],[10.278691481092704,43.681423581362345],[10.278608184737072,43.68129395750588],[10.278325492007136,43.68085059615374],[10.27830241098859,43.680815650830276],[10.278190676978124,43.68064172494895],[10.27813987433465,43.680627649139836],[10.278058087091766,43.68060552005089],[10.277821191287227,43.6805346663824],[10.277782054443541,43.680531225957886],[10.277744041880199,43.68046718475192],[10.277706312629965,43.68040368690252],[10.277438165344718,43.6799524605238],[10.277174864217326,43.679509243224544],[10.277150144142363,43.67946762336893],[10.276854299234873,43.679488092159566],[10.276794538895379,43.67948545624691],[10.276173657526591,43.679458070466154],[10.275552776663488,43.67943068220527],[10.275121844873148,43.67941166827142],[10.274983283210634,43.67940555716015],[10.27489336783316,43.67940152969458],[10.274601518198269,43.6793887029478],[10.273542038509495,43.67934945598679],[10.27337492350242,43.679513387504116],[10.272890916881053,43.67950527315546],[10.271762112688863,43.67921846199134],[10.270724632166187,43.67884958911891],[10.270010857934897,43.67868194832872],[10.269199779377125,43.67845910921266],[10.26848084670892,43.67804616129091],[10.268189106970716,43.6775947047747],[10.268160205152048,43.677547755817564],[10.26871727971367,43.676755988016154],[10.269709602352254,43.676900275909425],[10.269819588021768,43.67667171503543],[10.269941930310885,43.6764452281112],[10.270296414019155,43.67546208855385],[10.270413632258522,43.67528521109337],[10.270431618473998,43.675255748435355],[10.270686474335289,43.674840989638284],[10.270318109673886,43.674579470684385],[10.270648307143956,43.673914019355486],[10.270711176923683,43.67379887426478],[10.271041946926934,43.6739202652086],[10.271088353154836,43.67383854727161],[10.270842951957325,43.67371840061343],[10.270904357085499,43.673517609306444],[10.271435350741084,43.67363228495387],[10.271547739610709,43.673451198451886],[10.271144024719266,43.67336431203402],[10.271624466244859,43.67249126970445],[10.271462139804182,43.672264379633134],[10.27054026695713,43.67337102353268],[10.270094011310583,43.6733759825847],[10.271628591972231,43.671443034913715],[10.272076844277423,43.67153333797465],[10.272465639442329,43.67083326248895],[10.272481342482536,43.67080498641451],[10.272886224081736,43.67007591956553],[10.272542168895773,43.66994634234658],[10.27279539496008,43.669505187250905],[10.273191943486681,43.66963417807082],[10.273456614432963,43.66909691665109],[10.273871641663579,43.668254427665325],[10.273727991553121,43.66817869211209],[10.273659237333716,43.66814244406809],[10.273939906972014,43.667758157236825],[10.274283548040307,43.66786867540747],[10.274680726749969,43.66709715681093],[10.275104801963584,43.666273366897514],[10.275191362355896,43.66610521438767],[10.274873977767538,43.66599440603434],[10.274997551535009,43.665630926402066],[10.275445362884755,43.66570216357675],[10.275641110913936,43.66525296261778],[10.275990845706984,43.66445037928563],[10.27619644191557,43.66397855841118],[10.275667886376489,43.663812934952745],[10.27568646755776,43.66345062535473],[10.27692527809354,43.66368454939227],[10.277231526173631,43.663130644977414],[10.277582623574848,43.66249560813937],[10.277974884231247,43.661701873829564],[10.278486063730734,43.660667477861544],[10.279524597868972,43.65890910284753],[10.27983456854906,43.65890563232346],[10.27998515500841,43.658696857179216],[10.280383830866262,43.658053116413456],[10.280842078941678,43.65700353279918],[10.281012476756391,43.65656043349797],[10.281207287223127,43.65609905237016],[10.281114533111548,43.65538203287005],[10.28131127900869,43.654720293783036],[10.281764639309186,43.65388010161028],[10.282073104790872,43.65278717227604],[10.282340699298336,43.65225069081103],[10.282932799290009,43.650648108514716],[10.283583736511838,43.648461860432356],[10.283647444458627,43.64810549140935],[10.283521320855538,43.64800561420919],[10.283718832905032,43.64738212753296],[10.283935095280999,43.64691149620963],[10.283862074344531,43.64668496922102],[10.28385665736094,43.646430670049966],[10.283920809026174,43.64624086721071],[10.283756286433647,43.64593883429546],[10.28368106140531,43.64560878637297],[10.283882224535882,43.64530264597059],[10.283737401272631,43.64505216356908],[10.28415331915601,43.64493269180309],[10.284201686981714,43.64472956105436],[10.2847097923785,43.64486341062878],[10.284985791608902,43.64414224844711],[10.285265774947536,43.64331749514714],[10.28559810217175,43.64218602023132],[10.285919742424262,43.64011825904012],[10.286204096874503,43.63877347903286],[10.286190557598358,43.63813885600996],[10.286514431270758,43.63719430414874],[10.286544221492834,43.63655694229729],[10.286533128719276,43.63603709220979],[10.286867917079451,43.63458819716615],[10.286857785225399,43.63324222663096],[10.286884473724573,43.632314524482155],[10.287080366721453,43.63045751321341],[10.287170239706622,43.62915093445695],[10.287267074350531,43.62817066781805],[10.287275382512446,43.6273984887702],[10.287213877365184,43.626694624864946],[10.28730895513114,43.62519665359787],[10.287220363552839,43.624385047502905],[10.287414857667848,43.62289946102687],[10.28748192663867,43.62154136427543],[10.287482237275697,43.62024929723913],[10.287606716661578,43.618823024046975],[10.287746777434478,43.61769145317987],[10.288003360731146,43.6163582317104],[10.28814986303315,43.61480340178832],[10.288229258498093,43.61402366680925],[10.288280181426025,43.613651680309225],[10.288417749849758,43.612839776256685],[10.28854475287779,43.61211352732426],[10.288549618369295,43.61205045881744],[10.288592003764846,43.61156828359048],[10.2887202999911,43.61090279680961],[10.288917377022067,43.61012173398996],[10.288951144415135,43.609527092892485],[10.289094561437741,43.608989740358815],[10.28919730117325,43.6082885258294],[10.289428932889015,43.607385518752174],[10.289619336159168,43.60643795615292],[10.289821562492229,43.60531918512206],[10.290037708554499,43.60427228770134],[10.290193798990133,43.60360423379991],[10.290322501723539,43.602524557437825],[10.290561991538294,43.60155618025867],[10.29067598262137,43.60080306338417],[10.290875989143268,43.600161523475805],[10.291095421379538,43.599269904669825],[10.291223811398563,43.598611165739634],[10.29137644196573,43.597927391656555],[10.291507618540479,43.5973991774311],[10.29181255944015,43.5961621891588],[10.292272460546936,43.594351696352206],[10.292550683751156,43.593459409269826],[10.29305251799866,43.59187353755224],[10.293275254036288,43.591283508660744],[10.293468431620163,43.59061502930954],[10.293650078527802,43.59013126110629],[10.29399666641527,43.58925170226021],[10.294178883943289,43.588794938786236],[10.29448597079042,43.58809590458436],[10.294765823098606,43.58728237729946],[10.295070243035282,43.58645956683987],[10.295639109194576,43.58540639444747],[10.29569756264159,43.58511077096974],[10.295728951818132,43.58506504196267],[10.296331455444252,43.584191998698216],[10.297116612522716,43.583118370914654],[10.29821876608407,43.58209966416878],[10.29822053268668,43.58192868325895],[10.29822211134816,43.58167645460571],[10.298225304250732,43.58157939066666],[10.298226650937238,43.58150747980759],[10.2982295984825,43.581224485845986],[10.298872260514036,43.581420493077395],[10.298982129524173,43.58145399213607],[10.299035136358563,43.58147138256103],[10.29919813005296,43.58156857021358],[10.299464863548746,43.581727613927974],[10.299498612355029,43.58174935051982],[10.299904464000342,43.582010742642105],[10.30012710284248,43.5821765647532],[10.300345036225893,43.58233887885045],[10.300526415884878,43.58245386353513],[10.30075550257265,43.582599090812934],[10.300847335211502,43.5826573068386],[10.301097751924816,43.58289756074171],[10.301125579245145,43.582924259750214],[10.301341207237083,43.5831557600735],[10.301387778995634,43.58320120184531],[10.301532902356206,43.5833428057688],[10.301733428768289,43.58353846558465],[10.301973557999332,43.583760830180715],[10.302016353940635,43.58379006058782],[10.302300115234788,43.583984556080104],[10.302471769084901,43.58410758280757],[10.302566166988209,43.58422322573719],[10.302650792045759,43.58433225303367],[10.302925924369385,43.58467753162601],[10.303011248177643,43.58478461030881],[10.303285031888407,43.58502362320894],[10.303326856844466,43.585060135856374],[10.30339489377178,43.585122383909415],[10.30357957973165,43.585291357460136],[10.303854323486012,43.58556734304224],[10.303932638567096,43.585646101301364],[10.304321874616603,43.58582312806116],[10.304542051830333,43.585873699730705],[10.304844712851489,43.58594321666691],[10.305161243057318,43.58600993085428],[10.305491779391273,43.58607989133195],[10.305786286380984,43.58613081640244],[10.306175609811126,43.58619813504549],[10.306407768371955,43.58622982068222],[10.306784362921217,43.5862812168085],[10.307029624008218,43.586345997022086],[10.307339820205083,43.586427927794624],[10.307616691367343,43.58650276739433],[10.307650170840187,43.586512318562235],[10.30775848113855,43.58653850668008],[10.308275443817047,43.586674044593494],[10.308898336097307,43.586837335047264],[10.308982361672445,43.586859361084336],[10.309114017405541,43.58689387313068],[10.309521706376517,43.58702285840781],[10.309793771480438,43.58710893440005],[10.310145336499627,43.58722018328033],[10.31037727876741,43.58729357724607],[10.310768970983629,43.58741752089496],[10.311392610735085,43.587614855934376],[10.311750274571363,43.587728026987016],[10.312016253238056,43.587812186626536],[10.312381870941842,43.587927871970756],[10.312640423817427,43.588009517743714],[10.313120820536252,43.58816118453232],[10.313265960830078,43.58821475509734],[10.313813829883935,43.5883799214607],[10.31388710633101,43.58840304796815],[10.314471299212205,43.588587475572645],[10.314511035767172,43.58860000604034],[10.31513448284538,43.588796811374344],[10.315758139636102,43.588993673909535],[10.31587699133052,43.589031190610086],[10.315941271045538,43.589051473243025],[10.315987115884655,43.58906579490959],[10.316030032498855,43.58907807754125],[10.316381518483206,43.589177598327275],[10.317004737944838,43.58935403971489],[10.317392886427777,43.58946392719976],[10.317569397339039,43.58951389827398],[10.317627932985594,43.58953050048526],[10.318251170183453,43.589707420168345],[10.31888052903543,43.58988614225119],[10.319497656564918,43.590061249168805],[10.319800793879743,43.59014729552608],[10.32012100575373,43.590242789907705],[10.320411658202193,43.590329468646416],[10.320744454558918,43.59042871375152],[10.321367907095556,43.59061463233919],[10.321845944734786,43.59075719642207],[10.321991363402958,43.59080054747097],[10.322613521639669,43.59098606902869],[10.323245519277995,43.59118038907875],[10.323318385858602,43.591196249808505],[10.323861754534656,43.59135825322682],[10.324485221754735,43.591544133873505],[10.324771922100767,43.5916296047239],[10.324975431011957,43.59169027685939],[10.325108776051145,43.59173386382451],[10.325680408167715,43.59192070799096],[10.325731259529572,43.591937104328224],[10.326124939035102,43.59206411272271],[10.326382682925294,43.59214725926612],[10.326609903670443,43.59222056331113],[10.32698031662579,43.592341131670274],[10.327037248656708,43.592359662820876],[10.327371315751293,43.59248183949403],[10.327421910508976,43.59249925641198],[10.327604578361623,43.59256213685592],[10.328231038998698,43.59277780789083],[10.32830751308465,43.59280411050605],[10.328849590207106,43.59293706173482],[10.329428505610414,43.593079204550406],[10.329474844133122,43.593092257183194],[10.329625872551713,43.593134779601115],[10.330097743896175,43.59326764832416],[10.330441853495081,43.59336454096952],[10.330687529565168,43.593433717021064],[10.330721000796993,43.593442047761606],[10.331343833768152,43.59359705674999],[10.331568839713698,43.59365305384676],[10.33166765122135,43.593676422493836],[10.331816023035802,43.593712831310675],[10.331933174677522,43.593743335125616],[10.331978521333149,43.59375697815744],[10.332108350862965,43.593795314328645],[10.332198351407175,43.59382201944533],[10.332533256299651,43.59391906257577],[10.332590365693108,43.59393650389758],[10.33273116199419,43.59397718311128],[10.3329984465066,43.59406550411588],[10.33321418955331,43.59413582874832],[10.333499857325856,43.5942289602063],[10.33374164061003,43.59430801198648],[10.333838035598498,43.594345672929585],[10.333912204694924,43.5943750510438],[10.334466608389135,43.594596149508185],[10.334614056769128,43.59466424883197],[10.334980035900836,43.594833285502695],[10.335087651488658,43.59487850017576],[10.335617495777813,43.59510126740019],[10.335667802758742,43.59512238106926],[10.335714566379213,43.59513794102061],[10.335841277278497,43.595180049650125],[10.336057413271977,43.595251901286936],[10.336337844881308,43.59534512464033],[10.336413513657126,43.59537027871022],[10.336876484597294,43.595523881344484],[10.336911147330413,43.595536079766845],[10.338051575036557,43.595913860495],[10.339086565145339,43.5962168765032],[10.3397102420169,43.596407655074266],[10.341106036510512,43.596778456419635],[10.34242773363696,43.59715911584264],[10.343816366631787,43.597521793346175],[10.344088724099704,43.59759329830437],[10.344473767341558,43.59769439072888],[10.345066752168446,43.5978957844706],[10.345690944216857,43.59810804654387],[10.345776616843361,43.59813717974881],[10.34600694436194,43.59821550298595],[10.346314672400373,43.59829931058363],[10.346937924209707,43.59846904551057],[10.34730626809348,43.5985693572119],[10.347561179471949,43.598638777888326],[10.348184439365387,43.59880850500177],[10.348890826856271,43.599000865289106],[10.34943096701325,43.59914795070975],[10.349746497778256,43.59923387101065],[10.350053480808105,43.59928389963914],[10.350675222709688,43.599385223041836],[10.350828328187815,43.59941017369231],[10.350901743620451,43.599427314083684],[10.351297710085838,43.59951975726432],[10.351525786307736,43.59957300356468],[10.351951339185343,43.59967127499742],[10.352005261235817,43.59968326624044],[10.35204859160736,43.59969366387666],[10.352181589390625,43.59972472837697],[10.352260610195756,43.599744391137875],[10.352428632128571,43.59977841929919],[10.35249086547548,43.599791188964616],[10.352542984058049,43.599801809271966],[10.352804073856841,43.5998550117186],[10.353165306763854,43.59992861970723],[10.353284327224152,43.59995287207834],[10.353517681898216,43.59999963113706],[10.353787610952264,43.60005448784747],[10.353978197803222,43.600093220286546],[10.354286577947738,43.600170602184846],[10.354410385764437,43.60020121652177],[10.35473830703777,43.600282300402206],[10.355033327537328,43.60035524837353],[10.355398530260548,43.60044554789312],[10.355655924657567,43.600493791302945],[10.35627803159242,43.60061038936526],[10.356799126771435,43.600708052837284],[10.356900142111053,43.600726984892916],[10.357150212125383,43.60077387754003],[10.357205805825407,43.60078430228766],[10.357460892495306,43.600833046239075],[10.357563560236034,43.600852106649526],[10.35759791398902,43.60085999492599],[10.358076606685994,43.60096978666133],[10.358232907783279,43.601006163219516],[10.360577453908396,43.601545527738],[10.362993671643633,43.602101996543496],[10.366042055260916,43.602843676237576],[10.366133258346522,43.602865865183986],[10.366018493091868,43.60311854497754],[10.365999061715307,43.60316132564088],[10.36594950130923,43.60327044412781],[10.36593588962334,43.603300412759644],[10.365884018139534,43.60341462178752],[10.365790246080614,43.60362117414596],[10.36573268451346,43.603751709626614],[10.365673056059592,43.60388022315993],[10.365646726365696,43.60393696765708],[10.36561957270424,43.60399732899727],[10.36558949911766,43.60406302857566],[10.365523258712653,43.60420601302379],[10.365504586262619,43.60424348387079],[10.365460502503844,43.60434605111551],[10.365389743496873,43.60450446560171],[10.365660537565466,43.604596129143765],[10.365826518304388,43.60465231269214],[10.366284850523034,43.604807455687464],[10.366725773906623,43.60495670208404],[10.366909094931541,43.60501561651953],[10.367130955839125,43.60508691481553],[10.367533172599266,43.60521617294143],[10.368157255605343,43.60541672677914],[10.368481578883038,43.605520949042315],[10.368535607673968,43.605538310175874],[10.368591081720101,43.6055585325592],[10.368692090201097,43.60559570985998],[10.368781596915909,43.605628541713656],[10.369406336128062,43.60585770007192],[10.369510200330417,43.605895798658075],[10.369646984362932,43.60595718591428],[10.370032060727358,43.60613000387782],[10.37062403449133,43.606395670530546],[10.370655993331662,43.606409958419405],[10.371283915128824,43.60669180563883],[10.371601098688503,43.60683414657292],[10.37190985102099,43.60697270259135],[10.372535792646088,43.60725359422464],[10.372578176954493,43.60727261404103],[10.37316173880625,43.607534482353785],[10.373555269268886,43.60771107203429],[10.37378769447715,43.607815367819285],[10.374317411129248,43.60805306502597],[10.374413633395351,43.60809536944526],[10.374536682966497,43.60814946965459],[10.374613713611993,43.6081833374437],[10.375039466447646,43.60837052294305],[10.375393849225903,43.60852632865631],[10.37552969494929,43.60858772101909],[10.375665385712965,43.60864904395278],[10.375781984230034,43.608701739296805],[10.376292363465122,43.608973777993974],[10.376393201521955,43.60902752596353],[10.376919565046709,43.609308078921956],[10.37712419392664,43.60941714439285],[10.377267183756523,43.60946719900798],[10.377545000785467,43.60956444466067],[10.378169573599548,43.6097830627064],[10.37851053498629,43.609902405772594],[10.378794150852672,43.610001676370274],[10.379418733824778,43.610220287437514],[10.379753905148704,43.61033759962425],[10.380043320017576,43.61043889503786],[10.380667910669876,43.61065749915623],[10.380997294222952,43.61077277966214],[10.381292505781657,43.610876099792556],[10.381917102833908,43.611094695176455],[10.382240698471584,43.61120794503043],[10.382541709362837,43.61131328971868],[10.38316631785279,43.611531879908455],[10.383484121652112,43.61164309748392],[10.383790932040952,43.6117504666009],[10.384415545650304,43.611969046270346],[10.384727561203938,43.61207823345137],[10.385040167518094,43.61218762601288],[10.385664795083983,43.61240620225785],[10.385971020967323,43.612513358288034],[10.386289425870185,43.61262477503519],[10.38691406107417,43.612843342529494],[10.387214499620526,43.6129484684077],[10.387543878006122,43.61306448096004],[10.387848023058073,43.61317144740651],[10.387901885567254,43.61319073542019],[10.387973625109812,43.61321528795231],[10.388162992629711,43.613281855260574],[10.388250988908704,43.613312551688864],[10.388455982083292,43.61338436893375],[10.388598646455245,43.61343437814843],[10.388787535556872,43.61350055945646],[10.389186263167174,43.61364028839261],[10.389412175104372,43.613719548978594],[10.389697137076858,43.61381952877294],[10.390036980946292,43.61393878155964],[10.390570191718512,43.61412588417554],[10.390661315254816,43.61415768239921],[10.390936509270924,43.614254307797935],[10.39128669657811,43.61437551900468],[10.391911377071752,43.61459447450104],[10.392180715355325,43.614688878486824],[10.39254224125692,43.6148166025698],[10.3926519252595,43.6148549053503],[10.392892600219213,43.61493814979532],[10.39316503818573,43.61503173303182],[10.393241270257287,43.61505824977998],[10.39343471666385,43.61512379426921],[10.393789826704923,43.615246458532674],[10.394240740034963,43.615402687773745],[10.394409737411152,43.6154608853543],[10.39469578405817,43.61555925019534],[10.394770185900871,43.61558534255485],[10.39503415081405,43.61567577877546],[10.39565880996393,43.61589097730779],[10.39595403454822,43.61599290054308],[10.396283227308373,43.61610651211438],[10.396688080849417,43.61624581488645],[10.396907899933016,43.616321638797345],[10.39721919132874,43.61642901508856],[10.397509317662504,43.61652863576726],[10.3981571670142,43.61675435802771],[10.398471606759797,43.61686348687449],[10.398698845555154,43.61694130366675],[10.398782391144621,43.61697008174678],[10.399407037814774,43.61718524094982],[10.399733807319656,43.61729779353185],[10.4000316888521,43.61740039577044],[10.400656344298339,43.61761554800883],[10.400995971529747,43.61773252512966],[10.401281004132576,43.61783069676477],[10.401905668354788,43.61804584203819],[10.402258154893765,43.6181672424942],[10.40253033696491,43.61826098382901],[10.40315500996292,43.618476122137174],[10.403520356172438,43.61860194564008],[10.403779687348775,43.61869125696259],[10.404404370382418,43.61890638919009],[10.404782571627438,43.61903663371217],[10.40483306171278,43.61905402110591],[10.405029047780657,43.61912114079125],[10.405466064822187,43.61927080642156],[10.405591662029149,43.6193138199248],[10.405653335642588,43.619334940232974],[10.406051303686633,43.61947122942085],[10.406278378702506,43.6195489925758],[10.406851724115462,43.619745766216575],[10.406902610326656,43.61976318833427],[10.407143242816586,43.619845368607415],[10.407282548031828,43.61989286743751],[10.407322057544551,43.61990632993175],[10.407366043381993,43.61992131839277],[10.407400451921678,43.61993304017244],[10.407438339767676,43.6199459454398],[10.407531274600629,43.61997764482328],[10.407596914948401,43.62000001180185],[10.407668776659845,43.620024008374926],[10.408056366587143,43.62015785763517],[10.409243734271174,43.620584411590436],[10.409464769665801,43.620777665695684],[10.409547403392297,43.62085077638074],[10.409699073295739,43.62104029971095],[10.409720777793813,43.62106443188188],[10.409751725945961,43.621100502755844],[10.409831032746807,43.62122569272823],[10.40998319210301,43.62146667093588],[10.41004863442731,43.6216627462798],[10.410103122742054,43.62182534759423],[10.410191845294774,43.62212138044902],[10.410210665364607,43.622184176048464],[10.41033017796278,43.6225248496381],[10.410342756167505,43.62256971338797],[10.41043835474922,43.622910682820155],[10.410470838158712,43.6230183908389],[10.410560394832702,43.62346780648099],[10.410596618854813,43.62363887514294],[10.410604491123422,43.62367604721704],[10.410629835978034,43.62379520268434],[10.410655299332289,43.623915975594656],[10.410715113771307,43.624200464169434],[10.410747060330685,43.62436465520221],[10.410765086915442,43.62444667314658],[10.410814817210353,43.624814690763934],[10.41086786539142,43.625203017246754],[10.410876077592203,43.625264188771425],[10.410894765895186,43.62540329806994],[10.410929000175658,43.625657229422416],[10.410936698850966,43.62571387558096],[10.410994858715004,43.626163266766305],[10.41105309674209,43.626612726253136],[10.411111328288031,43.627062185755875],[10.411149747143432,43.627358829633174],[10.411191629474143,43.62751137810987],[10.411285250018961,43.627852370961556],[10.411332049565733,43.62795970468442],[10.411438353879268,43.6282037895859],[10.411468636443145,43.6282732881727],[10.411527798401629,43.62840761608608],[10.41158848035893,43.62854544033983],[10.411622457841634,43.62862254031291],[10.411721069293728,43.628715339929194],[10.411742867472913,43.628735851831564],[10.411772770843312,43.62876307421197],[10.411891686598139,43.62887132308724],[10.41214914504613,43.62906270902561],[10.412238549750183,43.62912916920065],[10.412320602421484,43.629190163807586],[10.41276170411042,43.62949984831126],[10.414412515305186,43.63064993620349],[10.415566843091911,43.631522861267584],[10.41569113291536,43.63161707892964],[10.41584042566678,43.63173000939067],[10.41614950277767,43.63196384778804],[10.4164747723501,43.632209893914734],[10.416732378675977,43.63240475388102],[10.41710917251416,43.63268977420255],[10.417315220344491,43.63284568349312],[10.417743474371555,43.63316973227123],[10.417898018503932,43.63328666375182],[10.418299926427297,43.63359085848938],[10.418377003939074,43.63365015375204],[10.418479115560132,43.63372874168033],[10.419005593034626,43.63413407701797],[10.419056651417069,43.63417336752527],[10.419634170200329,43.63461800862708],[10.420211646180991,43.63506267791121],[10.420262915031167,43.63510183649964],[10.42078930282788,43.63550723123839],[10.42089139172305,43.635585847874395],[10.421366748295146,43.63595192739027],[10.421519882151156,43.63606985196781],[10.421944218084425,43.636396606771385],[10.422148388709513,43.636553845148256],[10.422521661098225,43.63684131053514],[10.422776878530104,43.63703785303571],[10.42309926505584,43.63728590308615],[10.423405521060301,43.637521753767665],[10.423677119029676,43.637730323886494],[10.424034034572951,43.638005744436576],[10.424254567674026,43.63817501328822],[10.426545668107881,43.639939844716956],[10.426570575220454,43.63995895264012],[10.427117662815553,43.64038026561163],[10.427206435276167,43.64044860812664],[10.427689607293683,43.64082072204375],[10.427842206878546,43.64093832865586],[10.428268524124935,43.641266404365886],[10.429588246703899,43.642283213027916],[10.432253278098552,43.64426414233965],[10.432391198064376,43.64436688747052],[10.43289297338227,43.6447400613831],[10.432979327555346,43.64480428605441],[10.433532779837801,43.645215951089256],[10.433567431865429,43.645241723301986],[10.433683471621254,43.64532803179306],[10.434163418871295,43.645684919225566],[10.434751359984435,43.64612206421488],[10.434802955064752,43.646160428745276],[10.43535807354353,43.64657279681616],[10.43542130414778,43.64661977125844],[10.435953012253323,43.64701521849826],[10.43605539996033,43.647091337947494],[10.436540257449876,43.64745182355994],[10.43669660886374,43.64756808075249],[10.437127433178915,43.647888483158866],[10.437315762999773,43.64802787815549],[10.437741689271105,43.64834456446282],[10.437948266091457,43.64849816575852],[10.437979058236465,43.64852103008804],[10.438067886200677,43.64858677291201],[10.438106217918683,43.6486151121696],[10.438165036175857,43.648658402161],[10.438198467093992,43.64868344639132],[10.438329803859547,43.64878184706433],[10.43859465203003,43.64898029620932],[10.438635328790996,43.64901075410652],[10.43876424912028,43.64910734068551],[10.438916305324433,43.64922126552856],[10.439012100571869,43.649293040759474],[10.43922268853879,43.64945082376124],[10.439504673405017,43.64966210526001],[10.439857103722623,43.64992618359522],[10.440093006118897,43.65010296937558],[10.44049141271984,43.650401554700224],[10.440681139222896,43.65054378251234],[10.440779733861996,43.65061805375635],[10.44075427915522,43.65068139040063],[10.440739387778102,43.650716552060146],[10.440075287519617,43.65232995998695],[10.43958471499878,43.65352172870214],[10.43887258818713,43.6555589882227],[10.438749321986782,43.65591164774945],[10.43838620548581,43.65695040170202],[10.438341665687506,43.657031692242526],[10.43816785571069,43.657349319041536],[10.43808359369736,43.65769579736755],[10.43813152101777,43.657845422795496],[10.438220427174391,43.65812298775651],[10.43823716022217,43.65817454878607],[10.440214501571699,43.65821483062613],[10.440051758843838,43.65850260424657],[10.43995832166024,43.65866609593703],[10.439764203026776,43.6590163743171],[10.439728277836334,43.659085412371965],[10.439706607646448,43.6591168947101],[10.439594538104089,43.659303309754165],[10.439454094705068,43.65950456934182],[10.439406535617021,43.659572923656064],[10.439090169105024,43.66002760648698],[10.438913130082545,43.66028208909239],[10.438865719847575,43.66035013156576],[10.438770666952536,43.66048589703754],[10.438457724156008,43.66093565394137],[10.438308105701836,43.66115073780488],[10.438239858457498,43.661249176518226],[10.438044400086016,43.66152865837684],[10.438007893627201,43.66165058673234],[10.437958809202536,43.661814523489575],[10.43794985785398,43.66184427157387],[10.43790513819011,43.66199379125471],[10.43782764337512,43.66225231487033],[10.437814441564331,43.66229640381471],[10.437797984600241,43.66235173816982],[10.437768721299113,43.662449391719285],[10.437717769572293,43.6627178971003],[10.437797853525636,43.663150199013764],[10.437920402143956,43.663607852806855],[10.438053847541104,43.664002342893156],[10.438275808954558,43.66446774832252],[10.438902808266457,43.66518238237943],[10.438977072520322,43.66526702315181],[10.439435193705375,43.66578836957832],[10.439518141613574,43.66588275989173],[10.439610583738483,43.665987963088355],[10.439699267295426,43.66608888267857],[10.44082584855591,43.66737088691861],[10.441010495263166,43.66771999820307],[10.441465697239359,43.66858060566415],[10.441548726743141,43.66873754079037],[10.441644334002891,43.66891824865082],[10.442625334803978,43.67155299323658],[10.44281231514219,43.67210886966022],[10.442862606633287,43.67246050928527],[10.442819463643604,43.67268975097327],[10.442810362915477,43.67273916216516],[10.44254898801322,43.67302608141255],[10.441692054034332,43.673372287630926],[10.445609330995685,43.67904182184676],[10.445640657918856,43.67908720401678],[10.448070649715152,43.682610490568344],[10.448470780104635,43.68319060425636],[10.448523229918683,43.68326664258737],[10.448578100853185,43.68334697656654],[10.448943241540752,43.68387464236143],[10.452039366112036,43.688356517986804],[10.452483435120199,43.68936247541367],[10.452533969109139,43.68947667742932],[10.45268987273645,43.68982981178938],[10.452709935173825,43.68987528378921],[10.452722858116374,43.68990452073455],[10.452747482378063,43.689956284263594],[10.452770994676031,43.690013743359586],[10.453002316079917,43.6905376257822],[10.453033482830488,43.69060820877035],[10.453243475628593,43.69108273974286],[10.453268937101413,43.691109427553414],[10.453376929947549,43.69121384869953],[10.453465542764128,43.69130041125538],[10.453961515271354,43.691784905517004],[10.454006018331757,43.69182935862344],[10.454870485855588,43.69281327525582],[10.45489915886768,43.69284442373866],[10.455042421876398,43.69299567081451],[10.455284601406168,43.693385211181685],[10.455378638619523,43.69356999014699],[10.45538193437516,43.693604256473435],[10.45538755013807,43.69366882184666],[10.455418640437424,43.69386425529589],[10.455402323245984,43.69427976237415],[10.455376020238758,43.69466726044183],[10.45531965944251,43.69535113937382],[10.45522600767685,43.69539193988542],[10.45522521559811,43.695424965305065],[10.455195012117262,43.69548626187333],[10.455097121423995,43.69555263137641],[10.455025034037542,43.69560122280678],[10.454882512142415,43.695697083431405],[10.454838836263223,43.69572619336247],[10.454354133707422,43.69604974041487],[10.454216955386233,43.696139324045696],[10.453832537859023,43.69639811286257],[10.453766030654748,43.69644256006381],[10.453390473997384,43.69669351116247],[10.453254905485567,43.696808193008366],[10.453344317956127,43.69686540814673],[10.453378448963175,43.69694208038768],[10.453116335055677,43.69686478668968],[10.452873226705531,43.696818356383744],[10.45294579894845,43.69725411789909],[10.45304836173008,43.69739012175477],[10.45315103369071,43.69753062605237],[10.453368891994021,43.697824684760775],[10.453548465167783,43.698067064376986],[10.45358718731041,43.698119329031314],[10.453978199178234,43.698588694037205],[10.45429976724794,43.69897446457235],[10.454507406012349,43.69922408922496],[10.45471402728443,43.69949396979226],[10.454940944431847,43.69979040864542],[10.45498630876565,43.69984966526963],[10.455439492890305,43.70044161326495],[10.455760085850478,43.70086033163755],[10.455716132754247,43.700874326156054],[10.454670158838384,43.701207349869236],[10.45455319393382,43.70124597949332],[10.454285535489248,43.701338332161285],[10.452619454800988,43.70184731211111],[10.45202490165915,43.70202887344225],[10.451541847196946,43.70226233721378],[10.451250968719757,43.70240534700116],[10.451114097948118,43.70247260510041],[10.450876338899622,43.702583686181164],[10.450559400242302,43.70275714381043],[10.450522627379476,43.70277723803611],[10.450491935268795,43.70279113335799],[10.450419858807722,43.70282581166193],[10.450311209241413,43.70285269303503],[10.44999533831545,43.702930843359304],[10.449849263029007,43.70296698329036],[10.449372031745225,43.702926892932844],[10.44888577277474,43.702834017447955],[10.448861500615449,43.70285683478343],[10.448861815685198,43.703198993083575],[10.448861994118474,43.703392552758885],[10.448317386247442,43.70338284118624],[10.448219507175256,43.7033810499907],[10.447778782899277,43.70337482740728],[10.447555562493807,43.70338215697471],[10.44741049262818,43.703800419490676],[10.44716278781737,43.704208725815135],[10.44702523914321,43.70448845937104],[10.446859037195486,43.704995899827416],[10.446741206478958,43.70532152805623],[10.446560867526106,43.70569296478921],[10.44650978015233,43.706213579622975],[10.446486754866061,43.7066753142493],[10.44633936027656,43.70706209028554],[10.445858977240084,43.707537490465846],[10.445709624061173,43.707666207112375],[10.445617333561065,43.70774652282982],[10.4455755282857,43.70778237910267],[10.445495286321062,43.707851205582266],[10.44531634583713,43.70800468553891],[10.445151305642982,43.70818041709507],[10.445060686907613,43.70827690641971],[10.444785592035345,43.70857976038687],[10.444619139057105,43.70881797313923],[10.444566559292946,43.70889312292226],[10.444554869279871,43.70892587178003],[10.444417780349813,43.709222524308316],[10.444305673505806,43.70952894342875],[10.44425421949869,43.709841349702835],[10.44447353350097,43.70984312299363],[10.44482669280618,43.70984595263883],[10.445231872277851,43.709849247920104],[10.44535472603625,43.71044194278449],[10.445332527730246,43.71093941343006],[10.445251874863287,43.71094288427845],[10.444744029905486,43.710901255753114],[10.44470464426763,43.710898027875345],[10.444665180403659,43.710895005359916],[10.44443710449135,43.710877584677895],[10.444325359047326,43.710869049579415],[10.44402131456849,43.71091902024744],[10.44387943291562,43.71094233930257],[10.443731903357426,43.71096658579737],[10.443679382029345,43.71097625313105],[10.442731548212636,43.711177301637264],[10.442241821684137,43.71130262543722],[10.442139384488863,43.71132883897474],[10.442084136853033,43.71135429578698],[10.44193907570045,43.71141943574273],[10.441855513459428,43.71145695828524],[10.440923639664845,43.71187539686081],[10.440590205672457,43.71201103846932],[10.440038552513869,43.71223544988086],[10.439345538652002,43.71251737014539],[10.437223410304986,43.71338060537598],[10.433715843836161,43.71478068734104],[10.433658571194895,43.71480354626277],[10.433497586754129,43.71486782629459],[10.432665832934894,43.71517782743192],[10.431667013091486,43.715549802744256],[10.431234470315555,43.71571130475106],[10.428381553703904,43.71687688554003],[10.428415051356193,43.717070683011165],[10.428420577959944,43.7171025000869],[10.428462683202087,43.71734533643677],[10.428488080951272,43.71749230717189],[10.42853824227466,43.71778185096921],[10.428504015417042,43.717789833020746],[10.428440597421332,43.7178047266212],[10.42835082843435,43.717825899270295],[10.427929074781954,43.717925224721704],[10.427819609747223,43.7179510657328],[10.427580735864508,43.718007697476494],[10.427203655210167,43.718144509656256],[10.426900050948106,43.718254977285255],[10.426588270708656,43.71836841929055],[10.4263752328851,43.7184459327025],[10.42596899575191,43.71859901717389],[10.42589764745773,43.71862590056778],[10.4257479822567,43.71868226983051],[10.425448772566092,43.718793485515384],[10.424862359186216,43.719011455609014],[10.42323913980209,43.71979108682215],[10.421889973147081,43.7205581645666],[10.421741086888641,43.720734436299516],[10.422102320267557,43.720961645151505],[10.421486568875384,43.721128901378606],[10.421446011261109,43.72113986919526],[10.421024393540629,43.721254390212934],[10.421978732541914,43.721710745159264],[10.421719833015095,43.721969248091405],[10.421202540337214,43.722485738957836],[10.4209609130959,43.72276786025527],[10.42069360850203,43.7230142849685],[10.420316515229938,43.72334310707896],[10.420259925598733,43.72337672474823],[10.419979823043105,43.723543120611666],[10.41980230221421,43.723648869278485],[10.419356672815036,43.72370614172869],[10.418959718789514,43.723720075044035],[10.418501343939695,43.72376178084371],[10.418374786307522,43.723911591455675],[10.418247710798168,43.72406205302491],[10.417997474095781,43.72450634177968],[10.417794333127214,43.72484200076845],[10.417769182595283,43.72487434567516],[10.417589490276956,43.725105650853045],[10.416889224471447,43.72542045330404],[10.417023249856312,43.725593202651446],[10.41680299046518,43.7258031690235],[10.417140709543862,43.72621597891358],[10.418105403869513,43.72737477440149],[10.418470912683473,43.727811074776184],[10.418631787727703,43.72800390503122],[10.418755346220111,43.72815204601865],[10.418842936668566,43.72825705138581],[10.418915330415352,43.72834382537162],[10.419128044826135,43.728598857851836],[10.419164785479751,43.72864311992785],[10.419217888511668,43.728706265069974],[10.419272865037918,43.72877223932649],[10.419399251320469,43.72892421251274],[10.419589314030159,43.72915144976476],[10.419656525038592,43.729232500896984],[10.419775349057895,43.729374323961906],[10.419961821218747,43.72959903369386],[10.420009207331933,43.72965667793354],[10.420043856255424,43.72969864362643],[10.42009410241868,43.72975950896835],[10.42030660122312,43.730015443142996],[10.420329422752351,43.73004286422609],[10.420475650340377,43.730219386071106],[10.420670198974754,43.73045640056688],[10.420691996489063,43.73048466265573],[10.420967132026243,43.73081266576981],[10.420991383343551,43.73084397298921],[10.421021070607354,43.73088141893379],[10.421036122097105,43.73090530795447],[10.421053303213053,43.730933141170496],[10.421099473166839,43.731008312472234],[10.42112357925925,43.73104749079644],[10.421226164794328,43.73121537137104],[10.42131183974483,43.73135482105999],[10.42132636785989,43.73137830597603],[10.421455012844808,43.73158950457253],[10.421567670207661,43.731829335917126],[10.421582169449882,43.7318618780868],[10.421655245425603,43.73201916860382],[10.421728999289526,43.73218871922219],[10.421769005081337,43.732281271338245],[10.421783903456134,43.732315926209054],[10.421922442935678,43.73263340541226],[10.421938709092858,43.7326658769262],[10.42196830699742,43.73272508772162],[10.422030179722661,43.732850680821876],[10.42215255820172,43.73309491497982],[10.422190703506672,43.733170713297],[10.422282322632489,43.7333542221792],[10.422415997315067,43.73362066918494],[10.42253370346796,43.73385612652419],[10.422595051889312,43.733979612626186],[10.42261534385439,43.73401997617492],[10.42263725667217,43.734064550428954],[10.422675780739398,43.73414160798931],[10.422853910015066,43.73451262580413],[10.422902669116567,43.734596184445536],[10.422979137596505,43.73474814926484],[10.423092898757284,43.734961294160016],[10.423249798795602,43.73525755059199],[10.423284055680236,43.73532283098065],[10.423328161832616,43.73540643747427],[10.423364788619716,43.73547551043322],[10.42342399867524,43.735587423090564],[10.423445043976255,43.735626935241086],[10.423566017631568,43.73585436075659],[10.423802933799918,43.73630083749818],[10.423896768408706,43.73647806423744],[10.423914891398143,43.73651218881816],[10.423932023114567,43.73654493646113],[10.4240426054176,43.73675119242594],[10.424068843610504,43.73680207816877],[10.424084316522338,43.7368291704636],[10.424121689013672,43.73689484213789],[10.424175253107032,43.73698826700691],[10.424263395064939,43.737144594520416],[10.424043040367904,43.73717351198108],[10.423929503520728,43.737188584603885],[10.42387622089755,43.73719557457834],[10.423757366323631,43.737211003210334],[10.423718490647332,43.73721593362387],[10.423553559879043,43.737220813681276],[10.423518188747009,43.73722187465649],[10.423310598409147,43.73722759458347],[10.423030682295584,43.73723516829118],[10.422854227389605,43.737239990957704],[10.422690076578517,43.73724451431143],[10.42206958266668,43.737261474440025],[10.421449086692473,43.73727841501722],[10.421006291406007,43.73729043976282],[10.420828586514228,43.737295350475655],[10.420208042696729,43.73731234613277],[10.419936248661674,43.73731972038056],[10.419587535173665,43.7373293163591],[10.419321721863195,43.73733628531126],[10.418967036123226,43.7373459769807],[10.418346555048686,43.73736288791604],[10.417876948527484,43.73737567358096],[10.417726144108736,43.7373797865078],[10.417452962782741,43.737387231483304],[10.417105641142197,43.73739669457637],[10.416485194760854,43.73741359497171],[10.415864729152208,43.73743048503254],[10.415760920023938,43.73743331080078],[10.41570701304554,43.73743477636792],[10.41524569059748,43.73744734684736],[10.414623485936737,43.73746466677876],[10.414415907790273,43.737470661214566],[10.414002866448028,43.737483664525115],[10.41338242863933,43.7375033814588],[10.413306255340418,43.73750603516616],[10.413084494861444,43.73751221428429],[10.412762334904738,43.73752153581307],[10.412141674673274,43.73753953803607],[10.411993240784307,43.73754384099791],[10.41185025519822,43.73754806024869],[10.41173160339025,43.737550877550156],[10.41152418149988,43.73758643328033],[10.411431094927062,43.73760226281722],[10.410902520056503,43.737697264913045],[10.410601591269101,43.73774360925909],[10.410282942245747,43.737798984416116],[10.410143159839475,43.73782156306639],[10.40977489257803,43.737884263200215],[10.40966936678875,43.73790198609129],[10.409048332075596,43.73800705097792],[10.40842985032398,43.73811140483919],[10.408079344510385,43.73817080040304],[10.407811464665363,43.738216400641456],[10.407355846256126,43.73829552412351],[10.407195996149389,43.738317941133985],[10.406574506011273,43.738425086163005],[10.406241053606866,43.73848142998893],[10.406044286592653,43.73851704994319],[10.405906910987502,43.738539296672535],[10.405788533708813,43.73856184885745],[10.405336300565176,43.73863897061818],[10.404719434834155,43.73874575516335],[10.404457436743018,43.73879084935839],[10.404099784990883,43.73885316843794],[10.403694708989482,43.73892392564478],[10.403481051082412,43.738962088745026],[10.403339375267832,43.73898772740975],[10.40301323026283,43.73904674614983],[10.40286280561298,43.73907362161162],[10.40230674677482,43.739173716751026],[10.402244231845676,43.73918576561863],[10.401903809228523,43.73924518958281],[10.401628680424091,43.73928224131303],[10.401210544048732,43.73934318989612],[10.401119321299241,43.739361481330306],[10.401131315212602,43.739411537659144],[10.401137816097545,43.73943852427329],[10.401065297870462,43.73944078826403],[10.401010038843582,43.739441508955366],[10.400843571831608,43.73944417363492],[10.400389069731798,43.73944918679795],[10.400319270298512,43.73945141609788],[10.399768626005324,43.73945970003021],[10.39923870315451,43.73946766996825],[10.399147918839823,43.73946877611172],[10.398527166913812,43.73947657803188],[10.398056135421673,43.73948111341503],[10.397906517925097,43.7394812861161],[10.397812197614797,43.73948418929272],[10.397711292494511,43.73948504173003],[10.397285753786589,43.73949562360056],[10.397062306923038,43.73949514563679],[10.396943516267703,43.73949576675833],[10.396908287911698,43.739495943481174],[10.39665239929988,43.739497774580016],[10.396596100772884,43.739496039699766],[10.396541479938358,43.73949681345672],[10.396479587126873,43.73950630709413],[10.396051495444846,43.739531558444035],[10.395648072504384,43.7395549825755],[10.39541680659193,43.73956780996138],[10.394802147542755,43.73954451265663],[10.394181188471759,43.73952108271681],[10.393559904901542,43.73949756241946],[10.393356966233952,43.739489977027404],[10.392938917272623,43.73947425212669],[10.392647334876736,43.739463256627864],[10.392317917781567,43.739450998927396],[10.392010558709517,43.73943891097717],[10.391694417072483,43.73941935695922],[10.391392101059997,43.73940258878018],[10.391083375289549,43.739385519666115],[10.390990874541712,43.73938071932115],[10.390519042942907,43.739356477924325],[10.3904517628892,43.73935312509853],[10.390319492397438,43.73934618888681],[10.390257343322375,43.73934319670087],[10.389958965290925,43.739328814148905],[10.389830635027659,43.739317358158345],[10.389208433352636,43.73926181413963],[10.388627455038504,43.73920994538429],[10.388586233409654,43.739206295521114],[10.387964357460577,43.739151259383426],[10.38734143549381,43.739096049779924],[10.387300538766587,43.73909242702154],[10.387228997837196,43.73908609064164],[10.386719636890207,43.73904098431415],[10.386392340520374,43.739023879357504],[10.386213366562512,43.73899615425792],[10.38609741193829,43.73898278460879],[10.385811538406983,43.73894983667793],[10.385474860592913,43.73891102664307],[10.384852269039145,43.73883923785738],[10.384229357694696,43.738767410832985],[10.38413714511255,43.73875678138709],[10.383608158162223,43.738695813590965],[10.383439625901818,43.73867636547099],[10.382983304974662,43.73862306508086],[10.38282178124096,43.73860509429227],[10.382494343822597,43.73856730173331],[10.382451586646027,43.73856234737351],[10.382355740741422,43.73855121661184],[10.382264278230586,43.738540720640614],[10.382198438096664,43.73853312635261],[10.38186874241247,43.73849365309198],[10.381828560850359,43.73849004673683],[10.381722534781975,43.73847886656665],[10.381661385606572,43.73847247938514],[10.381469416500144,43.73845103915256],[10.381117415196087,43.738410339633056],[10.380494708915133,43.73833861940435],[10.379871989387324,43.738266960765884],[10.379442968703023,43.73821760779143],[10.379249639543792,43.73819538340604],[10.378626772020809,43.738123748572605],[10.37800422481216,43.738052154198044],[10.37738167900446,43.737980556411244],[10.37707430005092,43.73794520408106],[10.376759071826202,43.737906216110424],[10.376136411199386,43.737829204329074],[10.375813930133708,43.737789321472086],[10.375513748423913,43.73775219187787],[10.374891084555884,43.73767517064064],[10.374268422202054,43.73759814598833],[10.373774971374742,43.73753702670906],[10.373724305691946,43.737530784766875],[10.373652091383873,43.73752179275054],[10.373363439713023,43.73748600723643],[10.373293304804223,43.7374772547155],[10.373220802044262,43.73746758970675],[10.37318263778204,43.73746086055886],[10.373107119651422,43.737452268949326],[10.372727952947601,43.73740320109288],[10.37047755378778,43.737146593699954],[10.367224941131486,43.73677588431069],[10.362623471098681,43.73615846209454],[10.362541587478711,43.73614753627723],[10.362439538408344,43.736136271870606],[10.362313893309915,43.73612233361069],[10.356740437115327,43.735505261595705],[10.355717391029282,43.73529230921105],[10.354944868809467,43.73517541956291],[10.354408219050597,43.73505572854129],[10.354122700149205,43.734944246812276],[10.353981973027755,43.73489023284181],[10.353719904883926,43.73483639739273],[10.353172769176746,43.73472404492542],[10.353092012841902,43.734707322132486],[10.353008243672349,43.73469014064327],[10.352899740808258,43.7346678045967],[10.352827744671457,43.73465299026143],[10.352714139805686,43.734629725816035],[10.352625440433396,43.7346114661222],[10.352545889456957,43.734595209479544],[10.35246802725105,43.73457939198984],[10.352386380343622,43.734562696344135],[10.352237183886285,43.73453215974903],[10.351855213005555,43.73446207773944],[10.351531278874466,43.73440101600777],[10.351446138900002,43.73438501377626],[10.351221954443739,43.73434282300431],[10.350954061506691,43.73429237067768],[10.350598449887956,43.734225396102836],[10.349974945208613,43.73410796579461],[10.349664547377015,43.73404950393018],[10.349351444130049,43.73399053203571],[10.34872794539072,43.73387309394063],[10.34810388158806,43.73375554385433],[10.34747635805613,43.733637097451606],[10.347235456659314,43.73359196352469],[10.346856939551623,43.73349739220389],[10.346232586894446,43.733341395285144],[10.345613347686651,43.7331867528386],[10.344983891085569,43.73302939107556],[10.34485428238786,43.73299700530631],[10.344359534097523,43.73287337584412],[10.343932044710332,43.73276655305786],[10.343735174071481,43.73271735722827],[10.343110728452777,43.732561308286364],[10.343050857291807,43.732546427210806],[10.343010607284535,43.73253642158605],[10.342864912325716,43.73250027442245],[10.342748007528357,43.73248417975392],[10.342482230769974,43.7324478357667],[10.342244058290133,43.73241553470004],[10.341707432055582,43.73234287270266],[10.341582209088712,43.73232591559206],[10.341242979673456,43.73232183450619],[10.340824574340065,43.732316800492384],[10.34062182290916,43.73230788114784],[10.340015860634143,43.73228126695254],[10.33952194188704,43.73236809178703],[10.339382204581591,43.7324008513132],[10.339077256227423,43.73247234435083],[10.338765805864794,43.73257422410361],[10.33862008366846,43.732621855988825],[10.338129817749548,43.73276218943875],[10.337899435898615,43.73283669764751],[10.337609844517337,43.73293071281225],[10.337532002536516,43.73295775838204],[10.337307440584397,43.7330357357814],[10.337153211353504,43.733089829242594],[10.336914375827234,43.733099986837786],[10.336856317044665,43.73310261805289],[10.336622086274772,43.7331130245992],[10.336293417432005,43.73310113495011],[10.336098744768206,43.73309415518146],[10.33606131796823,43.733092861311746],[10.335672613533356,43.73309755987989],[10.335242909365782,43.73310245254879],[10.335143297381217,43.73310361726101],[10.335093004049872,43.73310417331438],[10.335052251895815,43.73310472142781],[10.334431218454126,43.73311300662631],[10.333810548488092,43.73312128420658],[10.33318987824911,43.733129557517586],[10.332569207777269,43.733137828359666],[10.331948537032723,43.73314609493246],[10.331327866055501,43.73315435903632],[10.330707194805802,43.7331626188709],[10.330086523343558,43.73317087713668],[10.329674552923125,43.73317635550598],[10.329465496329517,43.73317878771877],[10.329308343861287,43.73318061581507],[10.329282799014024,43.733138285259926],[10.329162734789671,43.73293923238765],[10.32907599387533,43.73279463231437],[10.328955249608505,43.73237438573023],[10.328910550551951,43.73201470491341],[10.328908406053651,43.73193772465885],[10.328903134296413,43.73172674806205],[10.32892253143742,43.73145638260114],[10.328814697197323,43.73107948762042],[10.32869458168837,43.73069371527065],[10.328451564221409,43.73037240547297],[10.328085609441594,43.73010654593404],[10.327746871131456,43.72994841491326],[10.327433160013124,43.7297989951076],[10.326973076335559,43.72976832386552],[10.32625437614294,43.729631527771645],[10.325501766584699,43.7294882739444],[10.324968795529504,43.729530468804136],[10.324436814376028,43.72961766973996],[10.323991724723276,43.72970386066365],[10.323484765404736,43.72979977110404],[10.322692894246718,43.72992598779306],[10.321938259791105,43.73005176826922],[10.321323143937969,43.73026532612387],[10.321208026264019,43.73030102916261],[10.320668373373831,43.73046259811709],[10.319879650463141,43.730732818340066],[10.319627195331705,43.730829659868],[10.31917781554324,43.73100203107885],[10.319118782481,43.73102187803872],[10.319046825811874,43.731046070817186],[10.317957565829053,43.73141227580003],[10.317156996119502,43.73170962620805],[10.316567254770398,43.731995537644],[10.315928443678192,43.732309023439996],[10.315550398626803,43.73251023103678],[10.315132225181562,43.732804423368435],[10.314789514925595,43.733053813637376],[10.31471735903587,43.73310632029992],[10.314692217233135,43.73312461718018],[10.314566187282075,43.73322153449489],[10.31432467317368,43.73340718539653],[10.314240382369539,43.73347195676402],[10.3141411994879,43.7335631346547],[10.314115558045065,43.73358670708984],[10.314034549668653,43.73366117729309],[10.313971852319444,43.73371762104165],[10.313914993478948,43.733759982279274],[10.313496813171744,43.734065581905206],[10.313344731801758,43.73414371458193],[10.3131031760142,43.73426819409696],[10.312950239182896,43.73438217848916],[10.312815017446836,43.734483474474004],[10.312768708258199,43.734518336215615],[10.31273712631321,43.73454189554375],[10.312648172085858,43.73460854887253],[10.312555587393005,43.734677958480695],[10.312492066770048,43.73472553219787],[10.31245783385898,43.73475365711857],[10.312382657516492,43.734815649195575],[10.312335177422703,43.73485480102146],[10.312288995019808,43.734892934900415],[10.31224125408359,43.73493243002659],[10.312193373236884,43.73497188982342],[10.312108808943082,43.73504185524984],[10.31206930488506,43.735074039169874],[10.312004372402178,43.735127450693646],[10.311737926314414,43.735408631027106],[10.311522692425722,43.73560620149206],[10.311476905646614,43.73564840112583],[10.311359783084031,43.73575598572367],[10.311280412048013,43.73584693376473],[10.311128934403785,43.736019645274],[10.311071510746894,43.73610073068881],[10.3108885790573,43.73635563933201],[10.310867757076732,43.73639862200329],[10.310803224816993,43.73653036776993],[10.310750871214314,43.73663715748993],[10.310692260844242,43.736756563963624],[10.31062703127961,43.736889850971394],[10.310449003815025,43.737207024363066],[10.310387964260844,43.73731576919366],[10.310331373324994,43.73741093744808],[10.310310228513021,43.73744626956745],[10.310182667640378,43.737660264476624],[10.310112564841145,43.737777799041176],[10.310022965900597,43.73785942833548],[10.309742004498997,43.738115503790716],[10.30970612905697,43.73814817922029],[10.309661911454848,43.73818845131973],[10.309459018402046,43.73831503257005],[10.309414608104948,43.73834277346883],[10.309147345165744,43.73850947798097],[10.309091641579379,43.738540590397996],[10.309023570763635,43.73857860901531],[10.308853507189298,43.73867357979955],[10.30878438729497,43.73871219463658],[10.308749564164557,43.738731650014756],[10.308663045115,43.738779971162074],[10.308530768113359,43.73885395394123],[10.30847291136145,43.738886415170796],[10.308392016643651,43.73892421018216],[10.308159635481205,43.73903240778678],[10.30801769994026,43.73909865370507],[10.307864126523244,43.73917806475697],[10.307735961498086,43.73924113284961],[10.307697271803455,43.73926069968047],[10.307603647316347,43.739308028974975],[10.307453033615305,43.73938425517252],[10.307371881948953,43.739436038925504],[10.30733345741764,43.73946061142148],[10.307264511754944,43.73950457971213],[10.307184518159449,43.73955606646387],[10.306938280470288,43.7397142543859],[10.306648630301037,43.73990517720537],[10.3065920798904,43.73994297981203],[10.306564482728136,43.73996059706211],[10.306521682554374,43.73998894238727],[10.306132174917607,43.74033572431317],[10.306082737368632,43.74040831984271],[10.306032138308659,43.74048261773962],[10.305903521481696,43.74067147580505],[10.305777315681578,43.74086165224206],[10.305695355527021,43.74098489649102],[10.305643740441642,43.741062430083616],[10.305589929977652,43.74114335345783],[10.305495955823924,43.74125731862451],[10.305445092332528,43.74131814236694],[10.305423135966297,43.74134529656775],[10.305227809197596,43.74157957026319],[10.305083651639418,43.7417706667434],[10.304974314253228,43.74191560355579],[10.30483703109688,43.742225482328394],[10.304713873771382,43.74250382047],[10.304620452687566,43.742675957602316],[10.304379416156054,43.74312036121321],[10.30424946392036,43.74345451445508],[10.304258434303,43.74349448983391],[10.30427445056107,43.74357371793801],[10.304319684306574,43.74379585416853],[10.304358871945634,43.74403025503988],[10.304376776472886,43.74413734456365],[10.304376677460459,43.74428313625626],[10.304376737696924,43.74434904704501],[10.30437675970865,43.744468042019164],[10.30437648112545,43.744695579521036],[10.304264734577762,43.74487573176857],[10.304230238303646,43.744931345815694],[10.30419648952207,43.744985753814994],[10.30401590990153,43.74524892310292],[10.303934134793579,43.74538123793331],[10.303884988706393,43.745460129095875],[10.303836431771975,43.74553858943536],[10.303806971703256,43.74559343729076],[10.303771034189454,43.74566062132044],[10.30375435582934,43.7456918108],[10.303729040890868,43.745739257035716],[10.303677970820358,43.74583504588769],[10.3036582338302,43.745873008692875],[10.303609183208792,43.745964858720015],[10.303457841232406,43.746223526604446],[10.303433405590164,43.74626532635969],[10.303416172454506,43.74629477537647],[10.303333757604607,43.746436194498166],[10.303131528167564,43.746746874715306],[10.303072846820648,43.7468368930992],[10.302997219387779,43.74695324451444],[10.302885683631843,43.74712534174926],[10.302835775983166,43.74720240344662],[10.302756786736294,43.74732510919108],[10.302697060293793,43.747399578014424],[10.302652612510226,43.74745478548454],[10.302620447174133,43.74749465721618],[10.302587017641748,43.74753585610272],[10.30249861397735,43.74764486433933],[10.302455159134185,43.74769793821729],[10.302383157000078,43.74780510723285],[10.30225001556339,43.74800619469376],[10.302137873351526,43.74810651346607],[10.301864670731332,43.748350597573975],[10.301750138200232,43.74845277906697],[10.301677939891487,43.748502115739235],[10.301597194805028,43.74855740308223],[10.301563706290807,43.74858000768318],[10.301236791073748,43.74880106073073],[10.30099082240685,43.74902284804381],[10.300883088716805,43.749120218860625],[10.300618127165691,43.74938183918905],[10.300547284944834,43.74947169211824],[10.300516936572647,43.749509891271906],[10.300341211348831,43.74973399217576],[10.300245269495628,43.74985589231673],[10.300181421765696,43.74993623485056],[10.300034520079343,43.75002292537748],[10.299978381542655,43.75005731473863],[10.29958966254306,43.75028356256159],[10.29948260483052,43.750348494468916],[10.29942097948683,43.75038541208683],[10.299150827884532,43.750545125357085],[10.29880381857961,43.75065642831882],[10.29860107593929,43.75069357885476],[10.298441110008083,43.75072284278597],[10.298384091122983,43.75073336238763],[10.298181522253692,43.750733300203066],[10.297983558592104,43.75073327539132],[10.297560490967589,43.75073393627181],[10.297524007259561,43.75073399306286],[10.297067755702864,43.750419390777544],[10.297022821709785,43.750388536932476],[10.296930236386808,43.75041908595204],[10.296888365904465,43.750430411603524],[10.296315901374095,43.75061728617264],[10.296279385171914,43.750629126207635],[10.29595591861038,43.75073380669447],[10.29569386598609,43.75056902924692],[10.295477684608459,43.750433094394644],[10.295333907889543,43.75034268281985],[10.295294787734937,43.75031845041767],[10.295067342778058,43.75028930417109],[10.29499337637014,43.75027969976282],[10.294655640788758,43.75023563971611],[10.29444273121517,43.75021052872771],[10.294178958558268,43.750179633978746],[10.293808413852936,43.75013771852397],[10.293198244270684,43.75003631998628],[10.29304365033546,43.750010481638824],[10.292873308497766,43.7499821110992],[10.292740920031454,43.74995988555428],[10.292575292684125,43.74994700630204],[10.291940182429522,43.749897092252304],[10.291308768517801,43.74991193686601],[10.290708938009873,43.749794870332785],[10.290363558014668,43.74972564626786],[10.290214886795825,43.7495922687295],[10.29013559451742,43.74952113439279],[10.290081262310094,43.7494843792712],[10.28979460253466,43.74929131765923],[10.28976923662398,43.74927133278228],[10.289602693526666,43.74914969631132],[10.289492446004795,43.749069202935324],[10.289450693241568,43.749035591055026],[10.28910510669727,43.74875742683465],[10.289056068564156,43.74871704509392],[10.288992496292042,43.748663881598105],[10.288960941507076,43.74863797881527],[10.288878344151053,43.748572501944544],[10.288820097795629,43.74852621391424],[10.288670829270375,43.74840319094237],[10.288470494080581,43.748311144891986],[10.288379740382581,43.748264673008386],[10.288284925393583,43.74822242820246],[10.288184301391455,43.74817693269664],[10.28811867817052,43.74817175239457],[10.288075659464019,43.74816886805369],[10.2880402768609,43.74816656751386],[10.28784230617329,43.74815261612051],[10.287567246475367,43.74813651758246],[10.287522353558433,43.748135195600916],[10.287267203829597,43.74813480425763],[10.287099993687931,43.74813442226265],[10.287000761865727,43.7481341946707],[10.286946619028178,43.74813232565859],[10.286895515295937,43.74813004423791],[10.28671106163448,43.748122279148255],[10.28658550784047,43.748117312631926],[10.286478159511978,43.74811309003621],[10.286375903785672,43.74810934394117],[10.286300805181508,43.74810664895834],[10.28622799169401,43.74810336366839],[10.286182958849373,43.748101362948034],[10.286131896584955,43.748099101427734],[10.286051057969457,43.748095797395365],[10.286002675556057,43.74809600871735],[10.28587406743723,43.748085633889616],[10.285771711861878,43.748080816924286],[10.285703589573652,43.74807753164129],[10.285535385201225,43.748068874140216],[10.285187089943886,43.74805269869633],[10.285124136510076,43.748047937739834],[10.285082336507777,43.74804731923056],[10.284923704188026,43.74803771313494],[10.284825010104575,43.74803248229539],[10.284746193318435,43.748024226825606],[10.284636557387142,43.74801274233694],[10.284538396343544,43.748002408203284],[10.284453051319694,43.74799321298209],[10.28430271231921,43.747977511773875],[10.284200692897123,43.747966503107804],[10.284127423711576,43.74795862155505],[10.283833370628031,43.747865319924934],[10.283757455074866,43.74784205064707],[10.283577739596177,43.74778523035808],[10.283301443839186,43.74769394914383],[10.283212231735593,43.7476658010893],[10.282946951630784,43.7475736633135],[10.28284012336551,43.74754058506343],[10.282746203412504,43.74751826093134],[10.28259592208969,43.74748320044282],[10.282495416075086,43.74745867385878],[10.282439949774322,43.74744551058154],[10.282359130289565,43.74742705571576],[10.282190298959266,43.74738671322341],[10.282068295274849,43.74736829614021],[10.28196156386694,43.74735187662457],[10.281555213173306,43.74729471673468],[10.281340151443903,43.74729291538857],[10.281095590388482,43.747290866288566],[10.280768235755916,43.74734491001255]]]}}]}
