{"type":"FeatureCollection","metadata":{"code":"050005","referenceDate":"2026-01-01","sourceDbfExportDate":"2026-02-18","upstreamArchiveUrl":"https://www.istat.it/storage/cartografia/confini_amministrativi/non_generalizzati/2026/Limiti01012026.zip","sourceManifestSha256":"70ac8256c4785dc6ed2814c32b6965ae76f9161b51abaa1660059e1c6cbd8ca6","license":"https://creativecommons.org/licenses/by/4.0/","attribution":"Istat, Confini delle unità amministrative a fini statistici al 1° gennaio 2026, versione non generalizzata.","modifications":["Converted from WGS 84 / UTM zone 32N (EPSG:32632) to RFC 7946 WGS 84 geographic coordinates.","Converted from shapefile to per-municipality GeoJSON without geometry simplification."]},"features":[{"type":"Feature","id":"050005","properties":{"code":"050005","name":"Capannoli","alternativeName":null,"regionCode":"09","regionName":"Toscana","territorialUnitCode":"050","territorialUnitName":"Pisa"},"geometry":{"type":"Polygon","coordinates":[[[10.67366859779675,43.613974904672325],[10.67369408785875,43.61408818797471],[10.673739275435544,43.61428900441653],[10.673774287941473,43.61465764998842],[10.673689170382614,43.615163111916274],[10.673696634470497,43.61527992309635],[10.673710729668493,43.615468999017644],[10.673633225737822,43.615812467765245],[10.673126169965188,43.615864652219756],[10.672741898482174,43.61586127316821],[10.67221886802877,43.61576988570127],[10.671943425192229,43.61561343313177],[10.67174040246446,43.61549776545228],[10.671474274941945,43.61528556542957],[10.671264012978964,43.615069952029216],[10.671231927474906,43.6150370013381],[10.670688541755615,43.61465778059947],[10.670595675210906,43.61457217905511],[10.670517979321273,43.614500562089596],[10.670294218174432,43.61429430477532],[10.669878456694823,43.61404827290564],[10.669614647571189,43.61396868049329],[10.669364702479935,43.61389378490419],[10.6689565569776,43.61387265831754],[10.668748113731207,43.61392471759335],[10.668611950913089,43.61395872450864],[10.668372149789663,43.61407875057717],[10.668327958196567,43.61409964280376],[10.667939692278887,43.61429275721595],[10.667733961443409,43.61437577738466],[10.667522995472934,43.61446090755272],[10.667121562918085,43.61461026851117],[10.667044606669746,43.614638960163894],[10.666308809977648,43.61491980631433],[10.665965027002093,43.61503324967323],[10.665768721688703,43.61506451388667],[10.665706805482106,43.61507440492119],[10.66553324557579,43.61510252709953],[10.66514958925811,43.61512578226772],[10.664716764381039,43.61515909931612],[10.664631029204319,43.61516580896851],[10.66429623532492,43.61519215373655],[10.66386365886536,43.615234467864475],[10.663221482473356,43.61531584561018],[10.662642483720477,43.615441320321644],[10.66234796689258,43.61545773546342],[10.661986675690082,43.61547787069238],[10.661535415028617,43.61546984923039],[10.661428730536178,43.615467975961366],[10.661041811151588,43.61529395447024],[10.661002093691284,43.6152760925557],[10.660990109226036,43.61524163491547],[10.660867562235937,43.6148908813899],[10.66069438308098,43.614452208936434],[10.66052219739333,43.614049537476205],[10.660425328647271,43.6136817863586],[10.659980125805838,43.613007612930495],[10.659830469313475,43.61278101185594],[10.660159051711275,43.61270448614651],[10.660237638214051,43.61268619119079],[10.660610959682604,43.612599278316374],[10.660655431815735,43.612588925896404],[10.660775191204564,43.61257846359673],[10.661149928364908,43.61254572396419],[10.661394124413277,43.612553992093346],[10.6617080943507,43.612564620825225],[10.662014247948662,43.61257275121946],[10.662158317699664,43.61257657704015],[10.662365358842857,43.61258207449776],[10.662580320594815,43.61261228650432],[10.662637410676103,43.61262052475925],[10.662887853106367,43.61265550803386],[10.663258542015408,43.612757034804424],[10.663324878078326,43.61277520275383],[10.663447851016764,43.61282048825226],[10.663568162300956,43.6128647859117],[10.66382752257036,43.6129607055851],[10.663887904065522,43.61298312601189],[10.664282388177286,43.6130836889556],[10.664505626856508,43.61314057610558],[10.664587337772481,43.6131616221552],[10.664627005840385,43.61316778023891],[10.664734242600503,43.613184244158774],[10.664849471390454,43.61320174586285],[10.665131846080667,43.61324448323993],[10.66518449285436,43.613252215006874],[10.665304412600753,43.61327524564876],[10.665364712404127,43.61328511230151],[10.665776443185564,43.61335966662057],[10.665949701271629,43.61333354464365],[10.665998704594987,43.61332452690825],[10.666370044338157,43.61326742622494],[10.66663363888402,43.61322229332412],[10.666666163679626,43.613179757161646],[10.666779976405248,43.61302432555707],[10.666855138875476,43.61292435990832],[10.666932438906757,43.61282125937705],[10.666973104085226,43.61264188779781],[10.667036686840417,43.612361048859405],[10.667042823151,43.61233394755827],[10.66710517418828,43.61190135984736],[10.666943726291423,43.61157854397654],[10.66692159565363,43.61153437201737],[10.666803524059732,43.61146406436682],[10.666405031058584,43.61122676997895],[10.666313454614453,43.61119199939698],[10.666016813946293,43.611079364638016],[10.66569753747878,43.6110284298249],[10.665344694420059,43.61097210996223],[10.665066988202415,43.61092815346268],[10.66499308978586,43.610916457066395],[10.66492153889463,43.61090625979476],[10.664425823722384,43.61086853510848],[10.66414663554406,43.61083586367427],[10.664063303851083,43.61082606790152],[10.664014586537835,43.61082041053202],[10.663822516358012,43.61079610588326],[10.663747458835486,43.61079174845479],[10.663444219088658,43.61075854934067],[10.663355853672451,43.61074896497547],[10.663201558204213,43.610686541490026],[10.663033614917941,43.61061859618452],[10.662904719047607,43.61056644805744],[10.662576308077602,43.61046097361748],[10.662499534816723,43.610436377869306],[10.662342745308633,43.61038510845764],[10.662154142106003,43.61028361565109],[10.662118779107653,43.610263349754334],[10.662053698810755,43.610229159234095],[10.661965981288466,43.61018169471326],[10.661775936586478,43.6100785682155],[10.661613031731203,43.60973878982526],[10.661578735895699,43.60966725783308],[10.66160855600677,43.60948562185897],[10.661634670077984,43.609328706940985],[10.661642433739216,43.609279849449315],[10.66167865703753,43.60921605123019],[10.661819767964456,43.608970455602545],[10.661912620682594,43.60888342128061],[10.661977284803664,43.60882544282538],[10.662327748304117,43.60849444120146],[10.662522041486898,43.60851727991989],[10.663159155060535,43.60859081783141],[10.663765730726757,43.60868464232062],[10.663956862513936,43.608713628386994],[10.664124160269399,43.608779486545224],[10.664177543764866,43.60880172240893],[10.664394685054425,43.608887916400896],[10.66473554624533,43.609108099044136],[10.664935998047838,43.60924023727913],[10.665021882292443,43.609296853523624],[10.66518990267429,43.60940761121998],[10.665578356638816,43.609564019915425],[10.665649027998674,43.609571183566516],[10.666199671537376,43.60962699425745],[10.666267866922732,43.6095445333243],[10.666304968722585,43.60949979657985],[10.66638371541402,43.609404507801116],[10.666463474402397,43.60930801298597],[10.666473375392574,43.609217830152595],[10.666503076946523,43.60894728075997],[10.666462717624595,43.60876779229852],[10.666418320183881,43.60857035481984],[10.666324455727986,43.60830247501808],[10.666257039002927,43.60811353604367],[10.666225809417009,43.60802029095286],[10.66617601263521,43.60787161366649],[10.666149003558823,43.60779097196279],[10.666083008605577,43.60755708248465],[10.666052858557428,43.60745022655211],[10.666045137055953,43.60742332188989],[10.666000359843746,43.60726728985351],[10.665970590395975,43.60716330240351],[10.666007675644192,43.606975772496355],[10.66601799312767,43.606914261146706],[10.666036967965093,43.60686683361475],[10.666118202615781,43.60680359875955],[10.666190581354302,43.606748985469174],[10.66629222396584,43.60667301492651],[10.666371137739024,43.606612579737764],[10.6664372428314,43.60656224279191],[10.666470310249384,43.60652574577972],[10.666530831809853,43.60646203830486],[10.66675041941395,43.60623361880561],[10.666886619846073,43.605781438992175],[10.666899210571698,43.60534006580448],[10.666769275300936,43.60509578940546],[10.666742380039235,43.6050452256173],[10.66664836167962,43.60491962937718],[10.666562272217224,43.60480474738269],[10.666143332712702,43.604441712698225],[10.66570225790562,43.60410288201677],[10.665383839247369,43.60385851097136],[10.665198393163703,43.60365675594606],[10.664975093553634,43.603414272571406],[10.664955081744097,43.603373394456824],[10.664659973874823,43.602770584020405],[10.664452379488061,43.60243146016985],[10.664082045280534,43.602031678785586],[10.663688418808489,43.60158225880745],[10.663365665518922,43.60121375003047],[10.662518517905406,43.6001456109804],[10.66221283279436,43.59984882094377],[10.661385525425764,43.59904556906748],[10.661175210397136,43.59908981645255],[10.661117210469698,43.59910206744183],[10.661022498785266,43.5991218651217],[10.660986686010522,43.59912952842218],[10.660880525097063,43.59915198196587],[10.660674364147887,43.59886677825505],[10.66053120385454,43.59861674939767],[10.660286741917998,43.59828715728046],[10.66011906356774,43.59804648799515],[10.660014799619365,43.59793760491155],[10.65981293375411,43.59772679450033],[10.659415417276872,43.59723735368532],[10.659193756411522,43.596835397336896],[10.658924047790258,43.59648816077649],[10.658576576995033,43.59601599752949],[10.65815283128242,43.59547290902666],[10.65785836745396,43.5951260289981],[10.657465826183314,43.594816586372076],[10.656831828127702,43.59428554564973],[10.655798858029526,43.593661239368174],[10.655602715190401,43.59356639498449],[10.6553468888444,43.593442689009215],[10.654936586500044,43.593322912069645],[10.654886059709948,43.59330809022552],[10.654847363009935,43.59329685712763],[10.654433783007528,43.5931227662081],[10.654120256866198,43.592983242547255],[10.653758422240271,43.59288027350691],[10.65310631127091,43.59305193618322],[10.652865299734133,43.59329852704075],[10.652572772627188,43.59347381614962],[10.652154704599607,43.593587921286534],[10.651421624380378,43.593508477125376],[10.65116437441326,43.59343060170575],[10.650797014510422,43.593319388850084],[10.650439702519854,43.592937382265696],[10.650380311257736,43.59299998096002],[10.649946010685928,43.593457731694386],[10.649517756841492,43.59365299549304],[10.648965421663059,43.593841043061765],[10.648387087222279,43.59398444401848],[10.64777184485335,43.59413737811767],[10.647420610631688,43.59419120857832],[10.647253702478558,43.59421687869418],[10.647015132915914,43.59423164560196],[10.646956858484147,43.59423526846739],[10.646684827225883,43.59425211506191],[10.646154789439503,43.594349789063585],[10.645339193533879,43.59442456078123],[10.644125114232013,43.59442402391176],[10.642774488723443,43.59424328214152],[10.64270186239547,43.59423371662286],[10.642546033751216,43.59421262690826],[10.642542980879675,43.594167123329235],[10.642510467229393,43.59368278382493],[10.642504743545574,43.59359188101445],[10.642485114991402,43.59351713575291],[10.642443726374848,43.59335773096763],[10.642435185148056,43.59332295703912],[10.642403627429266,43.5932574771895],[10.64228975488014,43.59301807011413],[10.642231674799891,43.592913210695784],[10.642156478435682,43.59277857254474],[10.642094687191445,43.592668378399665],[10.642029690599703,43.59255464849122],[10.641972176714741,43.59246674877261],[10.64175863339562,43.592143295614264],[10.641695652406248,43.59206132505832],[10.641664821196827,43.59202100694534],[10.641633298382361,43.59198053758636],[10.641450794580527,43.59174322284787],[10.641318457836169,43.59157292605063],[10.641234162126167,43.59146461137198],[10.64114967731431,43.59135548088335],[10.641115410057415,43.591311365458985],[10.641090554275156,43.591280344421456],[10.641037656241618,43.59128861865381],[10.640647142991632,43.59134965069016],[10.640384879112117,43.59132370737321],[10.640250460934494,43.59131071962208],[10.640132949646272,43.591296404121074],[10.63977740309045,43.59125408537294],[10.639536930865019,43.591219451069776],[10.63937943761122,43.59119676737871],[10.638948765070165,43.591161303237314],[10.638903702131172,43.59115766442721],[10.638864296723339,43.591154755734124],[10.638820723467552,43.59115077588988],[10.638725076935746,43.59112644815318],[10.638644193060543,43.59110572636788],[10.63860895950644,43.591096685497675],[10.638284366516187,43.59101438369178],[10.637534140787295,43.590755035562424],[10.63709675890549,43.59105820622915],[10.636731194837774,43.59129774938865],[10.636478958707617,43.59158948551758],[10.636301749848588,43.59190715978181],[10.636202497237962,43.59235877551242],[10.636026504150253,43.59272145084937],[10.635827404175105,43.592908013970586],[10.635772795805243,43.59295918443647],[10.635330165550492,43.59308256913889],[10.635118872142915,43.59313263066361],[10.634763943644856,43.59321672390232],[10.634247982796879,43.59337716911108],[10.633782527526916,43.59357290501588],[10.633313660464498,43.59364263404333],[10.632743047394317,43.593614771037934],[10.632526326894814,43.593477784850215],[10.63236862034341,43.5933777783844],[10.632339840869546,43.593359854633526],[10.632214141486388,43.59328047631666],[10.632248325241067,43.593217404262745],[10.632271771517884,43.5931748426143],[10.63246157982132,43.59282644871053],[10.632649978111658,43.59246360163707],[10.632612768917081,43.59228729699894],[10.63259314260806,43.59219429622377],[10.63247366396707,43.591898873610226],[10.631912254302673,43.59129461727126],[10.631936474752603,43.59122823632607],[10.63195005528728,43.59119110002678],[10.632014690666544,43.59101406665032],[10.632035547784893,43.59095699609141],[10.6320896549105,43.590808858179116],[10.632112904424408,43.590745204853484],[10.63217187180218,43.59058422265919],[10.632519448032578,43.590385551680725],[10.632768778234482,43.58998581806226],[10.632815890910985,43.5899073479994],[10.63304141025371,43.58953172800942],[10.633192890803619,43.589178411313455],[10.633258908719968,43.588871335545385],[10.633256685418075,43.58833113336148],[10.633236269907528,43.588034295722295],[10.633253243937165,43.58774592866038],[10.633261834378082,43.587720919816974],[10.633356585814242,43.58744506699198],[10.633383677736855,43.58736488029012],[10.63341392260944,43.58727541584456],[10.633726362954869,43.586919797914966],[10.63374994038112,43.58688138398339],[10.633841746686032,43.586729066867704],[10.633934149537492,43.586575694885035],[10.633951798392347,43.58654634803036],[10.633980322301435,43.586445421653735],[10.6340288834699,43.58627446489899],[10.634052657037099,43.58618581670743],[10.634033433337645,43.58591564536271],[10.63399791243863,43.58582854717709],[10.633906831736306,43.58560778863436],[10.633895722737249,43.58558075362562],[10.633854154716598,43.58547972354089],[10.633834768167244,43.58543260372492],[10.63382392911841,43.58537909855415],[10.633749034718965,43.58501064581804],[10.633752415271655,43.58492956258179],[10.633764058079674,43.584650274588626],[10.633682186476026,43.584480371023076],[10.633474521763151,43.584050498820034],[10.633356271266607,43.58391309164653],[10.633168482785608,43.5836953702368],[10.633011853889297,43.58340047678882],[10.63297833055119,43.583076815093854],[10.632972872776312,43.58298911414584],[10.632956474174282,43.582725988243425],[10.632833624869422,43.582235514471364],[10.632780449908351,43.581976846829164],[10.63274577063965,43.5818097942957],[10.632635288012992,43.581380058231275],[10.632523103520594,43.58089544903569],[10.632351206906726,43.580492728370544],[10.632107947312518,43.580199072510396],[10.632023904611874,43.580106418613056],[10.631801569361532,43.57986129822727],[10.631786065577497,43.579808633751234],[10.631772664443398,43.579763105527604],[10.63171974914066,43.57958334542046],[10.631725983900706,43.579556244448845],[10.631819503531634,43.5791497334475],[10.631844818232237,43.579104352085245],[10.631920280034349,43.57896906842755],[10.631962137037474,43.57889574377438],[10.6321022882049,43.57861446405514],[10.632117564124284,43.57826309304083],[10.63206923726025,43.57784960318532],[10.6319611993682,43.57751800087779],[10.631743685696316,43.577259992436346],[10.631389750208205,43.57699492772976],[10.63108606730675,43.57675615586706],[10.63078723515445,43.576238192904874],[10.630803490378485,43.575922823921225],[10.630957139149633,43.57565051355268],[10.631206423119423,43.575250783130514],[10.631141351820691,43.57467546152846],[10.630983805432658,43.57434456463206],[10.630956980684434,43.5739202901503],[10.630943950435046,43.57371418192175],[10.630937164427575,43.57360937228864],[10.630928738519303,43.573470649088925],[10.63092346566558,43.57340445941268],[10.630919924698691,43.57331911333041],[10.630917856396561,43.57326497119505],[10.631024716858125,43.573256479064796],[10.631473517650896,43.57322100714114],[10.63186625131641,43.573089345598184],[10.631951859072526,43.5730672421526],[10.63238279184479,43.57295592809632],[10.632533407767712,43.57293705651176],[10.632950533573664,43.57288479124719],[10.633680176983502,43.572847352698936],[10.634197921588893,43.57285148815705],[10.634287584639916,43.57285216541971],[10.63440429055699,43.572852557661825],[10.634509242680524,43.572853039534294],[10.63468147614579,43.572807145620594],[10.635038713835403,43.57271086771736],[10.635715913718409,43.572566119300866],[10.636085640679925,43.572500047880645],[10.636174309813148,43.57248434521337],[10.63631980366658,43.572458426101775],[10.636355608058084,43.57247044257424],[10.636398843544534,43.57248495299965],[10.636454736660726,43.57250371215136],[10.636757217165291,43.57260523019953],[10.636883282899767,43.57280151368565],[10.6369123580156,43.57284611907496],[10.636878741111753,43.57290640235407],[10.636839911013343,43.572976032595214],[10.636770634779465,43.57310025875742],[10.636754653637984,43.573424628755376],[10.636889907139675,43.57384587691039],[10.63700576975145,43.57446548776591],[10.637081325207891,43.57496862565316],[10.63721396127389,43.57575006689058],[10.637703116384582,43.57597716020689],[10.638284565097104,43.57616944451805],[10.63833745798537,43.57618693565427],[10.638590384540336,43.57627057661252],[10.639087045063205,43.57631747925783],[10.639124953621655,43.576229196233605],[10.63914671492928,43.57618081184784],[10.63916323136539,43.57614393414252],[10.639184612291121,43.576096504224786],[10.639215495082023,43.576027587766774],[10.639178280786874,43.57556892150953],[10.639054653176569,43.57512049841721],[10.638957251776207,43.574725723050676],[10.638983647491134,43.57432917154097],[10.639155421286024,43.573813485088394],[10.639319451532582,43.57346898350538],[10.639592451493971,43.57303287951066],[10.639904295226044,43.57265924460166],[10.640312674433693,43.57229199571776],[10.640351768784633,43.57225675756999],[10.640494977400328,43.5720998226753],[10.641481946928431,43.571015891368404],[10.642437216943435,43.570624003162905],[10.642937167202966,43.570400993877485],[10.642980999594972,43.57038148063203],[10.64335484870432,43.57021464012589],[10.643786140997888,43.57013640720728],[10.644600446663501,43.57006221459708],[10.644724953819312,43.57005086979592],[10.645028024206466,43.56994761106837],[10.645284560515108,43.5698603281853],[10.64549794073223,43.569787633934496],[10.646095415708384,43.56944588556096],[10.646557456534905,43.56913309626519],[10.647193035528495,43.568826809209554],[10.647586933231041,43.568740095945344],[10.648091741607761,43.568633775036226],[10.648152387599582,43.56860309731471],[10.648494823158153,43.56842987601978],[10.64859991695818,43.56833288451812],[10.64888134752824,43.56807314732912],[10.64921015347107,43.567870316361414],[10.649847424289414,43.56762701721112],[10.650230652486385,43.567603476847104],[10.65066388329533,43.56759722108867],[10.651354101932087,43.56747920398022],[10.65200521395509,43.56728971592723],[10.653014790532533,43.56707703342187],[10.653485150965821,43.567070229985504],[10.654275858376856,43.56700476458433],[10.654764811441634,43.566772588561676],[10.655271070250933,43.5667202380441],[10.655447291865576,43.56669009941074],[10.655788719666191,43.56663170607116],[10.656106102852975,43.56646503673521],[10.656358581161108,43.566164763011166],[10.656484784029004,43.56601051253341],[10.656621568840466,43.56584529833675],[10.656909008314294,43.56548997850689],[10.657135543691325,43.56517155697036],[10.657162099329048,43.56508910137105],[10.657191467123747,43.564997800877705],[10.657216030942022,43.56492164633126],[10.657272473638841,43.56474638709894],[10.657384522746087,43.56445083660104],[10.657399492516278,43.564411399892194],[10.657429059036309,43.56436746471098],[10.657601755250049,43.56411133105612],[10.657947609649403,43.56362910620304],[10.658310035087142,43.563299707044266],[10.658499917684368,43.56299982249651],[10.658417012566309,43.562685887930115],[10.658291296580837,43.56216548315449],[10.658131663335816,43.56176262233146],[10.657993081439654,43.56122439667103],[10.657932219509545,43.560811097804454],[10.657933658197376,43.5607329113335],[10.657937188938714,43.560540908150394],[10.657918444590136,43.560489495224644],[10.657803303125682,43.56017368841797],[10.657781299833673,43.55982285385835],[10.657833800979226,43.55947994267843],[10.657762046896607,43.55912082565111],[10.657556622669725,43.55885368721236],[10.657238334866268,43.55853416078255],[10.65704109704596,43.5581138353706],[10.656988208845355,43.557687843375064],[10.656977458173158,43.55760146885238],[10.656915619610947,43.557152168187095],[10.6568649245739,43.556657686746426],[10.656909795460498,43.556365890565125],[10.656938480065412,43.55617941126429],[10.656986257075744,43.55575358503647],[10.656998179996135,43.55564731336357],[10.657095744439896,43.55514167759783],[10.657149233032271,43.55483476822984],[10.657161913618134,43.554447706040506],[10.657164507792375,43.55438589005878],[10.65717082665573,43.554042706618546],[10.657171704298039,43.55397942265315],[10.657173410955435,43.553907088433434],[10.657303454474052,43.553824371163856],[10.657477609009996,43.553713595061076],[10.657725435847915,43.553558567857436],[10.657757549508604,43.55353846073528],[10.658043060540601,43.55333813090373],[10.658255547448194,43.55318908602106],[10.658788195534797,43.55274916696934],[10.659248563430323,43.552382327758046],[10.659441610097915,43.55224063281536],[10.65962021964873,43.5521095333067],[10.659648620828865,43.55208790655205],[10.659724379337941,43.55206252087053],[10.660029187486945,43.55195681092673],[10.660584815503862,43.55190371992356],[10.66067199616854,43.55190839687076],[10.661241914022309,43.55193919171199],[10.661801994467261,43.5520481006526],[10.66237710287212,43.552183234887266],[10.662413530550092,43.552192554580714],[10.663199368428959,43.552415095582],[10.66369934761357,43.55261467130795],[10.664191323124944,43.55294973408874],[10.664571987909099,43.55328634107265],[10.664953399272317,43.55364994794098],[10.665531331659933,43.55395666596765],[10.665969421438,43.55413036003725],[10.666342165534015,43.554178950656365],[10.666750411679933,43.554225917573305],[10.667378985354583,43.55451498358921],[10.66770567643868,43.55464533261301],[10.667879706098093,43.55471476868986],[10.668318056274016,43.554897453926735],[10.668794948290861,43.55509750085645],[10.669520663579238,43.555411049349736],[10.669581102112037,43.555806340441755],[10.669543778874658,43.556248078655734],[10.669520160882156,43.5564025453185],[10.66949134657605,43.55659099428054],[10.669548554980583,43.556869280340045],[10.66956160019263,43.55690423154912],[10.669668884983604,43.55719166436454],[10.66980034924761,43.55746886643001],[10.669828733960498,43.557718397691566],[10.669833831714682,43.55776319290299],[10.669865764472796,43.55804416383409],[10.669901953391527,43.558457815973284],[10.669925518058546,43.55886264940634],[10.669997096388038,43.55921275635314],[10.670161657852134,43.559501632436294],[10.670205399262105,43.55957895177183],[10.670282199101264,43.55958928440302],[10.67062793301997,43.5596358029465],[10.67080103981044,43.55962842488508],[10.67098269772376,43.55962070995561],[10.67102567158512,43.55961885084943],[10.671271001567503,43.5596083938692],[10.6715022367076,43.55991114698718],[10.671572104392219,43.55997617682099],[10.671807233971933,43.560194811840724],[10.672119374724046,43.56036672078194],[10.672285006350998,43.56045794014655],[10.672659115742807,43.5610017058588],[10.673003745264817,43.5613748275082],[10.673381273451273,43.56159439927583],[10.673437681721188,43.56159097846818],[10.673776828623378,43.561570599496086],[10.673921046261336,43.56156428713365],[10.674395162282222,43.56154353502054],[10.674742555406008,43.5615524466604],[10.67506424807017,43.561560742549325],[10.675846140557793,43.5616303693893],[10.676073068819695,43.561664035794536],[10.676712609517502,43.56175796233002],[10.676791091656312,43.56176952465626],[10.67685826996837,43.56178455003169],[10.677700583779163,43.561972272817684],[10.678849490407494,43.56232456361484],[10.679404914302046,43.56254570624261],[10.679525589251538,43.56259375222193],[10.679804382651456,43.56282375745682],[10.680160692805664,43.56316967364985],[10.680739793674594,43.56351231281557],[10.68088854133649,43.5636476416875],[10.681156920382366,43.56389176102318],[10.681324158989229,43.564043953750875],[10.681562096764196,43.56426887677777],[10.681680234696103,43.564380865461885],[10.681863814083954,43.564549326688656],[10.681921663371853,43.5646024102845],[10.681921131786709,43.56475754618131],[10.681920306844289,43.56499860253271],[10.682052846930594,43.56531178928816],[10.682294142087791,43.565395123902285],[10.682490666233988,43.56546302331024],[10.682627544634888,43.56551093370411],[10.682686700860206,43.56553209290162],[10.683003301213965,43.56564895121776],[10.68319898972442,43.56600622671508],[10.683355522273828,43.56628773817127],[10.683406912061054,43.566381941931745],[10.683536398335736,43.5667334874539],[10.68355499575726,43.56678432469639],[10.683630932000368,43.56695428024797],[10.68373981813701,43.567195782305454],[10.68383674500636,43.567563515436866],[10.683729935385928,43.56779399472361],[10.683673549555952,43.567917296744795],[10.683631479289739,43.567969785759196],[10.683477811202302,43.56816566477983],[10.683422075246497,43.56823591368108],[10.683468371525795,43.568438274519174],[10.683506328047311,43.56860392103951],[10.683927510397671,43.56903602186804],[10.683942436079422,43.5692843814419],[10.683950551041054,43.569425649743934],[10.683981561108618,43.569460562339394],[10.68407104912967,43.56956127435782],[10.684196447330697,43.569702432520415],[10.684219149599073,43.56972770263985],[10.68435690804589,43.56979896599754],[10.68460832948007,43.5699288095766],[10.684706808552045,43.56997942453126],[10.685035655357561,43.570147978462444],[10.685241192766787,43.57027903101531],[10.685441794314062,43.57040717385844],[10.685477255083292,43.57042956339112],[10.685581197303822,43.57047983860846],[10.685662884187279,43.57051929321905],[10.685803309838617,43.570586826547434],[10.68586881130153,43.570611755893765],[10.68623164233656,43.57075006311109],[10.686292988412747,43.5707783723877],[10.686531761284506,43.57088911177008],[10.686743226605586,43.57098716725191],[10.68699066576447,43.57119578797494],[10.687047869213188,43.57124379568252],[10.68728967243444,43.57149251535116],[10.6873444695248,43.5715448434278],[10.687658863129535,43.571847030476796],[10.687900969088851,43.57202253564402],[10.6880000400256,43.57209402463682],[10.688393388245936,43.57227107938366],[10.688426309769929,43.5722859700654],[10.688897704556513,43.57228718829849],[10.688964307094995,43.5722872900078],[10.689111720864592,43.572287691210065],[10.68919743386169,43.57228795335656],[10.689307350414978,43.57241689831893],[10.689395107770963,43.572519854760536],[10.689527152055135,43.57267476317009],[10.689668912809111,43.572861749438545],[10.689797174328353,43.57303092803575],[10.689917844869429,43.5733082647188],[10.689929522132731,43.573335104014376],[10.690034289361302,43.573577660108356],[10.690048545030466,43.573612464905196],[10.690091197384314,43.57375589703658],[10.690132714731188,43.57389615672159],[10.690224808872527,43.574210263776884],[10.690235542546004,43.57429481900819],[10.690263631839326,43.574653738108616],[10.690256770700813,43.574862534748604],[10.690252987720717,43.574996013481964],[10.690251106499478,43.57510428715791],[10.690246637994722,43.57537430247674],[10.690217227479083,43.57552836421557],[10.690212421897183,43.57555486736462],[10.690200528615673,43.57562014922072],[10.690184027856782,43.57570325775894],[10.690126434312605,43.575998442316425],[10.689999471711943,43.57627834815483],[10.68985595219817,43.576460548854406],[10.689784191464136,43.57655164779896],[10.689506717176169,43.57678083479669],[10.68923867761081,43.576919827486506],[10.689078458883206,43.57700323114461],[10.688903638194194,43.577090500559386],[10.688650955538813,43.577216637763996],[10.688329801307253,43.57738345289097],[10.688298079124289,43.577399566787065],[10.688187063992341,43.577457592187855],[10.687759554228943,43.57767099556037],[10.687682478535093,43.577710637393544],[10.687417105276324,43.57784712564363],[10.687381057410208,43.577865666691494],[10.68707173751703,43.57801526893548],[10.686977799262483,43.57806070114131],[10.686597933463826,43.57830903107123],[10.686462551094262,43.57839754167161],[10.686358165024634,43.57846573921374],[10.686330273669094,43.57867892369978],[10.68631947020853,43.57876375918967],[10.68629651229585,43.57894413421338],[10.686231833141958,43.579215205036455],[10.686218896518142,43.5792694197473],[10.686110298871249,43.57956998715533],[10.686070408596482,43.57966164362488],[10.685929236330416,43.57998500142603],[10.685908460504267,43.58008212852012],[10.685900139366654,43.58012151579242],[10.685893976915235,43.58015233455439],[10.68584174882292,43.580400471109186],[10.685877452919986,43.58056896976905],[10.685898554595589,43.5806607466528],[10.685930267371397,43.580777114431356],[10.685954162049295,43.580871371215224],[10.685965851900137,43.58092094392984],[10.686027594466925,43.581018994914785],[10.686136493515606,43.58119748409558],[10.686465425154822,43.58144473957665],[10.686509994404222,43.58146221863151],[10.686545884762353,43.58147405869174],[10.686683334956072,43.58152957296269],[10.686722538044723,43.58154582824946],[10.686928787363431,43.58162698404766],[10.687175171031967,43.58171788719105],[10.687304230758588,43.58176550382963],[10.687653908307164,43.58186838784358],[10.687799912154068,43.581888149349155],[10.687849719184864,43.58189464672257],[10.688111139175364,43.58192943723891],[10.688200923223384,43.581941344244434],[10.68829193272921,43.5819447153208],[10.688343082811128,43.581946660041],[10.68842030886188,43.581949529610675],[10.688721669130661,43.581960663229424],[10.688867079714967,43.58195626367627],[10.689039548029143,43.58195060330345],[10.689241408432627,43.58194397883335],[10.68965758957329,43.58190589894888],[10.68971086875225,43.58190102348763],[10.689914142376375,43.58186200225838],[10.690117416965466,43.581822980653286],[10.690273514375976,43.5817835966211],[10.690609447371646,43.58169872145318],[10.690887966862846,43.58161007385741],[10.690965463372798,43.58158540806426],[10.69102300145383,43.5815572990628],[10.691475874464684,43.58133571889316],[10.69194943137462,43.58089559427015],[10.692128583485957,43.5806588405966],[10.69231963713988,43.58052178607698],[10.692359333602031,43.5804932895861],[10.692395675023015,43.58046604028887],[10.692435793028466,43.58046107841508],[10.69250286708417,43.580450899332924],[10.69256727808385,43.58044199769431],[10.692963137122252,43.58038536860981],[10.693012848237471,43.58039138524347],[10.693529386090928,43.58046848984042],[10.693573301898052,43.580475029693204],[10.694071301174112,43.58059404630027],[10.694336596347593,43.58061450735193],[10.694577916237053,43.58063318391351],[10.694710216118093,43.58064324440632],[10.69495258817299,43.58066242050237],[10.695196453797168,43.58067381881091],[10.695659536328362,43.58069691562562],[10.69581617434632,43.58069043091887],[10.696115538773316,43.58067711176358],[10.696435213359676,43.58066397838372],[10.69666159016653,43.58065476644039],[10.697053899345581,43.58066452344193],[10.69754161132301,43.58067770091242],[10.697648025133518,43.58067831013178],[10.697712642693926,43.58067867121222],[10.698292904945305,43.58068213123022],[10.698489654210174,43.580683418731816],[10.698817549034892,43.58068566766677],[10.699372102424183,43.58066759946462],[10.699531796918835,43.58066244182575],[10.700150103496117,43.58064277624817],[10.700376724957355,43.58063572326032],[10.700768241526223,43.58061867897852],[10.701387158768004,43.580591263208376],[10.701460775878903,43.58058802617415],[10.70200600040155,43.58056382180098],[10.702105464404344,43.58055937468716],[10.702481998099037,43.58055401241598],[10.702617009813787,43.58055223535719],[10.703243648286534,43.580543191362715],[10.70363523609649,43.58053755052631],[10.703754977841514,43.580535830456604],[10.703862721719846,43.580535431726304],[10.704481789931995,43.58052832700282],[10.70492077917492,43.580518756827786],[10.705100760743127,43.5805160223859],[10.705214448001042,43.58051424794711],[10.705255665419942,43.58051360688353],[10.705719772362624,43.58050679496431],[10.706103285523248,43.58050133100136],[10.706338796496631,43.58049784222415],[10.706957820164194,43.58048887983365],[10.707195477687709,43.58048557422755],[10.707479873992162,43.5804813618972],[10.707576817596411,43.58048017919723],[10.707904370290517,43.580476227735794],[10.708195872608917,43.5804724701849],[10.708621513069655,43.580467155987584],[10.708815013149518,43.5804651635183],[10.708878000654604,43.580463776074936],[10.70905863758451,43.580461672983624],[10.709434061181074,43.5804570445223],[10.70950145354231,43.580456245442456],[10.710053113472107,43.58044916971684],[10.71058818017323,43.580442135282006],[10.710672166760107,43.580441292441996],[10.711291234558715,43.58043349623226],[10.711910286458757,43.58042562577423],[10.712020051066926,43.58042421035149],[10.71252932231807,43.58041763244893],[10.713148319937632,43.58040930139446],[10.713506984338906,43.58040460191315],[10.713659208449716,43.580402984141124],[10.713767420148995,43.580401842433815],[10.713918728167073,43.580399324149504],[10.713970605141876,43.580398663256055],[10.714372658014746,43.58039354719111],[10.715005436863269,43.58038531359629],[10.715246242914473,43.58038230505495],[10.715309183394012,43.58038149462664],[10.715624505106044,43.58037761905066],[10.716015860014686,43.58037284416726],[10.716243559364953,43.58036991775833],[10.71650744590654,43.58036621332456],[10.71657248661582,43.58036573982071],[10.716631290884052,43.58036495116799],[10.716879080807411,43.58036154346198],[10.71748162454396,43.58035331363494],[10.717814361932184,43.58034884886699],[10.717960723101415,43.580346906502214],[10.718101898827866,43.58034497887166],[10.718324104486552,43.580342036356775],[10.718424025136098,43.58034081049791],[10.718485583192376,43.58033999659444],[10.718708694908743,43.58033712254469],[10.71925428814278,43.58032959749279],[10.719338779964106,43.580328457055735],[10.719509202830464,43.58032613363231],[10.719818179754514,43.58032189984023],[10.719957795285133,43.580320903693774],[10.720140013203329,43.58031963447252],[10.720134217087814,43.58035170019041],[10.720110594718898,43.58047524346636],[10.720288049745385,43.580472544728295],[10.72125634837141,43.580488196195034],[10.721440379305468,43.580491160972144],[10.720784699980834,43.5809512572308],[10.720447165545737,43.5811199784595],[10.72034010637128,43.581173496916996],[10.720247398701602,43.58122045867621],[10.719930518672344,43.581416898643134],[10.719784733180466,43.58150661632302],[10.719236735280717,43.58182992300951],[10.7186878080628,43.58212630387609],[10.718100965130958,43.58239623927883],[10.717622738441634,43.58256549581097],[10.71755409865672,43.58260408735654],[10.717309423251994,43.58274140080401],[10.71727998304354,43.582757921530266],[10.717062718996013,43.582880582815434],[10.71678227603023,43.58306433557605],[10.716583263246138,43.58324364484703],[10.71630316875371,43.583496127440405],[10.716142205607929,43.58364119333256],[10.716243348836542,43.58404034819348],[10.7163188972607,43.58408163408405],[10.716822542968846,43.5843567896869],[10.717293922087613,43.58461432180793],[10.717422876751868,43.584684414924325],[10.71745557337584,43.58496304456577],[10.717379397835446,43.58533334886011],[10.71709330882367,43.58572486528337],[10.716729876012264,43.586009511444026],[10.71627509003713,43.58613339220316],[10.715904670143962,43.58617496984735],[10.71568863526778,43.586200722926954],[10.715127037912373,43.5862675605706],[10.714928665338165,43.58624229995237],[10.714886441723387,43.58623760855674],[10.714697364596617,43.58621344520779],[10.71426917268523,43.58615899537084],[10.7138207583339,43.586071179560435],[10.713648144071893,43.58604945709307],[10.71337324016273,43.58601486150901],[10.713220872988892,43.586040753038965],[10.71296644126121,43.58608398686062],[10.712750978749176,43.58634832892552],[10.712378381195906,43.58675008252235],[10.712299806189645,43.58684405723496],[10.71217355490703,43.58699505057457],[10.712042925224148,43.58715127943089],[10.711838814988942,43.587379433859766],[10.711659466905536,43.58760721707958],[10.711442973063294,43.5878355562471],[10.711227494605165,43.58809112847063],[10.710743187521764,43.588494313252404],[10.710387934985958,43.58863468771027],[10.709984173147424,43.58881180356946],[10.70961704445268,43.5889703621252],[10.709178169516385,43.589220031105114],[10.708715035817526,43.589488068986086],[10.708541612276974,43.58960876918933],[10.708411195303569,43.589699573335004],[10.70813327924241,43.589946832201434],[10.707794213840875,43.59022201598064],[10.707098854163569,43.59060156270607],[10.706702618401254,43.59060748120458],[10.706279837195243,43.59055076604972],[10.706067740802537,43.590511557850206],[10.705991109660381,43.590497496738],[10.705919901631816,43.59048430364613],[10.705846910542753,43.59047920466597],[10.70577858460494,43.59047467349319],[10.705484406776954,43.59045467372063],[10.705228120805117,43.59048854756599],[10.705097310670977,43.59050583650092],[10.70479325783027,43.590546003534484],[10.704346564107526,43.5909578570496],[10.704205341152157,43.59122107577698],[10.704157521954038,43.59153486527525],[10.704153192397122,43.591564623969724],[10.704124062409548,43.591852559941856],[10.704035415828251,43.59222304011822],[10.703946260251248,43.59257552079015],[10.703784837650925,43.59300111031735],[10.703618333704828,43.593246697210866],[10.703415772860648,43.59354661986204],[10.703387405302912,43.593584661158054],[10.703213309247609,43.593819978139436],[10.703009906225745,43.59407511704744],[10.702610907297384,43.59442320995807],[10.70255461273339,43.594442407622054],[10.701948304614826,43.59464917187082],[10.701707560690824,43.594783582188406],[10.701070151117014,43.59513945104314],[10.70066935918058,43.595424536185895],[10.700035211583193,43.595957231474166],[10.7000037316912,43.59598367520946],[10.699567552921575,43.596332309547066],[10.699488003793462,43.5964883585517],[10.69941492678246,43.59663170753751],[10.699391483302401,43.59675093523558],[10.699338882277573,43.597011000405914],[10.69934876307436,43.597362004708344],[10.69938442547123,43.59774864053153],[10.699455720398463,43.59808072461463],[10.699589695750202,43.598438886582024],[10.699634703847254,43.59871733774927],[10.699692096625292,43.59899560380561],[10.699722748039537,43.599257574206746],[10.699740814456455,43.59940897604932],[10.69972440899001,43.599706347451416],[10.699520210531087,43.59993448086126],[10.699115834355174,43.600093559401],[10.698611366792804,43.600218108360664],[10.698178672240994,43.60025155015949],[10.69755818552303,43.60021574820613],[10.696962468486486,43.60017957600947],[10.696491607708543,43.60017756232334],[10.69600987969636,43.60022973161807],[10.695829023795701,43.60041495490674],[10.695770562610502,43.60047536450234],[10.695878967168188,43.60086194478471],[10.696234388220468,43.6011721658104],[10.69629018238232,43.60120492333511],[10.696587428551446,43.60138265918302],[10.69677855471886,43.601460198231166],[10.697101273280195,43.601591122137805],[10.697356017765221,43.60172692814246],[10.69754161252046,43.60182772329645],[10.697762280046703,43.602184600436445],[10.697758790797693,43.60222762807276],[10.697749115931195,43.6023486919979],[10.69773717301172,43.60249589833378],[10.6977349418257,43.60252506822462],[10.697720645325418,43.6025571536367],[10.697594444769793,43.60282633624913],[10.697508315638107,43.60296683352401],[10.697421455613846,43.60310845087175],[10.697339581398364,43.60321646434013],[10.697249367524348,43.603335600806425],[10.697117940467749,43.60350862549112],[10.696939755351401,43.603781387592164],[10.696913723405734,43.60408106408161],[10.697430136333782,43.604476407221824],[10.697782493582336,43.60466925828223],[10.697919531332179,43.605040313185775],[10.698023915410566,43.60532295359348],[10.697769138107436,43.60551581941539],[10.697252996324101,43.60566754756659],[10.696607935990178,43.60564111032999],[10.695907011905806,43.60539040092122],[10.695441163500552,43.60512719715462],[10.694962933625096,43.60486417419258],[10.69452236838787,43.604618599556396],[10.694163473359522,43.604447551028436],[10.694083074216838,43.60440882022727],[10.69365717232462,43.604253261438636],[10.693338744881848,43.60431796577883],[10.692893324717238,43.604408640383376],[10.69272699836043,43.60466321237691],[10.692657718683739,43.60528550558651],[10.692790913923378,43.60561667579949],[10.693009043301643,43.60588356016717],[10.693439245399839,43.60620132561766],[10.694027687528077,43.60641770168815],[10.694532972171475,43.606761361864706],[10.694344402954256,43.60710630433637],[10.693864891293762,43.60723946625864],[10.69344604468287,43.607326707635224],[10.692902326681331,43.60737978235469],[10.692224635231094,43.607515872736855],[10.69134901557692,43.607663892302554],[10.690793411881172,43.607735140747586],[10.690506524334479,43.60773940619035],[10.690380802288916,43.6077412441188],[10.690236042151952,43.60774338507514],[10.690065395040053,43.60773303393148],[10.689831852291475,43.60771882330182],[10.689640252600315,43.607707175013594],[10.68905861443664,43.60773378114116],[10.688936375764557,43.607754178031314],[10.688466604117343,43.60783256721122],[10.68786497471753,43.60803053464206],[10.687417365427805,43.6082643854663],[10.687207432094214,43.60837277410486],[10.68690216642105,43.608603071827964],[10.686551519884228,43.60891437780657],[10.686237021810268,43.609189134538745],[10.686121338504487,43.60927260688923],[10.685714718789905,43.60956599795748],[10.68562803570122,43.609722894111684],[10.685607127516006,43.609762160690885],[10.685480629646971,43.60999213098333],[10.685455176491717,43.61003793658581],[10.68537893379332,43.6101608643105],[10.685261783555633,43.61035129169964],[10.685121826904588,43.61057930899447],[10.685052204376905,43.61069218323638],[10.685003790823012,43.6107947377776],[10.684911805724742,43.610991361238284],[10.684683242444184,43.61123783491227],[10.684547875718831,43.61131375427087],[10.68425936191566,43.611475562569375],[10.684073198775167,43.61157996923573],[10.684032728448042,43.61149346335379],[10.6839948563072,43.61141244398443],[10.683809639279643,43.61101660945272],[10.68332279064488,43.61088872303328],[10.683157213775509,43.610840472200245],[10.68273568756728,43.61071737385039],[10.682273729300702,43.61057114552489],[10.682230155257464,43.61055120841573],[10.681928002314496,43.610410788458516],[10.681821112888931,43.610361782748065],[10.681607496642723,43.610286261354645],[10.681358178355953,43.61019732850602],[10.68083617557203,43.61004797271557],[10.680608587626697,43.6099834875559],[10.680132143676872,43.609947825646636],[10.679801516307437,43.60992317881491],[10.67940489637416,43.60992000361296],[10.67902266780928,43.609988647074964],[10.678624771877415,43.61010153509852],[10.678420233582724,43.61015956569573],[10.677917388879887,43.610347026047926],[10.677338720543359,43.610481574319216],[10.676701252727831,43.61071627676561],[10.676225535843285,43.61100212282531],[10.675919866408263,43.611150667517265],[10.675491576986062,43.61134602782856],[10.674955300995101,43.611669024204495],[10.674590687291797,43.61192647544076],[10.674511298167834,43.612010764728055],[10.674349941642005,43.61218210999807],[10.674223424471185,43.612535114001396],[10.674140274480282,43.612806094279414],[10.674109792606718,43.61290593696323],[10.674024352531138,43.61319589045275],[10.674012507591234,43.61323629980671],[10.673973940247816,43.61336717496698],[10.673776342489484,43.61362046373441],[10.673746571296475,43.613658627994354],[10.67366859779675,43.613974904672325]]]}}]}
