{"type":"FeatureCollection","metadata":{"code":"052010","referenceDate":"2026-01-01","sourceDbfExportDate":"2026-02-18","upstreamArchiveUrl":"https://www.istat.it/storage/cartografia/confini_amministrativi/non_generalizzati/2026/Limiti01012026.zip","sourceManifestSha256":"70ac8256c4785dc6ed2814c32b6965ae76f9161b51abaa1660059e1c6cbd8ca6","license":"https://creativecommons.org/licenses/by/4.0/","attribution":"Istat, Confini delle unità amministrative a fini statistici al 1° gennaio 2026, versione non generalizzata.","modifications":["Converted from WGS 84 / UTM zone 32N (EPSG:32632) to RFC 7946 WGS 84 geographic coordinates.","Converted from shapefile to per-municipality GeoJSON without geometry simplification."]},"features":[{"type":"Feature","id":"052010","properties":{"code":"052010","name":"Chiusdino","alternativeName":null,"regionCode":"09","regionName":"Toscana","territorialUnitCode":"052","territorialUnitName":"Siena"},"geometry":{"type":"Polygon","coordinates":[[[11.173741986726863,43.23788126048045],[11.173650919229708,43.23788410101347],[11.173432517845285,43.23789091962603],[11.173354782756597,43.237936484057826],[11.173011124809785,43.238137980333235],[11.172884441980777,43.23821225202754],[11.172773119698899,43.23834023862908],[11.172722103515921,43.23839874644608],[11.172670494074579,43.23845792552823],[11.172575621935898,43.23856691002458],[11.172527102330369,43.23862269513836],[11.172481221720645,43.23867573690385],[11.172454177581178,43.23870755509538],[11.171941560648023,43.23931779222893],[11.171402322108776,43.239858696095745],[11.171109114531957,43.2401529867856],[11.17016967021185,43.24092374977159],[11.17000810712323,43.241056301507406],[11.169328328358601,43.24164545499197],[11.16901449592727,43.24191750825551],[11.168861027570037,43.24205052250565],[11.168564915484527,43.24222988938163],[11.16775439920557,43.24272082766877],[11.167510592844827,43.242868501804466],[11.165970215687182,43.243878977151034],[11.165892586370056,43.243935052417335],[11.165785115084633,43.24401179857786],[11.165557255505117,43.244174936622755],[11.165139670119146,43.24447364565094],[11.164929028091253,43.244623862101164],[11.164870014058064,43.24466526107397],[11.16482050937898,43.24470167078226],[11.164720714355417,43.244774256489684],[11.163980764869692,43.244820031638795],[11.16383731313914,43.24487067451034],[11.163648692162505,43.244937264030455],[11.163542825243852,43.244974637933225],[11.163231905890141,43.24515106022125],[11.162845874609701,43.24516115414156],[11.162309593977792,43.24525530697029],[11.161469849864451,43.245305469715035],[11.161335505770307,43.24532817792423],[11.161235871613524,43.24534433930385],[11.16104285963916,43.24537605102508],[11.16086066503206,43.245476151858824],[11.160706559268053,43.24556067723341],[11.160676624072801,43.24557710578235],[11.160471558385446,43.245689739054725],[11.160392427611967,43.24573327075259],[11.160254469096502,43.24580892554],[11.159398300589285,43.24622029375739],[11.158773600882684,43.24655948332887],[11.158155616767898,43.2468016753712],[11.158081285650177,43.2468199604648],[11.157725762655378,43.24690666866972],[11.157392754266782,43.24584216078871],[11.156627861717173,43.243713583764276],[11.1560758297279,43.24203119818545],[11.15582581372607,43.24121200902553],[11.155772315448747,43.24103664035818],[11.155644123826965,43.240616668580714],[11.155542595630072,43.2394840484707],[11.155685925958112,43.23888496476747],[11.155810932984524,43.238362464011516],[11.156529643700726,43.23708834008207],[11.156591557562107,43.23695610828895],[11.157079339467552,43.235916401526346],[11.157071623306697,43.23586592122533],[11.156983269879916,43.235287917093586],[11.156127671207395,43.23477280345113],[11.15524087810838,43.23442034811947],[11.155185296180722,43.234402312885734],[11.155116619003469,43.23438003128124],[11.153522253613291,43.233876457520616],[11.151658513574496,43.23340730534146],[11.150343296388261,43.23301313998446],[11.149679611641316,43.23281422810212],[11.149209994053047,43.23271439162812],[11.148218648648376,43.23250363418264],[11.147967402206227,43.23245021762646],[11.147605398409487,43.23249499470925],[11.14573584008013,43.23272622650963],[11.144391276554185,43.23301257312571],[11.143737539964661,43.23309097499393],[11.14361279500192,43.233106362669275],[11.143071428023923,43.23316994632549],[11.142956452026263,43.233183541123175],[11.141675932354138,43.23318952330174],[11.13995268629954,43.23321278263017],[11.13844094479783,43.23329501359311],[11.138105366654996,43.233319657675935],[11.137491201905549,43.233364626995574],[11.136954576469506,43.233403916432074],[11.136877271116923,43.233416315775045],[11.136512695265962,43.23347479237381],[11.13611265468448,43.233538953843855],[11.135680963725536,43.23360779662393],[11.134994877103326,43.23406181710305],[11.133861589361866,43.23475829123879],[11.132416829561237,43.235352511181866],[11.130830313750176,43.23612043582219],[11.129239055774603,43.23675336277625],[11.127801720287488,43.23756348902737],[11.126030369453426,43.23868595226761],[11.1247545140981,43.239538058369575],[11.124452828017475,43.23951794747965],[11.123672437204897,43.239465813586996],[11.12359411695154,43.23946057343091],[11.12355809792382,43.23944821940343],[11.123217602729765,43.23932853402526],[11.121935902300848,43.23887906304814],[11.12039985905557,43.23826825546105],[11.118923230752895,43.23830463311627],[11.116723863652322,43.23845341957746],[11.1168369583993,43.237733245293725],[11.116844936255863,43.23768576275418],[11.116850931087093,43.23761526674579],[11.116857007695593,43.23754947938638],[11.11686324843612,43.23747495388895],[11.116932879526217,43.236666153031535],[11.116952106555592,43.236604030080215],[11.116995935377313,43.23646322474572],[11.11715445773448,43.235951269641674],[11.117606077429086,43.235123519211655],[11.117718860801169,43.23348259797102],[11.11772070654232,43.23345560841627],[11.117728717914542,43.23341364032069],[11.11773468055168,43.23338220831921],[11.117858755717096,43.23273045929919],[11.117900032480712,43.2325000860769],[11.117907937705297,43.23246167213925],[11.117100836797446,43.2322695201434],[11.116357726129126,43.23197750590488],[11.116264109474537,43.23194104212739],[11.115590244131887,43.23167618510719],[11.113520602664984,43.230940091440615],[11.11205010396649,43.230436009830875],[11.111752447495087,43.22998238313396],[11.111075240217286,43.22895029839909],[11.110302790559174,43.227262749994594],[11.11025216951925,43.22579598759508],[11.110551065862241,43.224466843058195],[11.11144679582487,43.22330676303358],[11.111946258046686,43.22208196220577],[11.112185207907176,43.22035548000102],[11.112222102777396,43.22008692170185],[11.112262748382529,43.21974572891122],[11.112271620109633,43.21967202827765],[11.11242299362429,43.21841741782958],[11.11233819483996,43.218016253661034],[11.112113962017943,43.21695542770755],[11.112080741276547,43.216917654820165],[11.112033723145197,43.21686419634023],[11.1118280832833,43.216629653370255],[11.11153731481504,43.21629934124371],[11.111493466863335,43.216255056165316],[11.110708088796342,43.21545966266628],[11.110691195602776,43.21539155844704],[11.11067923495436,43.21534370313147],[11.110477988121351,43.214534709971005],[11.110414181005837,43.214278415042436],[11.110393640878371,43.21419586123773],[11.110230575882667,43.21391649999675],[11.110184418205726,43.213838046740875],[11.10996268634857,43.213456097739744],[11.109902525390742,43.21336574594919],[11.10955123289224,43.21282843547037],[11.109351062482634,43.212522290484294],[11.109339283830826,43.21242260792454],[11.109314980203079,43.21221691028627],[11.109302888341388,43.21211456640212],[11.109211998461372,43.21134529355913],[11.109480048186848,43.20983663151183],[11.110012521195783,43.208143004209326],[11.110147605227645,43.20781522963164],[11.110443675484149,43.20709681874227],[11.11061454573758,43.20668220317653],[11.1108896842739,43.20538050576137],[11.111040482680208,43.20475642472985],[11.110823602523025,43.20453532063912],[11.110556684445454,43.20457618729152],[11.110388928635611,43.20460187076857],[11.110294955218464,43.20461640289724],[11.11022364012815,43.20462743193268],[11.109649083415865,43.205097165104014],[11.109088526328533,43.205620837206375],[11.109118018303754,43.205831657450325],[11.109202861865098,43.20643812013054],[11.10906632079251,43.20658694241735],[11.108799496111159,43.206877765547105],[11.108845910783545,43.207348202966074],[11.108856249605209,43.20745299427791],[11.109041323723023,43.2079643313142],[11.10906031623164,43.2080165017296],[11.108838987494037,43.20838075565568],[11.10847766869576,43.20869862731166],[11.108337189990168,43.20882221451283],[11.107803388802138,43.208872026193056],[11.107735941623625,43.208878319924786],[11.107271235672004,43.20871358524262],[11.106576980170118,43.20846746846753],[11.105227891980066,43.207943464668794],[11.105116980078934,43.20790042516954],[11.10452391610681,43.20769987614083],[11.104477121354549,43.20768418007495],[11.103522932730632,43.20736237022454],[11.103487032334453,43.20735870039182],[11.102016403073648,43.20721875519578],[11.10061282384038,43.207568701254985],[11.099476679137936,43.2078183542622],[11.099183391605848,43.20788308897188],[11.09905580456991,43.20786438415416],[11.09888207638109,43.20783891288236],[11.098255503713613,43.207747045603185],[11.09694101915241,43.20746501089953],[11.09671283278136,43.20744450134116],[11.095521068216032,43.20733796632101],[11.09418602228265,43.20753350503384],[11.092734103794564,43.20791125366637],[11.09096538887695,43.208384818842525],[11.089723798021012,43.208727891001246],[11.089264231332779,43.208854873126754],[11.088426702878975,43.20906589439986],[11.088098665704644,43.209148542611985],[11.086529169498123,43.209690436351245],[11.086147331857575,43.20973555608227],[11.085964783201142,43.209757126282334],[11.084726854936129,43.209903393878065],[11.084059777724848,43.20987400852807],[11.083827174543334,43.20986376290875],[11.083136472641078,43.20983333134572],[11.08291942939792,43.20974844047464],[11.082300345816046,43.20950594015197],[11.081606460713132,43.209144984910395],[11.081097509864293,43.20887998016046],[11.080229228157831,43.20849564248261],[11.079900062931666,43.20834993749485],[11.079710243930263,43.208265912192125],[11.079599271133826,43.20823958813105],[11.079063239058316,43.208112429467974],[11.07886674585227,43.208065816646034],[11.078780211099701,43.20804528846455],[11.078159031616742,43.207897925051746],[11.077904932211762,43.20790465667214],[11.077645466793289,43.207911529339995],[11.07707675553817,43.2079265921946],[11.076903905718376,43.20786693590894],[11.076728021368528,43.207806865339656],[11.076431638002564,43.20775409972359],[11.07594780184008,43.20766795888148],[11.075416435164753,43.20771659361072],[11.074966081209052,43.207757811248705],[11.074605057212171,43.207705143138064],[11.07442663553158,43.20767911470326],[11.074087755035148,43.20762967563779],[11.07333061449833,43.207484012516865],[11.073282977271877,43.207475182970015],[11.073059367940331,43.20743221949458],[11.072934130144715,43.20741734089214],[11.07261087370142,43.207378636487846],[11.072408247826576,43.20735437982325],[11.072291531613146,43.20734042570983],[11.071489700922898,43.207244561166824],[11.071256874199909,43.20721364691262],[11.070601181774686,43.20712685284592],[11.070117178688164,43.207062316128145],[11.06877652944056,43.20636623238118],[11.06786461718338,43.204879005290714],[11.067365563445204,43.204680929150115],[11.06585293746769,43.20508644629761],[11.065815811309454,43.20506568652131],[11.065771299248164,43.20504079387287],[11.065275824003647,43.2047637105565],[11.064735316614827,43.204624997333646],[11.064666651141314,43.20460732695114],[11.064625524304558,43.204596828385],[11.064456333101127,43.204553399487025],[11.064312295462182,43.20455929706599],[11.06426970578172,43.204561041036726],[11.064210645760474,43.20456345507251],[11.063669645413007,43.20458560736266],[11.062918206540353,43.20420297549699],[11.062984308424353,43.20391397022676],[11.062993875169965,43.20387194972553],[11.063020436297874,43.20375600992545],[11.063089995003988,43.20345244063866],[11.063198561653794,43.20322987431434],[11.063630989850076,43.20234422974372],[11.063856981728344,43.201745865797164],[11.063154615546097,43.201722522767],[11.062366577602479,43.20207890152997],[11.061963850238744,43.2018160345166],[11.06175629483189,43.20156735284017],[11.061736185834743,43.201543255836995],[11.061706884433763,43.201508147397135],[11.061642547454715,43.20143114100316],[11.061436790147344,43.20118679704402],[11.06074677770292,43.20039728073877],[11.060216701949447,43.19964146380089],[11.060843905893735,43.199260985054906],[11.061050928072314,43.19917819911781],[11.061162192145211,43.199133528238484],[11.062021891008088,43.198789534274326],[11.061966626761594,43.19874392485859],[11.061756006002739,43.19856921994279],[11.061659076889658,43.19854460162896],[11.060663580594303,43.198291766370936],[11.059242388884229,43.19811927124359],[11.059022025602454,43.19745073709025],[11.059009370548948,43.197412126246135],[11.058928741853672,43.197063234555095],[11.058915793935265,43.197008118494615],[11.058794195833269,43.196482330782054],[11.058788075059022,43.1964565974292],[11.05875007966094,43.19629251433074],[11.058548581942615,43.19542146077635],[11.058272316734628,43.19342747094412],[11.05794254436104,43.192037733785064],[11.057900451753293,43.191941283212955],[11.057840520994185,43.19180448518251],[11.05781930856853,43.19175568838542],[11.057629191666964,43.191323535157984],[11.057617470751213,43.191295697298806],[11.057449375030165,43.19091205859489],[11.057042531325184,43.19007451384849],[11.056920537831214,43.18982304203199],[11.056617625270702,43.18886502546104],[11.05734010820069,43.18839280878749],[11.057442637653748,43.188248908776856],[11.057771039786939,43.187787885367804],[11.058072806772143,43.18736432417405],[11.05816937444498,43.18722876982871],[11.058197955681427,43.18718879898877],[11.05878048325949,43.18621484891795],[11.059749971425571,43.18540500827309],[11.059971268886352,43.18529457927525],[11.060638301654578,43.18496179151793],[11.0607414371619,43.18491026834263],[11.06087211671728,43.184844973501676],[11.060948058230395,43.18480714516995],[11.060949946059505,43.184769345708474],[11.060952887524742,43.18471140958222],[11.060970111278834,43.1843655347238],[11.060406733196004,43.184078542975264],[11.059466984858812,43.183942396653705],[11.05909456391539,43.183877006071455],[11.059004678796224,43.18367267435622],[11.058789506805068,43.1831892242539],[11.058510695395405,43.182581946809336],[11.058381269642574,43.18202600652654],[11.05823531435416,43.18134430336613],[11.058011651836674,43.18054694077858],[11.057857642185343,43.17999144210026],[11.057740826404139,43.179444278368635],[11.057510322853675,43.17880911646797],[11.057292725134154,43.17819172982857],[11.05706878572668,43.17738536640095],[11.057085488925656,43.1770707590421],[11.057098930161322,43.17681754943807],[11.056966373421018,43.17644756345305],[11.056868141982296,43.176173386631284],[11.056851221067454,43.1756694462356],[11.056882274982936,43.17512862612724],[11.056950214195485,43.17458714256034],[11.057109090261314,43.17344974569924],[11.057213689137088,43.17290759163197],[11.057215917353403,43.17224122848268],[11.057250810454157,43.1719344408722],[11.057256288276237,43.17189635980756],[11.057263796390746,43.171835171945446],[11.05735843488701,43.1713562377816],[11.057537623951443,43.170830760199145],[11.057743516518453,43.170367833830745],[11.058023473942429,43.16991257693124],[11.058244072915507,43.169521419610525],[11.058524325308364,43.169075161478894],[11.058711663162075,43.168792653417],[11.058886402578782,43.16850136830132],[11.059417566113005,43.16783448485858],[11.05975559489163,43.16736917433995],[11.060095943944415,43.167155943675134],[11.06041819853121,43.16686199887646],[11.06041241422109,43.16668997230284],[11.060400043614298,43.16632206280238],[11.060372015952986,43.16585434101817],[11.06037848988801,43.165794076482634],[11.060400122921719,43.165592707491605],[11.060551164700204,43.16532885909902],[11.060682900770443,43.16497603693189],[11.060714670177191,43.16489103879749],[11.060754293842432,43.164784936774346],[11.060757170850678,43.16473986359347],[11.060786512592502,43.16428053031867],[11.060749224119393,43.16390259934337],[11.060728133439765,43.16383994912151],[11.060699339317651,43.163754415120856],[11.060654637319136,43.163623064955146],[11.06063968199452,43.163571411156845],[11.060393704325342,43.163206663084104],[11.06009916290267,43.162860799043116],[11.059830419790288,43.162550486482886],[11.05948882903624,43.16226849755768],[11.059146334417603,43.16195951140731],[11.058853619967024,43.16166763698199],[11.058634967178355,43.16138343314931],[11.058474456363726,43.160999133422024],[11.058225480375832,43.16054439169705],[11.057992730168449,43.1602064135387],[11.05775726227111,43.15978744457509],[11.057537715267415,43.159476241250225],[11.057306482073166,43.15918325571308],[11.056985279041356,43.15877483173022],[11.056976947177557,43.158528131569035],[11.056972293337372,43.15838787718569],[11.05740191882058,43.15836214047293],[11.05776413514985,43.15852670683181],[11.05813864460213,43.15869105081164],[11.058464591840083,43.15887427652568],[11.059054324148446,43.158854656259656],[11.059457552677836,43.15877536121055],[11.060525020269779,43.158496062031844],[11.060640227872504,43.158465917642786],[11.060220233169002,43.156582563173025],[11.06005992138981,43.15583808697935],[11.060011251910126,43.15548779234039],[11.060000365393229,43.155163830513644],[11.060151942289313,43.155008025293334],[11.060187132661111,43.15497245678933],[11.060333340254784,43.154824671071665],[11.060769482860506,43.15462772046633],[11.060820655363182,43.15432064938409],[11.060543890859378,43.15413654413022],[11.06030782842262,43.1540307416555],[11.060203505448861,43.15398415890542],[11.06013664267206,43.15395411963255],[11.059944529709473,43.15386820528524],[11.059421037007574,43.153661527508476],[11.059257912074592,43.15358308868258],[11.059095291864184,43.15350553017595],[11.058953963009017,43.153419123942406],[11.05883749237415,43.153348633862166],[11.058571988474718,43.15318897349406],[11.058538410172869,43.15316819857062],[11.058431053855855,43.153103678764936],[11.058411630977414,43.1530812767535],[11.058161995392252,43.15279275686151],[11.057941442804077,43.15246303362268],[11.057793745514774,43.15233930805404],[11.057753125564938,43.15230577509984],[11.057498997754454,43.152093339437876],[11.057024411961892,43.15168360422826],[11.0568657272171,43.151546457594584],[11.056760819419981,43.15146005632234],[11.056646438949972,43.15136589685832],[11.056448354460404,43.15120279229158],[11.056018696717873,43.150859345378755],[11.055891998695285,43.15076226851672],[11.055764730423686,43.15066453092874],[11.055640016119243,43.15056900741484],[11.055468615444195,43.150461442823065],[11.05526314902338,43.15033266150574],[11.054826562115666,43.15012587654255],[11.054780450625374,43.150115319734006],[11.054466594197708,43.150049828102],[11.054251868017925,43.14997264572246],[11.054068169341338,43.14990390926846],[11.053673060713159,43.14985697867678],[11.053279159281225,43.14984604203032],[11.052509972343362,43.15001292358809],[11.051441921573387,43.14823120653825],[11.050899274034299,43.147070439545395],[11.05088635804846,43.147038270344886],[11.05072886500803,43.146642170828876],[11.050590036943033,43.146292528189335],[11.05042450401979,43.14575523175421],[11.050275174040411,43.14533470189618],[11.050138137145762,43.144913950556436],[11.050152788663791,43.14461654279684],[11.050385641936234,43.14422517957587],[11.050659120509346,43.14397747432439],[11.050688445331453,43.14395093459364],[11.050791447042593,43.14385772737965],[11.050933559474215,43.14374843999279],[11.051054699882165,43.143655279161],[11.051138893133306,43.1435906199627],[11.051631866761838,43.14325718268194],[11.052016963045112,43.14299833595877],[11.052080957791487,43.14294593607471],[11.052166953435659,43.14287552233095],[11.052387993044666,43.142694532450825],[11.052676306822882,43.1424912615892],[11.053166665918727,43.14244644203722],[11.053588715332875,43.14256492668344],[11.053923385601282,43.14275946583185],[11.053987573433355,43.14279652633735],[11.05404022236323,43.1428277925493],[11.054127996932234,43.14287940112525],[11.054576277008296,43.14314483505441],[11.054629429074811,43.143177153581625],[11.055055326849176,43.14341211853168],[11.05552881838502,43.14358359046414],[11.055986841943234,43.14367440532255],[11.056516188184306,43.14369190189069],[11.056898969253348,43.14373904449247],[11.057354882593804,43.14376686225984],[11.057646197972288,43.143737107860034],[11.057783801712844,43.143723128062646],[11.058245360125115,43.1435527430898],[11.059038226622073,43.142629026786594],[11.059726313802253,43.14224745621323],[11.060044893954759,43.142077327313444],[11.060197424039481,43.141995851923575],[11.060458408985799,43.14171201432935],[11.060551124848972,43.14157877322805],[11.06069299947548,43.141374624810595],[11.06099795240858,43.14093691490131],[11.061195107783501,43.14058219353867],[11.061505842052238,43.14031546500428],[11.061866332114603,43.14006584762147],[11.062479432156557,43.139649594316026],[11.06134293134182,43.13890924294294],[11.060556060735701,43.138396632584666],[11.060283904163787,43.13816691277413],[11.059898032255363,43.13784120766242],[11.059537301608435,43.13764356323088],[11.059309310094307,43.13751864587736],[11.058906728220009,43.13724675729249],[11.058428307560614,43.136913200777265],[11.058087172405173,43.136640203367556],[11.057846408885531,43.13642830801474],[11.057612597050378,43.136054450304854],[11.057698522748671,43.13568372310275],[11.057865095944777,43.13547648545112],[11.058028992475762,43.13527257875325],[11.058466022792315,43.13510274853943],[11.058990051005255,43.13496713978479],[11.059440159591832,43.13482396952471],[11.059483775711994,43.134793882649774],[11.059788641454398,43.134583579258276],[11.060125438672443,43.1343614073731],[11.060335127273742,43.13401546231792],[11.060288593856761,43.13372815954814],[11.060031063011749,43.13338162581785],[11.059526884431138,43.13301252050285],[11.059060177569837,43.13266074642729],[11.058705267027541,43.13234297615724],[11.058376745890477,43.13207875680629],[11.05832983395081,43.132017749185366],[11.058253816257862,43.13191888906912],[11.05815820600736,43.13179454757026],[11.058225679429286,43.13149528550619],[11.058231590098908,43.131469067907],[11.058243822774296,43.13141482170483],[11.058324216217727,43.13136565563537],[11.058653423244364,43.13116433044239],[11.058926465598452,43.131003789116114],[11.059111561278625,43.13089495400465],[11.059205464090088,43.13085466925974],[11.059681184015759,43.13065058255013],[11.0601309574326,43.13049841109966],[11.060518690443494,43.13032934658643],[11.062535767563634,43.12925748152098],[11.06300192706247,43.12886188368289],[11.06333777259178,43.12861270592004],[11.063695767989438,43.128291092440165],[11.06393331881813,43.12804368641612],[11.06404318399839,43.12795381723211],[11.064194528922643,43.127829888108046],[11.064316182958054,43.1277306276169],[11.06475541170178,43.12748369477345],[11.066843813301695,43.12630955171532],[11.06691181989487,43.12627129447849],[11.066990669072457,43.126226940608205],[11.06721178379575,43.12610255429609],[11.067250803285107,43.12607483556353],[11.0678956945866,43.12560395206097],[11.068508524785337,43.12522630194545],[11.068574132807575,43.12518445828362],[11.06868643665655,43.1251166645778],[11.068738699363807,43.12508445748742],[11.068894569068432,43.12497358505539],[11.069167128084947,43.124779707737474],[11.069248515500894,43.12472181494685],[11.069531031686594,43.124520853768516],[11.070921361939634,43.123612538090725],[11.071118688343626,43.12348361974835],[11.071275497877464,43.123056608714165],[11.071091389481305,43.12258367109674],[11.071074514722193,43.12253895504478],[11.068942376697365,43.12055154625331],[11.068363487916088,43.11978763484955],[11.068028931524438,43.11934346255825],[11.06777627045824,43.11914092866574],[11.06734678237757,43.11879751918695],[11.067055758819409,43.1185506554082],[11.06658972912025,43.118216907919376],[11.066243348756165,43.11815113061552],[11.065884987698638,43.11809457226313],[11.065416373197097,43.1180490091762],[11.064907879348624,43.1179141199151],[11.06455696341963,43.11771335259759],[11.0642425971082,43.11750292005723],[11.063977673156893,43.11730059896972],[11.063873881526048,43.11723090489008],[11.063638138977527,43.11707260987108],[11.063212620439925,43.116846170801814],[11.062886282825122,43.11664495493493],[11.062761095098319,43.116583736275174],[11.062548872872748,43.11647995584379],[11.062184176062283,43.11623440708614],[11.062039985746935,43.11596687391667],[11.061902638553187,43.115537136813685],[11.061835536748534,43.11527722627929],[11.06181807149389,43.115214515803004],[11.061719089688754,43.11482910851887],[11.061585073038456,43.1144983597016],[11.0614528697683,43.11422160512969],[11.061356914944705,43.11392618718819],[11.061298112214361,43.11363910503801],[11.06119581311333,43.113154708166654],[11.061272477232441,43.11302777839729],[11.061393750054819,43.11282698105979],[11.06169055337209,43.11251548062385],[11.062096993569197,43.11217498931865],[11.062179794516673,43.11211921456697],[11.062385436985426,43.11198069474337],[11.06280717630711,43.1117299693492],[11.063193877799023,43.11153390154008],[11.063520675720374,43.11138393485459],[11.063847168291463,43.11122496822414],[11.064197318455033,43.11103856105812],[11.064766738700605,43.11079416769234],[11.065338878743356,43.11063076216998],[11.065717219512273,43.110551894667886],[11.066132103330471,43.11046336039662],[11.066447211216438,43.110331605557114],[11.066899407340236,43.10989122167301],[11.067134757085418,43.10958081663816],[11.067231664637584,43.1091738653538],[11.0673303889012,43.10882090736595],[11.067406062467786,43.10851338853072],[11.067481129326401,43.10818787155237],[11.067630494604716,43.107879020511994],[11.067742566838971,43.10719265611399],[11.068505728444531,43.10613434056659],[11.068982747606196,43.105702502991456],[11.06930116056788,43.1049403690041],[11.069531323279863,43.104476977548565],[11.069836080935419,43.10403924935613],[11.07002348103563,43.10376572398527],[11.070356434761889,43.103435537543085],[11.070726530763428,43.10311368224962],[11.070998981869467,43.102811601908705],[11.07129659953359,43.1025270751438],[11.071581629858644,43.102233770138696],[11.071876206288094,43.10185925252901],[11.072204584336303,43.101394076476765],[11.072663053512231,43.10114264917528],[11.073155019820044,43.1007915630657],[11.073391214500731,43.10050814406942],[11.073564789963196,43.10018984164862],[11.073641942234968,43.09992731334396],[11.073640797853173,43.09989356259113],[11.073619939717748,43.099639569879336],[11.073062461369512,43.09950560329487],[11.072555387649244,43.09939736690413],[11.072133843209041,43.099297318164055],[11.071759059526228,43.09911501362652],[11.071371086018434,43.09890593310091],[11.071070594554,43.09874028996527],[11.07075630748763,43.09852987310553],[11.07044171923701,43.09831045628472],[11.070471539398113,43.097902944787016],[11.070475369000029,43.09785061943969],[11.0707490125208,43.09758453697385],[11.07114332895782,43.09725323622427],[11.071611320988463,43.0969206006864],[11.071898449488103,43.0966902884758],[11.072246670382537,43.096449864230635],[11.072643098142075,43.09618155180542],[11.072749498256568,43.09569338320656],[11.072807385630115,43.095224101788816],[11.073231356173496,43.09431597124672],[11.073490263094726,43.09397811292245],[11.073920468512261,43.09361913920456],[11.073976065995877,43.093537094775535],[11.07411949298137,43.09332738696593],[11.074449937699555,43.09292519833866],[11.074697162154745,43.09260555729513],[11.075003649201486,43.092221810667475],[11.075250258904498,43.09188417137467],[11.075518687636938,43.091465094743256],[11.075752708777788,43.091118678218365],[11.075950500569549,43.09079092781713],[11.07616026363154,43.09045395523251],[11.07629787476895,43.09016331468909],[11.076383633551139,43.08979257432833],[11.076421191228214,43.089449722522026],[11.07630958261924,43.08903665331555],[11.076280769671612,43.088930012312844],[11.0762681804148,43.08882210252531],[11.07626278177337,43.0887758108946],[11.076246178357026,43.08863349195251],[11.076281537304455,43.08845011185562],[11.076298447222326,43.08836240947691],[11.07652139103547,43.088052209619704],[11.076970508066104,43.08789098008726],[11.077187780387009,43.08781700005848],[11.077529211416435,43.08770074393733],[11.07787918707414,43.087514297808035],[11.078203995855114,43.08731029785541],[11.078479690690608,43.087107190330016],[11.078803580806962,43.08687619261949],[11.079136702784242,43.08655498159989],[11.079506044295131,43.08621510114761],[11.079877515079387,43.085938213524265],[11.080297787216324,43.08565143171747],[11.080691367408921,43.085302102946535],[11.081013106567003,43.08500810713298],[11.081336062995488,43.084750105560644],[11.081685400490752,43.084545649376096],[11.082044877672404,43.084277977508336],[11.082405566327903,43.08404629435288],[11.082870946384508,43.08364161369549],[11.083032760768987,43.08334151959147],[11.083408847839483,43.08321518074143],[11.083457881658347,43.08319871066572],[11.083592855535871,43.0835564296967],[11.083446049121562,43.084027336784345],[11.083335803798581,43.084308484916875],[11.083212346051209,43.08465290270809],[11.083154543943133,43.08512218746336],[11.083682401175475,43.085472753250095],[11.084126526849474,43.085527693013056],[11.084343431187154,43.085609901695506],[11.084761227135818,43.085768251551045],[11.085049106302385,43.08592508443689],[11.085554250592367,43.08597859299846],[11.085628596094407,43.085986555362844],[11.085704647500451,43.08590824732508],[11.08584226085554,43.085766552016736],[11.086095869880907,43.08527568606844],[11.086293588161997,43.08494791810908],[11.08643245936162,43.084890338536084],[11.086594913350154,43.08482290174465],[11.086657019232767,43.084797217008145],[11.087062170577564,43.084789825410915],[11.087629477806523,43.084741562074214],[11.08773589510371,43.08473250803468],[11.087975781385024,43.084681249071785],[11.088150571151145,43.08464389870764],[11.08852902672155,43.08457395741533],[11.0887040040226,43.08455002315966],[11.088766110546048,43.084541487328934],[11.088808052128865,43.08453572391407],[11.08890809196598,43.08452201373331],[11.08957966828305,43.08440169289402],[11.090257058663617,43.08445234826933],[11.090535422792671,43.08469038124158],[11.09064914174549,43.084847075504925],[11.09067662139372,43.08488514962858],[11.090715877132018,43.08493920858463],[11.090779672568676,43.08504956653546],[11.090804488553282,43.0850923941895],[11.09084296502893,43.0851587108247],[11.09087065733763,43.085206385260825],[11.090937758226177,43.08532234475492],[11.091180337309758,43.085579183407],[11.091222877791125,43.085586239633635],[11.091515853254423,43.085632716771336],[11.091834485494111,43.08568464084476],[11.092236382860836,43.085577737048766],[11.092615144208942,43.08551678208324],[11.092714826847484,43.08553660893034],[11.092770969293369,43.08554758753307],[11.093072780410903,43.085607458064345],[11.093521820472635,43.08580634316861],[11.093745592573809,43.08588073729746],[11.093907021017476,43.0859343587925],[11.094363132618286,43.085997708896116],[11.094407933586888,43.085990363900706],[11.094827833080604,43.085917498925745],[11.095262458492547,43.0856934312093],[11.095550672614936,43.085499056937216],[11.095888608605009,43.08532178087939],[11.095996700120411,43.08534600798517],[11.096557111350128,43.0854716098873],[11.096640245879705,43.08573502586615],[11.096667305544878,43.085820764575814],[11.096639683896699,43.08609140535644],[11.096600615188514,43.08616312408513],[11.096431583630249,43.08647340675486],[11.096396777192949,43.086615481720585],[11.096359134741896,43.086783005058976],[11.096552494600473,43.086923674278204],[11.096658418610216,43.08700051258625],[11.096827062350167,43.08699975342003],[11.097309443463406,43.086997582071646],[11.097724733887192,43.08692693494482],[11.09823587941791,43.0867827879382],[11.098284248972098,43.08676129105959],[11.09833719841653,43.08673802899682],[11.09838998401133,43.08671493469844],[11.098442759647078,43.08669172980257],[11.098484591302917,43.086673450342005],[11.098532024847756,43.08665278994376],[11.098707852067548,43.08657573580605],[11.098915345946336,43.0866028888776],[11.099189988453778,43.08663860621978],[11.099489642838261,43.08673885859395],[11.099599217254962,43.086775484925944],[11.099959881589957,43.08690393135195],[11.100443016225192,43.08702112323817],[11.101071638603674,43.08708161353996],[11.101441814418802,43.08712883880423],[11.101875150233143,43.08720166287627],[11.10234433613893,43.08694096911084],[11.102959933830101,43.08697487649593],[11.103350397921002,43.087255838774475],[11.103685538118587,43.08735875565306],[11.104112846900232,43.08727783413751],[11.104502342072864,43.0871716187495],[11.104904114849411,43.08706517700411],[11.105173526519387,43.08743649878436],[11.105200682106556,43.087473924309315],[11.105041559535962,43.0877294750834],[11.105013368798524,43.08777483557519],[11.104979428675268,43.087829171333155],[11.10490704711489,43.08822669933994],[11.105138839917508,43.08853758969343],[11.105189260423794,43.08856469015503],[11.105607146457833,43.08878940993744],[11.105638835958562,43.08880620803944],[11.105689554540225,43.088833604442804],[11.10615735175744,43.08886100905986],[11.106445779253788,43.088802317177176],[11.10659960975037,43.08877131170614],[11.106645212974032,43.088761765340685],[11.10669443925854,43.08872692062089],[11.1067237832851,43.08870586873552],[11.106981145091584,43.08852167697241],[11.107219604820068,43.088310181723486],[11.10765056457068,43.08833825886503],[11.107977929357407,43.08855779533869],[11.108032304860707,43.0886203886672],[11.108069353236187,43.08866806833448],[11.10814375740085,43.088764397156744],[11.108222297713196,43.08886589663684],[11.108257157935837,43.088910988147234],[11.108315998917016,43.08898730027983],[11.108581436594974,43.08932960244456],[11.108689049235203,43.08974580085552],[11.108713317220149,43.089806855325946],[11.1087829001811,43.08984490250814],[11.109295267046159,43.09008182022779],[11.109721498014016,43.09021313173369],[11.110040303010582,43.090311198563874],[11.110847575686849,43.09020625855793],[11.111397188688061,43.09009636779456],[11.111548068455527,43.09007557805004],[11.111690548140144,43.090055646439104],[11.11172618521527,43.09005064473266],[11.11183685218961,43.090034922779296],[11.111998261591763,43.09005247112402],[11.11212261879658,43.09006587519734],[11.1126877598049,43.09012726203364],[11.113633798028104,43.09012779360564],[11.11433644184331,43.09019584748423],[11.115003180215083,43.09029157364207],[11.115820359214057,43.09047455848963],[11.116898796564367,43.0907517524424],[11.117579684987675,43.09090122972114],[11.118286373154026,43.09108624054808],[11.118660107519611,43.09113834871893],[11.11871679426677,43.091146195193645],[11.118805049058858,43.09115844899308],[11.118973060133618,43.09118184688797],[11.119022297315404,43.09118853996693],[11.119099872905807,43.09119918867157],[11.119200966854647,43.091213111459204],[11.11932583301341,43.09123613489527],[11.119377922322814,43.09124575997591],[11.119548703928889,43.09127733492484],[11.119638959234834,43.091294110000526],[11.119683794520066,43.091302373714626],[11.119849435995103,43.09133306287443],[11.119890260670541,43.09134063815243],[11.119947077090671,43.091351128943074],[11.120020970353025,43.09136475463116],[11.120176757529805,43.09139338563308],[11.121083899424812,43.09151203687687],[11.121161130942387,43.09152230606672],[11.12120114523801,43.09152746828337],[11.121987583108512,43.09153088938199],[11.122344589485948,43.09155127932504],[11.123005135437941,43.09146698490458],[11.123111013555999,43.09145356053589],[11.123268366874766,43.091433890393375],[11.123375587106137,43.091420411151304],[11.123465342132873,43.09140902543417],[11.123553052688388,43.09139792432697],[11.12363491454865,43.09138766560894],[11.123677917948187,43.09138226318165],[11.123817125212753,43.091354346978676],[11.124312386143938,43.0912536208576],[11.12487376489709,43.09114414376629],[11.125119017562575,43.09110343879597],[11.125184100261555,43.09109260106255],[11.125423485821587,43.09105289049336],[11.125371087502026,43.09122223523267],[11.125300949662186,43.091448648865025],[11.125235611487673,43.09165967908614],[11.125218988950905,43.09182646446681],[11.125150856364192,43.0925103641429],[11.12512938610493,43.09272800435372],[11.125117082149814,43.09285047024092],[11.125495438312923,43.09357615420679],[11.12559087036631,43.093760120656235],[11.12585230724826,43.09410753323647],[11.125876915688353,43.094139993694796],[11.125897484642858,43.09416735342753],[11.125934223471408,43.094215989249484],[11.126033905859817,43.094348877408315],[11.126055193872752,43.09437723495367],[11.126118905294081,43.09446165757407],[11.126212011569587,43.09463140264387],[11.126227059936516,43.09465889374978],[11.126261265514824,43.09472143810862],[11.126298631268565,43.094789729824114],[11.126617281205192,43.095370845498884],[11.12671196598279,43.09591364495999],[11.126734781667244,43.09604331170269],[11.12675520911137,43.09616067224856],[11.126761127486569,43.09640887346159],[11.126782499146433,43.097303729377956],[11.127085317394906,43.09805869806496],[11.127134359878376,43.09818107403936],[11.127171930338724,43.09827491102622],[11.127187597669579,43.098312145065734],[11.127199531147788,43.09834027114303],[11.127240805829143,43.09836763272685],[11.12737455049069,43.09845523092946],[11.127408565239472,43.09847746974449],[11.12782795105078,43.098752008756044],[11.127889673284376,43.09882072923183],[11.127974661005664,43.098915470292965],[11.128011269047395,43.09895615414725],[11.128045211474738,43.09899405926581],[11.128078393469584,43.099031152808244],[11.12816603692633,43.09912769473893],[11.128216918048562,43.099184456148244],[11.128250241608457,43.09922105445832],[11.128294419828958,43.099239197737326],[11.128828068477846,43.09944939378018],[11.128947366405669,43.09949655590154],[11.129676696556741,43.09966962771441],[11.129827040520288,43.09970528928128],[11.129965970425514,43.09975548127382],[11.130522578222697,43.0999565659688],[11.130627708804697,43.09999454538572],[11.130822550990956,43.10006493464109],[11.1314539740441,43.10039978227767],[11.131773947005305,43.10056946472231],[11.132428478959556,43.10068308387288],[11.133865317039605,43.10063851864088],[11.134583700073868,43.10068618369313],[11.134657871106626,43.10069108461338],[11.134924535917202,43.10070879710869],[11.136050238780568,43.10057072140748],[11.136787075470309,43.10037293880183],[11.136987662401188,43.10031909567162],[11.137643894063583,43.10010873584326],[11.138230200157372,43.10000773176042],[11.138220674998875,43.10043116307153],[11.138209890444339,43.10048169356756],[11.13819915561204,43.10053566465509],[11.138180168057719,43.100625709892576],[11.138020561679426,43.101398332860015],[11.138234842922477,43.10225875247861],[11.138499465727676,43.1027948408339],[11.13838760477088,43.103822667518955],[11.138297949964592,43.1051299854999],[11.138391984524393,43.105811819390354],[11.138478794143232,43.10644125146429],[11.138559903305788,43.10678143586123],[11.138616596654767,43.107019149898065],[11.138694669322762,43.10734666218443],[11.13882400965779,43.10788450893043],[11.139032440638166,43.10813498545413],[11.139441283698101,43.10862108582495],[11.139828399966847,43.10879065546602],[11.139872156391315,43.108809691749904],[11.139906137721166,43.108824537418634],[11.140080491658104,43.10890100375621],[11.14042548187247,43.10905213676597],[11.14052006421551,43.10908871687497],[11.14083460674124,43.10921118266168],[11.14139726714844,43.10943014188184],[11.142004218982619,43.109578728953494],[11.142124947261081,43.10960818536339],[11.142661631022488,43.10973962662642],[11.142821273670958,43.10984144545801],[11.143566661046428,43.11031695982308],[11.144507296114003,43.110857601122206],[11.144442380624703,43.11146211454117],[11.144163901703175,43.112097254330834],[11.144081069138926,43.11228617252349],[11.14398055133424,43.11251542550179],[11.143793513484837,43.11294199822748],[11.143642272486877,43.11329645362243],[11.143452687388342,43.11374077451296],[11.14339204421066,43.11394000787637],[11.143232167437617,43.114465259525424],[11.142960696369334,43.11479872805559],[11.142933877990238,43.11483120815494],[11.141935691793629,43.11605631492601],[11.140744430278657,43.11784353250876],[11.140695716558346,43.11791678177457],[11.139763640133092,43.119329553991754],[11.13949214563437,43.1199232584558],[11.139352475997171,43.12022868177618],[11.13963996125752,43.12165929230933],[11.13964974925485,43.12170885353455],[11.14000409348515,43.123052879298136],[11.140009345998216,43.12382040618056],[11.140011485479162,43.12432236106041],[11.139612843449811,43.12558143106782],[11.13889377546106,43.12717065047786],[11.138464226475508,43.12789678376237],[11.138139124872504,43.128445375695236],[11.137731545345417,43.12939512117177],[11.137718787169295,43.12942572720073],[11.137636332706313,43.129739878208795],[11.137349599877298,43.13083729322013],[11.137097990177367,43.132084601204475],[11.137105548707902,43.132141173684595],[11.137126689577888,43.13229940758955],[11.137214401897483,43.132955851668875],[11.137453999233802,43.1338338042317],[11.137528282896026,43.134361130880585],[11.137534530909655,43.13440470015017],[11.137600953264753,43.134875567088706],[11.137748226554073,43.13592632717019],[11.138117624923899,43.136206437294675],[11.138179826630918,43.136198775919894],[11.138223531832487,43.1361933881705],[11.13839360925709,43.13617272528918],[11.138446327229953,43.13616597224923],[11.138529233239575,43.13615581651972],[11.138633051967815,43.13614304197843],[11.13901669919565,43.13609592547189],[11.139057254867643,43.136090944780534],[11.139634166329817,43.136182193725844],[11.140248488294553,43.13627923009623],[11.140298922587037,43.13628737358992],[11.140339639218821,43.13629380618236],[11.140380144351704,43.13630030845087],[11.1404454866247,43.13642595928387],[11.14059803120779,43.13670866623469],[11.140659105573949,43.136824280308716],[11.1407483676325,43.13698675449184],[11.140754511269055,43.13709165846541],[11.140758118737045,43.13715803121866],[11.140782724380832,43.13760741613424],[11.140809545001307,43.13805334956559],[11.140811117471022,43.13812179450516],[11.140815028145418,43.13819209381561],[11.14093941770894,43.138343287720296],[11.141070377161341,43.138502467002965],[11.141136038824161,43.1385822769405],[11.141561852530167,43.138562442843806],[11.141635879355679,43.138558994654346],[11.141875261775533,43.13854778730853],[11.142017108369943,43.13854117060824],[11.142105796715338,43.138536915356255],[11.142175379329368,43.13853796043712],[11.142325435492744,43.138540946811865],[11.14279095399259,43.138549093102554],[11.143348442082658,43.13855884471996],[11.143407307767786,43.138596765027],[11.143879213395822,43.13890072480858],[11.144035268408375,43.139001215549904],[11.144544673748431,43.1393294596037],[11.144676050147826,43.13942948204495],[11.144795623761185,43.13951732924613],[11.144889761440552,43.139589225630395],[11.14492269190195,43.13961469844132],[11.145138931393062,43.139776799226716],[11.145297211096294,43.13989724807804],[11.145439795739122,43.140002905074],[11.145478281042775,43.14003137285074],[11.145758466195671,43.14006158497317],[11.14583046956252,43.14007023078516],[11.145918383777564,43.140081152388184],[11.146095159553617,43.140101110991964],[11.146142252622598,43.13999225674231],[11.146229120107334,43.13979146171222],[11.146244443030216,43.139756066714064],[11.146263998677997,43.13971038933963],[11.146339839957218,43.13953669472901],[11.146425056683812,43.13933855171447],[11.146469066751994,43.13930170884523],[11.146504942795527,43.13927167561057],[11.14655433560505,43.13923032670663],[11.147019200793743,43.138841163736224],[11.147102229720076,43.1387716547419],[11.147261256992993,43.13863852241371],[11.147709009891626,43.138543024017956],[11.148319234710652,43.138412869183725],[11.148604114117465,43.13835268773864],[11.148856184738298,43.138551494835994],[11.1489379800286,43.13861621362334],[11.14902688353561,43.138686683194464],[11.149176324112467,43.13880448067809],[11.149438380770507,43.13901182772742],[11.149572536676986,43.13909018971085],[11.149826691079422,43.13923864310318],[11.149949906788354,43.13931061272362],[11.150200189345629,43.139457123764366],[11.150293063338907,43.13951149156886],[11.150573117755735,43.139675406803434],[11.150679903163757,43.13973623452198],[11.150708224866557,43.139752127850336],[11.150833422700153,43.139854613126346],[11.150882256632963,43.13989111992731],[11.150927792793416,43.139926573977405],[11.150989999434099,43.13997778922089],[11.151162223659785,43.140114149542065],[11.151370844610577,43.140279694504855],[11.15140065717895,43.14030389953376],[11.151460965798545,43.14035146109765],[11.151717160983665,43.14055380577514],[11.151837186663778,43.140648859520724],[11.15194309900427,43.14073273044003],[11.15198433501057,43.140764078805084],[11.152091893022892,43.14080379773219],[11.152141351593281,43.14082245982646],[11.152299721479558,43.14087994173167],[11.152334286307795,43.14089178762195],[11.1525977569317,43.14098705387607],[11.15267039692512,43.141013288880885],[11.15271571316608,43.14102998738495],[11.152747227488614,43.14104088837328],[11.15285548010306,43.14108159119541],[11.152869205407644,43.14102520001753],[11.15287914017799,43.140982096916424],[11.152891520918761,43.14093199543823],[11.152899484590629,43.14089933137497],[11.152929589934775,43.140774643776275],[11.152964950583641,43.140627644169385],[11.152984041859456,43.14054158766241],[11.152989036978514,43.14028067893584],[11.152991068439611,43.140198367964175],[11.152996115617674,43.14007730180891],[11.152992834885099,43.14003750628465],[11.152995890440392,43.13982733899383],[11.153282429562292,43.139692918000996],[11.153435815117286,43.13962096051264],[11.153887260051254,43.13940917411756],[11.153975716715598,43.13936767522094],[11.154495781656173,43.139197343557775],[11.154645804802035,43.13914819212226],[11.154847410822377,43.13908212084107],[11.154899659011413,43.139119163993186],[11.154928952372103,43.13914190205723],[11.154983681529192,43.1391843569201],[11.155112466331518,43.139284580931594],[11.155170626391994,43.13932969759952],[11.155319011395454,43.139445942820295],[11.155381890200468,43.13949425707539],[11.155434560756909,43.13958332601511],[11.155697904427416,43.14002865879138],[11.155756504132397,43.14012767018042],[11.155912056143592,43.14039083741874],[11.155963937150437,43.14047600945071],[11.156026791770174,43.140572769510825],[11.156140131163724,43.14077659419725],[11.156215397684644,43.14091919139122],[11.15633601607797,43.14115094548883],[11.156350215305807,43.14117607570646],[11.156407874826206,43.141282311622206],[11.156446016984548,43.14136324024257],[11.156616179971639,43.14167127834058],[11.156651901143741,43.14174590260475],[11.156687261028813,43.14181067020255],[11.156836588879582,43.142099231636955],[11.15685428608921,43.14212122710556],[11.156891157388491,43.142203153811835],[11.15694783345429,43.14225598912606],[11.157065340193947,43.142365520752705],[11.157421345502007,43.14269736998578],[11.157526246206737,43.142795156714385],[11.157573894722029,43.14283945021594],[11.157700171266946,43.14295723037973],[11.157781118957987,43.14303275506852],[11.157874244881103,43.14313905041125],[11.157982894463226,43.143263061644944],[11.158065356875381,43.143356868075685],[11.158263023780748,43.143582283918185],[11.158340221714223,43.14367029428423],[11.158511330743963,43.14386538597916],[11.158706806051356,43.14402418702878],[11.158813665751728,43.14411102308794],[11.15897498770636,43.14424211877096],[11.159247921191133,43.14446395002401],[11.15941011942709,43.144595781307615],[11.159609301753711,43.14477402160586],[11.159755023570481,43.14490442115566],[11.160070369200849,43.14518660490746],[11.160082833123347,43.14534846737622],[11.160117532920099,43.145798151780454],[11.16012043999846,43.14583822694431],[11.160127822923341,43.14593596031798],[11.16013861759189,43.14607674789191],[11.160144640509563,43.146247717514],[11.160153942234308,43.146511758077764],[11.160160486814814,43.14669763638268],[11.160163798436916,43.146809022626385],[11.16017034991842,43.1470019008395],[11.160171828220896,43.147040058023535],[11.160231377168138,43.14714804717775],[11.160285191444263,43.14724628206475],[11.160308130741356,43.147284802842606],[11.160350496504362,43.14736503437824],[11.160387884217519,43.14743161556432],[11.160479317160654,43.147593716828624],[11.160500583798004,43.147628420668084],[11.160605034761284,43.14782714185244],[11.160645705514169,43.147904059244624],[11.160837007056472,43.14803535387702],[11.160957170933514,43.148117832261896],[11.161474633174175,43.14847303658468],[11.161602505957982,43.14856106568958],[11.1618409015375,43.148721634243415],[11.161908959754777,43.14876724551387],[11.16212305388473,43.1489115957399],[11.162184899362511,43.148953293013065],[11.16221391326075,43.14897287928662],[11.162265239584075,43.1490074367796],[11.162434907328889,43.14912184920676],[11.162578218095096,43.14935325189375],[11.162658862861553,43.149483468052324],[11.162859304299943,43.14980703809021],[11.162969572954223,43.14998516101662],[11.16304100906302,43.150244935694296],[11.163048802386314,43.15027327560878],[11.163055902469734,43.150299081281176],[11.16316409146965,43.15069264007708],[11.163235996939362,43.15095458299382],[11.163279953651106,43.151113838565216],[11.163283012710457,43.15114079398544],[11.16329780148601,43.151271078450826],[11.163335922455168,43.15159001183716],[11.163389614736204,43.152039213928624],[11.163402501559828,43.15214702237319],[11.163438574919512,43.15248850547933],[11.16348604020506,43.15293782525631],[11.16350407674833,43.15310856633073],[11.163534187214038,43.15338713208461],[11.163549728869747,43.153530907063654],[11.163614410810787,43.15373016780594],[11.16364850164021,43.153835187069426],[11.163793756016744,43.15428265562141],[11.16393901389937,43.15473012478705],[11.163991306464961,43.15489121403406],[11.164234887991107,43.15534582668523],[11.164278865925574,43.155420336235416],[11.164381542595164,43.15562235945044],[11.164518205966749,43.15588072559988],[11.164530783443098,43.15606958399197],[11.164560708059026,43.15651924944375],[11.164587353517188,43.15691867193052],[11.164590491373968,43.15697015653862],[11.164597657589132,43.15708580332905],[11.164550478516553,43.15714297301077],[11.164462842352336,43.157247227107135],[11.164442164456691,43.15727122714377],[11.164358557981776,43.15737125205538],[11.16431368949616,43.15742462306699],[11.16392929592153,43.15788190362829],[11.163782432022808,43.15805569162653],[11.163416756188493,43.1583417439577],[11.163169034970224,43.15853510750351],[11.16282564825312,43.15880314170776],[11.162571358437472,43.15902559989153],[11.162299637037755,43.159263306510304],[11.162058784526298,43.15947400454082],[11.1619682421575,43.15955337121493],[11.16188426167448,43.15962611438555],[11.161847371890259,43.15965855500129],[11.16182043857781,43.15972195187481],[11.161773953082154,43.15982695135685],[11.161621225002227,43.16017668204571],[11.161535673841916,43.16037281784759],[11.161494461373929,43.160467100437785],[11.161588861774765,43.16062739479299],[11.161805199065226,43.160994734114276],[11.161859693983306,43.1610803696789],[11.162030727461781,43.16113348515356],[11.162651281046204,43.16129058289674],[11.162953027498132,43.16136697049681],[11.163269933411225,43.16139271786116],[11.163888250409556,43.161448055373775],[11.16411563038579,43.16146485738224],[11.164257368625197,43.16147398083623],[11.164312692546403,43.16147734060711],[11.164491710601586,43.161489453656685],[11.164552786803853,43.16150846756653],[11.164718254009951,43.16155405581905],[11.165124515876876,43.1616653999061],[11.165625275687283,43.161802632690375],[11.165749803907746,43.16189521612441],[11.16614138230816,43.1621862808717],[11.166357938281775,43.16234702534876],[11.166382770326516,43.16246574274826],[11.166449885222383,43.16278653573893],[11.166499397357764,43.163019890751535],[11.166543099300599,43.16323495169093],[11.16656534183759,43.16334257693339],[11.166699795885421,43.163633310490326],[11.166720792057323,43.16368215421095],[11.166868680037654,43.16400175688947],[11.166911547653154,43.164092768012175],[11.166929634603354,43.1641292164173],[11.167052935613446,43.164388896635266],[11.167085702996218,43.164421700984455],[11.167153006821865,43.16448174652317],[11.167184692087824,43.1645081584097],[11.167258145051997,43.16457205560022],[11.167700875834859,43.16495716984091],[11.167764690791312,43.16501272221039],[11.167945176287725,43.16516975404398],[11.168055166715515,43.16526547208191],[11.16816436957154,43.165360476486576],[11.168250783331944,43.16543565654541],[11.168332190538607,43.16545527972866],[11.168954121203507,43.165605756254934],[11.169044849138217,43.165627698175136],[11.169280545013448,43.1655688355826],[11.169325207153037,43.16555775758956],[11.169563046449621,43.16549843955378],[11.169744298737434,43.1654522191269],[11.169875844447853,43.16542045535898],[11.169943522994759,43.16540371335581],[11.17001680554302,43.16538619684969],[11.170086839363748,43.16536819537595],[11.170121773376755,43.16535919889737],[11.170166808561465,43.165348208043184],[11.170215393096429,43.16533504278509],[11.170308724374193,43.165301112384746],[11.170390812963749,43.165271263568755],[11.170465425813996,43.165244150745224],[11.170547130715704,43.165214482884124],[11.170777669011338,43.16513116368261],[11.170813423365317,43.16511775997255],[11.170889935272786,43.16508992198715],[11.170957955339588,43.16506519949931],[11.171041057574326,43.16503519590834],[11.171151986220696,43.16499620703904],[11.171220777537076,43.16498728599211],[11.171272309287259,43.16498145694802],[11.171391048502107,43.1649726247842],[11.171621883515423,43.1649512602669],[11.171870480071668,43.16493049172808],[11.171968389571125,43.16492200231927],[11.172004818656177,43.16491858751642],[11.17207384018886,43.16491269696913],[11.17231542966151,43.16489060723714],[11.172443863265856,43.164922448224615],[11.172622158915907,43.16496666292552],[11.173241516694937,43.16512008781657],[11.173664999975246,43.16522511859165],[11.173739810350776,43.16524394575491],[11.173779816798032,43.16525416169017],[11.173815968346243,43.1652634486962],[11.173864520393611,43.16527598737991],[11.173928641615795,43.165291948004],[11.174001622418183,43.16534411436513],[11.174079529907138,43.16539981579479],[11.17431497302996,43.16556875996171],[11.174435593684574,43.16565508161946],[11.174492872621123,43.16569614843709],[11.174614105312944,43.16578302914517],[11.175133368359766,43.166157154008815],[11.17523009520145,43.16618021141211],[11.175400536933926,43.1662182500494],[11.175520323871334,43.16624566879748],[11.175744193783554,43.1662948824922],[11.17599853666069,43.16635160548392],[11.17607008591433,43.16636756673245],[11.17614484781287,43.166384241182165],[11.17618204653508,43.166392538635094],[11.176360677257867,43.166334987750275],[11.176805818764223,43.16619157470234],[11.176968778737393,43.16613907367515],[11.177583773989102,43.16593988076425],[11.177726409854541,43.16589454776905],[11.177805499299586,43.16585951558704],[11.178124074902652,43.16571629518071],[11.178184601618524,43.16568798329382],[11.178234102598948,43.165666796763354],[11.178367407933335,43.16560737501204],[11.178784524357665,43.165420738396],[11.178816664841538,43.16540617463685],[11.178916735681948,43.16534638953882],[11.178974608608632,43.16531192826494],[11.179039076135785,43.16527376656058],[11.17907713208586,43.16525096984442],[11.179161620471895,43.16520076228186],[11.179392191207093,43.16506404160671],[11.179866310194484,43.16478314617024],[11.179993475012937,43.16470781713364],[11.180165586494974,43.16460584159769],[11.180417188038074,43.16440317667341],[11.18052008950147,43.16432035876513],[11.180574372642642,43.16427691660161],[11.180730180035253,43.16414273798932],[11.180812216561563,43.164084168547575],[11.18094219488122,43.16398054429077],[11.181095211297869,43.163858541933614],[11.181189574335482,43.16378350399],[11.181256294701598,43.16373168700883],[11.181547176540438,43.163553243189554],[11.181700058120098,43.163461480281995],[11.181797915867309,43.16340092358138],[11.181902768433808,43.163339664264726],[11.18239902712162,43.16304328684434],[11.182481931017021,43.1629945819836],[11.18258432759329,43.16293596398086],[11.182900245448245,43.162759164842015],[11.182997497932398,43.16270526571815],[11.183447141070998,43.16245643708392],[11.183598503113657,43.162421985769946],[11.183643898345952,43.16241159683589],[11.183729693633543,43.16239278991394],[11.184171324898688,43.16229701881699],[11.184212063876643,43.16228824303196],[11.184317728400709,43.16226527613258],[11.184403990279685,43.162245870904904],[11.184447957883101,43.16223702076021],[11.184546667469995,43.16231053362594],[11.184712754753956,43.16243921958858],[11.184830756247775,43.16252685174565],[11.184835382036622,43.16264690643351],[11.184838611771918,43.162728561496806],[11.184845839735948,43.16288675594355],[11.18486240960372,43.1632469414739],[11.184866298149934,43.16333654923728],[11.184870956014556,43.16342693018675],[11.184440879761237,43.16379446306241],[11.184388613959536,43.163838541154064],[11.184322927724615,43.16389452094904],[11.184270980910332,43.16393878738904],[11.184191152485566,43.16400699326473],[11.184119892703176,43.16404172275036],[11.184060704964965,43.16407127642373],[11.18380150794304,43.164199120133226],[11.183710697913261,43.16424510360628],[11.18366996399932,43.16426251703996],[11.183393391201198,43.16440019124875],[11.183185366999997,43.16450234307236],[11.183080178875704,43.164663415655],[11.183065977691752,43.16469094397038],[11.183054605291698,43.16472260353095],[11.182868115629345,43.16500064718194],[11.182753059950278,43.165177558352404],[11.18255124372682,43.165490301621205],[11.18252434137286,43.16553424056731],[11.182563328147443,43.16563227299369],[11.18266693873709,43.16589377061751],[11.182687844813161,43.165947232328115],[11.182711448559552,43.16600677094103],[11.18273995187718,43.16607884290356],[11.182820855840067,43.16628402082154],[11.18311933080708,43.16644009914286],[11.183153480981279,43.166458685118634],[11.18322097263037,43.16649449480475],[11.183267219093382,43.166518889070176],[11.183306403980078,43.1665395372362],[11.183355544736926,43.16656530430708],[11.183497816012638,43.166640274353234],[11.183621028580674,43.166632489425496],[11.183751411355212,43.16662442157666],[11.18406548153234,43.16660467236314],[11.18429557216985,43.16658902235115],[11.184364961217227,43.16653790086862],[11.184406040167861,43.16650490569023],[11.184960589213476,43.16610017223871],[11.185063789888765,43.166030670161305],[11.185109913557875,43.16598907008396],[11.185245165971248,43.16588993694237],[11.185308222264236,43.16584285821038],[11.18536206739687,43.16580285283331],[11.185566211818756,43.1657308945291],[11.186046465418288,43.16556192685204],[11.186173751783908,43.165516275242126],[11.186225111929522,43.16549797614542],[11.186424869774864,43.16556469948514],[11.186526744028063,43.16559867929423],[11.186706735162364,43.165658561240456],[11.186795285746351,43.16568807906736],[11.186948829167909,43.16573849938837],[11.186984064019558,43.16575036960622],[11.187018451062913,43.16576202551392],[11.187130785504396,43.165800204291195],[11.187187401316235,43.16581872948732],[11.187363089359277,43.16587605620412],[11.187417064464878,43.165888040574536],[11.187556318341517,43.16594114297218],[11.187618803464392,43.165942202405105],[11.187723694253862,43.16594373191556],[11.188032762468865,43.165947673423744],[11.188099916277558,43.165948570332986],[11.188319927818,43.16595156588648],[11.188651970510763,43.165957142508525],[11.189005125027489,43.16600780337768],[11.189266633954725,43.166045850194955],[11.189884913489916,43.16613580266721],[11.190074261557138,43.16616334991394],[11.190383220314247,43.16638254086492],[11.190512061280513,43.1664739465941],[11.190667463333197,43.166584195627756],[11.190825833907624,43.166824278692516],[11.19096660922103,43.16703768543856],[11.191157730245475,43.1672105908826],[11.191218246168452,43.16726531625119],[11.191322557847863,43.167359522279064],[11.191536359855826,43.1674904957164],[11.191784075419468,43.167641645042394],[11.191886786242799,43.167704297413586],[11.192414943232611,43.16802677484769],[11.192572403266704,43.16814145337253],[11.193044369992112,43.1684871748701],[11.193171343022502,43.1685801837358],[11.19351573821755,43.16883245294446],[11.193616743116541,43.16890480087411],[11.193675905619235,43.168947213059646],[11.193775794635423,43.16901882588267],[11.194112155996068,43.16925997748118],[11.194256776359403,43.16936372103702],[11.194307224322118,43.16939986105896],[11.194352174227097,43.16943217794039],[11.194397749109982,43.169463773265385],[11.194437400675126,43.169492346905386],[11.194485930125945,43.16947340688407],[11.194541532803093,43.16945122819507],[11.194703409238484,43.16938511797112],[11.194923436743945,43.16929490771997],[11.195067953850463,43.16923712695938],[11.195199070067773,43.169119805093736],[11.195344327882129,43.16898871222002],[11.19546539988512,43.16887959677244],[11.1955171313375,43.168832764068696],[11.195639975660928,43.16872190447557],[11.195847020346049,43.16857109093069],[11.195906948277072,43.16852742598867],[11.19611562552192,43.16837538212352],[11.19628736127482,43.16825025282888],[11.19647280247329,43.16806660432474],[11.196667514822403,43.16787377394206],[11.196711369176205,43.16782468062512],[11.196879846869084,43.167635932155804],[11.196918641191912,43.16760783425744],[11.197111428829952,43.16746466779752],[11.197205506953962,43.16739319872104],[11.197251811644504,43.167358599310404],[11.197224301208497,43.167283595430284],[11.197172816542595,43.16715195620152],[11.197124656356237,43.167009933140186],[11.197106901798188,43.16696671099122],[11.197007572301592,43.16670064673504],[11.197003292748978,43.16634559295215],[11.197002115691081,43.16625557252285],[11.197001526566948,43.16621056276939],[11.197025062444869,43.1661808463314],[11.197256254008947,43.16586897743181],[11.197310654537521,43.16579946547931],[11.197347398885977,43.16574994844594],[11.197406778786618,43.16566606520417],[11.197465934576744,43.16558434098896],[11.197517435077268,43.16551626503495],[11.19767765827344,43.16534310839726],[11.19784701724608,43.16516016106274],[11.198102508963926,43.16488405709525],[11.198263905999442,43.164709593939186],[11.198346722287992,43.16442886841758],[11.198424985463701,43.16416357654672],[11.198472281176878,43.164003251702034],[11.198506604115796,43.16397557868095],[11.199005080885856,43.16357395677281],[11.199078331637692,43.16351426997426],[11.199157602632878,43.16344996696159],[11.199237350685,43.16338525132262],[11.19962080611841,43.163302245924264],[11.199783429862926,43.16326697669679],[11.200105534754476,43.16319704277261],[11.200232476491243,43.16316952691388],[11.200371058557158,43.16313945030663],[11.20045077295677,43.16312221465606],[11.200604375473489,43.16308882417479],[11.200847214321081,43.163043962624656],[11.20093215313731,43.16302849000591],[11.201456504880356,43.16293184170756],[11.201533083132606,43.16291788924809],[11.20196011443351,43.16282764941061],[11.202062443603054,43.16280821503761],[11.202348871206542,43.16277892868823],[11.202462491460645,43.16276508885208],[11.202511870628715,43.162759602337424],[11.202680136866295,43.16274129715944],[11.202912180710486,43.16271656857659],[11.203075080127588,43.1626990892506],[11.203207936064828,43.16261303292951],[11.20328740829726,43.162561527432544],[11.203333306055168,43.16253181557477],[11.203748662548813,43.162262202196914],[11.203888685385207,43.162154188421475],[11.203999156016687,43.16206916226563],[11.204194039195926,43.16191891280585],[11.204418441337799,43.16174575680042],[11.204487854045466,43.16173044665677],[11.204855304861752,43.16164914141585],[11.205039805458659,43.161607087629264],[11.205099096101414,43.161594210775334],[11.205345291017496,43.16153871641014],[11.205711846209567,43.16156286898216],[11.205980788486801,43.161580564367085],[11.20603180243984,43.16158389702161],[11.206262145635142,43.16159911274354],[11.206328878383244,43.161603507982264],[11.206615751593034,43.1616223398581],[11.20694624235231,43.161666830124354],[11.207345696492162,43.16172059642835],[11.207494133422456,43.161740866254526],[11.207564033224783,43.16174838809423],[11.207998756794389,43.161796197406396],[11.208181154750505,43.16181620592951],[11.208258980466264,43.161824734068425],[11.208660393557565,43.16169992598641],[11.208697101966061,43.16161440732285],[11.208734511065085,43.16152741189936],[11.208756389881712,43.161475984833764],[11.20878167724691,43.16141763418232],[11.208910054742132,43.16111882712503],[11.208884642551114,43.16107429598305],[11.208761526234433,43.160858551407784],[11.208630526550154,43.160628987718034],[11.208594950111568,43.160566644912684],[11.208420666318236,43.1601828242352],[11.208234224530203,43.15977222573175],[11.208224682091826,43.15973637798769],[11.208130613041986,43.15938351197591],[11.208101092139552,43.159287103692805],[11.208077604247656,43.15916955724468],[11.208047447616352,43.1590652274422],[11.208036288222731,43.159021909332196],[11.208006766713222,43.15892120683206],[11.207993196451259,43.15884043013746],[11.207917809244803,43.15839166921283],[11.207842423275498,43.15794290818148],[11.207803223008609,43.15770955233196],[11.207854358958336,43.1574925711317],[11.207935236175343,43.15714765653884],[11.207958060423323,43.157041198945606],[11.207983942079087,43.15694132666559],[11.208002675645192,43.15686379544404],[11.208015614606746,43.15677959758248],[11.208030886225426,43.15673396736108],[11.208047067477564,43.156671729862786],[11.208059630820928,43.15662227823293],[11.208069765901174,43.1565811476316],[11.208160020865447,43.15651173328604],[11.208227380726242,43.15646018267465],[11.208286946040607,43.156414186976335],[11.20834970401871,43.15636538775523],[11.208413710301219,43.156315633338586],[11.208468914524579,43.156274055580226],[11.208530991427715,43.156226672297706],[11.208594092347086,43.15617893604232],[11.208625982694311,43.156153630087545],[11.208661544917215,43.156127725551215],[11.208692345532445,43.15610491233246],[11.208717413273694,43.15608608802328],[11.208821890154784,43.1560064143968],[11.20896778304032,43.15589520147532],[11.209193769175322,43.15578819050159],[11.209463358606103,43.15566053059182],[11.209798407174205,43.155501872668246],[11.209923820519972,43.15544248559982],[11.209962065691562,43.155423512628964],[11.21000412248652,43.15540317925789],[11.21017704805171,43.15532257331763],[11.210229038283785,43.15531481523263],[11.210405497005796,43.15528513620367],[11.210728065165009,43.15523124710192],[11.210777707488809,43.15522243561754],[11.210855030430162,43.15520889293931],[11.210926295113389,43.155194915361434],[11.2109803587886,43.155187055619706],[11.211018034408223,43.15518149366074],[11.211075595927586,43.15517094056429],[11.211171749854016,43.1551545681865],[11.211270393443966,43.1551340469831],[11.211345029614368,43.155126765360926],[11.211508892840254,43.15509929744299],[11.211622233185903,43.15508050331627],[11.211679195577876,43.155071519264276],[11.211876325817153,43.15503759871443],[11.212241446792664,43.155037507536065],[11.212856387429097,43.15503735389291],[11.21310383576109,43.15503708491442],[11.213196410824803,43.155037088866095],[11.213290692413523,43.15503724700733],[11.21347055795193,43.15501580567795],[11.214082868599935,43.15494281199933],[11.214695177657756,43.15486981507265],[11.215275599821169,43.15480052015401],[11.215917589733657,43.154662917735074],[11.216059720972655,43.15463245351329],[11.216527802607436,43.15453212263921],[11.217138014015191,43.154401325217194],[11.217629996455074,43.15429586668686],[11.217747750208096,43.15425746476621],[11.218099697830851,43.1541426880533],[11.218355516896407,43.15405925988329],[11.218963279513849,43.15386105095022],[11.21918587212506,43.15378845589302],[11.219573970477958,43.153746476072484],[11.220181492478607,43.15368073990329],[11.220300682337912,43.15366776922273],[11.22050546301497,43.153704881274436],[11.220659702346191,43.15373283361509],[11.220805880750133,43.15380015375122],[11.220997401627361,43.153888354058296],[11.221246313048912,43.15408258633244],[11.221431502896975,43.154225498951796],[11.221473710301778,43.154259134421636],[11.221592317360662,43.154354027523766],[11.221627086687805,43.15452398457735],[11.221639583930209,43.154583718310676],[11.221683971233844,43.15480050136967],[11.22171936638676,43.154972643298166],[11.221741636047824,43.15508047776014],[11.221710655493611,43.1552487073271],[11.2216927958049,43.15534480256716],[11.221678389067103,43.155423846625844],[11.22160303813496,43.15584412032795],[11.2215962063741,43.155874198971],[11.22158688841729,43.15592004308803],[11.221509743078881,43.156221708710135],[11.221483584251065,43.1563262806803],[11.221450974464624,43.156450878571896],[11.221361337270224,43.15679793657517],[11.220928057053978,43.15717221940089],[11.22084847573596,43.15724085572951],[11.220645544724576,43.15741587813438],[11.220588934750227,43.157445136814815],[11.220526907298604,43.15747729562227],[11.220327754352283,43.15758047545941],[11.220146041248583,43.157674920683185],[11.220085627211974,43.15770582783342],[11.219929401498858,43.15778671434546],[11.219828273764795,43.15783886515744],[11.2197640074023,43.157872088108334],[11.219720601790074,43.15789476717197],[11.219595350586022,43.157958741451],[11.219513723123647,43.158006402100945],[11.219284164490366,43.15814327939436],[11.219233546023522,43.15817251567852],[11.219115142763876,43.15824323139976],[11.21898358951064,43.15832077266084],[11.218667963639259,43.15850776773044],[11.21851825634841,43.15855561838596],[11.21824807395115,43.15864197461336],[11.217910305330628,43.15874993149391],[11.217317504205417,43.158939154594066],[11.216941985931674,43.1591175174468],[11.216697816664832,43.15923325312353],[11.216169525949613,43.15948365810953],[11.216093330258957,43.159539478892384],[11.216040856971789,43.15957797380889],[11.215649770482678,43.159864091648664],[11.21548781574371,43.15998466730946],[11.215452722531154,43.16004809338741],[11.21534796002024,43.16032118756455],[11.215320254562245,43.1603927977511],[11.215288955788573,43.160470896769965],[11.215277571158225,43.160501022698334],[11.215262132958506,43.16054378917786],[11.215215891137538,43.160663692395765],[11.215237269562662,43.160789620744694],[11.21524642299669,43.16084749386676],[11.21525710727937,43.16091515212355],[11.215263323936018,43.160953063561635],[11.21527025425039,43.16098781684046],[11.215318850311062,43.16130421463324],[11.215334255801437,43.1613999840826],[11.215358716105957,43.1615523535231],[11.215437652349799,43.161847966636024],[11.215559765392879,43.162304887095466],[11.215581890773054,43.162388120055596],[11.215629018203865,43.16256460524055],[11.215737403024661,43.16274259135923],[11.215976622896592,43.163135425336094],[11.216008369168387,43.16318755699904],[11.216230986150924,43.1635524203349],[11.216304610797833,43.16363203211697],[11.216715988419043,43.16407427471835],[11.216806491142885,43.16417156778456],[11.216877375445097,43.16419936072148],[11.21724955858845,43.16434524331359],[11.217496843154754,43.164440707956864],[11.21755448432985,43.16446359054384],[11.217638434067798,43.164506710845615],[11.217760269887174,43.16458929826351],[11.217885164165335,43.16466580499949],[11.217975677898364,43.16472179648317],[11.21803197749484,43.16475660774721],[11.21813014729195,43.164818094565575],[11.218176344979664,43.16484786294227],[11.21834387300264,43.16494818272229],[11.218521505708786,43.16534093530646],[11.218535826692875,43.16537881897699],[11.218587418487914,43.16549687230185],[11.218589783227939,43.16558756363077],[11.218590083527978,43.16564586841198],[11.218589680340772,43.16583878440903],[11.218590030459803,43.166207971854014],[11.218586248981266,43.16628910089561],[11.21858479978603,43.16632049038533],[11.218574507865714,43.1665436845589],[11.218570547693473,43.16664512195155],[11.218566858652009,43.16673967653321],[11.218563006790923,43.16682956459809],[11.218594493561838,43.16694681034363],[11.21865901281594,43.16718810343993],[11.218693505716416,43.16731728647015],[11.218705653762143,43.167362783150516],[11.218665601036344,43.16763819123123],[11.218617011504435,43.16797229339926],[11.21862124717513,43.16808926730862],[11.218637539677141,43.16853916677227],[11.21865155048634,43.16892608069506],[11.218659476432608,43.16898895849988],[11.21869880111523,43.16930320485232],[11.218716162180971,43.16943808412024],[11.218777713521837,43.16988243119901],[11.218789824649788,43.17002122205594],[11.218946369778102,43.170334059204194],[11.218974344555917,43.17038911123558],[11.21902874466299,43.17049739404144],[11.21908128788898,43.1706015483257],[11.21913994309456,43.170633193269396],[11.21940360197168,43.17077547739884],[11.219461579092707,43.17080676705649],[11.219579551771442,43.17087051999651],[11.219846161656882,43.171014504372764],[11.22004744549936,43.17112305357763],[11.220141196583706,43.17116400433064],[11.220211231682086,43.1711958302845],[11.220244471218907,43.17120927229686],[11.220296647384288,43.17123214250274],[11.220628776557152,43.1713778567961],[11.220825653297837,43.17146399275701],[11.220980247971081,43.171531786442564],[11.221110011875071,43.171588653649266],[11.221227220366353,43.171640401571324],[11.221422572491628,43.171726650750074],[11.221456967086915,43.17176338140209],[11.22175381311411,43.17208038821682],[11.22209686781691,43.17244673537351],[11.222167870250022,43.172522558310106],[11.222267245500703,43.172628678836546],[11.22239648545614,43.17296837857618],[11.22253961495583,43.1733437032443],[11.222564737539617,43.173414211774706],[11.222577325569361,43.173455339521574],[11.222763514792023,43.173805064054235],[11.222783558440707,43.17386103914236],[11.223028316198334,43.1743066180971],[11.223121970739351,43.17448496056813],[11.22319647003929,43.17475364074086],[11.223320100490408,43.17520165029194],[11.22337622461143,43.17540122243804],[11.223404951312173,43.17550609610194],[11.223406789696549,43.17564998713099],[11.223412623276127,43.176100088656305],[11.223414218733955,43.17621935474101],[11.223418622145745,43.17655527980885],[11.223230988253643,43.1770040318134],[11.223064553531053,43.17739831725268],[11.223037152568025,43.177458494860424],[11.222911065231312,43.17776138384934],[11.222898233872792,43.177794303821884],[11.222810415983778,43.17791022674112],[11.222767363986511,43.17796747953257],[11.22261553163923,43.17816801799478],[11.222569348763688,43.17822912330134],[11.222504124755051,43.178315528148],[11.222462508370143,43.17837061978673],[11.22232086846575,43.17855819066984],[11.2222946919438,43.17859294117515],[11.222253327617654,43.178647699178654],[11.222178458040405,43.17874689559017],[11.2221229394391,43.17882041365905],[11.222028885560604,43.17894532374367],[11.221898889910932,43.179177459160144],[11.221839350376236,43.17928216530205],[11.22173624343442,43.179463486006306],[11.221580477341492,43.17973740944367],[11.221404441043964,43.180046974912145],[11.221379895689092,43.18019152067009],[11.221303189846774,43.18064322535502],[11.221226481778455,43.18109493000424],[11.221188361925481,43.18131941268898],[11.221149775172792,43.18154663454616],[11.221112955497954,43.18176345263599],[11.221179022931038,43.1819962810502],[11.221215350019783,43.1821238867238],[11.221253126700823,43.182254408652646],[11.221308254266063,43.18244399171301],[11.221358125118181,43.182616327246855],[11.221400950142328,43.18276548102522],[11.22142719567015,43.18281832293753],[11.221461927645441,43.18289141197442],[11.221488942499349,43.182948362924186],[11.221672917788494,43.183335411545166],[11.221758278212773,43.183513500003265],[11.22182054422514,43.18364492178061],[11.221857160290222,43.183721076081795],[11.2218820396355,43.183785178264905],[11.222047340098547,43.18423051861944],[11.222213773923947,43.1846775880224],[11.222280285580545,43.18485625753077],[11.22227912601844,43.18512640813861],[11.22227779643999,43.185435916489254],[11.222277192304563,43.18557666004954],[11.222276379486024,43.18576576646823],[11.22220658801443,43.18603206875494],[11.22209316516967,43.18648066473543],[11.222003861999688,43.18683252003099],[11.221976900527796,43.186931799197446],[11.22194464133425,43.18703063382863],[11.221776072400942,43.18738742550712],[11.221748159761004,43.18744392448847],[11.221552218891574,43.1878415619211],[11.221433637401905,43.18808075933491],[11.221326734201355,43.18829641209044],[11.221173494814188,43.188605534942965],[11.221066786658103,43.188748558132694],[11.220851548896142,43.18903643775181],[11.220722924858986,43.1892085687101],[11.220603946379205,43.18936783048426],[11.22055742473892,43.18943008413418],[11.220510456343533,43.18949294973162],[11.220380668942758,43.189666612918195],[11.220265690804782,43.18982051740727],[11.220128980935216,43.19000347393676],[11.22003270949181,43.190122666095164],[11.219689300742655,43.19054236753286],[11.219666577089633,43.19057582667675],[11.219601706243886,43.190653828140036],[11.219293982982105,43.19103722169372],[11.219088988273844,43.19129102747466],[11.218935002146882,43.19148294487776],[11.218831166688066,43.191629174279704],[11.21877544401285,43.191704540473985],[11.218598660309953,43.19195108613918],[11.218502353710184,43.1920853977777],[11.218344942566798,43.192304924228836],[11.218268350938871,43.192408050227066],[11.218190349135934,43.19252028981759],[11.218166285293046,43.19255375664531],[11.21804591494427,43.1928627877571],[11.217922764008016,43.19317910585612],[11.21786943699132,43.19331587351676],[11.217692737917208,43.19376951433453],[11.217682137106552,43.193796732968266],[11.217566779111566,43.19417940113482],[11.217554375560326,43.19422099954263],[11.217419307359123,43.194675345292985],[11.217371650101416,43.1948356841888],[11.217308979731152,43.195046559329825],[11.217301287274395,43.195127746715265],[11.217258552392753,43.1955787891007],[11.217241992034745,43.19575356851975],[11.217340306016977,43.19575914391748],[11.217406007854017,43.19576908932369],[11.21747289201556,43.19578034800984],[11.21752870017203,43.1958291588679],[11.21761984937325,43.195910124088314],[11.217743560266365,43.1960190474361],[11.217789944319904,43.1960599883479],[11.217906949907233,43.196163554311774],[11.217907293717076,43.196195120481704],[11.217910273552489,43.19646657972491],[11.21791144834518,43.19657352135895],[11.217903087703418,43.196603846273554],[11.217831244484861,43.19685560639948],[11.217820658576024,43.196885183884135],[11.217808798713778,43.196918290566636],[11.21772920922512,43.19713899179608],[11.217719222502112,43.197168804368815],[11.217651512054273,43.19737161493584],[11.217590837094367,43.19755298114059],[11.217473432562892,43.19768309345094],[11.217342586463255,43.197828020901575],[11.217260060149039,43.197919416924705],[11.217050509683045,43.19797846671595],[11.217013208210476,43.197988949720596],[11.216949933694918,43.19800676875567],[11.21687199574889,43.19803896112572],[11.216591079859604,43.198155182690506],[11.216381995254777,43.19824134421047],[11.216262207905816,43.19828359655262],[11.216204126026913,43.19830051224876],[11.216007562086286,43.19836589782013],[11.215867522837392,43.19843772078281],[11.215659424535856,43.19854448451751],[11.215610633566584,43.19856949668488],[11.215548527094775,43.19860135259579],[11.215465609851663,43.19859643453327],[11.214518623636408,43.19854026405493],[11.214468939925426,43.19853619278567],[11.212741048309743,43.198394590380566],[11.211891997951593,43.19848404637572],[11.211803389874067,43.198493428379386],[11.21166854888285,43.19850764931586],[11.211629118975361,43.198511820065626],[11.211586404615163,43.19851637938076],[11.21075477472588,43.198604089837154],[11.20883968150063,43.19874014600545],[11.207484785636224,43.19894755699375],[11.207223978964638,43.19898744632205],[11.206627161409497,43.19908898642726],[11.20573239717764,43.199241159372676],[11.205478507175124,43.19909618713313],[11.205367118080643,43.19903227772754],[11.204862734510842,43.19850579787269],[11.204826967037686,43.19846764005535],[11.204791959912946,43.19843101091159],[11.204293013659758,43.19850421048349],[11.203799915364282,43.19857626147702],[11.203088839198264,43.19899515613978],[11.202525987595582,43.199087036808635],[11.202064603106816,43.199176961709824],[11.201886793623476,43.19958788999617],[11.201664068665783,43.200103110303495],[11.20165740859862,43.20029514997558],[11.201656224525177,43.20032984220869],[11.201649058529584,43.200533102926315],[11.20164577786276,43.20062570555718],[11.201363973051809,43.20114070392694],[11.201336997241807,43.201189919632405],[11.201061061116674,43.2014743641486],[11.200918600929358,43.20161190211257],[11.200442503089151,43.20207154654094],[11.20005730951503,43.20265523164629],[11.19984681207911,43.202785204363],[11.199806025019324,43.20281047811671],[11.199274622855242,43.203138509734174],[11.198718200862636,43.20336530239009],[11.198622303237409,43.2034041189839],[11.19857237310606,43.20342434467043],[11.198474046313224,43.203464450443725],[11.19839774388893,43.203495623611815],[11.198318194482493,43.20352834306577],[11.198232181344371,43.20356413834417],[11.198190074781845,43.20360945624344],[11.198125272283743,43.20368278080344],[11.197651590344426,43.204214209164526],[11.197422687136442,43.205037996963085],[11.19742110666562,43.20516053770707],[11.197419422360417,43.20529372627714],[11.19741787406021,43.20541596295194],[11.197411945637455,43.205866693720296],[11.197411658125388,43.20589591202787],[11.19741094566501,43.20595216683061],[11.197409674925408,43.20604672421956],[11.197342515550266,43.20646066566846],[11.197302200971832,43.20670928119252],[11.197238367673245,43.20710351476425],[11.19709630834912,43.207394626307796],[11.19705200228394,43.2074846097332],[11.196877123825296,43.20784048675434],[11.196756618798993,43.20808523191416],[11.196253625880306,43.20836457542711],[11.195646021903396,43.208700759135624],[11.195454949729562,43.20886340295358],[11.194714326684636,43.20949386343633],[11.194643045474791,43.21017204066161],[11.194618449052104,43.210422468583616],[11.1946049553683,43.21055770074552],[11.19480995463813,43.210749402495125],[11.195069866939647,43.21099223708592],[11.195190849709864,43.211104718984316],[11.196194589161754,43.21170285293091],[11.19626032057607,43.21174135450917],[11.19644162304078,43.21182947864492],[11.196687434640468,43.21194860598082],[11.19747534177305,43.21233043949011],[11.197519260843814,43.212344280642526],[11.197581242142633,43.212363813861494],[11.19863333107711,43.21269536288567],[11.199170233535243,43.212956217305155],[11.199560505968671,43.213145753530796],[11.199825106045866,43.21334476734419],[11.200319671766822,43.213716424051434],[11.200392320967866,43.213787793681036],[11.200804638046128,43.21419332133711],[11.201040100898426,43.21478146582096],[11.201237492477333,43.21527450419631],[11.201119055575456,43.21565940402231],[11.201013665586926,43.216001899725825],[11.200995004616853,43.21606254197764],[11.200978172268654,43.216963291268044],[11.201393242568678,43.21789174275114],[11.201586219020147,43.21880646112174],[11.20160654757705,43.21891212532535],[11.201776685757036,43.219799032782824],[11.201813528243173,43.2199906448403],[11.202131483147502,43.2202726575342],[11.202293001055823,43.22027937596937],[11.202575616045698,43.220291615208666],[11.202728923132122,43.22027744899182],[11.203360864598224,43.22022196212401],[11.203527138247635,43.22024404579008],[11.204189739883928,43.22033204700349],[11.204726275824681,43.22087096218812],[11.204864558407284,43.220992423087196],[11.204996187400639,43.22110819983274],[11.205083289775693,43.22118455157868],[11.205438318845829,43.22149653212312],[11.205900454276835,43.222228297551716],[11.20592147177303,43.22226157633629],[11.206113302086557,43.222754672335064],[11.206342174624812,43.22334297258558],[11.206533621925502,43.22421269045827],[11.20657093129469,43.22479252621777],[11.206572640878834,43.224834852210826],[11.20659134952119,43.225130008181566],[11.206717062898376,43.22588393794718],[11.206715756734308,43.22591414110003],[11.206713823161715,43.225964626863814],[11.206691521851154,43.22651188267481],[11.206684441119597,43.22668594475883],[11.206180983570114,43.2274069945926],[11.205508488633155,43.22822134488875],[11.205235883650147,43.228856899627075],[11.205177312331998,43.22899390149643],[11.205153841058776,43.229048843706806],[11.205076915418994,43.229229138321664],[11.204539747953731,43.23004087297872],[11.204457196414289,43.23009032511086],[11.204077114839397,43.230318045082356],[11.203784479523028,43.2304933112796],[11.20373214486246,43.230524661731316],[11.203375151802398,43.230605074169446],[11.203323604485771,43.23061686721905],[11.202873693852984,43.23071839083775],[11.202816372390522,43.23073200121475],[11.202067830746065,43.23115550731778],[11.201700116328617,43.231203107618235],[11.201476028212006,43.23147754865675],[11.201216316217522,43.23178869316026],[11.201361731345369,43.232407185278596],[11.201571273188378,43.23309647689355],[11.20157880965937,43.233127247158535],[11.201673683916008,43.23351037683611],[11.20177305217777,43.23391197593865],[11.201970499929189,43.234112556093706],[11.202182088187971,43.23432729745609],[11.20242595993976,43.23460173189716],[11.20248514147664,43.23489260320406],[11.202501554102414,43.23496961508754],[11.202469445961476,43.23514990714728],[11.2024392926813,43.23532225216353],[11.202398059207386,43.235698685019166],[11.202383905871255,43.23582711671128],[11.20206863530618,43.23604929011318],[11.201954274537925,43.23613108865772],[11.2016154009833,43.23637316552087],[11.201417203457236,43.23668312586033],[11.200999105707178,43.237384500110785],[11.201255955829922,43.23836101586492],[11.201164733893188,43.23869020236969],[11.200939873779157,43.23950163258685],[11.20036792596199,43.240187961518046],[11.20007803454957,43.240535695666175],[11.200001797493483,43.24053646559738],[11.199938686800925,43.240537090079194],[11.199803863300124,43.240538463913175],[11.199457005115452,43.240541985003205],[11.199339736755986,43.240543141259835],[11.199093098544697,43.24054563843215],[11.198707838139656,43.24046795584112],[11.198083258651705,43.24034176096471],[11.197946327755764,43.240314218008535],[11.197728416675313,43.240270236320185],[11.19741830001418,43.24020866431166],[11.195871777967588,43.23988143361556],[11.195756178591676,43.23985729618897],[11.19567650132022,43.239840688874565],[11.195595425472426,43.23982388955535],[11.195506690546676,43.23980476646272],[11.19518849103437,43.23973600868391],[11.19509169712285,43.23971507975143],[11.193825657481044,43.239444713688215],[11.193768679226329,43.239432209491575],[11.193508320252109,43.23922579071788],[11.193375888232827,43.239185418482535],[11.19317477545055,43.23912408682444],[11.19271813124346,43.23897040892089],[11.192458943755971,43.23876765252175],[11.19246813624452,43.238641029800064],[11.19247230459064,43.23858484499097],[11.192477739476,43.238516828559284],[11.192483005212774,43.23845367589042],[11.192485298155852,43.23842273457366],[11.192536956577433,43.23838787706398],[11.192602123698679,43.23834329067297],[11.192663278367368,43.238301763411954],[11.192729336347647,43.23825722829768],[11.192798658267177,43.2382106775191],[11.193303343512506,43.23786880858801],[11.19317380559541,43.23756087185668],[11.193159195644075,43.23752614066506],[11.192395551547312,43.2371806158578],[11.191901102286863,43.23644274455599],[11.191851833667124,43.23640185591081],[11.191804665668517,43.236163025028894],[11.191798851034143,43.236132614604315],[11.191802228165715,43.23592964242205],[11.19180322191999,43.23587338250069],[11.19180454931021,43.23581718821795],[11.191810009343893,43.23545895182331],[11.191810027021772,43.23542805321879],[11.191780534845568,43.23540913862881],[11.191356115270803,43.23514367208831],[11.191232408875802,43.23506629438751],[11.191144928574097,43.23506586107474],[11.190986733926206,43.2350650655787],[11.190839729695178,43.23506432828536],[11.1905954933769,43.23506310528708],[11.19064919223263,43.23487351468308],[11.190667370873777,43.234809331293775],[11.19068759604725,43.234737925958555],[11.190769069604638,43.23444713413308],[11.19109635756998,43.2342253855008],[11.191633583862876,43.23373929507611],[11.191752248799043,43.23329971115925],[11.191759858635663,43.23326977454766],[11.191737930839139,43.233245214212666],[11.191547528996649,43.233037348895564],[11.191448273523125,43.232929144741114],[11.19120654615305,43.232818579767546],[11.19113191165544,43.23278439524353],[11.190960348376732,43.23270588937868],[11.19089252064788,43.232674870748845],[11.190641491194448,43.23256003377342],[11.190178855069723,43.232533149026594],[11.189683576638542,43.232330675000554],[11.189277537760152,43.231940960066474],[11.189192482469778,43.2318470095897],[11.18903039269404,43.23167010222403],[11.188988724918993,43.231624828459985],[11.188790894617252,43.23140880499805],[11.18855540550337,43.23124447267277],[11.188494084229788,43.23120166478876],[11.188409727294934,43.23114281265404],[11.188171269002586,43.23097621503976],[11.187801100536069,43.23069399238449],[11.187590451362288,43.23034537685829],[11.187555594903156,43.23028742563924],[11.187519715522724,43.23022790021506],[11.18748445031042,43.23016956870688],[11.187447175530746,43.23010824387874],[11.18743153783122,43.230082260343735],[11.187404150171611,43.23005222093149],[11.187359875571481,43.23000402680225],[11.187293450764937,43.22993168089578],[11.187219038025805,43.22994146570383],[11.187133742286091,43.22995263459088],[11.186897327026937,43.22998382893488],[11.186827289397247,43.23003819750379],[11.186466319308359,43.23031829752648],[11.186400500529874,43.23037007025738],[11.186383129865353,43.23039526960898],[11.186344529886929,43.23045123111203],[11.186306977453373,43.23050618479949],[11.186165801815427,43.230710909257844],[11.186148435272521,43.23073609138596],[11.18613182826484,43.23076188659055],[11.186097808930885,43.23081427126167],[11.186062564578313,43.23086907538967],[11.185905435641908,43.23084109094797],[11.18576017107773,43.2308142949754],[11.185629089013176,43.230790495394885],[11.185443708957406,43.23075723893033],[11.185111008420515,43.2307810070754],[11.184915422486217,43.2307945402971],[11.184816490789323,43.23082835003004],[11.18473883443009,43.230855095394055],[11.18467516191672,43.230876940813296],[11.184462274289189,43.230950243987515],[11.184331453021048,43.230994397979195],[11.18420252515444,43.23099014899289],[11.184128093931841,43.23098757462573],[11.183945791060658,43.230980851188185],[11.183804861373227,43.23097549023963],[11.183582463238869,43.23096728899312],[11.183518400033506,43.23096514293662],[11.18334064763864,43.2309993201673],[11.183171402739738,43.23103179945504],[11.183004691910776,43.23106489823357],[11.182966798644058,43.23107718949976],[11.18246212041877,43.23124011620643],[11.182363017670099,43.2312720902025],[11.182049515095072,43.23137269770875],[11.181766438783153,43.231463423257466],[11.181571867656482,43.231532049493005],[11.181153535033854,43.23167879276403],[11.181114146861196,43.231693212637936],[11.180643780394407,43.23185883093214],[11.1805459293913,43.23189325836914],[11.180266971809953,43.231991696695864],[11.179937409185321,43.23210771657149],[11.17956876028776,43.2322376295356],[11.179326125486407,43.23232353523371],[11.17901177949138,43.23243494035493],[11.178734167365034,43.232533087277794],[11.178112269867864,43.23275053337225],[11.178068321703048,43.23276589536837],[11.177947911332295,43.23281035789573],[11.177495061450927,43.23297666689443],[11.177216452424716,43.233080845798305],[11.177059884417076,43.233145428057725],[11.177062576088336,43.233174361689066],[11.17707158278813,43.233268339287974],[11.177088449563794,43.23344477368421],[11.177114373686788,43.233716703724866],[11.177110560751354,43.233747402684955],[11.177066845920356,43.234073051997754],[11.177054026662354,43.23416999515809],[11.177031511189167,43.23434718114514],[11.176960223301146,43.23453820696934],[11.176929819942227,43.23461888633959],[11.176879677364749,43.23475138941841],[11.176829099737946,43.234814102050045],[11.176835334924961,43.234854183987984],[11.176741070838645,43.23507267260384],[11.176726000627905,43.23510756394953],[11.176638997257287,43.235361271475234],[11.176582511939879,43.235528624769024],[11.176543079242311,43.23564547962989],[11.176543927168037,43.23567641760073],[11.176554650296803,43.23597953531315],[11.17656138507875,43.236139930514284],[11.17653261829014,43.23620642563963],[11.176485420052334,43.23631552790637],[11.17639868546909,43.23651601463761],[11.17637315828441,43.23657727958585],[11.176239443100815,43.23688596831306],[11.176120083629426,43.236995114758294],[11.17595195203376,43.23714706824339],[11.175742255736584,43.23733839763404],[11.175586252599478,43.23748054191624],[11.17539117730841,43.23765736116323],[11.175339126398804,43.23770501533239],[11.175156245665457,43.237872066619985],[11.175056405690617,43.23786874512375],[11.17498550835718,43.237866341617014],[11.17459101600962,43.23792111733445],[11.174026822013058,43.237872237238236],[11.173741986726863,43.23788126048045]]]}}]}
