{"type":"FeatureCollection","metadata":{"code":"053017","referenceDate":"2026-01-01","sourceDbfExportDate":"2026-02-18","upstreamArchiveUrl":"https://www.istat.it/storage/cartografia/confini_amministrativi/non_generalizzati/2026/Limiti01012026.zip","sourceManifestSha256":"70ac8256c4785dc6ed2814c32b6965ae76f9161b51abaa1660059e1c6cbd8ca6","license":"https://creativecommons.org/licenses/by/4.0/","attribution":"Istat, Confini delle unità amministrative a fini statistici al 1° gennaio 2026, versione non generalizzata.","modifications":["Converted from WGS 84 / UTM zone 32N (EPSG:32632) to RFC 7946 WGS 84 geographic coordinates.","Converted from shapefile to per-municipality GeoJSON without geometry simplification."]},"features":[{"type":"Feature","id":"053017","properties":{"code":"053017","name":"Montieri","alternativeName":null,"regionCode":"09","regionName":"Toscana","territorialUnitCode":"053","territorialUnitName":"Grosseto"},"geometry":{"type":"Polygon","coordinates":[[[11.023296915236692,43.188225808512406],[11.022286546438346,43.18884593427335],[11.022057838927383,43.18898625941319],[11.021982834549414,43.18903226011524],[11.021801313841317,43.18914368904978],[11.021703325038091,43.18906438327086],[11.021245317284004,43.18870330097418],[11.02069289117,43.18837089751968],[11.020074399552456,43.18827377173582],[11.019506291570172,43.18821177062535],[11.019137927916082,43.18823628369968],[11.018659175052449,43.18827174857807],[11.018206797374436,43.188360772591174],[11.017486658332912,43.18816637869856],[11.017194601336476,43.187892394907145],[11.016899286475297,43.18751942084786],[11.016651093266793,43.18708258404545],[11.016635978566928,43.18662362805117],[11.016945061382025,43.18629402049885],[11.017466832545486,43.186077498265554],[11.017524299123673,43.18605334580347],[11.01809826287984,43.185814454073714],[11.01845937595494,43.18563345100891],[11.018582473654504,43.18557179414579],[11.018634038790779,43.185518893278775],[11.018832425014358,43.185315260636344],[11.018940866874154,43.184872132567016],[11.018793130487978,43.1844965569374],[11.018446555605276,43.18406146045151],[11.01808294326658,43.18348259341335],[11.01788335666769,43.18302689329758],[11.01781993424425,43.18259580285438],[11.017656355628326,43.18211245272918],[11.017502111466841,43.18153889415299],[11.017242829426474,43.181138271567505],[11.016885173486429,43.180739383269916],[11.016589599059373,43.180357407145806],[11.01616557680043,43.180184796014906],[11.015647030561034,43.180130906149486],[11.015069369629563,43.180150090164936],[11.015042375378385,43.17965128107566],[11.015038124725525,43.1795743607661],[11.015098526065286,43.17949385841555],[11.015122978512851,43.17946122677267],[11.015249927940474,43.179290955214704],[11.015387361423437,43.17910996716178],[11.015450821678597,43.179026355508206],[11.015523458896805,43.178817468924954],[11.015608095283522,43.17857383606497],[11.015499883096794,43.178508823025204],[11.015244090158836,43.17835514143195],[11.014670749545074,43.17813112901716],[11.013888668776085,43.177919794974294],[11.01302690008165,43.17752977016165],[11.012441574139707,43.177314961902525],[11.011228251354506,43.17708418373299],[11.010537838702948,43.17704622054758],[11.010464096936856,43.17704358734424],[11.010212665733203,43.17725510844258],[11.010139720435074,43.1773934328883],[11.010073672453103,43.17751867775768],[11.00987703474992,43.17790031778622],[11.009676850389164,43.178173967304765],[11.009582748407267,43.17820573082541],[11.009226598655102,43.178325947731956],[11.008790117088148,43.17852270766248],[11.00849342364319,43.17887068637279],[11.008367795920881,43.17915142624594],[11.008258442774238,43.17927612486792],[11.008071292734718,43.17948979545492],[11.007746440740467,43.17972987738049],[11.007681920973253,43.179751740972264],[11.007462024494258,43.179826607379695],[11.007077772382683,43.17995813601312],[11.006856220988707,43.180010403024816],[11.006720502217357,43.18004236049517],[11.00625968859242,43.180151896515774],[11.00561118666717,43.180262318992284],[11.005018570982854,43.18020067533929],[11.004525632779195,43.18015444585752],[11.00445087184996,43.18014743427685],[11.004395224294653,43.1801383552099],[11.002681772476054,43.179854431531766],[11.002145647806174,43.179638708994204],[11.00169766222525,43.17948447245138],[11.001258742741044,43.179231026551854],[11.000542819853665,43.17880216373102],[11.0005048505435,43.17877995569212],[11.000054732000962,43.178531738099494],[10.999464445568758,43.17816387617883],[10.999161688690798,43.17793505488795],[10.99902861008101,43.17777071584343],[10.998993190730062,43.177727075348855],[10.998919013420728,43.1776353594561],[10.998866825884202,43.177571029819575],[10.998417563636062,43.17733990459213],[10.998042249549396,43.17714688198773],[10.998003391226634,43.17712689382944],[10.997805687292576,43.17708419162932],[10.997717575259891,43.17706510516368],[10.997449487244564,43.17700721484174],[10.997309505289268,43.176976935583546],[10.997039584877415,43.1769675427745],[10.996891406750501,43.17696240518854],[10.996792174340722,43.176958955712806],[10.99616593407848,43.176996901180964],[10.995990112282035,43.176994784171384],[10.995550523654149,43.176989631978984],[10.995148966338512,43.17698836099149],[10.994676887468916,43.176986864358256],[10.99400263055842,43.17706165324189],[10.993525187775923,43.17721787736922],[10.993479152836713,43.17723285730467],[10.993066633862085,43.1774111307167],[10.992727306027335,43.177570118477185],[10.992353535494727,43.17776923030513],[10.9922556402635,43.17782145425635],[10.992205520834618,43.17784044067731],[10.991925201668192,43.17794662973563],[10.991757329810143,43.17801022093657],[10.991123165782879,43.17818334271439],[10.990366030361027,43.1783586011487],[10.989762610343627,43.178342087678935],[10.987462966429803,43.178241408838375],[10.986965687505734,43.178219632353354],[10.986550234734388,43.17819783351518],[10.986515403066818,43.17819640532566],[10.986435758619997,43.17819282002936],[10.986358935961148,43.178182572795265],[10.98571904293196,43.17809721465164],[10.98513759476332,43.1779992560432],[10.984690829240344,43.17788094840528],[10.984082750516972,43.17772041624467],[10.983655627033754,43.177448688894515],[10.983413072409158,43.17723345877322],[10.983346274131712,43.17717419547529],[10.983237600332583,43.177077754932135],[10.983065164505046,43.17695739830105],[10.982633381817047,43.1766560205374],[10.982256160559691,43.1765460811585],[10.982192447764476,43.17652758901973],[10.982043178381428,43.17648401644745],[10.981962674008487,43.17646054487256],[10.98149412638034,43.176383269887666],[10.981383242319355,43.17636511281707],[10.98107204503435,43.176314058398546],[10.980983968519267,43.17631029569524],[10.980786747149455,43.17630273337843],[10.978373732131027,43.176208236206136],[10.978327544503593,43.17620642747023],[10.978201779798601,43.17620150104161],[10.977186499710719,43.17600295318161],[10.976531011800047,43.17593459739171],[10.974964437407579,43.17577121598236],[10.974467940494959,43.17563571809053],[10.974188720233903,43.17537040698965],[10.973959846520204,43.175140243200055],[10.973663695527616,43.17473115245015],[10.973091236297456,43.17414673965809],[10.972643487375892,43.173614200688284],[10.97223466090869,43.17314401819196],[10.971723709782898,43.1725585376499],[10.971429903255329,43.172221436224554],[10.970758546019589,43.17162070716492],[10.970707915964534,43.17157655812759],[10.970206831932286,43.17129705082322],[10.969607389043182,43.17101923431387],[10.968944507026999,43.170688846435645],[10.968008996527706,43.17028137658921],[10.967943290708389,43.170257833133405],[10.96738605793423,43.17004669777335],[10.96734732649133,43.17003200869024],[10.967187103047534,43.16997135785989],[10.966177611242328,43.16956551006634],[10.965503278080078,43.16925294229976],[10.964679678082586,43.16888890878813],[10.96396977823746,43.16861280770279],[10.96331827309054,43.168337321484735],[10.961014082724796,43.16736254199048],[10.960738553498256,43.16694084789142],[10.960638960625754,43.16678818870351],[10.960152846392994,43.16658941971474],[10.960081731678928,43.166565659156554],[10.959667886436465,43.16642664679623],[10.959048263912694,43.16628418656097],[10.958626508333701,43.16617435256876],[10.958030040972625,43.16598646874127],[10.95757054284238,43.165850264427625],[10.957073300672137,43.165687690668825],[10.95647713111707,43.16550879808767],[10.956082029663143,43.165432096246334],[10.955901560948087,43.165397082848244],[10.955709705479821,43.16535984346775],[10.953975282373325,43.164975286299104],[10.953477482594343,43.164794696484414],[10.953019150154654,43.16469447183734],[10.952630645028567,43.16462539915546],[10.952586737742907,43.164617956475006],[10.9520696820239,43.16452609079852],[10.951322789465618,43.164345241378534],[10.95076926108314,43.16434567936578],[10.950204870135277,43.16439132233631],[10.949608158268333,43.16419439407515],[10.949133248432231,43.16395936904574],[10.948746119041084,43.163776873346634],[10.948359562909546,43.16361237554032],[10.94792268902932,43.16341271544449],[10.947414626562823,43.16329530532664],[10.947090691350738,43.16316575400874],[10.946630951481797,43.16302050516284],[10.945792099850294,43.16294473533753],[10.945635681596679,43.1628859802848],[10.945603202124216,43.16287375722491],[10.945565098302811,43.16285946605048],[10.94535638021524,43.16278106371191],[10.945185386698789,43.16261751763973],[10.945141918300799,43.16257580883471],[10.944911929848459,43.16235653284625],[10.944769371858042,43.162115733876995],[10.944517010106212,43.16152571366597],[10.944341923833594,43.16130411815807],[10.944222263957304,43.16115253922199],[10.944060822834423,43.16107526677999],[10.943822584977026,43.16096123461931],[10.94340976118701,43.16074313937389],[10.943276079534158,43.16067841282846],[10.942872577325925,43.16048213361855],[10.9424257312144,43.160354656788456],[10.942342264058253,43.16034805488654],[10.942131111484677,43.160331352536474],[10.941957151003304,43.16031759220134],[10.941576620962767,43.1603420615923],[10.941112887566081,43.16045798591648],[10.940574249236374,43.16053916130386],[10.939915238305728,43.16070341635421],[10.939658105461067,43.16081016657792],[10.939587440838414,43.16083954092451],[10.939527743956873,43.160862954655315],[10.9392510484753,43.16109286694537],[10.938863059293567,43.16127052933106],[10.938352413573323,43.16145927278698],[10.938074778913679,43.161626057711025],[10.937772270256687,43.16178425799239],[10.937425137038403,43.16208728533654],[10.937357418493054,43.16216067640349],[10.937163490052834,43.16237085386608],[10.936756870552097,43.162737917249636],[10.936518097578299,43.16296707087367],[10.936456368824215,43.163004531098586],[10.935999116080406,43.16328200788318],[10.935619702739249,43.16334245655416],[10.93515280768331,43.16335936168008],[10.934685344109544,43.16335826552513],[10.934006322698504,43.163279705445014],[10.93320955878711,43.162978020934155],[10.932635231614386,43.16270859040489],[10.932273595622506,43.162552620544915],[10.93193796810357,43.16244123270301],[10.931172618679328,43.16235511031578],[10.93062344312038,43.16242203207984],[10.930485431642529,43.16243822674731],[10.929869169030507,43.16236810678914],[10.929206423815735,43.16241530558216],[10.928959741677863,43.1624660510091],[10.928778682520893,43.16250355931035],[10.927980416913561,43.16254403180705],[10.927472042130981,43.162537721220495],[10.9273651454469,43.16253639356888],[10.926947429796737,43.16255243641004],[10.926565746541042,43.162540857287325],[10.926148313381331,43.16256589694909],[10.925619384928401,43.16256579879449],[10.92511476091532,43.162556285509076],[10.923839709875152,43.162298602911775],[10.923299054014734,43.16231670027497],[10.9227698436803,43.16230758916564],[10.922165740648364,43.16226371716661],[10.921168228830487,43.16222645081303],[10.920615276963332,43.16224474201764],[10.92006317171626,43.16229002984057],[10.919547383199532,43.162316696495196],[10.919006161619363,43.16231677404212],[10.918624198660044,43.1622961685785],[10.918229661303934,43.162266769127456],[10.917822548449086,43.16222857377576],[10.917367103963933,43.16221820162015],[10.916655171330206,43.16226615220836],[10.916340308011215,43.16242450291412],[10.916069359744364,43.162807228736966],[10.915800377382217,43.163252951587104],[10.9154268484948,43.16350232743645],[10.914970629393727,43.16386113969412],[10.914650208021795,43.16423568591987],[10.914581480431933,43.164421802370995],[10.914502750645285,43.16463434872944],[10.914482190758399,43.16468948436374],[10.914467392676606,43.16473032525304],[10.914448868652599,43.16478176197141],[10.914377910640933,43.16496960216388],[10.914279061826209,43.16495549966584],[10.913933054234306,43.16490501214893],[10.913426443990828,43.16483244902935],[10.912880423751869,43.16467950318197],[10.912527467620654,43.164406268005386],[10.912357247658319,43.164075950374645],[10.91210708516546,43.16354887171434],[10.911757731027787,43.16299643696164],[10.911537143474503,43.162628390901176],[10.91148636440304,43.16218162652976],[10.911415350654682,43.16187666284661],[10.911269732340807,43.16154593229392],[10.910990224052668,43.16126238375474],[10.910876907920795,43.161171300063465],[10.910773632696186,43.16108829664096],[10.910737952933593,43.16105957313416],[10.910511260482107,43.160934056188694],[10.910475538523277,43.16091399563948],[10.910374408204145,43.160857866893366],[10.910156560015889,43.1607857540207],[10.909989661571103,43.16072990388252],[10.90986143428825,43.160685615177876],[10.90964075325187,43.1606093939407],[10.909527532698466,43.160570075115686],[10.909399729449667,43.16052599131737],[10.909317888291355,43.160497406762886],[10.908859897717644,43.15998500849687],[10.90880547267402,43.15992405042647],[10.908755260242298,43.1598678619509],[10.908668239282516,43.159770460863264],[10.90895039517607,43.159672915480655],[10.90911604772388,43.1596156688022],[10.909216259696624,43.15958120793508],[10.90940722944177,43.15938281034623],[10.909521660340774,43.159264583303525],[10.909560732190403,43.1592239788756],[10.909687643921105,43.15908468794496],[10.909771519877124,43.15899146847971],[10.909858631718075,43.15889513068418],[10.909979837512276,43.158442884789864],[10.909934545949802,43.15817350848416],[10.9098275062749,43.15789615781135],[10.909744773906908,43.157609397554],[10.909636335619153,43.15728704836414],[10.909730241013479,43.1568543326918],[10.909740875640084,43.156803336355026],[10.909756601303158,43.156728541625604],[10.90976587495747,43.15669114681603],[10.909878909898008,43.15664514717946],[10.910299792687773,43.15647457393893],[10.910678630706485,43.156396209891675],[10.910970290665192,43.156325665562925],[10.91111836873044,43.15628995935779],[10.911127048230814,43.15618003580515],[10.911135339728524,43.15608208843331],[10.911138190964708,43.15604615420245],[10.911144844500958,43.155965222112854],[10.91111796079653,43.155914730980754],[10.910974961796766,43.1556438908901],[10.910954252853264,43.15537410325265],[10.910994887247803,43.15525025158469],[10.911017150241893,43.15518274645272],[10.911028033900118,43.1551496846201],[10.911055348853603,43.15506626333193],[10.911091700111065,43.1549695903819],[10.91118015068413,43.15473325847749],[10.911191764489745,43.15470385736884],[10.911326243602456,43.15428735383894],[10.911750253028558,43.15368597393479],[10.911996324811284,43.15329467007569],[10.912225947918403,43.1529073190161],[10.91226537898486,43.15284004705488],[10.912397101582053,43.152593232480434],[10.912449625965486,43.15249482811925],[10.912467889420626,43.152460680160985],[10.91256720459809,43.15227662667279],[10.912595056076832,43.152222139239846],[10.912640698521441,43.15213381966813],[10.912667353144736,43.15208189240546],[10.912710303453778,43.15200083404502],[10.912739378997033,43.15194368507992],[10.912764143077524,43.15189510577358],[10.912904282393963,43.15160445089981],[10.91293056134667,43.15154960248619],[10.912948838036689,43.151511362572336],[10.912960798432445,43.15148669005224],[10.913005994351144,43.15142591451659],[10.913077929811907,43.15132971366303],[10.913137785136907,43.151249581687146],[10.91325820497369,43.15118658970902],[10.913440308677943,43.15109144607927],[10.913866519324438,43.15084919720941],[10.913897911092132,43.150831434576915],[10.914044508180421,43.15074817218325],[10.914165747770426,43.150704527049676],[10.914333347858808,43.150644288522116],[10.91437063622733,43.15062321065374],[10.914413982284676,43.150615550768364],[10.91451882844898,43.150578152345595],[10.914871636635754,43.15045518842405],[10.915995179715635,43.150301955227874],[10.916297552605581,43.150260859840536],[10.916349323751245,43.15025371359541],[10.916598289129071,43.150219755056014],[10.916781260066287,43.150194233433865],[10.916904862513318,43.15017795916088],[10.917033775243837,43.150124039699],[10.917301560191987,43.15001080806652],[10.917438183850491,43.14995337048983],[10.91750697516542,43.14990091669123],[10.917690762840062,43.14975963671992],[10.917793292733068,43.14967015326639],[10.917853456820072,43.14961791234698],[10.918133071042787,43.14937403282572],[10.9183420719815,43.14920226017252],[10.918601268273983,43.14898799294323],[10.918714741467305,43.14891319155661],[10.918837485556562,43.14883205472302],[10.9189217959077,43.14877634661317],[10.91895992597397,43.14875093095624],[10.919035238569725,43.14870189119355],[10.919205590922536,43.14865989653578],[10.919630007526452,43.14855652670707],[10.920225320116767,43.14861857004748],[10.920319901379209,43.148644033516774],[10.920634597293358,43.14872875515193],[10.921132173237849,43.14890949278126],[10.92145468100088,43.149059210630924],[10.921543993349953,43.149100672582804],[10.92161707664769,43.14914387756229],[10.921794075653931,43.14924821058719],[10.921869397398384,43.14929294097716],[10.92233939133284,43.14936644452043],[10.92241967989655,43.14936760464332],[10.92289309539243,43.14937562426343],[10.92303636742682,43.14937337849085],[10.923155043245025,43.14937101213703],[10.923298376391445,43.14936840212636],[10.923440584095076,43.149351869165535],[10.923752063960206,43.149315679471385],[10.924142283586175,43.14921006586229],[10.924494216283472,43.1490600743443],[10.92458073567206,43.14894379832826],[10.924686079569922,43.148802223339544],[10.924765618523962,43.148695329393526],[10.924742013513988,43.14865425720704],[10.924565353452753,43.14834912045137],[10.924492652339584,43.148222517362655],[10.924455412293952,43.14820540054254],[10.924226559373963,43.148099224634315],[10.924043268225827,43.14801414031408],[10.923595330497625,43.14783162335616],[10.92347021851827,43.147780275673014],[10.923438500640463,43.14759680257188],[10.923379755888206,43.14725985254527],[10.92355650153471,43.14687522718726],[10.923588383886212,43.14680915878777],[10.923645778720452,43.14668573921564],[10.923745019003835,43.146416365658226],[10.923758350040783,43.14638012334877],[10.923786255023794,43.14629508442395],[10.923859368121963,43.14607227316714],[10.924039071303218,43.145961197009505],[10.92414858592555,43.145893874737645],[10.924294048345452,43.145804149431555],[10.924344306293106,43.145659733957174],[10.924417831574445,43.145450575255865],[10.92439720390439,43.14517150382467],[10.92437764548815,43.14514431596391],[10.924316183802903,43.145056089968705],[10.924229383805512,43.14493148782396],[10.924125110947955,43.14486947285126],[10.924049409572728,43.14482439371505],[10.923987063084352,43.14478739205536],[10.923640433938003,43.14458121611265],[10.92347703725356,43.14445546675046],[10.923388414663775,43.14438735657852],[10.923400243900169,43.14432801503114],[10.923418633023045,43.14423575878081],[10.923494665696557,43.143854307270395],[10.923831172721215,43.14360552735499],[10.924089658748025,43.14347211208721],[10.924194423020923,43.14341966500488],[10.924312596898051,43.1433798398828],[10.924644445500945,43.14326744287092],[10.924689920094867,43.14326586545576],[10.924795817889866,43.143262024094525],[10.925151134371143,43.14325002375964],[10.925203600282636,43.14325187354872],[10.925303857279687,43.143255468952745],[10.925599545438075,43.14326697952937],[10.925652819565263,43.14326872095807],[10.92568833136213,43.14327004555116],[10.925919639851083,43.143277844270926],[10.92633595080342,43.143292110427986],[10.926544614862289,43.14329924472647],[10.926711475474283,43.143304918143166],[10.927229492395458,43.14296302619462],[10.927306409631436,43.142867184421014],[10.927338679394772,43.142823495474886],[10.927365591931808,43.14278706169461],[10.927529330693416,43.14256537990296],[10.927711608638127,43.142261560379175],[10.927982114152368,43.141869809951054],[10.928316612503064,43.1415580189826],[10.928749425523469,43.14124457011285],[10.929270243291054,43.140992666028836],[10.929817901559609,43.14081234204804],[10.93051275052069,43.14062052670073],[10.930875490342169,43.140425310436676],[10.931358857647586,43.14015601998938],[10.931665914863927,43.13975463906037],[10.931877205508632,43.139435913803254],[10.932147672242207,43.139044154091444],[10.932335795591776,43.13877084196545],[10.932634237725951,43.13848666192564],[10.933729916046394,43.138432125244655],[10.934140234308323,43.138479213848086],[10.934844025972962,43.138377266275775],[10.93505501027323,43.138049535777526],[10.935128257805863,43.13764309627561],[10.935313809510058,43.137288782854554],[10.93575941345211,43.13699310002619],[10.936379896534222,43.136784498516455],[10.936903203088221,43.1366135573927],[10.937326490334838,43.136390281717894],[10.937574321192221,43.136061923316824],[10.937572397745853,43.13561173285818],[10.937549308008338,43.135269954421695],[10.937796564804476,43.13492359615146],[10.93822831928842,43.134733074431075],[10.938390701632992,43.13466153793428],[10.938557533312247,43.134614207425166],[10.939000022557693,43.134488987230306],[10.93907720330523,43.13445182906748],[10.939166535300794,43.13440880189333],[10.939233445273745,43.134376528023736],[10.93938757643388,43.134302335897004],[10.939735685583042,43.13403530327016],[10.939860896929318,43.13371802377146],[10.939985397366481,43.13336492533318],[10.940019792880921,43.133335436493425],[10.940356224542553,43.13305229640594],[10.94071860330903,43.13284804954098],[10.940782652876775,43.132540811254785],[10.940944434093584,43.13221390546546],[10.941180511992604,43.13190374762941],[10.941688341221775,43.13163399825585],[10.942025278195477,43.131403166409],[10.942396795512636,43.13109971003305],[10.942673712973717,43.1309149181824],[10.942758421011868,43.13088863142812],[10.943075477594986,43.13079108164612],[10.943113159220225,43.13078330271669],[10.943225166057843,43.13075906232494],[10.9433565375592,43.130730474090505],[10.943392252977864,43.13072326874764],[10.943441843524186,43.1307130290326],[10.94387040587573,43.130660373586515],[10.943970417874068,43.130624569182956],[10.944405436426429,43.13047128705044],[10.944570093970151,43.13041144861319],[10.944794359470652,43.13032960777708],[10.944867228077687,43.13030135517246],[10.945182186886608,43.13017886473715],[10.9454016269354,43.130094090953754],[10.945787755151478,43.129986547919295],[10.945986537662279,43.12993109922934],[10.946059000019773,43.12992042153155],[10.946398763162858,43.12987006879849],[10.946541944598717,43.12984903424896],[10.946604556201333,43.129839929454],[10.947015156607137,43.12992338335964],[10.947093269149711,43.12993932168964],[10.947348948709426,43.12997354804763],[10.94745131820453,43.129987253335834],[10.947632706397291,43.13001309465572],[10.947846774654636,43.13004306602988],[10.947920850894578,43.13005379947198],[10.948242553167002,43.13009873860048],[10.948405307723162,43.13012183093141],[10.948814993699035,43.12995037729336],[10.94896038248284,43.12988951375888],[10.949018014414527,43.129785149750674],[10.949035934001365,43.12975320876415],[10.949111542257082,43.12961680370065],[10.94944925570566,43.12930328500527],[10.949565307588747,43.12919486528077],[10.949736483894345,43.12913318032876],[10.950063479875958,43.129015289599394],[10.950310801109163,43.128890198582006],[10.950378749558988,43.12885580962744],[10.950487121572722,43.12880096095243],[10.950566364771772,43.12873750532986],[10.95068494336446,43.12864214568233],[10.950726206259894,43.12860949746771],[10.95103859526266,43.12835934227733],[10.95120075055203,43.12823951812662],[10.951302900497064,43.12816573832239],[10.95170085212202,43.12784335044414],[10.951870247542043,43.12770615090501],[10.952057944552543,43.127554057725945],[10.95211591078087,43.127536099393176],[10.952335044264203,43.1274679435216],[10.95247164495692,43.127425436300214],[10.952836143441916,43.127284146604815],[10.952971060024726,43.12707027333345],[10.953007605562291,43.12701226881384],[10.95306654379893,43.12691884616482],[10.953140418725148,43.126801715206966],[10.953181470900736,43.1265578934244],[10.953192113812898,43.126494679903146],[10.953206157172819,43.126170331562584],[10.953212048337043,43.12610714785171],[10.953226042139695,43.12595146259708],[10.953251766845103,43.12566525068403],[10.9534148976996,43.12538332585929],[10.953738895070881,43.12513467134173],[10.954196872675286,43.12484768176939],[10.95423331667792,43.12482431995348],[10.954369073067314,43.1247360692076],[10.954739144511331,43.12449658632717],[10.95483265873426,43.12436995379426],[10.954903488375372,43.12427520047519],[10.954962865578079,43.124195302247244],[10.955128683278902,43.12406213629825],[10.955214450165967,43.123992839034],[10.955428979080262,43.12389822765604],[10.95550900922274,43.12386279437988],[10.955553992268431,43.123843027543536],[10.955588453636608,43.1238154247343],[10.955829689776818,43.12362220646622],[10.95604274455104,43.12338444689926],[10.956114633895805,43.123356203871666],[10.956275494484945,43.123292467720326],[10.95658964767733,43.12316797863527],[10.956625197984494,43.123147991838245],[10.95687465584008,43.123003660459744],[10.957024212624836,43.12291744410092],[10.95703106924675,43.122888599590645],[10.957057481621764,43.12276131237663],[10.957074707513726,43.12267982096725],[10.957099008928399,43.12256498082196],[10.95709818215303,43.12243974805659],[10.957095511385752,43.122069794302256],[10.957134814737833,43.1220396976597],[10.957397408200535,43.12183818212126],[10.957455474042943,43.121793500189014],[10.957533733244132,43.12174710124947],[10.957708036534717,43.121643758845785],[10.957877722225003,43.12154315335701],[10.958371628852774,43.1214198901811],[10.958699155113258,43.12149039748445],[10.95881830699575,43.12151520140521],[10.959038172102872,43.12143408963148],[10.95913477615836,43.12139836004719],[10.959321394342274,43.12132933849],[10.959523067008195,43.12110077191804],[10.960240079021991,43.120458172625135],[10.96081730464247,43.120411476463055],[10.961127941230531,43.120256153197715],[10.961592172587958,43.12032882677997],[10.961736309847707,43.120351480211774],[10.962080443002066,43.120470232924774],[10.96218376324745,43.1205058861527],[10.96233029361199,43.12055312070995],[10.96246947954768,43.120598124597905],[10.962581212156891,43.120634133785785],[10.962700848354107,43.1206356846213],[10.962871644826329,43.120637614438195],[10.963199130802117,43.12064153894194],[10.963566038723744,43.120583464820974],[10.964014607650164,43.12076139580893],[10.964148085200147,43.12081434132249],[10.964431452275335,43.12096255051525],[10.964565168385823,43.121032525336744],[10.964748157715857,43.12112819633827],[10.965071903132435,43.12125770125567],[10.965469075703341,43.12137693990861],[10.965864807293858,43.121451179226874],[10.966302098141986,43.12147968093725],[10.96670022654697,43.121436818002515],[10.967116574609266,43.12138441699361],[10.967440848686818,43.12135868578707],[10.967544965853321,43.12134972544823],[10.967998743745783,43.12129742565087],[10.968364422619603,43.12120108797362],[10.968716109784806,43.121084381253866],[10.968851359384821,43.12103955995998],[10.969277172790925,43.120915242669284],[10.969415892918361,43.12090087645091],[10.969472259206388,43.120894933623276],[10.969524571517498,43.12088949008916],[10.969693722182686,43.12087205306829],[10.970138203414868,43.12083738449305],[10.970506294115806,43.12091208382754],[10.971257728272356,43.12096216700987],[10.97172789007915,43.12105292145505],[10.971833397514759,43.12108482376835],[10.971934878417708,43.12111528263793],[10.972124938241173,43.121172329992575],[10.972283225341041,43.12128588720995],[10.972477246605843,43.12142513295171],[10.972679853371265,43.12140025130685],[10.972743543590841,43.121392433673265],[10.973138421474372,43.12134394502951],[10.973585934431869,43.12121241283698],[10.974280104334483,43.121297230295866],[10.974601015557198,43.121433511388176],[10.975127194663441,43.121300558381726],[10.975234183017973,43.1212580904967],[10.975306070858108,43.12122904574314],[10.975364788626617,43.12120538799223],[10.975449963306904,43.12117122962274],[10.975938932509752,43.12127759074424],[10.976699922618382,43.12143327547256],[10.976861275567211,43.12137454262349],[10.977083307061124,43.12129374864633],[10.9772648917089,43.12122766359302],[10.97782016171155,43.12091191102876],[10.97793837785219,43.12084972463025],[10.978315740574363,43.1206512163181],[10.978662150118142,43.12033907275492],[10.978739847778408,43.120260826286994],[10.978808583475837,43.120177866053275],[10.978885557232203,43.120084803332276],[10.978970251961076,43.11998256821791],[10.979092599794747,43.11969006574364],[10.979141227658365,43.11957433902009],[10.97936792322082,43.11935437846749],[10.979508368273926,43.11933563357308],[10.979832980807382,43.11929200987595],[10.979916475315244,43.119277792605054],[10.980810878442691,43.11912229659944],[10.981229814950751,43.11877287106255],[10.981567401570299,43.1185689241822],[10.98197998180542,43.118498744982304],[10.98237703997015,43.11851887692024],[10.982416057198362,43.11847550296768],[10.982637715608009,43.11821721165981],[10.982801562230406,43.117962246161404],[10.98284386885576,43.11792799066739],[10.983244758251539,43.117603388144175],[10.983859061105932,43.11721454721386],[10.984475974527632,43.11690669856809],[10.984883754385102,43.11659347043793],[10.985191799009042,43.11623695005059],[10.985549270054698,43.115888575392724],[10.985891406714725,43.115653290073254],[10.985958805993542,43.11562745823701],[10.986001017835685,43.11561115827605],[10.986143862015274,43.11555634181043],[10.986206855211258,43.11553219814846],[10.986371497424813,43.115469097794595],[10.98672570156085,43.115399914336415],[10.987202454014675,43.1153195971416],[10.987606667466206,43.11527655575149],[10.988167658735167,43.11514074344221],[10.988331454440566,43.1150748644742],[10.988962575643015,43.11482752441014],[10.989275025584975,43.11470278160298],[10.989356922897215,43.11466984136483],[10.99001705128516,43.1145593093763],[10.990494669001636,43.114505976140464],[10.990796807893185,43.11434764247269],[10.991056547618916,43.114018959718415],[10.991124640179343,43.11386815491084],[10.991228135604254,43.113638469859154],[10.991385632173236,43.11317581545821],[10.991614375141745,43.11264957283605],[10.991833457151479,43.11220453887321],[10.991882903478839,43.11183449501545],[10.991934102279544,43.111518446080765],[10.992401472060454,43.111150127821595],[10.99283841347336,43.11098043513251],[10.993580972411472,43.11076039187144],[10.993764931298365,43.110653634127274],[10.994160044818118,43.11042613680252],[10.994368572782896,43.1100353091816],[10.994540539953759,43.109654122336835],[10.994819836222586,43.10917201434048],[10.995032448240767,43.108907176125385],[10.995308521184326,43.10870426236827],[10.99596447843001,43.108467706074315],[10.996567149655982,43.10832598638771],[10.996915801733822,43.10824399810938],[10.997442200650822,43.10818078064352],[10.997846357526301,43.108137704111876],[10.998368450366971,43.10809169685326],[10.99848359207149,43.10808154958174],[10.99885908191665,43.107912907535265],[10.999548054811875,43.10755869550021],[11.000178538152971,43.107295546703845],[11.000370685975916,43.10710790303291],[11.000487962184561,43.106992868334444],[11.00050669593841,43.10695916893093],[11.000696977624107,43.10661114397525],[11.000720147425769,43.10657087466325],[11.000906329908792,43.106247302667455],[11.00114171067773,43.105928028358505],[11.001401474544267,43.10559940071163],[11.001545159556837,43.10547592930202],[11.001700365820277,43.105341734273566],[11.001912770650387,43.10507711915309],[11.001980848725239,43.10502814860381],[11.002849342289636,43.10440339690623],[11.003381231116878,43.10413295219753],[11.003849358013822,43.10379158651545],[11.004243615606526,43.10345128094789],[11.004270389364624,43.10343106393055],[11.00456746386497,43.10320271721502],[11.004856053699159,43.10300856465759],[11.005170363457454,43.102978865408275],[11.005227325313198,43.10297348253591],[11.005441030214417,43.10295328826638],[11.00594793830803,43.10295340350207],[11.006343007308677,43.103009506452466],[11.0067688097264,43.10305834515243],[11.006823703543997,43.10306406346194],[11.006812067410275,43.10290517155693],[11.00679693316791,43.10270439600521],[11.00677890043029,43.102434578450946],[11.006705143020726,43.10205768383759],[11.006669700985126,43.10172513976699],[11.00675148510085,43.101219454378345],[11.006966526616722,43.10027921485708],[11.007033111075556,43.09992259076653],[11.00712339210457,43.09943904487998],[11.00714170860014,43.09887144168184],[11.00712494581929,43.09835847952878],[11.007144732610993,43.097835872339964],[11.007244306392803,43.09712277015011],[11.007256577400062,43.09671411059689],[11.007267843570679,43.09633896652346],[11.007439329665349,43.09557057558413],[11.007615034139024,43.09491025779191],[11.007656208870598,43.09478421229628],[11.007782073625766,43.09440298117758],[11.007895161930218,43.094103847285375],[11.008101785062278,43.093659000024545],[11.008250535572415,43.09332322232368],[11.008725224309748,43.09130688505762],[11.008975866887312,43.0903299979235],[11.009097104443724,43.089904656474424],[11.00913650987855,43.08960681621423],[11.00918789841067,43.08929976087828],[11.009236344981353,43.0889027114606],[11.009261323891248,43.088821231552814],[11.009271022277497,43.088789518181194],[11.009283212073901,43.088749647025836],[11.009358463591328,43.088504367895],[11.009479990911082,43.08808802631989],[11.009505936601995,43.08775440401019],[11.009603198851146,43.08734749220572],[11.009655372749931,43.087159534377406],[11.009735232515945,43.08687693736857],[11.009847079705592,43.08645653863853],[11.009855577109292,43.08642459778282],[11.010006410492528,43.085764723313176],[11.010024790219266,43.08571393420217],[11.010099313297026,43.08550058490818],[11.01011758220259,43.08544930427718],[11.010219546007361,43.085157573194294],[11.010255380639926,43.0850488885249],[11.010407645173494,43.084587138492914],[11.010588354977207,43.08403903500993],[11.010666341607045,43.083843387756026],[11.010727570539782,43.08368981085323],[11.010856771185477,43.0833657025479],[11.010951648613046,43.08312769506706],[11.011012132695184,43.082835724397846],[11.011130471632356,43.082264472485505],[11.01117443406233,43.08205224228678],[11.01134907863482,43.08138283798672],[11.011611424717877,43.08076591771615],[11.011675358581932,43.08061073218507],[11.01186178449322,43.080158213093725],[11.012065978787708,43.07964136395091],[11.012413954143767,43.079013931827355],[11.012642692564803,43.078496649791774],[11.012951697295117,43.07799946319494],[11.012996315398805,43.077928606150266],[11.01302779689867,43.077877581446124],[11.013326746660285,43.07747176379794],[11.013404137841416,43.07736670484061],[11.013425917199164,43.07733930773951],[11.013518422410057,43.0772229439543],[11.013559822069967,43.07717086837366],[11.01378165066854,43.07689182469014],[11.014219950818218,43.076397864663015],[11.014598042616162,43.07594097985787],[11.014927320620568,43.07549395910399],[11.015341639828007,43.07501842540042],[11.015610118109276,43.07459048296765],[11.015696008251382,43.07442463306854],[11.015716162402022,43.07438571667563],[11.015864251256478,43.07409976055172],[11.016120151208545,43.07366303394926],[11.016289527724208,43.07320982267631],[11.016376220776642,43.072857118215786],[11.016485988139914,43.07245898486528],[11.016536149259071,43.07211592881253],[11.016562643435014,43.0718003037144],[11.016647563391947,43.07139360267611],[11.016709406619157,43.07103233226156],[11.016876854095964,43.06943381175132],[11.016972014669566,43.06852533770534],[11.016998563630965,43.06827183409644],[11.017014645852955,43.068121967951825],[11.017074162301697,43.06755013954592],[11.0172525820585,43.06585134887251],[11.0172826175604,43.06556547780829],[11.017325347244673,43.06515862394935],[11.017340890584581,43.065010677970974],[11.01734569913078,43.06497007246215],[11.017422929309694,43.06432938909219],[11.017492645823259,43.063994631766924],[11.01753961993343,43.06376903489367],[11.017597319879304,43.06328177222047],[11.01763017549147,43.06278594397231],[11.01766908913823,43.06258507084562],[11.01769607851755,43.06244575099653],[11.017735195247905,43.06224381801569],[11.017866826871144,43.061764256553055],[11.018001999771311,43.06139268592207],[11.01810609216804,43.06120593100863],[11.018233877851413,43.06097438688334],[11.018502573405492,43.06055543681745],[11.018773332986125,43.060199481936465],[11.019010224619597,43.059934170242954],[11.019208710940392,43.059665269572506],[11.019233660763133,43.05963307622509],[11.019369116593674,43.05927050350451],[11.01943093426385,43.058909231468526],[11.019560478117247,43.058366671543936],[11.0196830659663,43.057986317243746],[11.019996100935344,43.057422508720194],[11.020254270666392,43.05705776791557],[11.020478576239627,43.056783669857],[11.020875510898977,43.05644321586094],[11.02091954901918,43.05640544244238],[11.020983873556297,43.05635031711296],[11.021007273000743,43.056330204332404],[11.02113244452741,43.0562228433276],[11.021302443524108,43.05607126447719],[11.02209050805073,43.05537772573701],[11.022572365220029,43.05510784392031],[11.023081273215155,43.05490074540339],[11.02367785723147,43.05474612044942],[11.023891676934888,43.054683887924135],[11.024272208484208,43.054573847733415],[11.024852396284984,43.054617282327925],[11.025508134234181,43.0547677549318],[11.025616055958304,43.054840619222915],[11.025671475140982,43.0548781353251],[11.025910364751732,43.055041006246405],[11.026300617556222,43.055330010246934],[11.026590214947754,43.05549596877089],[11.026747935735138,43.055586329963674],[11.026925983568109,43.0556881178102],[11.027521266955262,43.055866663775966],[11.028026495185147,43.055920739523465],[11.02841454804286,43.05595888247107],[11.028872671193843,43.05588772606376],[11.02934623264654,43.055726248749494],[11.029926675180022,43.055454818524034],[11.030472081402571,43.055238037600425],[11.030542553565883,43.05521105605903],[11.030869952402313,43.05508685881035],[11.030969281013196,43.05504911746808],[11.031308137921348,43.05489902898766],[11.03135964455194,43.05480091681293],[11.031527631056802,43.05448092187734],[11.031563146430743,43.05421411845106],[11.031586910567489,43.05403815151443],[11.03176967060366,43.05363019700732],[11.032339891942504,43.05342196744179],[11.032958898154098,43.05320386436931],[11.03310985722578,43.0530345971189],[11.033172025728044,43.052966051266225],[11.03320000944916,43.052580404096084],[11.033214078207315,43.05237991575713],[11.033058793797318,43.052139553705935],[11.032737442813975,43.05170404179773],[11.03277466492141,43.05166394287488],[11.032930780512135,43.051493605399244],[11.03309365292196,43.05131471120052],[11.033163695029481,43.05123691093532],[11.033495376244069,43.05087161071298],[11.033527008571344,43.050829216577796],[11.033652614952546,43.05066222807315],[11.033989688259668,43.05021404210245],[11.034095075035188,43.050073682674316],[11.034122187243772,43.050037572924154],[11.034181031057747,43.04995942546641],[11.034259661338943,43.049855073874085],[11.034319510665034,43.049776266434165],[11.034425609742817,43.049695780133895],[11.03456307974184,43.04959226028196],[11.034686258380052,43.04949938037832],[11.034714499584796,43.04947905080708],[11.034774479289942,43.04943432508445],[11.03480489248725,43.04941136172716],[11.034870307295627,43.04936150569798],[11.034986266659148,43.04925076446015],[11.035025395651306,43.04921357808713],[11.03517939007523,43.0490664531277],[11.03522187792786,43.04901389457943],[11.035315681627988,43.0488978769617],[11.035409895169046,43.048781565626975],[11.035474879407682,43.04870135784208],[11.03550331451181,43.048668833272984],[11.035579231861892,43.04858205472213],[11.035716844482675,43.04842270861005],[11.035935700854294,43.04817141194572],[11.036399950374552,43.04773093066834],[11.036518008035166,43.04756575631074],[11.036693303417,43.047320502249256],[11.037004286317092,43.04707184229268],[11.037075939173445,43.04703264164176],[11.0371825558021,43.04697437866137],[11.037221349113489,43.046953169002364],[11.037312040912557,43.04690219148479],[11.03743227962955,43.046834604516164],[11.037522666319427,43.04678347018232],[11.03804649329469,43.04656703383846],[11.038273577051926,43.04647294272718],[11.03836501980529,43.04644116235081],[11.038452694770012,43.04641068627425],[11.038601290001596,43.04635904873247],[11.038703709127278,43.046295902091224],[11.038962235128027,43.046136506955285],[11.039224827476014,43.04587563952206],[11.039268832334042,43.045832311868],[11.039311972827267,43.04578991087299],[11.039378661429945,43.04572414539808],[11.039510822951991,43.04554131326881],[11.039608006334149,43.045407349571995],[11.039636567366042,43.04536810337526],[11.040058293022204,43.04475727933095],[11.040476715176808,43.04441919598341],[11.040547940728757,43.04436104604665],[11.040578278643528,43.04430888500404],[11.04069082454195,43.044110970158414],[11.040721828289737,43.04405775536413],[11.040794850163358,43.043932805754814],[11.04081550137034,43.04389734633578],[11.04092416976152,43.04347219403161],[11.040945485031756,43.043385650319465],[11.04100028463431,43.04316482387212],[11.041016730541186,43.043126916345244],[11.041204563872476,43.04268315517376],[11.041365716242412,43.04259441694784],[11.041443688978298,43.0425511945732],[11.041506297181918,43.04251632888482],[11.041905807480518,43.04234711639113],[11.042307714673077,43.04224990570919],[11.042375345473856,43.04225746791294],[11.042933070486827,43.042319786844075],[11.043475086457509,43.04228309237582],[11.044184307164427,43.04219838457477],[11.044849610327539,43.04217748976243],[11.045523139958458,43.04221947634433],[11.046137737235968,43.04233473550973],[11.046215717662252,43.042328596187964],[11.046386202192938,43.04231496802418],[11.046728508887314,43.042287961643325],[11.047090603310071,43.04225163785056],[11.047275179721817,43.04223295493113],[11.047325009886292,43.042233461578995],[11.047745949873134,43.04224274002105],[11.048243005017138,43.042422936862444],[11.048567994449016,43.04259720916964],[11.048721234940869,43.04269313578022],[11.048785580719336,43.04273341457785],[11.048931591289833,43.04282481589609],[11.049260247332603,43.04292473242456],[11.049667745720201,43.042811628642866],[11.049973233662907,43.04259370521859],[11.050315294885102,43.04234979639718],[11.050835670324764,43.04212435965009],[11.051319535597885,43.04190857893863],[11.051445196351507,43.04162718505014],[11.051939791372536,43.0409970003046],[11.052083667446437,43.040943878405656],[11.052126763383962,43.040928083832796],[11.05221801527324,43.040894574126895],[11.052375611337682,43.040836313523855],[11.05244430279675,43.04080280137255],[11.052895823197577,43.04058364755988],[11.05328868372507,43.04021641568256],[11.053299711895743,43.039811012417296],[11.053299972411754,43.03945082550882],[11.053954364672817,43.03919595519895],[11.054169840786301,43.039094954302094],[11.054204994528265,43.039078635214935],[11.054414272728373,43.038980349287286],[11.054445528170092,43.03893815691125],[11.054625179200457,43.03869766405664],[11.054810056696468,43.03835217046215],[11.05525406841255,43.038047043570685],[11.055317867173976,43.03798485862002],[11.05538302305344,43.03792144713312],[11.055479952391632,43.037826876010314],[11.055858423593817,43.03776612846768],[11.056353966442124,43.037716614796494],[11.056519086824482,43.03769980919626],[11.056553973592461,43.03765040939387],[11.056569893317254,43.037627539605474],[11.056741628303918,43.03738018101776],[11.056780449922407,43.03732492943232],[11.057151531499233,43.03678830436106],[11.057249754219233,43.03679152032223],[11.057287408372753,43.03679138615983],[11.05732962068726,43.03679170128538],[11.057391690090467,43.03679342148734],[11.057512107365172,43.03679760767184],[11.057556748259932,43.03679962683252],[11.057563545689863,43.03684073765662],[11.057604087712475,43.03710434104745],[11.057605718114331,43.037164758870624],[11.057606657283353,43.037192745461994],[11.057608325122564,43.03723107336548],[11.0576092577844,43.03725879173575],[11.057610347287584,43.03729186323578],[11.057614007609475,43.03740309276206],[11.057616178392557,43.03746729991398],[11.057618748480284,43.03754528866478],[11.057738787924995,43.03783127571567],[11.057974291219876,43.038082373609214],[11.058120674892264,43.03823861503565],[11.058103975608722,43.03849471790155],[11.058088151623332,43.03873444991219],[11.057977804282954,43.039105621875414],[11.057838706354184,43.039351247086124],[11.05781363420031,43.03970287563371],[11.058001697116378,43.0399626427412],[11.05814826429485,43.04016509158715],[11.058416741193538,43.040484424733286],[11.058477308487552,43.04057612481578],[11.0586101227109,43.04077756706795],[11.058597047758143,43.04084104269625],[11.058586772966928,43.04089126716172],[11.058571350788048,43.04096637937212],[11.058546798844281,43.04108095382555],[11.058515827150663,43.041230056743736],[11.05853236212948,43.041279570959354],[11.058548386038972,43.041326063413855],[11.05857425965664,43.04139987422643],[11.058624020551584,43.04154323187027],[11.058743472288391,43.041811218096775],[11.058765675249001,43.042107969116756],[11.058727736625313,43.04244182002164],[11.058741583989466,43.04285577960405],[11.05884899372355,43.04287372426577],[11.059228924870418,43.04293694993786],[11.059864474741676,43.04284421332827],[11.060461979516763,43.0429058456249],[11.060582947402112,43.043218826514845],[11.060583635485925,43.04360600897611],[11.060482250887809,43.04387797176229],[11.060302510629468,43.04437645831791],[11.060552728494061,43.044867123420275],[11.060836516833668,43.045294345380505],[11.061243747147945,43.045663585890225],[11.061343275792204,43.04575326225541],[11.061518956110568,43.045880553514785],[11.061546922911477,43.04590072231609],[11.061695356232304,43.0460081998158],[11.062172162896186,43.046314764355465],[11.062277453374108,43.04640059641132],[11.062475084193041,43.046561429742106],[11.06258487295678,43.046723749309095],[11.062745398487076,43.046963042888564],[11.06263297889656,43.047242927861944],[11.062432833385788,43.047498663672194],[11.062421867197441,43.04790406516676],[11.062542793350033,43.04815532956109],[11.062567585792339,43.04820693999542],[11.062609249621902,43.048220362942],[11.063100447280672,43.048369069835175],[11.06350566659337,43.04837076482541],[11.063586012503405,43.048405587858966],[11.063669934823585,43.04844201577261],[11.063904350661096,43.04854366381975],[11.064261504077125,43.048942423292814],[11.064669322499013,43.04911290270737],[11.06506300304914,43.04904501652491],[11.065454446989868,43.049001931135834],[11.065498558367832,43.04914525249497],[11.065564693185774,43.04936012116891],[11.06526518193363,43.049581638456154],[11.064959741427678,43.04999235598204],[11.065079539145497,43.05026933348096],[11.065260389747023,43.05053620492476],[11.065564817223178,43.050779767714],[11.0657769945339,43.05094936052408],[11.066145763414479,43.05103347512717],[11.067005667862983,43.05095490857465],[11.067308478992592,43.051192523132784],[11.068381731952924,43.05244279659696],[11.068585935452697,43.05267322198911],[11.068824970543021,43.053209170739414],[11.06886235470094,43.05359570857739],[11.06888682482507,43.0536965470416],[11.068962346743849,43.054008089130626],[11.06904626563052,43.05431272492956],[11.069075269444733,43.05451924573171],[11.069126994156518,43.05488755444582],[11.069399831112001,43.05533284442059],[11.069813877628148,43.05559548959065],[11.070150055991746,43.05573347809756],[11.070573654073586,43.05591490718463],[11.07128192681333,43.056163215510196],[11.071643565590636,43.056327752370414],[11.07184566052386,43.05645598257791],[11.072057628237587,43.056590389035776],[11.072412907384727,43.056935276350536],[11.072446309782254,43.05696708864278],[11.072641536667573,43.05715609947813],[11.07309667013687,43.057544051543324],[11.073639231351228,43.05797543811447],[11.074104221915354,43.05829117068687],[11.0745251174371,43.05839159267689],[11.074907981988499,43.058456684582836],[11.075000442310536,43.058480084343365],[11.07522238099579,43.05853486730617],[11.075787199599741,43.05867485020519],[11.076058285012072,43.05877693766574],[11.076197838740411,43.05882916629555],[11.0765335578412,43.05895845297814],[11.077059656634074,43.059174014568306],[11.077411926523993,43.05929598896535],[11.077562824026971,43.0593482080115],[11.077621893627025,43.059368657056915],[11.077651598309886,43.059353736325995],[11.077723490757688,43.05931762243117],[11.078026403448044,43.059165460703156],[11.078175211028435,43.05888995084434],[11.078222869318841,43.05880171081591],[11.078284112823976,43.058433664827525],[11.078742363265285,43.058549149722005],[11.078877342589307,43.05859932321497],[11.079065697682154,43.058669336968315],[11.079469054739876,43.05897716316318],[11.079764401052003,43.059358988381824],[11.080167461823878,43.05965781285922],[11.080668097806038,43.05993685198204],[11.081290853675538,43.06019565789723],[11.0817019370725,43.06036826765347],[11.081947602921087,43.06073298199847],[11.082339325812736,43.061059018798026],[11.083054028791993,43.061493980800975],[11.083518865816757,43.06177609040506],[11.083606384401467,43.06181849090102],[11.083842530337815,43.06193209532484],[11.084460134493327,43.062037901585256],[11.08481818024594,43.06209440783303],[11.085175922768254,43.062141914804776],[11.085638561682453,43.06238560623399],[11.0855900150939,43.06276468096848],[11.085404632838745,43.06309222284595],[11.085219555016488,43.06342876344033],[11.085136626417883,43.063880500390056],[11.085086202183874,43.06402324071169],[11.085024877313039,43.06420669849287],[11.084814025936403,43.06450768985678],[11.084664574950104,43.064730128823435],[11.08462741980009,43.06478540968543],[11.084556825332072,43.06489056664612],[11.084470723854944,43.0652439246279],[11.084700914476658,43.06551825571558],[11.084983178729109,43.06559663501864],[11.085035059238008,43.065611118728725],[11.08551767819243,43.0657014666448],[11.085739277433445,43.06575243348501],[11.08579992886442,43.06576671730194],[11.085988276885496,43.065810617157325],[11.086116983067425,43.06585956460323],[11.086411142948299,43.06597331760888],[11.086735752620212,43.066129477908625],[11.087212534525811,43.066426932159885],[11.087539138789666,43.06656842042941],[11.087667054857741,43.066623855723584],[11.087758931274875,43.066663589137406],[11.087810835753848,43.06668614824497],[11.088277186909721,43.06703781581335],[11.088522003652505,43.067375516365075],[11.088693790517523,43.067732559914525],[11.088755113994688,43.068091620289806],[11.088759347247917,43.0685777861681],[11.088797957864344,43.06899128772005],[11.088839626259405,43.06949477817812],[11.088863980877814,43.06953619297888],[11.088886535101626,43.06957489966084],[11.088911616246717,43.069617994942824],[11.088962923675341,43.06970578629955],[11.08902169213555,43.069806108101595],[11.089108278948954,43.06986953886924],[11.089201139236284,43.06993707903478],[11.089320511235114,43.0700235055166],[11.089833189677538,43.06981880152765],[11.08999707710774,43.06958169031965],[11.090058751280246,43.069464087575994],[11.090077457496859,43.069428593753194],[11.090190280709704,43.06921347785644],[11.090216215315339,43.06916347883682],[11.090545579960704,43.068826544769934],[11.090992887969556,43.06888815445872],[11.091007676288642,43.068916280940485],[11.091203046753481,43.0692895146136],[11.091152693195664,43.069614596865755],[11.091201146719081,43.069955881923356],[11.091450889255194,43.07043755808337],[11.09140084241595,43.07077163934479],[11.091227132750472,43.07108096860699],[11.0910670929277,43.07123844504994],[11.091041427548593,43.07126346426427],[11.090965384243454,43.071337722858914],[11.090878828456717,43.0714046547455],[11.090789651310503,43.071473533542004],[11.090704717350937,43.07153904804934],[11.090630540622852,43.071596124911665],[11.090498579314325,43.071688582273836],[11.090342373971303,43.0717904870857],[11.090206195783598,43.0718492531513],[11.090106382949221,43.07189384864916],[11.08990660263071,43.07197853902637],[11.089528227038503,43.072048483342634],[11.088812893968125,43.07223263293088],[11.088135333882006,43.072172967070706],[11.08755596093585,43.07220155100578],[11.087201824111773,43.07226204071151],[11.086728298229994,43.07242375664176],[11.086308755817244,43.072728557275205],[11.085947411340442,43.07292419440708],[11.085907692464982,43.07293772048654],[11.0858306542974,43.07296447131822],[11.085790626792505,43.072978423497936],[11.085752604800389,43.072991644843455],[11.085662892870983,43.07302280206995],[11.08562911481271,43.07303454848587],[11.08531564266228,43.07314286424247],[11.084922537528014,43.07314102533056],[11.084451815221774,43.073023541925174],[11.08400961037255,43.0730225945794],[11.083621689504284,43.07317373345272],[11.083561511559994,43.073283073471984],[11.0834012037401,43.073573325391315],[11.08338636359583,43.073616562760925],[11.08337291888059,43.07365429453522],[11.083222253463122,43.074072453298335],[11.08313563958825,43.07441620139215],[11.083012503413899,43.07476961994463],[11.082767400780838,43.07514351951344],[11.082496471089902,43.075490369896485],[11.082192243525395,43.0759371289601],[11.082068489516528,43.076272546758105],[11.082063648696531,43.07649159249017],[11.082058431686201,43.076704935269895],[11.082054833984975,43.076753933340065],[11.082025010828595,43.077164783387616],[11.082002373015845,43.077429219940676],[11.08198100569476,43.07767883886304],[11.08196577309734,43.077833560519075],[11.08195702740676,43.07792343662771],[11.08192547680512,43.07823776123355],[11.0819130649378,43.07844059061315],[11.081893906983835,43.07873394943421],[11.081875975674178,43.07929255388504],[11.081857740685974,43.07984216015691],[11.081843468023168,43.08050875079427],[11.081805776888608,43.08157196528505],[11.081782107135222,43.08304913114166],[11.081930512003892,43.08322670488499],[11.08220422105337,43.08355424381435],[11.082275344344529,43.08373800975944],[11.082405566327903,43.08404629435288],[11.082044877672404,43.084277977508336],[11.081685400490752,43.084545649376096],[11.081336062995488,43.084750105560644],[11.081013106567003,43.08500810713298],[11.080691367408921,43.085302102946535],[11.080297787216324,43.08565143171747],[11.079877515079387,43.085938213524265],[11.079506044295131,43.08621510114761],[11.079136702784242,43.08655498159989],[11.078803580806962,43.08687619261949],[11.078479690690608,43.087107190330016],[11.078203995855114,43.08731029785541],[11.07787918707414,43.087514297808035],[11.077529211416435,43.08770074393733],[11.077187780387009,43.08781700005848],[11.076970508066104,43.08789098008726],[11.07652139103547,43.088052209619704],[11.076298447222326,43.08836240947691],[11.076281537304455,43.08845011185562],[11.076246178357026,43.08863349195251],[11.07626278177337,43.0887758108946],[11.0762681804148,43.08882210252531],[11.076280769671612,43.088930012312844],[11.07630958261924,43.08903665331555],[11.076421191228214,43.089449722522026],[11.076383633551139,43.08979257432833],[11.07629787476895,43.09016331468909],[11.07616026363154,43.09045395523251],[11.075950500569549,43.09079092781713],[11.075752708777788,43.091118678218365],[11.075518687636938,43.091465094743256],[11.075250258904498,43.09188417137467],[11.075003649201486,43.092221810667475],[11.074697162154745,43.09260555729513],[11.074449937699555,43.09292519833866],[11.07411949298137,43.09332738696593],[11.073976065995877,43.093537094775535],[11.073920468512261,43.09361913920456],[11.073490263094726,43.09397811292245],[11.073231356173496,43.09431597124672],[11.072807385630115,43.095224101788816],[11.072749498256568,43.09569338320656],[11.072643098142075,43.09618155180542],[11.072246670382537,43.096449864230635],[11.071898449488103,43.0966902884758],[11.071611320988463,43.0969206006864],[11.07114332895782,43.09725323622427],[11.0707490125208,43.09758453697385],[11.070475369000029,43.09785061943969],[11.070471539398113,43.097902944787016],[11.07044171923701,43.09831045628472],[11.07075630748763,43.09852987310553],[11.071070594554,43.09874028996527],[11.071371086018434,43.09890593310091],[11.071759059526228,43.09911501362652],[11.072133843209041,43.099297318164055],[11.072555387649244,43.09939736690413],[11.073062461369512,43.09950560329487],[11.073619939717748,43.099639569879336],[11.073640797853173,43.09989356259113],[11.073641942234968,43.09992731334396],[11.073564789963196,43.10018984164862],[11.073391214500731,43.10050814406942],[11.073155019820044,43.1007915630657],[11.072663053512231,43.10114264917528],[11.072204584336303,43.101394076476765],[11.071876206288094,43.10185925252901],[11.071581629858644,43.102233770138696],[11.07129659953359,43.1025270751438],[11.070998981869467,43.102811601908705],[11.070726530763428,43.10311368224962],[11.070356434761889,43.103435537543085],[11.07002348103563,43.10376572398527],[11.069836080935419,43.10403924935613],[11.069531323279863,43.104476977548565],[11.06930116056788,43.1049403690041],[11.068982747606196,43.105702502991456],[11.068505728444531,43.10613434056659],[11.067742566838971,43.10719265611399],[11.067630494604716,43.107879020511994],[11.067481129326401,43.10818787155237],[11.067406062467786,43.10851338853072],[11.0673303889012,43.10882090736595],[11.067231664637584,43.1091738653538],[11.067134757085418,43.10958081663816],[11.066899407340236,43.10989122167301],[11.066447211216438,43.110331605557114],[11.066132103330471,43.11046336039662],[11.065717219512273,43.110551894667886],[11.065338878743356,43.11063076216998],[11.064766738700605,43.11079416769234],[11.064197318455033,43.11103856105812],[11.063847168291463,43.11122496822414],[11.063520675720374,43.11138393485459],[11.063193877799023,43.11153390154008],[11.06280717630711,43.1117299693492],[11.062385436985426,43.11198069474337],[11.062179794516673,43.11211921456697],[11.062096993569197,43.11217498931865],[11.06169055337209,43.11251548062385],[11.061393750054819,43.11282698105979],[11.061272477232441,43.11302777839729],[11.06119581311333,43.113154708166654],[11.061298112214361,43.11363910503801],[11.061356914944705,43.11392618718819],[11.0614528697683,43.11422160512969],[11.061585073038456,43.1144983597016],[11.061719089688754,43.11482910851887],[11.06181807149389,43.115214515803004],[11.061835536748534,43.11527722627929],[11.061902638553187,43.115537136813685],[11.062039985746935,43.11596687391667],[11.062184176062283,43.11623440708614],[11.062548872872748,43.11647995584379],[11.062761095098319,43.116583736275174],[11.062886282825122,43.11664495493493],[11.063212620439925,43.116846170801814],[11.063638138977527,43.11707260987108],[11.063873881526048,43.11723090489008],[11.063977673156893,43.11730059896972],[11.0642425971082,43.11750292005723],[11.06455696341963,43.11771335259759],[11.064907879348624,43.1179141199151],[11.065416373197097,43.1180490091762],[11.065884987698638,43.11809457226313],[11.066243348756165,43.11815113061552],[11.06658972912025,43.118216907919376],[11.067055758819409,43.1185506554082],[11.06734678237757,43.11879751918695],[11.06777627045824,43.11914092866574],[11.068028931524438,43.11934346255825],[11.068363487916088,43.11978763484955],[11.068942376697365,43.12055154625331],[11.071074514722193,43.12253895504478],[11.071091389481305,43.12258367109674],[11.071275497877464,43.123056608714165],[11.071118688343626,43.12348361974835],[11.070921361939634,43.123612538090725],[11.069531031686594,43.124520853768516],[11.069248515500894,43.12472181494685],[11.069167128084947,43.124779707737474],[11.068894569068432,43.12497358505539],[11.068738699363807,43.12508445748742],[11.06868643665655,43.1251166645778],[11.068574132807575,43.12518445828362],[11.068508524785337,43.12522630194545],[11.0678956945866,43.12560395206097],[11.067250803285107,43.12607483556353],[11.06721178379575,43.12610255429609],[11.066990669072457,43.126226940608205],[11.06691181989487,43.12627129447849],[11.066843813301695,43.12630955171532],[11.06475541170178,43.12748369477345],[11.064316182958054,43.1277306276169],[11.064194528922643,43.127829888108046],[11.06404318399839,43.12795381723211],[11.06393331881813,43.12804368641612],[11.063695767989438,43.128291092440165],[11.06333777259178,43.12861270592004],[11.06300192706247,43.12886188368289],[11.062535767563634,43.12925748152098],[11.060518690443494,43.13032934658643],[11.0601309574326,43.13049841109966],[11.059681184015759,43.13065058255013],[11.059205464090088,43.13085466925974],[11.059111561278625,43.13089495400465],[11.058926465598452,43.131003789116114],[11.058653423244364,43.13116433044239],[11.058324216217727,43.13136565563537],[11.058243822774296,43.13141482170483],[11.058231590098908,43.131469067907],[11.058225679429286,43.13149528550619],[11.05815820600736,43.13179454757026],[11.058253816257862,43.13191888906912],[11.05832983395081,43.132017749185366],[11.058376745890477,43.13207875680629],[11.058705267027541,43.13234297615724],[11.059060177569837,43.13266074642729],[11.059526884431138,43.13301252050285],[11.060031063011749,43.13338162581785],[11.060288593856761,43.13372815954814],[11.060335127273742,43.13401546231792],[11.060125438672443,43.1343614073731],[11.059788641454398,43.134583579258276],[11.059483775711994,43.134793882649774],[11.059440159591832,43.13482396952471],[11.058990051005255,43.13496713978479],[11.058466022792315,43.13510274853943],[11.058028992475762,43.13527257875325],[11.057865095944777,43.13547648545112],[11.057698522748671,43.13568372310275],[11.057612597050378,43.136054450304854],[11.057846408885531,43.13642830801474],[11.058087172405173,43.136640203367556],[11.058428307560614,43.136913200777265],[11.058906728220009,43.13724675729249],[11.059309310094307,43.13751864587736],[11.059537301608435,43.13764356323088],[11.059898032255363,43.13784120766242],[11.060283904163787,43.13816691277413],[11.060556060735701,43.138396632584666],[11.06134293134182,43.13890924294294],[11.062479432156557,43.139649594316026],[11.061866332114603,43.14006584762147],[11.061505842052238,43.14031546500428],[11.061195107783501,43.14058219353867],[11.06099795240858,43.14093691490131],[11.06069299947548,43.141374624810595],[11.060551124848972,43.14157877322805],[11.060458408985799,43.14171201432935],[11.060197424039481,43.141995851923575],[11.060044893954759,43.142077327313444],[11.059726313802253,43.14224745621323],[11.059038226622073,43.142629026786594],[11.058245360125115,43.1435527430898],[11.057783801712844,43.143723128062646],[11.057646197972288,43.143737107860034],[11.057354882593804,43.14376686225984],[11.056898969253348,43.14373904449247],[11.056516188184306,43.14369190189069],[11.055986841943234,43.14367440532255],[11.05552881838502,43.14358359046414],[11.055055326849176,43.14341211853168],[11.054629429074811,43.143177153581625],[11.054576277008296,43.14314483505441],[11.054127996932234,43.14287940112525],[11.05404022236323,43.1428277925493],[11.053987573433355,43.14279652633735],[11.053923385601282,43.14275946583185],[11.053588715332875,43.14256492668344],[11.053166665918727,43.14244644203722],[11.052676306822882,43.1424912615892],[11.052387993044666,43.142694532450825],[11.052166953435659,43.14287552233095],[11.052080957791487,43.14294593607471],[11.052016963045112,43.14299833595877],[11.051631866761838,43.14325718268194],[11.051138893133306,43.1435906199627],[11.051054699882165,43.143655279161],[11.050933559474215,43.14374843999279],[11.050791447042593,43.14385772737965],[11.050688445331453,43.14395093459364],[11.050659120509346,43.14397747432439],[11.050385641936234,43.14422517957587],[11.050152788663791,43.14461654279684],[11.050138137145762,43.144913950556436],[11.050275174040411,43.14533470189618],[11.05042450401979,43.14575523175421],[11.050590036943033,43.146292528189335],[11.05072886500803,43.146642170828876],[11.05088635804846,43.147038270344886],[11.050899274034299,43.147070439545395],[11.051441921573387,43.14823120653825],[11.052509972343362,43.15001292358809],[11.053279159281225,43.14984604203032],[11.053673060713159,43.14985697867678],[11.054068169341338,43.14990390926846],[11.054251868017925,43.14997264572246],[11.054466594197708,43.150049828102],[11.054780450625374,43.150115319734006],[11.054826562115666,43.15012587654255],[11.05526314902338,43.15033266150574],[11.055468615444195,43.150461442823065],[11.055640016119243,43.15056900741484],[11.055764730423686,43.15066453092874],[11.055891998695285,43.15076226851672],[11.056018696717873,43.150859345378755],[11.056448354460404,43.15120279229158],[11.056646438949972,43.15136589685832],[11.056760819419981,43.15146005632234],[11.0568657272171,43.151546457594584],[11.057024411961892,43.15168360422826],[11.057498997754454,43.152093339437876],[11.057753125564938,43.15230577509984],[11.057793745514774,43.15233930805404],[11.057941442804077,43.15246303362268],[11.058161995392252,43.15279275686151],[11.058411630977414,43.1530812767535],[11.058431053855855,43.153103678764936],[11.058538410172869,43.15316819857062],[11.058571988474718,43.15318897349406],[11.05883749237415,43.153348633862166],[11.058953963009017,43.153419123942406],[11.059095291864184,43.15350553017595],[11.059257912074592,43.15358308868258],[11.059421037007574,43.153661527508476],[11.059944529709473,43.15386820528524],[11.06013664267206,43.15395411963255],[11.060203505448861,43.15398415890542],[11.06030782842262,43.1540307416555],[11.060543890859378,43.15413654413022],[11.060820655363182,43.15432064938409],[11.060769482860506,43.15462772046633],[11.060333340254784,43.154824671071665],[11.060187132661111,43.15497245678933],[11.060151942289313,43.155008025293334],[11.060000365393229,43.155163830513644],[11.060011251910126,43.15548779234039],[11.06005992138981,43.15583808697935],[11.060220233169002,43.156582563173025],[11.060640227872504,43.158465917642786],[11.060525020269779,43.158496062031844],[11.059457552677836,43.15877536121055],[11.059054324148446,43.158854656259656],[11.058464591840083,43.15887427652568],[11.05813864460213,43.15869105081164],[11.05776413514985,43.15852670683181],[11.05740191882058,43.15836214047293],[11.056972293337372,43.15838787718569],[11.056976947177557,43.158528131569035],[11.056985279041356,43.15877483173022],[11.057306482073166,43.15918325571308],[11.057537715267415,43.159476241250225],[11.05775726227111,43.15978744457509],[11.057992730168449,43.1602064135387],[11.058225480375832,43.16054439169705],[11.058474456363726,43.160999133422024],[11.058634967178355,43.16138343314931],[11.058853619967024,43.16166763698199],[11.059146334417603,43.16195951140731],[11.05948882903624,43.16226849755768],[11.059830419790288,43.162550486482886],[11.06009916290267,43.162860799043116],[11.060393704325342,43.163206663084104],[11.06063968199452,43.163571411156845],[11.060654637319136,43.163623064955146],[11.060699339317651,43.163754415120856],[11.060728133439765,43.16383994912151],[11.060749224119393,43.16390259934337],[11.060786512592502,43.16428053031867],[11.060757170850678,43.16473986359347],[11.060754293842432,43.164784936774346],[11.060714670177191,43.16489103879749],[11.060682900770443,43.16497603693189],[11.060551164700204,43.16532885909902],[11.060400122921719,43.165592707491605],[11.06037848988801,43.165794076482634],[11.060372015952986,43.16585434101817],[11.060400043614298,43.16632206280238],[11.06041241422109,43.16668997230284],[11.06041819853121,43.16686199887646],[11.060095943944415,43.167155943675134],[11.05975559489163,43.16736917433995],[11.059417566113005,43.16783448485858],[11.058886402578782,43.16850136830132],[11.058711663162075,43.168792653417],[11.058524325308364,43.169075161478894],[11.058244072915507,43.169521419610525],[11.058023473942429,43.16991257693124],[11.057743516518453,43.170367833830745],[11.057537623951443,43.170830760199145],[11.05735843488701,43.1713562377816],[11.057263796390746,43.171835171945446],[11.057256288276237,43.17189635980756],[11.057250810454157,43.1719344408722],[11.057215917353403,43.17224122848268],[11.057213689137088,43.17290759163197],[11.057109090261314,43.17344974569924],[11.056950214195485,43.17458714256034],[11.056882274982936,43.17512862612724],[11.056851221067454,43.1756694462356],[11.056868141982296,43.176173386631284],[11.056966373421018,43.17644756345305],[11.057098930161322,43.17681754943807],[11.057085488925656,43.1770707590421],[11.05706878572668,43.17738536640095],[11.057292725134154,43.17819172982857],[11.057510322853675,43.17880911646797],[11.057740826404139,43.179444278368635],[11.057857642185343,43.17999144210026],[11.058011651836674,43.18054694077858],[11.05823531435416,43.18134430336613],[11.058381269642574,43.18202600652654],[11.058510695395405,43.182581946809336],[11.058789506805068,43.1831892242539],[11.059004678796224,43.18367267435622],[11.05909456391539,43.183877006071455],[11.058577035253851,43.18382335414756],[11.057970835033231,43.183726212219916],[11.057397597597665,43.183511418365356],[11.057168991697349,43.18329942640332],[11.056827595731358,43.18302643159551],[11.056404956576015,43.18289896744071],[11.055800883090226,43.18286480578917],[11.05481416981679,43.183161674153794],[11.054450383181843,43.183321284223275],[11.053500950494572,43.18329495373588],[11.053465090453534,43.18329395882676],[11.053408168037041,43.183247707658495],[11.053199606617307,43.18308262104123],[11.052884821987615,43.18281809063302],[11.052832427979112,43.182774060316625],[11.052456876372602,43.18258270530493],[11.051985664035808,43.182474104440786],[11.051660210073234,43.182308860275775],[11.051293948017653,43.18202729138032],[11.050845471431414,43.18185502457699],[11.050297507554163,43.18166704313619],[11.049949900233104,43.18157416091796],[11.04953476336636,43.181302466812554],[11.04948713799221,43.18126213224392],[11.049066228480184,43.180905665904405],[11.048532561921938,43.180691063801454],[11.04838026954086,43.18062981513969],[11.047959470130515,43.18055631234826],[11.047758787043193,43.180524277145366],[11.047452292639859,43.1804753500258],[11.046909430008014,43.180431041879295],[11.046135333665529,43.18046290303647],[11.045871858458765,43.180494632672065],[11.045436827270175,43.180547439023016],[11.044900273332027,43.18069209977194],[11.044340325510571,43.18087319301682],[11.043817565712072,43.18106262426664],[11.04323421786223,43.18128014800747],[11.042698852531958,43.18146079492265],[11.042176682523309,43.18166821610138],[11.041510841984369,43.18199525725811],[11.04101355771952,43.18221123331868],[11.040912702567221,43.182257778921674],[11.040857224072786,43.18228349423268],[11.04070500091273,43.18235357274781],[11.04066940182686,43.18236832691903],[11.040479975060682,43.182445862819804],[11.03994968795349,43.18277947978877],[11.03966863892203,43.18320769816289],[11.03947997293565,43.18345418066967],[11.039130238147674,43.18366751714518],[11.039044902365951,43.1837011439647],[11.038555604040335,43.1838939507176],[11.038316490294916,43.1839881714759],[11.038196635845303,43.18405333860184],[11.037950125087123,43.18418736664296],[11.037905560530753,43.184211600202],[11.037478436503465,43.184318258378525],[11.037343762867271,43.18431747905264],[11.037096911049952,43.18431605048906],[11.036722362122486,43.18426931983659],[11.036656639036426,43.18426111938091],[11.036590240078711,43.184252834575936],[11.036528526640438,43.184245134423854],[11.03621302830609,43.18420567243657],[11.036138476389443,43.18419657986072],[11.036103423317298,43.18419192194341],[11.035898356952782,43.184166311912584],[11.035783094486812,43.18414890337639],[11.035236747219946,43.18406638527869],[11.035045123815788,43.18403741264396],[11.034242702246289,43.183961661299485],[11.03375885922451,43.183981522152756],[11.03346855150207,43.183993437715536],[11.032879760349648,43.18404892746829],[11.03247402235989,43.18411588606485],[11.032392459661857,43.184129297954705],[11.03226786570576,43.184149846003834],[11.03183022639249,43.18431069653935],[11.0312980839087,43.18459028068903],[11.03124107307513,43.18461327670429],[11.030833218185789,43.18477779227864],[11.03069095549858,43.184835176139735],[11.030255992099775,43.185077012118185],[11.02961464610384,43.18540354828034],[11.029142874732065,43.18569129852065],[11.028895885448945,43.185802543343236],[11.028392527446517,43.18602852308105],[11.027799756999828,43.186336179533086],[11.026817013557627,43.18675879716413],[11.026284230838684,43.1870203595514],[11.02550815547918,43.187367269474635],[11.025022150552998,43.187619489194965],[11.024915357234969,43.187674910558094],[11.024270681248671,43.18790242876654],[11.023723496896867,43.188101204025244],[11.023296915236692,43.188225808512406]]]}}]}
