{"type":"FeatureCollection","metadata":{"code":"054008","referenceDate":"2026-01-01","sourceDbfExportDate":"2026-02-18","upstreamArchiveUrl":"https://www.istat.it/storage/cartografia/confini_amministrativi/non_generalizzati/2026/Limiti01012026.zip","sourceManifestSha256":"70ac8256c4785dc6ed2814c32b6965ae76f9161b51abaa1660059e1c6cbd8ca6","license":"https://creativecommons.org/licenses/by/4.0/","attribution":"Istat, Confini delle unità amministrative a fini statistici al 1° gennaio 2026, versione non generalizzata.","modifications":["Converted from WGS 84 / UTM zone 32N (EPSG:32632) to RFC 7946 WGS 84 geographic coordinates.","Converted from shapefile to per-municipality GeoJSON without geometry simplification."]},"features":[{"type":"Feature","id":"054008","properties":{"code":"054008","name":"Castel Ritaldi","alternativeName":null,"regionCode":"10","regionName":"Umbria","territorialUnitCode":"054","territorialUnitName":"Perugia"},"geometry":{"type":"Polygon","coordinates":[[[12.621860681245149,42.846697014914106],[12.62138261674733,42.84578025842813],[12.620011343191536,42.842901901523575],[12.618439632192947,42.83954818017949],[12.618534638086949,42.839315577902966],[12.618937125230685,42.839019215599514],[12.619609006859243,42.838412700768856],[12.61981498738079,42.837802916111904],[12.619803403654375,42.83772280708111],[12.61974824219692,42.83734133507674],[12.61921265866028,42.836628970136374],[12.618996402562097,42.836212636591696],[12.61896430634782,42.83576795644922],[12.619005234227096,42.8356180892491],[12.6191080853936,42.83523216784525],[12.619433103610348,42.83473567332353],[12.619629052982647,42.83454375946834],[12.619851125245638,42.83432625741202],[12.620236795230193,42.83403044182579],[12.62168798383167,42.83334971022083],[12.622105163819684,42.83298969957896],[12.622438897837103,42.83245841273996],[12.62222431088742,42.83212619517516],[12.621607574827554,42.831961143255825],[12.620939690576034,42.83178421062597],[12.621007180142414,42.83100324287765],[12.621049783538648,42.83051568702138],[12.621482009847622,42.830101316060485],[12.621668309228074,42.829929888546346],[12.62178600740629,42.829821577832206],[12.621631889115536,42.82970940273121],[12.6211751712364,42.82952128404045],[12.620463813073897,42.82921515296355],[12.620053231356803,42.829084097615855],[12.620085140399707,42.829011025002835],[12.620283125143951,42.8285587035364],[12.620414078989823,42.82831183996896],[12.62043867002495,42.82826154941677],[12.62027040669811,42.828194831166506],[12.61992571959882,42.827935634291485],[12.619588935992596,42.82745337360377],[12.619415125642417,42.82720447915915],[12.619313242147474,42.827057844221535],[12.61924866086583,42.826964897976026],[12.618997285913792,42.826603104074024],[12.618882563355138,42.82643798469245],[12.6188321755245,42.82633301800477],[12.618623351483322,42.82589800864382],[12.618371653798116,42.82537367902313],[12.617890159297119,42.82455155151784],[12.617753005393899,42.82433145813424],[12.6175325180136,42.82397762189006],[12.617332143183713,42.82316459290967],[12.617218272815487,42.82292959993033],[12.617157256699743,42.822800973888626],[12.617140656312523,42.82276548571367],[12.617029907236805,42.822532934725935],[12.616901953583032,42.82226431034964],[12.61652846162531,42.82178539715297],[12.616260031678092,42.82145624893289],[12.616082494281121,42.821299830808364],[12.615811161843611,42.82106076367853],[12.615644273465401,42.8209129707165],[12.615301153335968,42.82062669512535],[12.615375350414539,42.82028669243177],[12.615619394502371,42.81981381595926],[12.615665868820157,42.81972377066968],[12.616030012919808,42.819518673553254],[12.616853625875784,42.819380086377606],[12.617692176838156,42.819209489618174],[12.618053048315007,42.81902700319466],[12.61805934023933,42.818558596477835],[12.618374266687324,42.81800839263198],[12.619115104822221,42.81753925333192],[12.619567960792212,42.8171782848533],[12.619840803252822,42.81644482532019],[12.619943703646793,42.81568073324135],[12.62024053645517,42.81530608602622],[12.62049614922375,42.81498345265835],[12.620735398944197,42.81481899045381],[12.62107430318705,42.81458603118101],[12.621237620335506,42.81447376887527],[12.621868341764385,42.81431872215932],[12.622607271103627,42.813818124834796],[12.62281435245158,42.81369689525433],[12.623478787698948,42.81330789592126],[12.623661523190728,42.81320090799978],[12.624245608375476,42.81293222251387],[12.624369810855114,42.81287538591963],[12.624704569852677,42.813044842156856],[12.62491639983796,42.81317298594184],[12.625362238571407,42.813442692863745],[12.625469997627247,42.81348851675741],[12.625521740408578,42.81351052532747],[12.626593684229798,42.813966380952415],[12.626661637888972,42.81399124059576],[12.62692349091649,42.814091688909826],[12.627709375630998,42.81439316034297],[12.628157480439034,42.814565053200575],[12.629239297076692,42.81492552527071],[12.629280071894403,42.81493911481718],[12.630410047047837,42.8154389831072],[12.6313735140174,42.81583607173558],[12.631694520608507,42.816020898640225],[12.632462843816826,42.81646326683335],[12.633354767334342,42.8168131026515],[12.633856980746232,42.817238216796525],[12.634041649326534,42.817394533586686],[12.634666350403426,42.81741069661576],[12.634866080501642,42.81694513612582],[12.63552433583912,42.81669911425114],[12.63620418243724,42.81682157520093],[12.63649249478748,42.817267092068654],[12.636643947993264,42.81780251187487],[12.636923732050533,42.81781613296302],[12.637055430720258,42.817298722001865],[12.637066778363204,42.817010237318144],[12.637993780322233,42.81671963840304],[12.638484979568458,42.81700113397914],[12.638422588815319,42.8174800292484],[12.638414897626594,42.81753908254722],[12.63842665616759,42.81765981194341],[12.638476527602364,42.81817190125296],[12.638823827144536,42.81835893173842],[12.640216758658246,42.8184136584382],[12.641172465786594,42.81846875499672],[12.642071942345021,42.8185166556743],[12.64436150420779,42.81881736013143],[12.645418354674009,42.818751609367546],[12.645696646254791,42.81873428910849],[12.64651886245153,42.81801476554521],[12.64694169888188,42.81724426786731],[12.64703182034107,42.81708001730603],[12.646928838945321,42.81697974779194],[12.646430010153763,42.81649145148576],[12.646026646840795,42.816157662544235],[12.646183374758026,42.81561242511545],[12.646682636023748,42.81470511522459],[12.646742939695674,42.81426964264765],[12.64683229846244,42.81362438901688],[12.647086428296682,42.81307154836539],[12.648022149579592,42.81254197678882],[12.648046069415535,42.812510679441154],[12.648292350530355,42.81218842893116],[12.6484628968959,42.811965251889134],[12.648589915635105,42.81179903862411],[12.648750116812568,42.81145251980133],[12.648936369023835,42.81104966538397],[12.649057953064535,42.81101291131856],[12.649802234337457,42.81078793733481],[12.651115938086102,42.810642460119965],[12.651472672367131,42.81048933017034],[12.652135740010717,42.810204713135334],[12.652296821123706,42.810136539908285],[12.652756933428801,42.81000740067919],[12.65354569875277,42.80978600566645],[12.654428802345688,42.80973978907819],[12.655249739108891,42.80983163792119],[12.655305136905051,42.809837838396426],[12.655807380268554,42.809962511891726],[12.656092431821591,42.810033266721334],[12.65668709244179,42.810162534116195],[12.656832613142194,42.810194164984004],[12.657651039402316,42.81021752052469],[12.658360776438656,42.809875178230016],[12.658452770515789,42.80982325899494],[12.659223219492494,42.809388390910094],[12.660396874570834,42.80908520152139],[12.661635834864708,42.80896901042657],[12.663072293595327,42.80889607987295],[12.664416146279363,42.80886193364982],[12.665503328901874,42.808570479339],[12.666089835208357,42.808601208055244],[12.66666986161754,42.80878069345089],[12.667238573183825,42.80861388516853],[12.668295591991054,42.80847194245298],[12.66941243393117,42.808359584248315],[12.670472638756296,42.808167990159355],[12.671191375524245,42.80790180422959],[12.671454850435417,42.80801490165235],[12.672343724952396,42.80814392946337],[12.672850716540516,42.80830321343369],[12.673326845770774,42.80840540015429],[12.673361654134169,42.80841285559639],[12.673545482173528,42.80839345257795],[12.673852554415106,42.80835207385253],[12.67437561977572,42.80843430814968],[12.674757979628492,42.808012341541],[12.674764802695766,42.80790858124255],[12.674788705116459,42.80752514662255],[12.674940917673272,42.807385201160045],[12.676479135468036,42.80747081116554],[12.677437335524337,42.80766059993805],[12.677791476545245,42.80800036068649],[12.67839387263378,42.80854371630697],[12.679567258267127,42.80892014646146],[12.68006992515662,42.80916058013627],[12.680552723531507,42.809388155025154],[12.68158612306703,42.81017423046638],[12.68214053865379,42.81008887175513],[12.682301287213193,42.8101898584861],[12.682535899374223,42.81033724797793],[12.682937986415986,42.810622974260745],[12.683178306882146,42.81079374730343],[12.682956125232261,42.811183568526026],[12.682857134629135,42.81152441112693],[12.683454115014781,42.81192386142112],[12.684047751711448,42.81239544244361],[12.684574442460343,42.81279266725915],[12.684764882040382,42.81293629265976],[12.68494080934314,42.813068971083],[12.684991985846942,42.81311210936963],[12.685184364621488,42.813274268316526],[12.685830778392992,42.813819134676194],[12.686203476475958,42.813942175808585],[12.68628604074829,42.81337676403648],[12.686603234809109,42.81340255240541],[12.687630426690376,42.81374759771513],[12.688724695185167,42.814243538817],[12.689690410313716,42.81460854556812],[12.690332756019309,42.81501382655109],[12.690500226038537,42.815487296462095],[12.690532790058947,42.81559317450652],[12.690650709920606,42.81597656248955],[12.690885306760062,42.816010599686045],[12.691434003657633,42.816046918083146],[12.69191704175702,42.81600559051162],[12.69219450015073,42.81598185220558],[12.692559849671513,42.81636621758911],[12.692595058718023,42.816405593849304],[12.692738002273517,42.81649551919355],[12.693200601550101,42.81681823073293],[12.693274763287127,42.81686984650914],[12.693197516543364,42.81715146615808],[12.69318820833214,42.81718777983604],[12.693161539883741,42.817278683223904],[12.692570742477196,42.81771644214527],[12.691925407223906,42.81803440210216],[12.691843624980324,42.81807307356571],[12.691753733693796,42.818116488028785],[12.691610979601485,42.81818412517319],[12.691475716641046,42.818287532459216],[12.691267121718552,42.81844283655802],[12.691226269625945,42.8184756690561],[12.691196813931711,42.81849461695516],[12.691133382314877,42.81854619426003],[12.69126221106589,42.81901472439857],[12.691330542543758,42.81907104690106],[12.691384924511697,42.81911481888911],[12.69156466190976,42.81925945612902],[12.691938329784708,42.81956014678769],[12.692069692800663,42.81959641688172],[12.692798486767021,42.819793479089874],[12.69296107273926,42.8197596355306],[12.69382236677997,42.81958035315962],[12.69488517853315,42.81930290374917],[12.695920381029312,42.81939550351716],[12.696148217999953,42.81948489016154],[12.696195372471818,42.81950339341083],[12.696545809570976,42.81964089504069],[12.696728896229207,42.819711520514474],[12.697134715852288,42.819594840654496],[12.697258248173256,42.81955903565074],[12.69750551003207,42.81948735583893],[12.6976066150254,42.81945804536953],[12.698398178561355,42.81922084874682],[12.699003297224639,42.81939485668543],[12.699473550752751,42.81988386478935],[12.700339176547585,42.82032404534705],[12.701138050902973,42.82055479921654],[12.70179881336451,42.82086656281599],[12.702104389364905,42.82146443146311],[12.702827384065378,42.82183268437303],[12.703959519796319,42.822637871270416],[12.704438133252788,42.823252641622446],[12.70523292178761,42.82425782709798],[12.706190203751014,42.82516771719989],[12.707512316866762,42.82616929124961],[12.708611076493957,42.826835960413156],[12.709424057381998,42.827070698085954],[12.710791770853243,42.827440497223556],[12.712245864144467,42.828154127090194],[12.712642368503015,42.828672487321015],[12.712587229096474,42.82953864681791],[12.712659737056978,42.83022507645002],[12.712842058566471,42.830894442552555],[12.713209249855113,42.83158813196273],[12.713322323262709,42.831801755795574],[12.713858079583558,42.8325631830925],[12.714667707232874,42.83344178083912],[12.715036313334034,42.833735924662626],[12.71496554608962,42.83402184779626],[12.7156841617388,42.83543461082218],[12.71574935243589,42.83598622250181],[12.71590529583664,42.83643134538956],[12.716103006386298,42.836668031680986],[12.716571466692153,42.83691841197082],[12.716924409095158,42.83700153081488],[12.716738940975858,42.83766933107131],[12.716548879781326,42.83819772524519],[12.71629329108607,42.83852566921125],[12.715338182528889,42.839200480306694],[12.714889331743418,42.83943079388946],[12.714663865891119,42.839546524058434],[12.714267107170176,42.840045631734114],[12.713510390512667,42.84065092320532],[12.712759407280966,42.84075183661165],[12.712150592443578,42.840588883888934],[12.711814365131247,42.84049889602118],[12.710614063199218,42.840834994915156],[12.710710315493198,42.84124153173556],[12.709721874121666,42.842178503624616],[12.709689483120139,42.84269727075427],[12.710135025539888,42.84293492483829],[12.70980897633184,42.843440705921175],[12.70899574519222,42.843512118688494],[12.708900626328436,42.843519703360336],[12.70831651816331,42.84276882224661],[12.706746981129005,42.843504000415884],[12.706401075560345,42.84330813367307],[12.706436655465408,42.84298282631175],[12.705480466996377,42.8423520495341],[12.705006854784903,42.842948141581694],[12.704495843606322,42.842523507342776],[12.704131125554785,42.84280544831673],[12.703445739067446,42.842431469545126],[12.70351386478632,42.84193406073703],[12.702103266907942,42.841849186973185],[12.701277184167083,42.841871414013966],[12.700738030432134,42.84187086910591],[12.700486324002618,42.84176645844158],[12.700091944156558,42.84152712968951],[12.69964668588012,42.84128041035021],[12.699261667534179,42.841427938534345],[12.698980176519965,42.84147755909919],[12.698595251952689,42.84124240048998],[12.69816664265762,42.84095464258955],[12.697584757440962,42.84078887798961],[12.696805905115072,42.8406925060692],[12.695896610993168,42.84079392838079],[12.695154880620441,42.84076838288874],[12.695222325110446,42.84019444124083],[12.694930315523466,42.839465564768844],[12.694713559851724,42.83904365472686],[12.694623180181871,42.83886772938124],[12.694170487817276,42.8384024730098],[12.693926701895608,42.83815191753195],[12.692807106756696,42.837355226591754],[12.692328937736374,42.837120734788726],[12.691851196639174,42.83688646394194],[12.691747686011013,42.83683570679396],[12.690886167598554,42.836447826519134],[12.688229306290454,42.836035350141486],[12.686733513338233,42.835826979216655],[12.686218508876818,42.835738959062205],[12.68560113808937,42.83563332898864],[12.684788954809592,42.83545296703174],[12.684218906202949,42.83529396976364],[12.683621231312205,42.83512726265337],[12.683530163428811,42.835101860983364],[12.682931794500066,42.83474746948701],[12.682842936839506,42.83468745970316],[12.682589282380366,42.83451614836631],[12.682454627135943,42.834425203561196],[12.682401008472224,42.834397408223595],[12.68168620817315,42.8340267699586],[12.681615799918871,42.834051552148765],[12.681489887669102,42.83409349912735],[12.681301644388943,42.8341562078778],[12.680965053166965,42.83433361102892],[12.680413416262295,42.83466198797062],[12.680287215769825,42.8348416355219],[12.680104241099192,42.835095117298835],[12.679717900059165,42.83559375567274],[12.67916279161096,42.83541355494126],[12.678055764296513,42.836484606643744],[12.677640620278975,42.83688512397287],[12.677347882370022,42.836822512713965],[12.677307529648765,42.836857315874404],[12.677109291768105,42.837028268396736],[12.676919362506597,42.83716493114916],[12.676702681684691,42.83737897817983],[12.676411833335699,42.837644940065765],[12.676247748065785,42.837687297363274],[12.676152761886582,42.83771179672078],[12.676117400621079,42.83761839318022],[12.676089208686724,42.83754277330755],[12.676051500902663,42.83744394648069],[12.67593215036737,42.8371311510915],[12.675685344274978,42.83648430642993],[12.673492211189489,42.838170969585825],[12.673225407570207,42.838107513686175],[12.67285868792563,42.838074264860005],[12.672240305494322,42.83829670550878],[12.671588908048607,42.83770538286091],[12.6713209197419,42.83783917641138],[12.671203449771301,42.837897826054245],[12.670621917951076,42.83802003512793],[12.670160473629684,42.8379493222254],[12.670184731265145,42.838281678440076],[12.669851087031006,42.83832667217317],[12.669483813432553,42.83837620074889],[12.66871434629019,42.837676093141425],[12.667120814279029,42.838424995532236],[12.667604584376424,42.839841098569416],[12.664494279660163,42.83929254628298],[12.664419593637021,42.83931851025859],[12.664007847813522,42.83946165125764],[12.663738274365338,42.83955536622763],[12.663044107595333,42.83976348486046],[12.662981663771522,42.8397822055262],[12.662639866267455,42.83964650522817],[12.66240455433018,42.83955308110827],[12.660725735479232,42.83993547726592],[12.661097955595727,42.84043677948292],[12.660918067342704,42.840640621127164],[12.660747208505661,42.840997242199585],[12.66064496752174,42.8414282115115],[12.66057455451166,42.84195718173211],[12.660286924748734,42.8421239780639],[12.65980915727216,42.84246340894708],[12.659242366263838,42.842913725040596],[12.65856368516477,42.843709770786674],[12.65890388788319,42.84412206227354],[12.659006093454266,42.84460951451805],[12.65860730387112,42.844797842737954],[12.65823232577682,42.84472881444113],[12.657737112870791,42.84450154579559],[12.656607100792638,42.843974957549904],[12.655875187097209,42.8445700902697],[12.654843832427963,42.84401781488521],[12.654511868117167,42.844055439537335],[12.653943372752884,42.84424467504055],[12.653077934331167,42.84444341274965],[12.652291418017247,42.844554063139036],[12.651553398125397,42.844618146011335],[12.650992514842823,42.84458654515586],[12.650580125613185,42.844518668136345],[12.649536981348966,42.84456998252336],[12.648718843790496,42.84404160085577],[12.648640245774965,42.84399083879552],[12.647630058065852,42.84410954290336],[12.64732558525494,42.84414531975967],[12.647186636871911,42.84391565810713],[12.646638230604413,42.84321284726753],[12.645715735609569,42.842715527347096],[12.64477572527288,42.842335832928455],[12.644410195651131,42.84242718375445],[12.644337800974096,42.84244472214041],[12.64382588900441,42.842568687300954],[12.641950669029283,42.84259241522103],[12.640342188398032,42.843719588285985],[12.639050077119148,42.84359414785873],[12.637648250226365,42.843449670524],[12.634661592549648,42.84349513100419],[12.63350552569391,42.841726588093174],[12.632892882329918,42.84175055025776],[12.632486754932934,42.84148884687979],[12.632081899978303,42.84147019146132],[12.631522781714937,42.84141590523033],[12.630468533516254,42.841120745950555],[12.629719036934995,42.840910443499396],[12.629161649717037,42.84109470384698],[12.628639640715893,42.841282356116885],[12.627886058830086,42.84144582135881],[12.625084883314681,42.84211091139198],[12.6263278504757,42.844466533752104],[12.624666977544003,42.84565817640618],[12.624297001509062,42.84538629940041],[12.621860681245149,42.846697014914106]]]}}]}
