{"type":"FeatureCollection","metadata":{"code":"054020","referenceDate":"2026-01-01","sourceDbfExportDate":"2026-02-18","upstreamArchiveUrl":"https://www.istat.it/storage/cartografia/confini_amministrativi/non_generalizzati/2026/Limiti01012026.zip","sourceManifestSha256":"70ac8256c4785dc6ed2814c32b6965ae76f9161b51abaa1660059e1c6cbd8ca6","license":"https://creativecommons.org/licenses/by/4.0/","attribution":"Istat, Confini delle unità amministrative a fini statistici al 1° gennaio 2026, versione non generalizzata.","modifications":["Converted from WGS 84 / UTM zone 32N (EPSG:32632) to RFC 7946 WGS 84 geographic coordinates.","Converted from shapefile to per-municipality GeoJSON without geometry simplification."]},"features":[{"type":"Feature","id":"054020","properties":{"code":"054020","name":"Fratta Todina","alternativeName":null,"regionCode":"10","regionName":"Umbria","territorialUnitCode":"054","territorialUnitName":"Perugia"},"geometry":{"type":"Polygon","coordinates":[[[12.368201245911902,42.894652265369864],[12.367650245874517,42.89473203777439],[12.367151107094818,42.89485920425911],[12.36608969962533,42.89522722437551],[12.365811708451728,42.89532360918178],[12.365477670790872,42.89536661063302],[12.364971498772885,42.89543176618703],[12.363232077783861,42.895679741880755],[12.363129750764676,42.89569433419234],[12.362244502141278,42.89583187230244],[12.361963980702958,42.89587545278411],[12.359704309431589,42.89623602367348],[12.358530553607242,42.896393810555075],[12.358301944860903,42.89607158923725],[12.3581557070726,42.89571163357328],[12.35814694341434,42.89528372420781],[12.358138253029525,42.894859435019235],[12.357741472491234,42.89482600613723],[12.356680275687395,42.89473660798435],[12.356211757828053,42.89468539478674],[12.356144160496266,42.894678006297084],[12.35562660641635,42.89456180111676],[12.355562516879244,42.89455344765663],[12.354583499170634,42.89443723001109],[12.35363640837361,42.894332774248404],[12.352931908526164,42.894224037976734],[12.352682896572984,42.89413165066728],[12.351261827415309,42.89360431235592],[12.351093050458863,42.89335279063467],[12.349779962031086,42.89299221566896],[12.348454782345886,42.89270398723281],[12.348069328114427,42.892691762318435],[12.347641138220098,42.89262900718039],[12.347037759220392,42.892674440036345],[12.346385281719128,42.892817785545816],[12.346085201051546,42.89269857280355],[12.34617298202821,42.89253553657885],[12.345741775339253,42.892334043429244],[12.345686268213168,42.89237236365326],[12.345574417884308,42.892468815023065],[12.345407432566429,42.89238570291575],[12.345370601328968,42.89237043339922],[12.345019355665823,42.89222482343096],[12.344892920603389,42.89233788024387],[12.34442192982829,42.8927590305059],[12.344228803676998,42.89286678235698],[12.343923272912885,42.893115993416814],[12.343823272078998,42.89319755944391],[12.343717159183116,42.89328410959234],[12.3432115862108,42.893369075419095],[12.343060174601012,42.893017843734334],[12.342910931692963,42.892855621368824],[12.342656843681473,42.89257943335492],[12.342128777012931,42.892126649760556],[12.341820884050247,42.89230671862096],[12.34167356910776,42.892238822124376],[12.3415453890002,42.89217972699594],[12.341286860772053,42.89170106754229],[12.340649446524479,42.89127848597342],[12.340463654568016,42.89110251261769],[12.340096110475857,42.89075440519197],[12.339601732528196,42.890669801847515],[12.338677317867116,42.89034563392203],[12.33801347568489,42.89029748455011],[12.337449470459214,42.890057332024575],[12.336991475684236,42.88951245510614],[12.336389125418883,42.88924189992968],[12.335860379022831,42.8887756094428],[12.33518583829823,42.88807495104388],[12.334621598679524,42.88737559057252],[12.334179872243364,42.88667715292923],[12.334002835406782,42.886133051653424],[12.33392194959059,42.88554115248181],[12.333791277414592,42.88472108572702],[12.333504047044974,42.88414870022229],[12.333019032919253,42.883555062466385],[12.332802483019849,42.88294460034069],[12.332304543693493,42.88232432095962],[12.332362478756433,42.88182290063083],[12.332065005099542,42.88155695477579],[12.331883285015634,42.88133714948585],[12.331899352617476,42.88096750458178],[12.33174437788464,42.880564353749065],[12.331729553369332,42.88053727979957],[12.331597351962232,42.88013441611093],[12.3316941723455,42.87965887827613],[12.331705159571595,42.87918134067647],[12.331418895220981,42.87865393289093],[12.330948254780543,42.87831198375913],[12.330698653852155,42.878203104523095],[12.330445213508986,42.878092548324034],[12.330123049857223,42.87802088449488],[12.329537604817826,42.87790910922095],[12.329186677962788,42.87679203307384],[12.329213490506937,42.87638255630744],[12.329311211478199,42.87624939816241],[12.32941753033891,42.876105509704345],[12.329589117681829,42.87593303625001],[12.330081719113355,42.87543788307877],[12.330135031155875,42.87533606326477],[12.330375633010298,42.874876613151294],[12.330946500187563,42.873786337908236],[12.331228730278777,42.873247305029125],[12.331501211071446,42.87272682125391],[12.331192088689772,42.87264128315853],[12.33072198364381,42.87257844826408],[12.330497939129792,42.87248142900651],[12.330308990986934,42.87239688811282],[12.329852288519456,42.87209954071295],[12.329290077887785,42.871661207419955],[12.328833216307407,42.87114775733452],[12.32874316359815,42.870853249675505],[12.32860954566428,42.87065674779234],[12.328518020516885,42.87052215956412],[12.327272181533111,42.86946440242152],[12.32709613896263,42.86906435334262],[12.326548715636122,42.86783321139653],[12.326216594591902,42.867347637421474],[12.325842181514412,42.86634557949619],[12.325385817516127,42.86534138476303],[12.32465563989473,42.8647368209162],[12.323869212814241,42.86422395029101],[12.323175118376113,42.86364984352279],[12.322740609342757,42.86285210727338],[12.322635702759355,42.8615675743185],[12.322784282031918,42.86047376291501],[12.323008880123593,42.85985691800694],[12.323115636604452,42.859563741551824],[12.323599557402142,42.85878884929736],[12.324239132416125,42.858135467545786],[12.324951432574299,42.85751148434658],[12.325524391424786,42.85699961015117],[12.325987444903248,42.85643732122229],[12.327097046651968,42.85696737179225],[12.327567563116201,42.85719680178504],[12.328119068286432,42.857410355126184],[12.328478063442661,42.85774206871899],[12.328800615985156,42.8582639112514],[12.328862545229601,42.85831966692855],[12.329173600404026,42.858599714789165],[12.329243799339455,42.85862468651327],[12.329772740768975,42.858816372758916],[12.33098024231084,42.85895229946804],[12.33191873701114,42.858879930230366],[12.332940013675932,42.858710615197545],[12.333082782111775,42.858920897549865],[12.333159918750326,42.85891788683601],[12.333635102274691,42.85889934312275],[12.333893051935584,42.858889276737685],[12.334456332628374,42.858867195336124],[12.335124477540464,42.85884099882505],[12.335582797257981,42.858792097737854],[12.335748643993423,42.858710619941185],[12.33579328881304,42.858688685656624],[12.3360169588798,42.85846436994419],[12.336062456051451,42.858418741465236],[12.336300858304607,42.858191442786755],[12.33630944470523,42.85811263733936],[12.33631295999638,42.85795046176414],[12.336122503848753,42.85759585935349],[12.335330876346028,42.857668461422264],[12.33430028125593,42.85763550197666],[12.334917404152998,42.857234833683094],[12.335470133206515,42.856831521804146],[12.335788696887166,42.85595783858378],[12.337046649603195,42.855867128535685],[12.338612935604427,42.856784850625914],[12.338725989652373,42.856428314532295],[12.338895349806661,42.85589419777974],[12.339780827972474,42.855942637656234],[12.34093448659681,42.856005737326726],[12.34154574824523,42.8564507785535],[12.341647884543233,42.8565251418298],[12.34209407225905,42.856847505206304],[12.342584937443046,42.85720214292928],[12.342630085856706,42.85723477174177],[12.34356433710055,42.85663120205529],[12.344637665448632,42.855897498541076],[12.345030593731893,42.85612010491722],[12.345503740526608,42.85584515118026],[12.346615212715326,42.85595266716128],[12.34771902853395,42.85605945817533],[12.347465557245652,42.85623794818021],[12.347001444478005,42.85656667864267],[12.347552689568378,42.85680265934885],[12.34779067169029,42.856705650008095],[12.348358985190384,42.85654943762313],[12.348970937289371,42.8565360370874],[12.349945665947667,42.856003257040534],[12.350729048931118,42.855341017160185],[12.350915514974494,42.85518248158688],[12.351184742675748,42.855719338665196],[12.351384350983908,42.8561141787083],[12.352075566935554,42.855346570759465],[12.352723592008994,42.85556169414207],[12.35307070043152,42.855389428004514],[12.353390640398771,42.85519547677576],[12.353555814341206,42.85509608999248],[12.353589734313354,42.85536335414825],[12.353600784618514,42.855445931310015],[12.353888813592748,42.85580664068406],[12.35517253767674,42.85599408926452],[12.356242603033683,42.856106766251045],[12.356642974889297,42.85559078306669],[12.35694714835954,42.854852520320954],[12.357280988538546,42.85468964853913],[12.357899206699514,42.854932631708756],[12.35817968559019,42.85504143667699],[12.359258666926427,42.85526186526162],[12.359531528415962,42.85501662077619],[12.359672921217175,42.854889537287136],[12.359870199384972,42.85471209581418],[12.35992479344843,42.85459285999341],[12.360204244645756,42.85398252194428],[12.361136801585277,42.85378854662531],[12.361733061289673,42.85354398837789],[12.362153632995522,42.853371484712554],[12.363204516552663,42.85307495304607],[12.363594160972683,42.85298246577914],[12.364616902687251,42.852745279346365],[12.365814563312945,42.85270103799504],[12.367343840464045,42.85243991820141],[12.36870121926684,42.85213600329142],[12.369265453632321,42.8520096659023],[12.370876537560491,42.85180310572642],[12.371089139006527,42.85177583530406],[12.371773080418604,42.85154222569882],[12.372315319970449,42.851357011565405],[12.372625840249327,42.85076709600472],[12.372992329729703,42.850067486442775],[12.373527865545828,42.84910175491803],[12.374466375106453,42.84856983481618],[12.375516658090032,42.848124652245374],[12.3765333797188,42.84765343488652],[12.377411897786825,42.84718630972194],[12.377942289223357,42.84657636856673],[12.378254965398229,42.84625198719511],[12.379134757840061,42.8460939611468],[12.379394788934594,42.84604724227236],[12.379882031043147,42.84612088824544],[12.380690318851242,42.84624305348676],[12.38121252193604,42.846380689099995],[12.381869019540037,42.846316264746974],[12.382230109057604,42.84620652497243],[12.382606718817296,42.84611436031152],[12.383019112448322,42.84606164823634],[12.3839044106224,42.84611198452483],[12.384516506182202,42.84635498673768],[12.38482224386706,42.846575539468056],[12.385269583022952,42.84713405806322],[12.38590578225415,42.84781754179217],[12.386657131031571,42.848326542557714],[12.38722019321882,42.84880508134163],[12.388006069878845,42.84949763689838],[12.38884535058277,42.8500895437408],[12.389797374913355,42.85070061834798],[12.390828540278509,42.85119227849913],[12.391905946511791,42.8518716444218],[12.392855328446853,42.852419742608916],[12.39319049627558,42.85266750573496],[12.393991269564854,42.85325944236946],[12.394756672789677,42.853812982437155],[12.395791660989248,42.85375760129163],[12.395890696730113,42.853752299723965],[12.39628315495858,42.85361750789605],[12.396780324126206,42.85344674957681],[12.396812817158201,42.85347077001605],[12.397049771834599,42.85364584734021],[12.394941626358067,42.854335068821776],[12.393118600324842,42.85488831489495],[12.392882957756829,42.854959828660675],[12.39156226925159,42.85529607624657],[12.389738504826028,42.85575821281677],[12.38891824468977,42.85602951255534],[12.388113554669674,42.856423304551505],[12.3872201863403,42.856952431870546],[12.386694602281068,42.85761206136416],[12.386360631701425,42.85815397294632],[12.386069901346266,42.85850014757673],[12.385685114213931,42.85895831251106],[12.385574481380303,42.85909004320101],[12.385397572981628,42.85943867579131],[12.385076780847461,42.86007086229339],[12.384557691587457,42.861066475659364],[12.3837477446499,42.86158220940363],[12.383135234069394,42.861842967336656],[12.38259131791532,42.86196645935959],[12.382402290727464,42.86200937587111],[12.382213039035273,42.86202048354774],[12.381466608240054,42.862064293169716],[12.380089262122192,42.861773250372046],[12.378919139796695,42.86148696803188],[12.378179979655707,42.86130974216796],[12.377290275294035,42.861258828173376],[12.375977097611456,42.86141189415322],[12.374944980683662,42.86178509030854],[12.374032009044928,42.86228314206617],[12.373002457905004,42.86308380059534],[12.372876578104382,42.863201271324385],[12.372635295785862,42.86342644275206],[12.371922367572596,42.864096988628916],[12.371607668659523,42.86466980272426],[12.371647490490878,42.86519734916255],[12.371664998695044,42.86576254415388],[12.371792576620877,42.86617761685938],[12.37207297936536,42.866901484508595],[12.37185345964771,42.86767494353113],[12.371521250927909,42.8681710460435],[12.371378777099906,42.8685951687886],[12.371384604141953,42.868946394568624],[12.371701618001962,42.86929713148534],[12.372066866428774,42.86948868946213],[12.372460605502653,42.869497732651155],[12.372941138470626,42.86941717631861],[12.373740270541067,42.86916077568073],[12.374651401818397,42.868708475470996],[12.375186959738409,42.868308615251856],[12.375561873329975,42.86778295437401],[12.375980163328007,42.86721251108831],[12.376410768657111,42.866840766668744],[12.376812897681706,42.86665155290999],[12.377520065968719,42.86660669733054],[12.37889097420474,42.8665617919721],[12.379261087431546,42.866638964165375],[12.379839361850383,42.86669799708533],[12.38046556167459,42.866605486578045],[12.380898807374528,42.866661203316355],[12.381363159366776,42.86696184438952],[12.381520649842885,42.86765236852867],[12.381407826002677,42.868225564210825],[12.381362128495695,42.86845775027946],[12.380870728604608,42.86928606785594],[12.380030307065327,42.87051850880051],[12.379633078987311,42.871081833347965],[12.378772471681101,42.87181009725059],[12.37803876185584,42.87248018733826],[12.37703692825691,42.87311360322023],[12.376272737893132,42.87352348711369],[12.375906884909968,42.87432410417298],[12.375979201571164,42.875097491776145],[12.375684675808234,42.87533586109134],[12.375495965881957,42.87548858370133],[12.375129862811448,42.876197206962914],[12.37519102444937,42.87651399343678],[12.37486621837763,42.87709688812586],[12.374442915185808,42.878157709159694],[12.374264453285933,42.878935087291175],[12.374233675249016,42.87907459117439],[12.374156359777698,42.87942504328461],[12.374136840254685,42.8798849304977],[12.374255855094688,42.88016598925585],[12.374494348732203,42.88037486783064],[12.37480358743802,42.88056832759318],[12.375056210859087,42.881115573804806],[12.375914172686556,42.88181958028089],[12.37665847071616,42.88241575910771],[12.377041702637236,42.882722701760166],[12.376474852078172,42.88309059800693],[12.376058834626416,42.883258809884666],[12.37592230271592,42.88331401351746],[12.375137090118068,42.88348124666853],[12.374382374198708,42.88357554712688],[12.374225448072893,42.88361569957894],[12.373943805282703,42.88368776292785],[12.373706149184779,42.883748571184626],[12.372954588638319,42.88390129851537],[12.372066598362505,42.884022029278015],[12.371171759643664,42.88400340038734],[12.370165475849685,42.88418613290445],[12.369192233053429,42.88451193893327],[12.368379747077862,42.88514814640026],[12.367813863578176,42.88597067065251],[12.367548590198032,42.88673482935046],[12.367636941268538,42.88744354201461],[12.368260455926594,42.888100479386694],[12.369137561631273,42.88869141202487],[12.369319831402388,42.8887607201274],[12.36990709537981,42.888984023492796],[12.370225402998827,42.889105057518286],[12.371593028426597,42.8894699299886],[12.372666728168252,42.88984796156856],[12.37217537557145,42.89047922812933],[12.371854416500943,42.89134407893704],[12.371475515545225,42.89226914930882],[12.371127946061888,42.89330585405845],[12.37089653978045,42.89419957725266],[12.370734784393122,42.8946040560072],[12.370348117240908,42.89461908595738],[12.369960534962088,42.894656398790886],[12.369566224794566,42.89464074476655],[12.369127066699201,42.89462403271659],[12.368534603865946,42.89462361861403],[12.368201245911902,42.894652265369864]]]}}]}
