{"type":"FeatureCollection","metadata":{"code":"054054","referenceDate":"2026-01-01","sourceDbfExportDate":"2026-02-18","upstreamArchiveUrl":"https://www.istat.it/storage/cartografia/confini_amministrativi/non_generalizzati/2026/Limiti01012026.zip","sourceManifestSha256":"70ac8256c4785dc6ed2814c32b6965ae76f9161b51abaa1660059e1c6cbd8ca6","license":"https://creativecommons.org/licenses/by/4.0/","attribution":"Istat, Confini delle unità amministrative a fini statistici al 1° gennaio 2026, versione non generalizzata.","modifications":["Converted from WGS 84 / UTM zone 32N (EPSG:32632) to RFC 7946 WGS 84 geographic coordinates.","Converted from shapefile to per-municipality GeoJSON without geometry simplification."]},"features":[{"type":"Feature","id":"054054","properties":{"code":"054054","name":"Trevi","alternativeName":null,"regionCode":"10","regionName":"Umbria","territorialUnitCode":"054","territorialUnitName":"Perugia"},"geometry":{"type":"Polygon","coordinates":[[[12.806932733969049,42.93328345251342],[12.806765963576002,42.93341055984441],[12.80645377975359,42.93365054706799],[12.805813243898346,42.93375741622375],[12.805377302832564,42.9336053668497],[12.804912685211926,42.93322465947914],[12.804627328880779,42.93296855521467],[12.80372190434173,42.93258001894783],[12.803137828402766,42.93245990322465],[12.802424217433764,42.932213522929956],[12.801248554799987,42.931838455990274],[12.800678606397756,42.93168634465536],[12.80044729440423,42.93163550830458],[12.799703063363403,42.9315386961992],[12.798982204742261,42.93147261739049],[12.796932197038124,42.9315857603242],[12.796553858200697,42.93153529959203],[12.796171453594807,42.93128239712428],[12.795735385818691,42.93077915211092],[12.795431294505285,42.93037959640028],[12.794959673226346,42.92984601473976],[12.7946129415592,42.929263292614245],[12.794214141142836,42.928767820774915],[12.793844178955695,42.92849198249335],[12.793663864079548,42.928398927284114],[12.793466040106008,42.92810837641139],[12.79324168179514,42.92785921721278],[12.79311119582789,42.92736833488251],[12.792851466876906,42.926805215085736],[12.7923199003558,42.9258684578958],[12.792263903007836,42.92539313775623],[12.79264679591682,42.92495724602721],[12.792916489571374,42.92461066827414],[12.792852906717192,42.9239870136471],[12.792550918145496,42.92353335194959],[12.79237166470867,42.9233952306172],[12.792168249349327,42.92326242863696],[12.791901328263592,42.92284361507307],[12.79167243210605,42.92205887800794],[12.791539856769433,42.92165810315258],[12.79133723827439,42.92115161321294],[12.791099822470494,42.92093889489621],[12.79072829771312,42.92069911016862],[12.789977915099913,42.92044938798725],[12.78928980483551,42.92016606810377],[12.788819291136514,42.919947574010024],[12.788336610909619,42.919742977806244],[12.787946810553011,42.91967937120611],[12.787141214624507,42.919602508045486],[12.786763862691787,42.919529485703166],[12.786430644827297,42.919252406333655],[12.78639911717304,42.919100382873296],[12.786446710513431,42.918815187543984],[12.786453264904043,42.91863488955259],[12.786274492081514,42.91847874575328],[12.7859234092563,42.91835982171376],[12.785378706116948,42.91817978088317],[12.784730279351805,42.9178185932785],[12.784564054666397,42.91768004875742],[12.78440867152655,42.91756813749668],[12.784196306860064,42.917363574468986],[12.783476614571887,42.91690119979579],[12.783245547792399,42.916841320698424],[12.782865803013479,42.916853889600254],[12.782433427580742,42.91694472091355],[12.782139913190756,42.916927437237014],[12.781838068075679,42.91682486729351],[12.781602913230271,42.916873160052575],[12.781512318920544,42.91700670905132],[12.781481309883723,42.91718781581755],[12.781451053685677,42.9173688958687],[12.778605690072105,42.92015509312676],[12.77822117712742,42.920302854649144],[12.777566592907062,42.92044154313497],[12.775787434266933,42.92084695119459],[12.773885306740517,42.92126992575474],[12.772257829321667,42.921589247153456],[12.770609209251557,42.92208932563749],[12.769619845672027,42.92235154635504],[12.768994302364211,42.922439699202364],[12.768745292795185,42.92247492478651],[12.768407282104512,42.92240716240706],[12.767954604514879,42.922316410418624],[12.76690299828959,42.92226104643292],[12.765819602851137,42.92240027976164],[12.765227221994516,42.922505316259326],[12.764845204230104,42.922229780773094],[12.764601811123503,42.92209374577634],[12.764173062291043,42.921855759389445],[12.763480463813268,42.92169848218768],[12.762822711957535,42.92158508258649],[12.762199037562576,42.92121395414361],[12.762018616407964,42.92108688783431],[12.761649417806657,42.92082686802126],[12.76134016263484,42.920224792455464],[12.761217799818263,42.91990018912748],[12.760965824169597,42.91940876531627],[12.760598044221497,42.9190652202375],[12.759768246565017,42.91897997819942],[12.759011153026721,42.91891933549478],[12.758960377478791,42.918923556799164],[12.75838499247365,42.91897139552967],[12.758096851546128,42.91879183196955],[12.757540199356564,42.918603052099435],[12.75689594996931,42.918786293183686],[12.755993502724007,42.918689894656495],[12.755037388139346,42.918365660390904],[12.754126480919657,42.918129955230945],[12.753153565464942,42.91793230908176],[12.752630303472781,42.91748580683182],[12.75240640240284,42.9173671033257],[12.751880138438711,42.91724932494711],[12.751212519963872,42.91707313712713],[12.75043623707503,42.91686001671606],[12.749740275799217,42.91678380901616],[12.749219576351324,42.9169719524942],[12.748501678710497,42.91715306238597],[12.74818420765444,42.91713195863936],[12.747513182265767,42.91706392085355],[12.747418639014349,42.91705801900328],[12.746998490174672,42.9170357776722],[12.746522034106322,42.9170063826607],[12.745659530219855,42.91715168405373],[12.745344229520535,42.91723030036782],[12.744807240911632,42.91736418728437],[12.744445285319243,42.91736704615787],[12.744311651199574,42.917366643124666],[12.744193327678655,42.9173662823031],[12.743878017492065,42.91734359665006],[12.743204414839518,42.91729513003804],[12.742821464109976,42.91723046646669],[12.742534495022118,42.91718200857447],[12.742430491448173,42.91701777149096],[12.742291517855623,42.91679830894107],[12.742626265013739,42.91634616085352],[12.743261221395409,42.9160597671075],[12.743664741630138,42.91574491678081],[12.743774635068293,42.915272308634925],[12.74382507467721,42.91505538650948],[12.74338543004921,42.914344978772455],[12.743017567246845,42.914010375444526],[12.742819384181301,42.91374676336224],[12.74288231779403,42.91371739161824],[12.74313059106244,42.91360152036263],[12.743234875580487,42.9135066062934],[12.74329831279512,42.91344886753067],[12.743346091561056,42.91340538218473],[12.743107177737285,42.913181012148584],[12.742530462444579,42.91327452024984],[12.742201304206993,42.9129579224513],[12.742222835111262,42.91293335843607],[12.742377309233602,42.91275712653823],[12.742364862924127,42.912724502597165],[12.742277292958061,42.91249497726379],[12.741745835603275,42.912557244023915],[12.741330899462495,42.912605857395484],[12.74115754858969,42.91262616624376],[12.740891882289242,42.91257024776426],[12.740731824643555,42.91253655817689],[12.74087972648158,42.9124183883462],[12.74097949451141,42.912338673991066],[12.740582756088008,42.912262315841325],[12.740041695426807,42.91259709130287],[12.739777697451673,42.91282438285062],[12.738945492529542,42.91248244236062],[12.738281040377306,42.912216156274404],[12.737867498028361,42.91205042152846],[12.737761517955953,42.912007948307554],[12.73745205963568,42.91197904783267],[12.736797546194307,42.91191792582685],[12.736498272744571,42.911893884142856],[12.736062249195898,42.9118588540124],[12.73572206321701,42.91183152207531],[12.735016546245802,42.911710506392055],[12.734518625612669,42.91159172042411],[12.734431192543111,42.91156166403192],[12.733526526841716,42.911250504579286],[12.732966768839816,42.91109366519173],[12.732349301647398,42.91092068150418],[12.731367858599228,42.91064570191434],[12.730262031152991,42.9104856078053],[12.730149905897433,42.91046937423659],[12.729538960579017,42.910352096895444],[12.7294683292686,42.91033854358083],[12.729079788390663,42.91024316245237],[12.728887347298562,42.91020214973192],[12.72854002777101,42.91012812894288],[12.72795043642952,42.91000249243988],[12.727815670452037,42.90997377455039],[12.727296105392726,42.90970247064421],[12.727041031892368,42.90956927627992],[12.726569754867404,42.90931748710834],[12.726316317189678,42.90917551847019],[12.725161450904528,42.9085015758757],[12.725126596749822,42.90848123115679],[12.724581660178579,42.90830540589663],[12.72428888554589,42.9082744304502],[12.724239690696752,42.90762327066953],[12.723419379989984,42.90751259777581],[12.723282858516834,42.907494174415],[12.722976448711389,42.90745283594877],[12.722922027530915,42.907445493622454],[12.72281067346974,42.90743047020445],[12.722544137208462,42.907394510254676],[12.72221064349887,42.90734932911491],[12.722060667392377,42.90732900676055],[12.72200509151706,42.9073214629878],[12.720737094361189,42.90714870464666],[12.718730434947911,42.906875275176155],[12.714897009775852,42.90617549931856],[12.710419987510324,42.905358051778826],[12.707559253291429,42.904973612515484],[12.707467643316605,42.904961277780465],[12.706598105702685,42.90484411233517],[12.705727886740302,42.904726865981615],[12.705634373998425,42.904648732804255],[12.705525611850577,42.904557859064184],[12.705503959922616,42.904532900788574],[12.705347008594384,42.904351975532514],[12.70530274897235,42.90431301335174],[12.705152895738363,42.904047768125956],[12.70491957079395,42.90421914396005],[12.704341704988485,42.90464357925654],[12.703484742430508,42.905272994056006],[12.703389548069346,42.90534290616191],[12.702117393836556,42.9060679935681],[12.697557892784296,42.90739815121651],[12.696837752349992,42.90760779298477],[12.697206652390378,42.907235731031605],[12.69812065310884,42.906391335680894],[12.69888383876958,42.905623818263145],[12.700125060231226,42.90453022644575],[12.70085341374963,42.90371881301797],[12.701457855880507,42.90294741867124],[12.701865009816492,42.9022049443653],[12.702013510444496,42.899535003253305],[12.70210737232965,42.89933838277451],[12.702291781029617,42.89895426809796],[12.702571559274269,42.898053829448095],[12.702882117475877,42.89691378285396],[12.702901934839732,42.89572464356636],[12.70296202630004,42.89477281095366],[12.703068566563177,42.89354934897245],[12.702768074294926,42.89142067811258],[12.702763811881017,42.891272437020355],[12.702751197189443,42.890833860479304],[12.70274685858759,42.89068305664427],[12.702837991359644,42.88989226621021],[12.702542312496828,42.888929439309535],[12.702353228233497,42.88840433194248],[12.70211229700825,42.88795052548321],[12.702105765055782,42.88778659202621],[12.70210614431236,42.88500084458092],[12.702106768334888,42.87945803530224],[12.701708832135091,42.87443329826553],[12.701373545055578,42.872589368498346],[12.701231104239076,42.87200994750847],[12.701182080138143,42.87181052557558],[12.701032077033993,42.87120033250458],[12.70099907714045,42.8710660984874],[12.700246023274092,42.86800238878452],[12.699949396461209,42.86708459515923],[12.700030404285277,42.86654624063177],[12.700416208384024,42.86635818901467],[12.70035416734123,42.86574342257487],[12.699967226251202,42.86499061890907],[12.69944926734985,42.864107001062656],[12.697421551783211,42.86234481960832],[12.697685756312394,42.86210668070717],[12.698176729946857,42.86178466188565],[12.697920335569659,42.86077102079513],[12.699052821082052,42.860252701404995],[12.698674965219169,42.8595491102558],[12.698379674580972,42.85895990316238],[12.697977096309783,42.85823911130783],[12.69712837198312,42.85734818215665],[12.696479117581832,42.856518304671255],[12.696415231219866,42.856434827611196],[12.69619424881903,42.85516794580113],[12.696108967154686,42.85350949372866],[12.695411612537661,42.85248758410366],[12.695115927514818,42.852249529181734],[12.694628110716248,42.85184211749509],[12.69346476394169,42.851225320116065],[12.69342758142617,42.85120561772594],[12.693267374847002,42.8509046724131],[12.69336614146214,42.85057282876273],[12.693095949288173,42.8502619200542],[12.692768792286145,42.84986732592523],[12.69266446539235,42.849361977142514],[12.692405930904522,42.84877156545425],[12.692091790358194,42.84831350264382],[12.691710196901324,42.847749578855456],[12.690134531105993,42.846026693722486],[12.690590559320539,42.84595344649156],[12.690820129406125,42.845978429862356],[12.691515799133139,42.84605413303514],[12.692481105372798,42.84610850582708],[12.693671337412342,42.84599803627221],[12.692924896852615,42.844342921627245],[12.692082718084507,42.84232624434095],[12.692199110891071,42.841854297729],[12.69296694625097,42.84125325527861],[12.693814989608548,42.84082969944467],[12.694511212833481,42.84086121608478],[12.695013482713888,42.84087199982379],[12.695154880620441,42.84076838288874],[12.695896610993168,42.84079392838079],[12.696805905115072,42.8406925060692],[12.697584757440962,42.84078887798961],[12.69816664265762,42.84095464258955],[12.698595251952689,42.84124240048998],[12.698980176519965,42.84147755909919],[12.699261667534179,42.841427938534345],[12.69964668588012,42.84128041035021],[12.700091944156558,42.84152712968951],[12.700486324002618,42.84176645844158],[12.700738030432134,42.84187086910591],[12.701277184167083,42.841871414013966],[12.702103266907942,42.841849186973185],[12.70351386478632,42.84193406073703],[12.703445739067446,42.842431469545126],[12.704131125554785,42.84280544831673],[12.704495843606322,42.842523507342776],[12.705006854784903,42.842948141581694],[12.705480466996377,42.8423520495341],[12.706436655465408,42.84298282631175],[12.706401075560345,42.84330813367307],[12.706746981129005,42.843504000415884],[12.70831651816331,42.84276882224661],[12.708900626328436,42.843519703360336],[12.70899574519222,42.843512118688494],[12.70980897633184,42.843440705921175],[12.710135025539888,42.84293492483829],[12.709689483120139,42.84269727075427],[12.709721874121666,42.842178503624616],[12.710710315493198,42.84124153173556],[12.710614063199218,42.840834994915156],[12.711814365131247,42.84049889602118],[12.712150592443578,42.840588883888934],[12.712759407280966,42.84075183661165],[12.713510390512667,42.84065092320532],[12.714267107170176,42.840045631734114],[12.714663865891119,42.839546524058434],[12.714889331743418,42.83943079388946],[12.715338182528889,42.839200480306694],[12.71629329108607,42.83852566921125],[12.716548879781326,42.83819772524519],[12.716738940975858,42.83766933107131],[12.716924409095158,42.83700153081488],[12.717695158569834,42.837332129342336],[12.71860649683041,42.837788696224194],[12.719132406243022,42.837492486847225],[12.719690275816987,42.836965617936166],[12.719396782495929,42.836624022188566],[12.719762975263695,42.83598633164302],[12.720007941854993,42.8359783621809],[12.720175987901008,42.8359990439839],[12.720478181564529,42.83603718706679],[12.720895629530963,42.83614305988291],[12.720942695996323,42.83616440175328],[12.721426532488884,42.83638380325717],[12.721497765099283,42.836416108459076],[12.721804772426347,42.83668971613454],[12.72202031529958,42.83714640436839],[12.722064197376923,42.8376221824475],[12.722364672321666,42.837774467491286],[12.7229087307421,42.83794583721846],[12.723317044090617,42.83816213862031],[12.723606341911283,42.83859840428919],[12.723694335902765,42.83887913792509],[12.724233565347127,42.83855096671217],[12.724861002605941,42.83906625574638],[12.72555237191584,42.83960196160117],[12.725758065628858,42.83999593430518],[12.725623437146579,42.84063057633203],[12.726558611859826,42.84082070008723],[12.726773093105217,42.8416780712478],[12.727942903286495,42.84180200856027],[12.728049302005319,42.84223522534496],[12.729108844587218,42.84233122952923],[12.729332416503125,42.8419547909254],[12.729880297330935,42.84204945849553],[12.730503766288303,42.84207864717865],[12.730849217767368,42.84206285763898],[12.731177885575415,42.84204763365395],[12.731416387041762,42.84201917490944],[12.732432647351175,42.84189790134232],[12.734605091370302,42.84163862149849],[12.734631482454997,42.84143090608706],[12.734674025437522,42.84109608470291],[12.73646826337908,42.84089791246164],[12.738235163446587,42.8406444702272],[12.73915058052681,42.84051315675232],[12.739294280174189,42.840233834506094],[12.739629536712565,42.83946654308017],[12.739820022132868,42.83891108238789],[12.740036967079401,42.83835025754241],[12.739997490410996,42.837734793681136],[12.74276468597131,42.83431733584954],[12.747975188366837,42.83403407585226],[12.747572206297113,42.835726505288115],[12.748018524997176,42.83588744534234],[12.747758095531612,42.83629665888915],[12.75017963087335,42.837684861856566],[12.749696018442528,42.838853214124455],[12.749826286074846,42.83898400639184],[12.75035545689481,42.83923675962916],[12.752258161697059,42.83973258427745],[12.752240615567171,42.83992221797312],[12.75222805401753,42.8402197741521],[12.752353917544418,42.84045423360077],[12.752508477581324,42.84062023918296],[12.75246181671679,42.84090989979974],[12.752660110856533,42.84112848135651],[12.75311357954877,42.84146924290631],[12.752729147534708,42.84191403965306],[12.753012718504102,42.842233999072015],[12.753226442377287,42.84235017003834],[12.753463964444117,42.842479268645164],[12.753527089845596,42.84251358278365],[12.753671046940555,42.842534340450065],[12.7541118596714,42.842597911559665],[12.754619476995375,42.84279733993243],[12.755206860918706,42.84315169680435],[12.755775003005699,42.843655262642855],[12.756435953718182,42.844011697535684],[12.75752129182687,42.844745871156675],[12.758136732332932,42.84498225302714],[12.759014568804963,42.84505235469767],[12.75917575407712,42.84506518460226],[12.759870471587883,42.84497156566923],[12.760197097126836,42.84501786470506],[12.76097055928863,42.8451276990896],[12.764490198862594,42.8462769081125],[12.765551375534953,42.846737163419036],[12.766621906390984,42.847237630524],[12.76669373604249,42.84726982005482],[12.768212378641195,42.84795049766201],[12.769214168582216,42.848313634271086],[12.770217269029224,42.84868573703947],[12.771425518284753,42.849123089429526],[12.772271421043126,42.84943731332915],[12.772706455359149,42.849598542330455],[12.773977033380943,42.84996628460524],[12.775010358789938,42.85019327753599],[12.776486716434123,42.850599207353866],[12.77728366016038,42.850937526799505],[12.777804445074485,42.8503981063508],[12.77818050846906,42.85050723438317],[12.778909820012313,42.85062718233216],[12.78004595191038,42.85033301785662],[12.781132921422,42.85008549797701],[12.781693447997878,42.850037343868046],[12.782581487712886,42.849961035873314],[12.784058616866538,42.85001569490026],[12.784976997459655,42.85002582553169],[12.785484137197201,42.85025212563981],[12.786252758109818,42.85062735053309],[12.787054012959226,42.85078539361857],[12.787633361126304,42.85071667487585],[12.788514809114996,42.85066045458938],[12.789651513192002,42.850726321730704],[12.79044704924609,42.85107811013631],[12.790993063339648,42.85156422313908],[12.791433194353507,42.852256420137316],[12.79192080918686,42.85298755411966],[12.793377040876852,42.85334892143179],[12.793378959130226,42.853654993305945],[12.793358081721758,42.85424992414397],[12.793376368718237,42.854735534815866],[12.793503041396042,42.85494290916911],[12.794082388234337,42.85552243924096],[12.79474055127713,42.85630192823325],[12.79527626609128,42.857067463270525],[12.79531876327407,42.85761077836424],[12.795080600200809,42.85805537410712],[12.795069826992654,42.85841587556993],[12.79550537538314,42.858820091132465],[12.795554707856313,42.85886348238769],[12.795767699339207,42.85901045575839],[12.796307903726753,42.85938320064139],[12.79723028440503,42.85994230665869],[12.797922663841995,42.860405506423824],[12.79881206183016,42.861494045303495],[12.798932529216362,42.86164148751576],[12.799618705479096,42.86266312563702],[12.800009862365826,42.863352417131296],[12.800086686594652,42.863930602348965],[12.79996231453873,42.86469553856929],[12.799932863385868,42.86551136600349],[12.799847024144919,42.86619399687355],[12.799400513832223,42.86670855164426],[12.798329900230009,42.86792361908727],[12.797244588007981,42.86916166077211],[12.796326608250263,42.870209573954455],[12.795639711072749,42.87093467469937],[12.794788734945122,42.8717912701317],[12.793853344944667,42.8726191490075],[12.793232657828396,42.873202467430126],[12.792881922990002,42.87413249078364],[12.792996529203249,42.875015561860074],[12.793565238976782,42.87589256378044],[12.79435978896692,42.87660899911221],[12.795051920012483,42.87709023954057],[12.795779557656013,42.877718809140795],[12.79585988681535,42.877788203065144],[12.796459442453756,42.878493101638604],[12.796822075052821,42.878629607077556],[12.798735815447564,42.879241328294434],[12.799833239576179,42.879704554177756],[12.799978114391582,42.88008239751042],[12.800354118682534,42.880560595950406],[12.801099291114102,42.88093199648765],[12.80151857643549,42.88119265810835],[12.802387698856002,42.88187506211088],[12.802799839408301,42.882343051037665],[12.80421392268144,42.8842453108604],[12.804554300490862,42.88398187670616],[12.805056510082727,42.88365002873096],[12.805418543414037,42.883439900284394],[12.806373532459641,42.883079457474494],[12.80739533127674,42.882586247421884],[12.808104807730322,42.88226549962967],[12.808960553010042,42.8819218575772],[12.811326446269693,42.88121273836443],[12.812559994456805,42.88092851716084],[12.813467425072334,42.8805426061146],[12.815111476425638,42.8797809431185],[12.816281815276021,42.87953930195029],[12.817312533466362,42.87947787578305],[12.819000267256973,42.87951154682458],[12.820510512827044,42.879434071714876],[12.820934373758279,42.879235324724085],[12.821303588917036,42.87880883151883],[12.821729882600161,42.87853797541526],[12.822144920370096,42.87855561239741],[12.82246117624681,42.87862156250385],[12.822719144334796,42.87893256920854],[12.823064690811977,42.8792001331728],[12.823853252435528,42.87908371925656],[12.824581837642471,42.87888826428504],[12.825440983221364,42.87849037434926],[12.825855468438123,42.878201892288395],[12.82710966866593,42.88135623461121],[12.827158968176635,42.88148513714633],[12.82763697844191,42.882198436613045],[12.827961423665872,42.88308794066503],[12.828161727987329,42.88399961644199],[12.828078428906734,42.88461915435621],[12.82775268244856,42.88517928564372],[12.827169609827896,42.886094675399356],[12.827109369310076,42.888977875378686],[12.827109426461538,42.889572125841724],[12.827057298311702,42.88959864843975],[12.8268348945575,42.889711854692735],[12.82636900844888,42.8900605790458],[12.826081446819543,42.890236787007005],[12.82567288268906,42.89069612633178],[12.82505752100726,42.89148653302309],[12.824317366436565,42.892326142697854],[12.823673203695815,42.893047582193816],[12.823629557278121,42.89309645051332],[12.822795623624069,42.89383113010022],[12.822191306479791,42.894306037302705],[12.821314493563472,42.895177191832516],[12.820736876891683,42.89560167182463],[12.819822559346214,42.89581678972988],[12.818758099231705,42.895807342330066],[12.817507696908919,42.895835589700496],[12.81706641838617,42.89618797176902],[12.816234532081033,42.89684601143172],[12.815042861062723,42.89695781155692],[12.813871831838794,42.89718146674516],[12.812835834098406,42.89772021951153],[12.812332305604794,42.89810617372182],[12.811561716349425,42.8987666336214],[12.81088364595753,42.89923942500969],[12.810027419773458,42.8998892138394],[12.809329135211106,42.90024563241672],[12.808637881552162,42.89971042537561],[12.808247132134872,42.899331786151215],[12.807998596412787,42.89907446212128],[12.807825043077203,42.89879212509655],[12.807525535573747,42.89826637643491],[12.807312390976225,42.89806188123082],[12.807095901684885,42.8979520546715],[12.80703577957569,42.898255672621325],[12.807062655514041,42.89854289663652],[12.807072300515136,42.89894774806851],[12.80706069555993,42.899281264354535],[12.806923942705602,42.89969549121582],[12.806794742461717,42.90055515056973],[12.806897396659885,42.90148811202693],[12.806387498406524,42.902045315904225],[12.805598367031466,42.90253077150835],[12.804321868289048,42.90329356660164],[12.804013750252219,42.903496807859206],[12.803631873283889,42.90374869456027],[12.803463689124662,42.90403790932819],[12.803305835894944,42.90430876538465],[12.803120503808262,42.90469309068899],[12.803321560247209,42.90523562463802],[12.803780308401937,42.90577410111105],[12.804607235361393,42.906286787246216],[12.80540882808232,42.90682284526987],[12.80634382338974,42.90739946555477],[12.807212126804764,42.90813586516128],[12.807794806928449,42.908634167054196],[12.808401577513655,42.90947380912513],[12.809140508168435,42.910408082773216],[12.80960470255654,42.91114441296724],[12.810242186947123,42.91215860176316],[12.811014793885148,42.91283063564136],[12.811772087482039,42.91360219542467],[12.812123554342087,42.91404967496097],[12.81176449361754,42.91736149870321],[12.812022033591026,42.91761401414366],[12.812197890697313,42.91783324076048],[12.812447999463288,42.91802747592251],[12.81260028920765,42.91822499201902],[12.812835121614468,42.91851877441773],[12.813139954669802,42.91890477960102],[12.813392529033848,42.91938704869457],[12.813580836325375,42.91959686029884],[12.813349770587514,42.91989718535634],[12.813166292508795,42.92023643401411],[12.812602716092726,42.921277152035],[12.812149663745005,42.92196303779857],[12.81181505488147,42.92239736539646],[12.811395188207392,42.92319919571788],[12.809627416086665,42.92556638463255],[12.808809362767278,42.92666175753456],[12.806932733969049,42.93328345251342]]]}}]}
