{"type":"FeatureCollection","metadata":{"code":"055030","referenceDate":"2026-01-01","sourceDbfExportDate":"2026-02-18","upstreamArchiveUrl":"https://www.istat.it/storage/cartografia/confini_amministrativi/non_generalizzati/2026/Limiti01012026.zip","sourceManifestSha256":"70ac8256c4785dc6ed2814c32b6965ae76f9161b51abaa1660059e1c6cbd8ca6","license":"https://creativecommons.org/licenses/by/4.0/","attribution":"Istat, Confini delle unità amministrative a fini statistici al 1° gennaio 2026, versione non generalizzata.","modifications":["Converted from WGS 84 / UTM zone 32N (EPSG:32632) to RFC 7946 WGS 84 geographic coordinates.","Converted from shapefile to per-municipality GeoJSON without geometry simplification."]},"features":[{"type":"Feature","id":"055030","properties":{"code":"055030","name":"San Venanzo","alternativeName":null,"regionCode":"10","regionName":"Umbria","territorialUnitCode":"055","territorialUnitName":"Terni"},"geometry":{"type":"Polygon","coordinates":[[[12.198982107498708,42.936257210217036],[12.197831547042956,42.93629840674155],[12.197013263029849,42.936573403611305],[12.196130376793361,42.936814168241554],[12.195331439414707,42.937241685895984],[12.195026505915902,42.93744077096872],[12.19459649664654,42.93772145868522],[12.194290181278433,42.93784070895072],[12.193923757422954,42.93798333095528],[12.192988174510374,42.93815351522793],[12.191660436707693,42.93854623989961],[12.189957184797857,42.93903946909404],[12.188646692878802,42.939544238841655],[12.188151447666193,42.93943198856648],[12.187367078125353,42.938481417565065],[12.186694221319033,42.93755473167975],[12.186334078180266,42.93729915199104],[12.18589235965005,42.93699181246077],[12.18515026009346,42.93660729384224],[12.184277144205975,42.93632547977509],[12.181862192331474,42.935834435967564],[12.181408280687068,42.93577865806627],[12.180159560743387,42.93562519944566],[12.178079617925901,42.9352283183462],[12.176526886121703,42.934821255493425],[12.175216578893417,42.934362408922986],[12.173798633903306,42.93396958270288],[12.17262352605258,42.93374107436877],[12.17246467166721,42.933511350905015],[12.172860834770775,42.93287457744643],[12.172788329935832,42.932417385517404],[12.172600143947657,42.931855341800784],[12.172306846676886,42.93140877486519],[12.17186455389518,42.93065569167081],[12.17176553393612,42.93039732107772],[12.171761136155189,42.93007327966572],[12.172141286581555,42.92937842898413],[12.172896193789382,42.92880823844532],[12.173817129200247,42.92811637545086],[12.173985626012772,42.92734184806748],[12.173554821912946,42.92658845215597],[12.173294038379618,42.92607345548395],[12.173209212901996,42.925823690013445],[12.17322653410811,42.92568365342003],[12.173378411909527,42.92553986421775],[12.173776407419055,42.92541627625513],[12.174235541178946,42.92529097285073],[12.174476513839478,42.92473503647922],[12.174355518629875,42.92404958867521],[12.174409755551185,42.923674406462354],[12.174630425328276,42.92320006019124],[12.175231012012073,42.92249008075394],[12.175266402498098,42.92104843859117],[12.175418711074975,42.92019781157346],[12.175677743472043,42.91974041357082],[12.175992094244668,42.919182435253504],[12.176131699069622,42.91880038096444],[12.176955662683877,42.91766999707795],[12.17715976763422,42.91738069559121],[12.17735198357386,42.917024193456946],[12.177133061787664,42.916593569164725],[12.176862754361967,42.916339961861745],[12.176748945558888,42.91603247473986],[12.176859953389533,42.915808788234074],[12.177064656195135,42.915740070490614],[12.177365238038755,42.91561467061333],[12.177545662709525,42.9155646259244],[12.177927030617958,42.91558104444499],[12.178151847053869,42.915664841746825],[12.178439231950968,42.915773914991554],[12.17873049133035,42.91572078801393],[12.178498008176176,42.91525002883102],[12.178155649535784,42.91454822238088],[12.1781200658556,42.91409450625915],[12.178138186188866,42.91374734002112],[12.178158699506984,42.9134316228756],[12.178256780650294,42.913194795111224],[12.17849617843045,42.913071081803274],[12.178784359180426,42.912973027380424],[12.179001443416839,42.912876966543486],[12.179242086660791,42.91280724767579],[12.179259159991776,42.91266269680149],[12.17900181497542,42.912660852646404],[12.178248855358357,42.9125647211378],[12.177541291283774,42.91236827892889],[12.17692156142775,42.91198932181414],[12.176089437682919,42.911544212833256],[12.17570908237233,42.91129365777042],[12.175290472516378,42.91099915151233],[12.174810786182444,42.91049923342212],[12.174606458106565,42.91035183210166],[12.174182851305133,42.910183500416956],[12.173625337803319,42.90961370899597],[12.173241384563243,42.90903910012292],[12.172910347666896,42.90857106334726],[12.172831196564168,42.908222097698534],[12.172618340375681,42.90790835589432],[12.172422470419747,42.90765717107734],[12.172224695813163,42.90738352370489],[12.172079539021041,42.907180463785],[12.171948914225835,42.90702201269187],[12.171715118050919,42.90700148233759],[12.171555818367402,42.90749211950159],[12.170958380468864,42.90776980350648],[12.170528600659091,42.90776372039175],[12.169691102412632,42.907435774158444],[12.169241551133776,42.90726814297677],[12.169102402577495,42.90694335311689],[12.169063904153008,42.906192564268295],[12.169207580737181,42.90491900997],[12.169236384925837,42.90454003552949],[12.169402321218707,42.904193273252574],[12.169347584955664,42.90385714452543],[12.169578264078247,42.90354910319115],[12.169812911873352,42.90336250925121],[12.170130614010626,42.9031241002974],[12.170412513061256,42.90285966851534],[12.170266854750164,42.902422517501186],[12.170297267362352,42.90207501109547],[12.170432808530773,42.901598531328375],[12.170447222800071,42.901192939110274],[12.17035829914639,42.900862258784926],[12.170101697527985,42.90063526908862],[12.169275078862823,42.90029350037966],[12.16843956743594,42.89976290130149],[12.167853951431125,42.899328916821794],[12.16740032055299,42.89908036371708],[12.167213350548362,42.898792890781976],[12.16711292462998,42.89863630693136],[12.166881439440111,42.89827534725931],[12.16684915579064,42.897884565430815],[12.166716764255257,42.89745152260829],[12.166558394153851,42.89730566748367],[12.166460502869493,42.897215511760436],[12.166260571526164,42.89692839690453],[12.166078138998996,42.896699344560936],[12.165760287430906,42.89650105668479],[12.16547410770912,42.896382917676085],[12.165258148433146,42.89623132156802],[12.165199567794847,42.896043853980224],[12.165118091286299,42.89566343083559],[12.165226409540068,42.89537230047182],[12.165614455588825,42.895312029161744],[12.16626071297194,42.89549674397016],[12.166820012447825,42.89565683223346],[12.167129440771598,42.89548169113654],[12.166771067343504,42.8944471239354],[12.165519901783851,42.89056989168214],[12.16532826740125,42.88997598337264],[12.163880771566456,42.88681505566897],[12.163725033997673,42.886373674480275],[12.16370389536196,42.88600507898927],[12.163834662479502,42.88565929782647],[12.164469850622824,42.8846872971366],[12.164883298620774,42.88392849956574],[12.165033963856851,42.8827898126966],[12.16501434902453,42.88167383538008],[12.164991483598842,42.88077855190786],[12.164929155588904,42.88048764221662],[12.165879529921773,42.880875535169174],[12.16660945978199,42.88105341547506],[12.167179382807905,42.88115469551804],[12.167619524583898,42.8811425065224],[12.168024221217795,42.88114029736607],[12.168649617278508,42.88120399941611],[12.169204582824218,42.88077442971702],[12.169663801724703,42.88067167710555],[12.170182516930428,42.88072932924368],[12.170499232322681,42.880936654723804],[12.170792339221803,42.88141475118533],[12.170907107886867,42.881996834314165],[12.171125983986826,42.883116284371106],[12.171331047541678,42.88357882264978],[12.171515216113239,42.88381231742492],[12.171908752061615,42.884085038586804],[12.172250097944211,42.88426465962244],[12.172855070078173,42.88439195439241],[12.176342043301622,42.88179822439342],[12.178242496802016,42.88038446432771],[12.1784001956711,42.88026714727397],[12.178717897047626,42.88004671300713],[12.178759165753965,42.880022641250164],[12.178896197373362,42.879942712643576],[12.179177464290435,42.87992137760615],[12.179658375811991,42.88000255346422],[12.18008374781861,42.880179815142085],[12.180240416609298,42.8802046497903],[12.180615322110762,42.880264078608626],[12.1808582285741,42.88021217250102],[12.18097862076913,42.88018644595651],[12.181306929794134,42.879889181586414],[12.181188782672093,42.879496290349934],[12.180669285588168,42.87939367888133],[12.180230435062875,42.87920779439539],[12.17981667762417,42.87900319398871],[12.17971861827396,42.878762818332476],[12.179844147149401,42.8783766509362],[12.17993702045633,42.878265763119195],[12.180203180667343,42.87794797580345],[12.180822221807945,42.87785871407773],[12.181363126199974,42.87614849644066],[12.18160082167072,42.875396932190874],[12.181749454602834,42.874924592231324],[12.181517351661363,42.874264737506195],[12.181369210620986,42.87395820817897],[12.181317266067277,42.873423899595096],[12.181685681354043,42.872747358240325],[12.182071184556394,42.87216486593722],[12.182649972124524,42.87172555154256],[12.183180040841766,42.87135063785301],[12.183389245243978,42.8708811092707],[12.183356592589908,42.87049933942357],[12.183663057295194,42.87003158469617],[12.184492456707273,42.86922963968573],[12.185334347937333,42.867779026846655],[12.186144559639134,42.86614471840676],[12.186481000365127,42.86553206293702],[12.186682056484436,42.86475660528563],[12.18680746970025,42.8642803879091],[12.186805555264867,42.86306939374465],[12.18658577999732,42.8621435866838],[12.186494060968036,42.86175894554329],[12.186604294926873,42.86131468401771],[12.186763508963052,42.861049130198744],[12.186680449430556,42.86086235499652],[12.186297600199644,42.8605578719406],[12.186268734343635,42.860279540550316],[12.18679036981067,42.85993635992997],[12.187072034972264,42.85967189331467],[12.187438678232782,42.857284576146405],[12.187424014057349,42.85701484894781],[12.187366364782058,42.85659326340383],[12.187231486220982,42.85614231404591],[12.186985926659471,42.85587452016543],[12.186963804857596,42.8554744604814],[12.187144261266598,42.85468605801433],[12.187357731001633,42.85406332759918],[12.187636029291964,42.85355583198614],[12.187810740598204,42.8531457863864],[12.187938968243188,42.85251641273392],[12.187561435317996,42.852567449128266],[12.187201141227352,42.85268555120105],[12.186460292417017,42.85304834004721],[12.18604176691632,42.85325358768939],[12.185319150673976,42.85324219876641],[12.184769488632684,42.85300990269574],[12.184398642291324,42.852952699398394],[12.183896162626189,42.85270105086119],[12.183711148767376,42.852449581871625],[12.18377384516828,42.85224074853773],[12.183962737303155,42.8520914142491],[12.184416075403757,42.851849189753025],[12.1847205177658,42.85135898982263],[12.184729708116222,42.85106160124774],[12.184460132263572,42.8510303631957],[12.183977959495301,42.85097446776836],[12.182682865916806,42.85052882976691],[12.182595204169715,42.8504169183225],[12.181996306401802,42.849561946691246],[12.181603102890698,42.84930724687638],[12.180942749431795,42.849078011832475],[12.180503046605665,42.84885611715574],[12.180301978871814,42.848515044275544],[12.18032892037904,42.84808660214942],[12.180595413560324,42.84755695335431],[12.181081388065788,42.84725080373819],[12.181338322547274,42.84690935983175],[12.181413576918786,42.84680935518241],[12.181129488276344,42.84628150210258],[12.180372032191343,42.845843358151804],[12.178226625608565,42.84411115325269],[12.177935523490497,42.84366903279759],[12.177686673726438,42.84312669338238],[12.177619568485728,42.842534270603956],[12.177652539434192,42.8419841016314],[12.177716073743651,42.84156814146087],[12.1775681296368,42.84081590971248],[12.177513873862194,42.84025014708693],[12.177387187208781,42.84004655963995],[12.177367776486951,42.840011082595794],[12.176937085204218,42.83997803393592],[12.176013192015091,42.840080219666056],[12.175776281012988,42.840217356904674],[12.17567777529587,42.84069731612204],[12.175266561649572,42.84149210911702],[12.174233442979594,42.84188094656632],[12.172939112639469,42.84218697706101],[12.172184704707126,42.84252305207781],[12.171545998611863,42.84292344355237],[12.171257916159384,42.84376431901308],[12.170849290430859,42.844865157399205],[12.170233601620392,42.84552152194047],[12.169365327603046,42.84577068963425],[12.168108183889391,42.84581903213314],[12.167458258886924,42.84579200090593],[12.167460949933218,42.84539574779984],[12.167619121751445,42.84509423351454],[12.167367763023503,42.84451590744119],[12.167114461032407,42.84410872679428],[12.16710210325282,42.84385965204054],[12.167089923884305,42.843614183056424],[12.166848547257736,42.84321567044374],[12.166518318366645,42.842725090005224],[12.166190760588618,42.84207684066359],[12.16572569565962,42.84065353843895],[12.165688321343028,42.84041596900308],[12.165360173246125,42.84020444507453],[12.16509871358649,42.83989202950702],[12.164876616550863,42.83960104125743],[12.164739731881467,42.83931669389441],[12.164195255856788,42.8391966787944],[12.163548785828933,42.839250594140395],[12.162750371225101,42.8396688509906],[12.161763510885955,42.83973664888628],[12.16095714859866,42.839659723665626],[12.160336497673098,42.83960051124439],[12.158730875635232,42.83957301485809],[12.15661934371485,42.83966262033937],[12.156321165821671,42.839108095158096],[12.155619392710108,42.83867173261598],[12.155538249858132,42.838621272529494],[12.155412970085253,42.83854336473965],[12.153877498883746,42.83819853146098],[12.152922227754647,42.83795474787558],[12.152074143356787,42.83787907540163],[12.151118398375232,42.838076482557284],[12.150217444632148,42.838434467367705],[12.149333743660918,42.83862087572225],[12.148507485161437,42.838733650032765],[12.147840008798626,42.83858544608206],[12.147445187486182,42.83829467529927],[12.14714063370286,42.83783932862996],[12.146590737027367,42.83712962787989],[12.146026881058754,42.836627378554574],[12.145300366428945,42.83630970864023],[12.144476097870388,42.836219809221085],[12.142984031067634,42.83647242312092],[12.142320869063122,42.83667973299751],[12.141993529000393,42.83720646627806],[12.141885050064934,42.83747958149421],[12.14138667204519,42.837317678914914],[12.14079009706645,42.83689284953382],[12.139815229999401,42.836487418113755],[12.13863722322319,42.83617758099707],[12.138397258800788,42.83604460530028],[12.138337527355024,42.83581663949102],[12.138237430107543,42.83553125033113],[12.13789899154892,42.835144336853716],[12.136998684133566,42.83427760753221],[12.136440699755312,42.834130833214196],[12.136339475947173,42.83382297588138],[12.136281600668541,42.833630972566766],[12.1362619358401,42.83325782893628],[12.136298285290547,42.83300921087962],[12.136339133724697,42.83260741134454],[12.136382390927498,42.83226855795762],[12.136326766737884,42.832121506394486],[12.136059807882772,42.83195325117045],[12.135867163300945,42.83174242606109],[12.13587627142679,42.83145404083298],[12.135794747501718,42.82960139990309],[12.135724727255056,42.829184622842746],[12.135646048162636,42.828853630440875],[12.135604567763354,42.82851709994393],[12.135586823803544,42.82816641949632],[12.135555255848521,42.82778460372093],[12.135658768419338,42.82741260161902],[12.135841725963333,42.827159963782684],[12.136325125823095,42.82704316690924],[12.136945105037062,42.82698113458843],[12.137892409479393,42.82707221361716],[12.13846329106308,42.82721862648742],[12.138723471317647,42.82728351793382],[12.138902238487018,42.82743168889478],[12.139107500214388,42.827619646562],[12.139408181417094,42.82775997254979],[12.139719276640239,42.82786397660671],[12.139956409866963,42.8279565125579],[12.140250969215325,42.82797544240694],[12.140605821282954,42.82773609572779],[12.140406866974848,42.827430906037925],[12.140167526671807,42.82706831183906],[12.140034064313806,42.826833351892915],[12.139830854415452,42.82668587251568],[12.139407330822028,42.82653542241924],[12.138819986243082,42.82629039950033],[12.13852118432005,42.82596095113537],[12.138567909305808,42.825676032025584],[12.138384595049379,42.82543793928037],[12.13799871160134,42.82529094976542],[12.137694913092107,42.824862587731815],[12.137532859500494,42.8245608810168],[12.137615555023974,42.824261478148436],[12.137692416625594,42.82408829491337],[12.137457655363065,42.823815597123016],[12.137029607316745,42.82357521524516],[12.136404284005362,42.823304225254006],[12.13591445159579,42.823308656314424],[12.135240418831065,42.823268601999125],[12.134822817958636,42.82323503223658],[12.134346194292144,42.82324357514677],[12.133408754986203,42.82308918382455],[12.13269921481443,42.822860996115246],[12.13208433276349,42.822553681747884],[12.131916082068729,42.82241551111386],[12.131612142782705,42.82216591107519],[12.130884671177425,42.82179414342631],[12.130429879992992,42.821522953326976],[12.13011851064079,42.82142792918812],[12.129923198337279,42.821163153123386],[12.129897836332765,42.820691119418726],[12.12998117160013,42.81870789862567],[12.129898559625131,42.81636005335106],[12.129900682588387,42.81543255440793],[12.129702909366252,42.81490670557478],[12.129491475110141,42.81436773255996],[12.12954395842423,42.813938601267544],[12.129689688223882,42.8134483681541],[12.129956465489798,42.812918827197755],[12.130145352684396,42.81252647664982],[12.129866361235155,42.81234501889182],[12.128580277595802,42.81182194265358],[12.127972306375062,42.8116494768365],[12.12750147399258,42.81140304900195],[12.127318329920797,42.81130719182639],[12.126894905854517,42.81091356796314],[12.126665291275886,42.81048312939858],[12.12648611658916,42.81008284685748],[12.126335161942043,42.80977181828907],[12.126391421994462,42.80943261311011],[12.12656646979652,42.80926575255442],[12.126819152029048,42.80916880099103],[12.127262656022316,42.809233224774175],[12.12797301726891,42.809254317758146],[12.12841087682295,42.80920632893141],[12.128771301043164,42.80883630511963],[12.128810113253813,42.80878301927164],[12.129125848416567,42.80834937896714],[12.129714684004902,42.8079010568069],[12.13060296223727,42.807570616410295],[12.131628688101966,42.80705629529219],[12.13219807825796,42.80670755495921],[12.132448571931592,42.80634053031395],[12.132398705580014,42.8058376512093],[12.131980869941646,42.80556995472663],[12.131486421980446,42.80498020078214],[12.131139721413891,42.80368408462522],[12.131069091739633,42.80325380334869],[12.131245369347484,42.80262769157175],[12.132674542169854,42.802597565224225],[12.133600919863351,42.80326552631845],[12.134110226963319,42.803422650706466],[12.134755221027865,42.80360306784947],[12.134789069836344,42.80330500571021],[12.134933257520785,42.803012917080544],[12.135418932615718,42.80270247132457],[12.135848508648749,42.80296081655719],[12.13647375091946,42.803249826641164],[12.137060202209495,42.80322473032882],[12.137364202161688,42.80296428977995],[12.137790611509969,42.802691454215186],[12.138992188043654,42.802739539481124],[12.139343856374985,42.802923478509335],[12.139870307991503,42.80293604518412],[12.140131744450077,42.803027914439355],[12.140048950454688,42.8033093281402],[12.140151638510718,42.803662174933],[12.140578668079426,42.80388455652175],[12.140874861164512,42.80416456115242],[12.14108890297781,42.80452786881729],[12.141205650892077,42.804659721139764],[12.14193098752815,42.8049774524854],[12.142749033912335,42.80519360519692],[12.143621824665102,42.805268669526264],[12.143826700131417,42.80531891406534],[12.14401806302716,42.8053658261185],[12.144208522363275,42.805504667315894],[12.144262942521669,42.80585434005201],[12.144486502198943,42.80616334358991],[12.144954659282924,42.8062315033769],[12.145808663369072,42.80643313084891],[12.14638609334973,42.806953007101576],[12.146914645808033,42.807262619345664],[12.147691033909862,42.80760592505548],[12.148461039341107,42.80782335837407],[12.149005599696357,42.80796594540521],[12.14938528113447,42.80820311610808],[12.149478529645528,42.80835360461258],[12.149700983962926,42.808640116373134],[12.150045336689644,42.808918770747525],[12.150466477343745,42.80902423507875],[12.151211878319815,42.80901270323809],[12.15198491192454,42.809063453513126],[12.152448985535406,42.80905066581094],[12.152780843718686,42.80906851788614],[12.152850581724207,42.80923768811038],[12.152859865808104,42.80966063049509],[12.153033262956686,42.809943983710326],[12.15341388573161,42.809974008037834],[12.153960480292655,42.80990040850969],[12.154661018802086,42.80972803371774],[12.155167678901469,42.809831104238235],[12.155608841520763,42.81008907360873],[12.155912683657704,42.81051738459737],[12.156175224381125,42.810870325367326],[12.156567476178987,42.81136824520294],[12.156854686419639,42.81172498506969],[12.157069536327471,42.81210173706872],[12.157374324844513,42.812322929134844],[12.157790019470227,42.81254556019198],[12.158282721178802,42.812869626028856],[12.158567976490785,42.813172402068666],[12.158611102101386,42.813778997846576],[12.158200152222927,42.81411449621187],[12.157305529535504,42.81431926543324],[12.15688721995901,42.814510902032175],[12.156784550293061,42.81467131101031],[12.15673592027081,42.814902261464056],[12.157023007973132,42.81524100080956],[12.158015416104273,42.815290137697126],[12.160234581490542,42.815381928780624],[12.160652194209522,42.81529965309406],[12.161590024513005,42.815114868669454],[12.162670443396244,42.81494092585586],[12.163146354173092,42.814680163701254],[12.163508635051162,42.81458909764087],[12.16413431608076,42.81461230698669],[12.164733409072614,42.814847855383896],[12.165359736859903,42.81494308726223],[12.16544744632681,42.814954159506065],[12.1664406878772,42.81498969899002],[12.167241890272896,42.81511159670753],[12.168033729966695,42.81527424229198],[12.168636325935658,42.81533859916883],[12.16922252011511,42.81556096388342],[12.169509619406105,42.81567457046773],[12.17033115745139,42.81547622979485],[12.171284570222063,42.81544980249713],[12.171794917358698,42.815399638546246],[12.172404051999834,42.815337714904274],[12.173426725183461,42.8152463178398],[12.174277514502553,42.815141683539494],[12.174781264460831,42.81494761221551],[12.17520688555412,42.814899784440684],[12.175672118307952,42.814909385250786],[12.176135761715889,42.81464889173097],[12.17652821480103,42.81443088722153],[12.176872714785091,42.8142322469535],[12.177413379584413,42.81402813996013],[12.17777922904884,42.81378385448328],[12.17818877573636,42.813646416349044],[12.178744285643885,42.81352293664297],[12.179344780338257,42.81330815906162],[12.17996148074662,42.81315595621601],[12.181116132881419,42.813015790072996],[12.181619633401022,42.81305581850266],[12.182757714254736,42.81306917173605],[12.183724121568886,42.81283518995946],[12.184384571751114,42.812582701847745],[12.185142858724388,42.81234548451958],[12.186002092125099,42.812168479966154],[12.18706570028091,42.811922745847454],[12.187985511976514,42.81173503972533],[12.188798738569712,42.81159982831423],[12.18978323128313,42.81149583298499],[12.190831017601733,42.81140358006256],[12.19211718693434,42.811205621949476],[12.193075979844286,42.81104830219399],[12.193908826936957,42.810849477546725],[12.194564417321674,42.81074112450231],[12.19536484075449,42.81061072521098],[12.196193117736193,42.81030844860878],[12.196887496991712,42.810018907901046],[12.197577082165342,42.80987357304736],[12.198649028442967,42.8097760746227],[12.199286579239892,42.809807776437246],[12.199858442125551,42.80975126645938],[12.200495553824753,42.809773956894226],[12.2010405210925,42.80990728380301],[12.201450722469499,42.81003536381986],[12.20209575170288,42.81004882392124],[12.20245539692774,42.81005675474147],[12.202832243872717,42.80977608503351],[12.203238516964015,42.809714256277914],[12.20399481753391,42.80955443731664],[12.20496910042407,42.809239008789106],[12.206101023749326,42.808883138453744],[12.20717873131659,42.80869085344319],[12.20777009952412,42.80853921190442],[12.208668945288917,42.808405940628205],[12.209517679243946,42.80826508741215],[12.20973794639238,42.80826790600989],[12.210263034458828,42.80825317127818],[12.21072179925615,42.808123233547654],[12.210838743262578,42.808056645529106],[12.210888101479863,42.80802853804468],[12.210604352499674,42.80752324210019],[12.210096826721195,42.806695597234196],[12.209668609819804,42.80645549187774],[12.20912205859229,42.806070148128896],[12.207784578141311,42.80503614964988],[12.207685559170658,42.80431859654687],[12.20764870870765,42.80384240453497],[12.207551373138378,42.80314280179448],[12.207539398302579,42.802674911968445],[12.207499013164481,42.802144804792576],[12.20736710360428,42.80170729239997],[12.207370472349535,42.801536124251456],[12.207288086014222,42.801376358465795],[12.206874908594596,42.80118983561654],[12.206279079065094,42.801017446847034],[12.205983830434159,42.800746602680825],[12.205793286527266,42.800135139477845],[12.205078008988473,42.79932229171642],[12.204152531978396,42.799159145186785],[12.203564830248165,42.79914409075786],[12.203151602970527,42.79871895041247],[12.203025303413927,42.798182229929274],[12.203165464722188,42.79781814010172],[12.203177492206036,42.79734057656075],[12.202961340755278,42.79718005440232],[12.202625110510201,42.79698055263566],[12.202280229372105,42.796775909249334],[12.202192276281734,42.796256131860915],[12.202094434979005,42.796033764542166],[12.20168411823016,42.79590119177045],[12.201564249375977,42.79571095647985],[12.201552650123187,42.795486175010744],[12.201576985310526,42.79524687147351],[12.201519940824777,42.79485228883277],[12.201389116562925,42.79446425054136],[12.201283473320144,42.794075527219114],[12.201268722080817,42.79402642617568],[12.201414505777992,42.793756708304194],[12.202093882066164,42.794453543313],[12.202305411109059,42.794672727374575],[12.20314386354226,42.79457270595689],[12.203777365345669,42.79405524078546],[12.204773443919086,42.793914777407174],[12.207101814117166,42.7933092681977],[12.209898140411138,42.79281890880292],[12.210658276808415,42.79374076275386],[12.211043110085091,42.7947834584647],[12.210972358390629,42.79532120085599],[12.210722690849707,42.795679374782644],[12.210511980181229,42.79586086270667],[12.210380783219145,42.796175196050314],[12.21028562242378,42.79644798596075],[12.210445043246581,42.79740246363378],[12.210799345315692,42.799035804809364],[12.210617500497671,42.7997747361282],[12.210627971557786,42.79997704991056],[12.211821619394044,42.80012361490665],[12.21321306943266,42.800768871339415],[12.215422192113582,42.80185483797125],[12.215917031902574,42.8022010924602],[12.216021150107023,42.80255832829193],[12.216289004515144,42.803464735594254],[12.216656465478405,42.804183730711536],[12.21697012198095,42.804337002160764],[12.217649820821384,42.80378212990512],[12.220284704566483,42.80573392857357],[12.220580065055493,42.80599123189307],[12.220891355081173,42.80611302694206],[12.221217246428177,42.80604533786704],[12.222334983977174,42.80591824264846],[12.223954042922237,42.80573411487287],[12.224938674756945,42.80562083121135],[12.225317328595173,42.80608286356502],[12.22571527801929,42.80644532314263],[12.22606719606127,42.80686309170069],[12.226518212699867,42.80752570346528],[12.227155909135638,42.80825055836697],[12.227558255559856,42.808711932583186],[12.22787591411561,42.8093962802152],[12.228381850340753,42.81018787676915],[12.22887373613553,42.81116445619573],[12.229230920144342,42.812622061926874],[12.229399741307153,42.813265594056524],[12.231903873252643,42.81367659300537],[12.2345705742513,42.81405450356526],[12.234923345274336,42.81410447902443],[12.236746064750946,42.81456615566628],[12.23746542725398,42.814523300096425],[12.238279658445325,42.814189601473295],[12.238782224749809,42.81327495572916],[12.239290454717315,42.812936415338065],[12.239981951745593,42.812799769340764],[12.241029517651336,42.81273407844574],[12.241489582196353,42.81264451313946],[12.242700419880968,42.812412085214504],[12.244122426538242,42.81199360461886],[12.244430763511103,42.81192632731636],[12.245247287546437,42.811754590112535],[12.246778752284607,42.81179217705367],[12.247687611720677,42.812099523517645],[12.24829738142467,42.812518918970376],[12.249124334232611,42.812896109960064],[12.25020062932827,42.8128970472482],[12.251301151656627,42.8131268899675],[12.251929731833494,42.81275335783629],[12.252010716688776,42.812183804911186],[12.25219260626953,42.81193551317111],[12.252687249642412,42.81177739041338],[12.253428737011008,42.81172027005655],[12.253993605319042,42.81174923380123],[12.254410198635101,42.81176439585159],[12.254726771762302,42.811737372938055],[12.254928449120097,42.81137147104451],[12.25498816499686,42.81089254948443],[12.255185438723283,42.81048623973845],[12.255230851138364,42.81039040264465],[12.255441367304718,42.81025213718665],[12.255775382188173,42.81003275847501],[12.257062808141258,42.80964494239115],[12.257199414044974,42.80945196309649],[12.25706360294986,42.80919471111476],[12.256950338982064,42.80890078551922],[12.256930979122975,42.80853217453778],[12.256884425186879,42.80834441049403],[12.256835512249696,42.80811169947169],[12.257096068726812,42.807717102703975],[12.257348093914102,42.80716065529824],[12.257860984856705,42.80669583932599],[12.25889318662029,42.80564145348757],[12.260739879245786,42.803754984103215],[12.26096515408276,42.803388398821404],[12.260994545972569,42.80278427593633],[12.261256233086991,42.802659755537775],[12.26140011671513,42.80235852059473],[12.261221080777544,42.80197644598981],[12.261040604561988,42.80156739662874],[12.260936574793943,42.800998592993956],[12.260928896476775,42.8008525375248],[12.260903253013932,42.80036474458947],[12.261044102198092,42.79989031745454],[12.261256429693681,42.799175123883096],[12.26164406198173,42.79847341548727],[12.262216588109576,42.79743695596171],[12.263626097175793,42.795875050354354],[12.264062005582394,42.79580858096675],[12.264693572818729,42.7957140108612],[12.265099412467544,42.79552685510261],[12.26550777731602,42.795155034638675],[12.26577674515479,42.794922250249876],[12.26606522444746,42.794828468967985],[12.26638430703508,42.794850873144625],[12.26660348757463,42.79505170180518],[12.266731425719588,42.79517410808671],[12.26672916630411,42.795363263209765],[12.26681701141681,42.79585599394579],[12.266867390011202,42.795936208635204],[12.266939291257135,42.79605068937223],[12.267111457152321,42.79632480922027],[12.267477166387803,42.79723277840184],[12.268128133642387,42.797056607500785],[12.26847135810773,42.79731739106912],[12.268532522200118,42.797357695149486],[12.268732629190264,42.797390499287864],[12.269008439933796,42.797288071898976],[12.268993042928225,42.796995878605344],[12.26889621274178,42.79678255949526],[12.268924075713496,42.796615169891965],[12.268914127159658,42.796426364549895],[12.269108883494686,42.79617769624029],[12.269316907337284,42.79571704358708],[12.27223059444516,42.792311179039096],[12.272731932111235,42.79208073084697],[12.2734092579535,42.79171018590981],[12.27366434111878,42.79135364028794],[12.273955075037021,42.7909472228876],[12.273296573448633,42.79005213401592],[12.273044494309199,42.79014039434788],[12.272721792135268,42.79028018643887],[12.272064958518298,42.790343990470284],[12.271669003322254,42.79048587489352],[12.271303211619037,42.79051885218624],[12.27092989836334,42.79039446859123],[12.269805652899352,42.789940386921],[12.269446403462124,42.789865109140784],[12.269039826502711,42.789791182728564],[12.268616448453056,42.78965922244451],[12.268326913318257,42.78950092233074],[12.26798502742908,42.789276568759014],[12.267579102286334,42.789229634022426],[12.267193302846254,42.78911461165599],[12.266699954812244,42.788800034194196],[12.266471949583998,42.78864897108113],[12.266014290811023,42.78831539175506],[12.26579044353211,42.788011130385016],[12.265621365810983,42.78781786935614],[12.265391881512794,42.7876533290352],[12.26512702454657,42.787498813873235],[12.264521253586764,42.787137922892875],[12.264108251376125,42.78695611885279],[12.263697404357671,42.78681478459213],[12.263275945907147,42.78671874595144],[12.262891155433385,42.786608161542745],[12.262356353501822,42.78643434351493],[12.261978762490312,42.78624250402907],[12.261751553035564,42.78609140774678],[12.261598445145184,42.78596971325275],[12.26146735864504,42.785815876608176],[12.261337797298037,42.78566199452483],[12.261202907194841,42.78543623622016],[12.261145732798568,42.78504618691675],[12.26104425424167,42.78474294757198],[12.26109618970467,42.78459739035102],[12.261183072888754,42.78436080925614],[12.261291406051372,42.78407859153849],[12.261322863602178,42.783996641719035],[12.261480993425566,42.78374903119216],[12.261735429397563,42.78370576142376],[12.261751415033052,42.78375553784291],[12.261808499536912,42.78393328187686],[12.262029946056646,42.78419258668977],[12.262182551023436,42.78430529610559],[12.262672597231184,42.78454343958398],[12.262921388825077,42.7846398882695],[12.263382053074318,42.784784321742954],[12.263597545927256,42.784823095567305],[12.26390038925338,42.78487757619836],[12.264244728217523,42.784942307394985],[12.264295477996713,42.78495184987005],[12.26454886492526,42.78492158343098],[12.264939306647701,42.784874945598965],[12.265120000305947,42.784813461975006],[12.265163025760641,42.78479882202734],[12.265358141199307,42.784732430547486],[12.265611278237456,42.78464802523147],[12.26575684747584,42.78459948837428],[12.266732952330054,42.78479672164988],[12.267091101955847,42.78463341889828],[12.267430402010186,42.784344610580376],[12.267707342090409,42.78426467029678],[12.268133607415384,42.78423447646005],[12.268604732548432,42.784112971745785],[12.268964743871447,42.783985624375035],[12.269232796500802,42.783968963444494],[12.269586013724599,42.783958869349846],[12.269846878074047,42.78402344195815],[12.270259166824657,42.78419174738433],[12.270909968839671,42.784479272684784],[12.27123342502752,42.78454704795112],[12.271562313381343,42.78461596175743],[12.272233370696153,42.784756574329435],[12.272861019717679,42.78459004184967],[12.27347901061152,42.78448683206332],[12.274027470762693,42.78468722256416],[12.275272962833952,42.78466058496748],[12.27593052463477,42.78463880535637],[12.276724651895472,42.78461251053756],[12.277287207480656,42.784593878463404],[12.2777228443293,42.78450936818814],[12.278111369398985,42.78418876178172],[12.278388512266842,42.783688918670585],[12.278685515582064,42.78352749322456],[12.278851949910052,42.783437031879025],[12.279233743843811,42.78325949624955],[12.279422401195587,42.783239292188426],[12.280266948904202,42.78314884499418],[12.281916903038933,42.782882727266674],[12.282134301111222,42.78284766190634],[12.283796658565459,42.782831468277415],[12.284253271795983,42.78291290464217],[12.285004531357258,42.78278778790783],[12.285594989161154,42.78262675484772],[12.286281475114322,42.78220185693867],[12.287067553084103,42.781796593097226],[12.288294871191125,42.7814281537877],[12.288699854103783,42.78122742108444],[12.290765185837104,42.781204057807585],[12.295183427079614,42.78129295794979],[12.295271722418073,42.781288311106465],[12.299851577298368,42.78104723806131],[12.300659516229617,42.78147724489326],[12.300837929524638,42.781787325274415],[12.30094236131391,42.78196882354391],[12.300969130400633,42.782701893873465],[12.301059098964796,42.78368974017301],[12.301642604299856,42.78525830524355],[12.30169713029197,42.78540487221373],[12.301844520337069,42.78580106971417],[12.30221403411456,42.78631264027748],[12.30201470080709,42.78700559471013],[12.30196664693111,42.78717264932029],[12.301647263512336,42.78828290747792],[12.301637131225409,42.78902605989106],[12.301698448930683,42.78924489428192],[12.301741290351455,42.789310330618655],[12.301824865851875,42.78943798742076],[12.301907855471685,42.789700862627726],[12.301935147514866,42.78978731433535],[12.302180017309073,42.79023945273828],[12.301750324478856,42.79092072082617],[12.301666065067215,42.79105430788655],[12.29971328010254,42.794150190310376],[12.299619660291114,42.79429860393544],[12.299286576249768,42.794826629314116],[12.299192148215687,42.79497632018971],[12.299267348950394,42.79507341677679],[12.299913575697277,42.79590759547143],[12.301634837022098,42.79812934069941],[12.302161260179401,42.79922007051723],[12.302499122810442,42.79992008850682],[12.30295944381524,42.800873804384985],[12.303720020395854,42.802449532297935],[12.304248066648006,42.80354346153703],[12.305141374305014,42.80539398902632],[12.306397533309124,42.807995982306515],[12.306441770964987,42.80808761191451],[12.306506579903795,42.808221864455646],[12.30656889548906,42.80859316325162],[12.306594380681913,42.80874500050272],[12.30754739656945,42.814422634282145],[12.307783837616258,42.815523651251134],[12.307928494939302,42.816197252492735],[12.309111845022674,42.82170675006776],[12.309221084328573,42.82180493476664],[12.309330292582054,42.821903058127525],[12.30986973999976,42.82194136100869],[12.310803994499532,42.82200767433529],[12.31163548675784,42.82222349165798],[12.311978159831478,42.82247018797948],[12.311964182261598,42.82286676629223],[12.311250128858253,42.82323860251527],[12.310610740280708,42.82364878766363],[12.31054283181247,42.82396590146842],[12.310698713980816,42.824150477108965],[12.31106565489661,42.82436495891576],[12.311371030778803,42.8245857194999],[12.311620111618817,42.824668553837384],[12.311800413677474,42.824852421803016],[12.311824501266864,42.82504531214128],[12.311676274866278,42.82549081102545],[12.31161504082009,42.82594728835356],[12.31187160505063,42.82615596433906],[12.312384172393271,42.82659132659649],[12.312657771674587,42.82713265135768],[12.31244806314814,42.827557415860404],[12.312003145316433,42.827930461030405],[12.311556030509154,42.82827657167433],[12.311295751518704,42.82867128257856],[12.311445053014419,42.82893257698216],[12.31172012834267,42.82948737821042],[12.312183861153713,42.83016725680663],[12.312452864443102,42.83039358578294],[12.313115142366078,42.830410417946084],[12.313745575468742,42.83076131352511],[12.314481323000784,42.83145131607524],[12.31408431089403,42.83229120300208],[12.31365929928791,42.83280775304329],[12.313327664817177,42.83324055064616],[12.313378822105916,42.833725306215136],[12.313937121554192,42.83404227596502],[12.314502790527394,42.83436804798696],[12.316121188807783,42.83510072389494],[12.316123095287749,42.8352650456021],[12.31607610537348,42.8353837452457],[12.316046059877124,42.83554047445387],[12.316326181715114,42.835622342384134],[12.316488490287579,42.835632996385144],[12.316501348639529,42.83555115448847],[12.31665475838142,42.83544522786365],[12.316775471009318,42.83542913322348],[12.31893613633963,42.83704864504303],[12.319196523702562,42.83724380557988],[12.319991071956867,42.83764870494579],[12.321387421710801,42.838360252523756],[12.322062557570591,42.83870427358332],[12.322141324187397,42.838744409868234],[12.322356090613013,42.83885384380561],[12.32307033828273,42.83939584126633],[12.323272235953118,42.83996623753456],[12.323479471870087,42.84062202342395],[12.323809618683518,42.8415443526086],[12.324119683022284,42.84229169362458],[12.324317219744986,42.84284786364216],[12.324460020269601,42.84324992219376],[12.32452328013515,42.84342798784118],[12.325131972119461,42.84551616980225],[12.32555914661257,42.846981506307934],[12.325965520658084,42.847687180967505],[12.326992221694038,42.84946997938656],[12.3270951387023,42.84979113033646],[12.327270127733712,42.85033566154306],[12.327284340323592,42.85037988714974],[12.327131902992866,42.850850666708205],[12.326897297565633,42.85157518496671],[12.326747462470228,42.85243043926113],[12.326335042184699,42.8534238874722],[12.326050711857324,42.854039932570224],[12.326494132695357,42.854562767210574],[12.326547554713763,42.85502809747188],[12.326584800357796,42.85535252647431],[12.325987444903248,42.85643732122229],[12.325524391424786,42.85699961015117],[12.324951432574299,42.85751148434658],[12.324239132416125,42.858135467545786],[12.323599557402142,42.85878884929736],[12.323115636604452,42.859563741551824],[12.323008880123593,42.85985691800694],[12.322784282031918,42.86047376291501],[12.322635702759355,42.8615675743185],[12.322740609342757,42.86285210727338],[12.323175118376113,42.86364984352279],[12.323869212814241,42.86422395029101],[12.32465563989473,42.8647368209162],[12.325385817516127,42.86534138476303],[12.325842181514412,42.86634557949619],[12.326216594591902,42.867347637421474],[12.326548715636122,42.86783321139653],[12.32709613896263,42.86906435334262],[12.327272181533111,42.86946440242152],[12.328518020516885,42.87052215956412],[12.32860954566428,42.87065674779234],[12.32874316359815,42.870853249675505],[12.328833216307407,42.87114775733452],[12.329290077887785,42.871661207419955],[12.329852288519456,42.87209954071295],[12.330308990986934,42.87239688811282],[12.330497939129792,42.87248142900651],[12.33072198364381,42.87257844826408],[12.331192088689772,42.87264128315853],[12.331501211071446,42.87272682125391],[12.331228730278777,42.873247305029125],[12.330946500187563,42.873786337908236],[12.330375633010298,42.874876613151294],[12.330135031155875,42.87533606326477],[12.330081719113355,42.87543788307877],[12.329589117681829,42.87593303625001],[12.32941753033891,42.876105509704345],[12.329311211478199,42.87624939816241],[12.329213490506937,42.87638255630744],[12.329186677962788,42.87679203307384],[12.329537604817826,42.87790910922095],[12.328142366974642,42.88039256550376],[12.328110412016054,42.88042781832508],[12.327865718544468,42.880697745533126],[12.327860721171993,42.88086783147354],[12.327852745383565,42.88113932585343],[12.327856555802038,42.88167946057905],[12.327616517927435,42.88245177539765],[12.327788650444896,42.88290598576807],[12.328041105528316,42.8835019137681],[12.327852230398962,42.88454287039489],[12.327833018723222,42.88485407480434],[12.328055673706505,42.8853653277855],[12.328189710599071,42.88578011296719],[12.32790040674557,42.886319780479695],[12.330400141653143,42.8891645693058],[12.330600512561,42.88939258550368],[12.330566457116792,42.8895686517966],[12.330553221163628,42.889637078770356],[12.32857521078649,42.88977119720708],[12.327402933030394,42.89028702916149],[12.327094966703731,42.890395032069854],[12.32601537949408,42.890784003277844],[12.325925996958475,42.89081620841574],[12.325811506018113,42.89085004950799],[12.324574475698638,42.89121566580225],[12.323184869135137,42.89112099756222],[12.321429181773674,42.89106396311507],[12.319953169084489,42.89116985143005],[12.319186319943478,42.890813937466106],[12.318300037759434,42.89002929885103],[12.317312415619488,42.88899545808276],[12.316563667216816,42.888476947360054],[12.315854331133057,42.88831316670243],[12.315247119491417,42.88817295994004],[12.314781376112325,42.88781012173647],[12.31454510041384,42.8876260488999],[12.314194707965049,42.887282865129116],[12.314084264353244,42.88717469261024],[12.314054016555433,42.88714506672929],[12.31372860101202,42.88717701128132],[12.313260345253436,42.887222970888146],[12.313211507283656,42.887227753354274],[12.312107019509035,42.88733615847354],[12.31119080372919,42.88742607829782],[12.310293443199594,42.887441651532754],[12.309637161858387,42.88745303598774],[12.308552348699157,42.88757447052366],[12.307915535669032,42.88768743567968],[12.307630167382978,42.887731704399854],[12.307370314142574,42.887910308396194],[12.306897190682848,42.888450721093015],[12.306247565805313,42.888667590621836],[12.305714871383636,42.889025150081586],[12.304862398942328,42.88935591760839],[12.304708047222631,42.889675524019694],[12.304943559211182,42.890172949381004],[12.304962026435474,42.89045558883347],[12.305011067892254,42.891206461479],[12.30485990472726,42.89164303516005],[12.304342645618721,42.89313464883785],[12.30424301691497,42.89377681523678],[12.304401837735918,42.89421343277827],[12.30498546883721,42.89482233714793],[12.305723726313028,42.89534574420543],[12.306676546517993,42.89600251569658],[12.30610471385469,42.89720308731697],[12.306466324114961,42.897552785475646],[12.307276978838901,42.897596875100135],[12.309125160027655,42.89779102950648],[12.310147178510553,42.89858080678528],[12.310448206451568,42.899170865080954],[12.31058008459203,42.900017940465425],[12.310642575217098,42.90036541420953],[12.310650988172254,42.90041211098633],[12.31092936344355,42.900593135723746],[12.31141012769379,42.90065124486882],[12.311975827647363,42.900922994835184],[12.31214945009296,42.90113211240819],[12.31221312149557,42.90120874734893],[12.31240778226636,42.90144172748371],[12.312634560014155,42.90200241857227],[12.312693405053041,42.90217178607618],[12.312935800933829,42.90236734614678],[12.313564871775842,42.90175034576018],[12.314185843566305,42.901696339954576],[12.314397017478731,42.90192930268427],[12.315175957518383,42.9027885926071],[12.31543779433808,42.90355986474491],[12.316015623159304,42.90429943730785],[12.317042849902172,42.90495396638089],[12.317233261043034,42.90550668417406],[12.31748831823225,42.90592247252665],[12.318071811250395,42.90631073271644],[12.318779351454706,42.90782538861751],[12.318602493945043,42.908879497146685],[12.31847064885024,42.90960364168537],[12.31871135072239,42.9102224433463],[12.31911246207484,42.91062048725941],[12.319525899826445,42.9112477740811],[12.319693546336987,42.9118461622498],[12.319989935111643,42.91234629000172],[12.320239178496827,42.9125747379442],[12.320480387385778,42.912795814653926],[12.32088254563674,42.913454935473915],[12.320870875089405,42.91349677793467],[12.320586620718968,42.91451591568153],[12.32052569811717,42.91473428487057],[12.320492121542944,42.91475372817213],[12.319452617739694,42.91535573616141],[12.318477096368392,42.915667678991475],[12.317605138107277,42.91576950637302],[12.317536688555487,42.91572821305706],[12.317342033388272,42.91561080364007],[12.317065104329503,42.91544377451424],[12.316926150666045,42.91535996909414],[12.316715021560277,42.9152326186774],[12.31570346261141,42.914514599727596],[12.315618950551901,42.91445353333533],[12.314400221626155,42.91388610629114],[12.313731648671816,42.913587037187284],[12.313256498546757,42.91337450552575],[12.312267289821575,42.91341668014476],[12.310574917720842,42.91409595821019],[12.308544714090516,42.91508665099559],[12.306947347881911,42.91566858347727],[12.30584363127602,42.9158895833896],[12.30421319364808,42.91588267668877],[12.303150545101103,42.915802317953265],[12.302834767589138,42.91577840002717],[12.301609433556319,42.915543670489065],[12.300036551092742,42.9152379144133],[12.29805907099467,42.914925789776696],[12.296827118452105,42.9147812255018],[12.296044790677193,42.91481279570321],[12.294644997820749,42.915253804237025],[12.29365882665182,42.915583859472555],[12.292867137095232,42.915669687918445],[12.292351943444556,42.91544140592631],[12.291716099578787,42.91547772685331],[12.290931315391376,42.91592350187546],[12.290979278913012,42.916579407480995],[12.291417409683165,42.917215102052175],[12.291450233145232,42.91760132927072],[12.291047813473297,42.917840902097254],[12.290960957450888,42.91789260116277],[12.290417188314962,42.91821631861238],[12.289616454061072,42.91906773099348],[12.288616434585249,42.919843824705794],[12.28789609965469,42.92035075347342],[12.287060120964837,42.920987060547],[12.286852047675595,42.92146575874896],[12.286597018535103,42.9219683209199],[12.286552342380679,42.92228023097129],[12.286465966558165,42.92249881595329],[12.286229907328044,42.92266767234996],[12.28559925047173,42.923018954743696],[12.284963085408076,42.92326683188121],[12.28480841017759,42.92329135963747],[12.284414654550337,42.92335380672817],[12.284269815417495,42.92337677986463],[12.283243371146407,42.92365835253743],[12.282912126539903,42.923865967670636],[12.282039055991975,42.924296199128634],[12.281988556380721,42.92402303532606],[12.281868170515205,42.92383290351423],[12.281759262877477,42.92364244396287],[12.281449372283438,42.92357479102749],[12.281147600670641,42.923659996025336],[12.281009325149055,42.923781004500455],[12.280878186788222,42.9238928264245],[12.280466963472412,42.92308524761843],[12.280440556210568,42.92294989878966],[12.280333329238262,42.92240028343585],[12.280620768244662,42.92204537697771],[12.280851828198955,42.92178213311384],[12.281367678270003,42.921330628301035],[12.281885371790572,42.920928599064375],[12.282273758091511,42.920629321724526],[12.282478952792095,42.92032630290228],[12.28232998336658,42.920185412538686],[12.28156143602415,42.91945852783547],[12.281536500275378,42.919434943053396],[12.280831612589873,42.91887890859805],[12.280513690008947,42.9186449123928],[12.28024660609658,42.91844548883325],[12.279382351291328,42.91764190173498],[12.279108578235201,42.91738863797654],[12.278969928185115,42.917257557945675],[12.279005214617039,42.91701342735249],[12.278938331942207,42.91669120170093],[12.27864631138728,42.91648347345719],[12.278458246970978,42.91663293857025],[12.278288107983908,42.91688993280617],[12.277986506027647,42.917222721996765],[12.277797088078717,42.91739022408656],[12.27750722052311,42.91764163035956],[12.276385850824894,42.919582633156864],[12.275063219160993,42.920313839326724],[12.274829793572897,42.9204357816667],[12.273868846968254,42.920937789232646],[12.273798641355882,42.92104334125183],[12.273653347366688,42.92126360257827],[12.273301435329275,42.92167436647288],[12.272926216384432,42.922049763612826],[12.272792528414435,42.92215795939254],[12.272689783286369,42.922241117690824],[12.272362535913322,42.92259714262584],[12.272123618696313,42.92284257790523],[12.271758569221635,42.9231501528425],[12.271419507905241,42.923326442157375],[12.271247562986535,42.923376374435534],[12.271050802486686,42.92344953112699],[12.270846639608344,42.92352739857357],[12.270579552468337,42.92367461252822],[12.270478608722017,42.923677499513325],[12.270406315761686,42.92372907985408],[12.270070441214486,42.923792715186906],[12.269836659951554,42.923817397599315],[12.269609769421189,42.92384190142319],[12.269406719008934,42.923897237670765],[12.269061569608217,42.92398813139971],[12.268788465381961,42.924036452426],[12.268349561855462,42.924193071741946],[12.268137173205886,42.92428918582772],[12.267435562315063,42.92463338021256],[12.26716845970416,42.924780567752805],[12.266992511320247,42.92487113922777],[12.265849879937688,42.924521103488296],[12.265091877576678,42.92369149152817],[12.263781364921755,42.92225710660951],[12.26316555593067,42.921633982088395],[12.262578462059897,42.92103988632556],[12.262120029088289,42.92016194898832],[12.262017916760222,42.919966386213126],[12.261631837490746,42.919383139542774],[12.261506922451048,42.91887347063038],[12.261238129501717,42.918428763770336],[12.26076860715852,42.917651944509174],[12.260910322180735,42.91685553879601],[12.260703643884323,42.91652103034445],[12.260642441242258,42.91642197400446],[12.260322340252934,42.91617448595708],[12.25974646622457,42.91645615131581],[12.259706565532191,42.91647566974091],[12.259038172352215,42.91667930867701],[12.258513007562632,42.916941891657274],[12.257853572347326,42.91738836689542],[12.257207750397376,42.91774440642755],[12.2570093976367,42.91777257166459],[12.256123917010019,42.91802738890617],[12.255864842185057,42.91813832563087],[12.255591856331826,42.918159596514904],[12.255279178984278,42.918227027251234],[12.255003567043788,42.91832941601749],[12.254714243416549,42.91841867824329],[12.254541480048527,42.91848212479022],[12.25432144570936,42.918578431720576],[12.253947630341795,42.91857556995885],[12.253653226568767,42.91853891597812],[12.253348596232005,42.918570098593754],[12.253292110490166,42.9186752478499],[12.253266729639376,42.918775014627826],[12.253301772516588,42.91893158850599],[12.253339377545434,42.91897306779015],[12.253452967996967,42.9190983578093],[12.25368432856196,42.91923135046735],[12.2538684397161,42.91932515490733],[12.254037808995387,42.91941487915704],[12.25425326191563,42.919507791130805],[12.254438731677125,42.91958354048099],[12.254687292132898,42.91968002770793],[12.254862908483513,42.91999017360344],[12.255224291257065,42.92010592724576],[12.25624245419166,42.920581172228516],[12.256656762071223,42.92123567820685],[12.256372837323497,42.92189205283963],[12.255421172395733,42.922432379919755],[12.254466283154043,42.922693677727125],[12.25362692147011,42.922807589153265],[12.253004443595282,42.92285231317737],[12.252025866433444,42.92266406261313],[12.251646246246441,42.92252950989624],[12.251014599440419,42.92230562447494],[12.250857794682158,42.92188689536461],[12.250715768619404,42.921283158187414],[12.249644730037877,42.920966938044856],[12.24803188852545,42.92128289271372],[12.247292861795042,42.92141192140487],[12.247184727551288,42.921320493399946],[12.24705493453552,42.92122515928883],[12.24692399817115,42.92115234985687],[12.24656749978211,42.92108592614142],[12.246390106902156,42.92103245047606],[12.246087622064291,42.92097348974153],[12.245853560920159,42.9210071495119],[12.24567406986216,42.921030260362436],[12.245447388589005,42.92105920957124],[12.245228565511326,42.92110593282788],[12.245002076667486,42.921152873190515],[12.244774250956091,42.9212178674435],[12.244540120391497,42.92126502461861],[12.24424169772655,42.92138602856885],[12.244029538586048,42.92148661330295],[12.243912686069232,42.92152144259407],[12.2438283430945,42.921519316797664],[12.243066278868062,42.92148692030633],[12.242442150555199,42.92125250205283],[12.24165921914056,42.92127469831552],[12.2403935629575,42.92143662671975],[12.240206322518661,42.92123934768929],[12.24006727797354,42.921157742428655],[12.239952641445663,42.92108896161207],[12.239806820819043,42.92098053284235],[12.239653718852797,42.9209083429845],[12.239506334966986,42.920871986848965],[12.239264673106794,42.9208923493984],[12.239122057429743,42.92099093263716],[12.239088145978195,42.92111795223046],[12.239100624035494,42.9212391575926],[12.239089217586457,42.92140155185856],[12.23913377041887,42.92153534684194],[12.239065023977131,42.92158230851095],[12.238889849364366,42.92244716136241],[12.237938455516355,42.92252813455695],[12.236657357625852,42.92217722741732],[12.236131768007697,42.92196699987134],[12.235861628753998,42.92173602670691],[12.23550006606389,42.9211339832335],[12.234742540380577,42.92140752874879],[12.23382996651946,42.92129378286891],[12.23315079647248,42.921425527707626],[12.231994901108584,42.9220614775344],[12.230747092443684,42.92139441828587],[12.230311788545722,42.92198747641993],[12.230253365509904,42.92247924472053],[12.23018398299486,42.923292185726964],[12.22945343518115,42.9243167670549],[12.228145333110676,42.924371717704865],[12.228169290655595,42.925064343594784],[12.228129135161605,42.92549768300216],[12.228229493715498,42.925571377221246],[12.228406108782583,42.92568344989636],[12.228520695147637,42.92576576075311],[12.228695826775624,42.925922887532316],[12.228816643015469,42.92609504755125],[12.228880575849088,42.926336361839006],[12.22897030405136,42.92650039889774],[12.229068709897126,42.926610159615244],[12.2291259887192,42.92685616100822],[12.229060684237988,42.92698406318772],[12.228987881064555,42.92708516189654],[12.228883869055785,42.92720515816539],[12.228639397912756,42.92733361939741],[12.2283068115575,42.92756361155676],[12.227955178696217,42.92766356392338],[12.227541797376936,42.92772476269575],[12.227180025205548,42.927865530153014],[12.226767495615594,42.92819231747777],[12.226554363256888,42.92831988998032],[12.226146541013069,42.92844393704944],[12.22574800505953,42.928599254173925],[12.225678254441524,42.92864173586512],[12.225506258632421,42.928633070222],[12.225423436105315,42.92863090688437],[12.225347501918224,42.9286285492058],[12.225032813780349,42.928614925655054],[12.22487412130277,42.92842129867835],[12.224845482877333,42.92838609145821],[12.224483494780442,42.92795059585081],[12.223792730985497,42.92762792924039],[12.22286101902375,42.92761815904966],[12.222246609751187,42.92737885443381],[12.222212028294337,42.927303303383425],[12.22212170021353,42.927157274467014],[12.221970284631972,42.92699946847243],[12.221728209329445,42.926704660037274],[12.22155420767521,42.92646644422664],[12.220971719766922,42.92610469521038],[12.220540746058086,42.925887213489034],[12.220283465407237,42.92591697454977],[12.219993274222944,42.92600619236128],[12.219680228846645,42.92608253403868],[12.219084937030377,42.92623884994206],[12.218636745700499,42.92644055364479],[12.218119995359968,42.92659015454623],[12.217602461769662,42.92673977425283],[12.217484238445564,42.92677910911014],[12.21733547467216,42.92670220483445],[12.216553783635332,42.9260443906709],[12.215861394831757,42.92570370496179],[12.214425997054475,42.92566751454513],[12.213193868514571,42.92553556939838],[12.212725229759748,42.925256107828766],[12.212690693565776,42.924577272384546],[12.212601160282768,42.924048538063964],[12.212179906196809,42.9237227113355],[12.210731504340414,42.92390745876783],[12.208233320693077,42.923946057453996],[12.207500689117209,42.923993623596566],[12.207005404976764,42.92460177503187],[12.206446888127093,42.9255550830675],[12.206318873396711,42.9257735640872],[12.204642935381317,42.926311277081666],[12.204480195518633,42.92718923209225],[12.20490670592823,42.92785258274795],[12.206203277911857,42.9308776367502],[12.206101666207786,42.93219508195594],[12.206023834812738,42.933070655297506],[12.205452455665698,42.93358907796194],[12.20506434778487,42.93394392593406],[12.20327468333182,42.93512859804414],[12.202271989740472,42.93564289804907],[12.202090102462114,42.935990152112815],[12.200656690600814,42.936174337720594],[12.199983190512635,42.93618418721081],[12.198982107498708,42.936257210217036]]]}}]}
