{"type":"FeatureCollection","metadata":{"code":"056027","referenceDate":"2026-01-01","sourceDbfExportDate":"2026-02-18","upstreamArchiveUrl":"https://www.istat.it/storage/cartografia/confini_amministrativi/non_generalizzati/2026/Limiti01012026.zip","sourceManifestSha256":"70ac8256c4785dc6ed2814c32b6965ae76f9161b51abaa1660059e1c6cbd8ca6","license":"https://creativecommons.org/licenses/by/4.0/","attribution":"Istat, Confini delle unità amministrative a fini statistici al 1° gennaio 2026, versione non generalizzata.","modifications":["Converted from WGS 84 / UTM zone 32N (EPSG:32632) to RFC 7946 WGS 84 geographic coordinates.","Converted from shapefile to per-municipality GeoJSON without geometry simplification."]},"features":[{"type":"Feature","id":"056027","properties":{"code":"056027","name":"Gallese","alternativeName":null,"regionCode":"12","regionName":"Lazio","territorialUnitCode":"056","territorialUnitName":"Viterbo"},"geometry":{"type":"MultiPolygon","coordinates":[[[[12.323120318929448,42.40307108625157],[12.322807766389994,42.40313418920559],[12.322415237800241,42.40307804721719],[12.321974483225816,42.40301428384405],[12.321905550637023,42.40300026335827],[12.321470960300875,42.402911849996265],[12.320898132159398,42.40289243048129],[12.320839022411239,42.40287536006027],[12.320515653501793,42.40278197432828],[12.319938673030027,42.40265462184592],[12.319626622816745,42.40254171292876],[12.319454824243827,42.402479550798624],[12.318957524902475,42.402250853143045],[12.31815332941712,42.40199051188529],[12.317235184734004,42.401859530933045],[12.316357019565704,42.401794917844356],[12.316590783543834,42.40085294907625],[12.316899328992116,42.39960965041553],[12.317077152236825,42.39889309433014],[12.317149862185621,42.39860051068529],[12.317410389776114,42.39755025640743],[12.317614868874147,42.39680595824504],[12.31761019280323,42.396256816987744],[12.317634411365722,42.39576537245875],[12.317524586916747,42.395079694339614],[12.31749136790188,42.394679962979566],[12.317912835008597,42.39460922405045],[12.320318564985408,42.3946025314858],[12.3206487151609,42.39462897357461],[12.321465984972834,42.39444769074733],[12.321834648938788,42.39429743240594],[12.32225013763676,42.39411428106005],[12.32290333859114,42.394032295653204],[12.323422435416925,42.3939992325472],[12.323935052325638,42.394015870851156],[12.324324084432911,42.39403609359123],[12.324604973610516,42.39406395605348],[12.325252591257913,42.39390558789624],[12.325841795532034,42.39376241234021],[12.326226786905659,42.39370619562532],[12.327098509562813,42.39347827495368],[12.330296864063435,42.39275497978437],[12.331203492791172,42.39232306245087],[12.33238912121059,42.39175743351163],[12.332638406978008,42.39163824235103],[12.332798311001374,42.39156113645519],[12.333017912461225,42.39152643003106],[12.333857759135434,42.391395233042374],[12.334848170522909,42.39147444310477],[12.336327870530047,42.39143134211526],[12.33727384027712,42.39135684966106],[12.337414512668634,42.3913466359],[12.337792399769633,42.39131663240688],[12.338722316324546,42.39119423914318],[12.339022391510193,42.391158386085216],[12.340425435334135,42.39104625845345],[12.341641343383278,42.390839703119596],[12.34284453918499,42.390579472726664],[12.344351100356393,42.390584997646684],[12.346364867259016,42.390292056084654],[12.34790201812448,42.38974374305198],[12.348129243174888,42.38966418121028],[12.34837627751936,42.389588687002814],[12.348456751430842,42.389563482904876],[12.348537205790645,42.389538255009725],[12.349524502291297,42.38923226019783],[12.350679757246896,42.38871614412554],[12.351194105886849,42.388382242000674],[12.351936800024754,42.38790044876853],[12.353172300797455,42.387351017993666],[12.35450910610784,42.38687965720998],[12.355207631886584,42.38659044102515],[12.355337494838775,42.38653774185471],[12.35542301899452,42.38650247350674],[12.355505202988738,42.38646777931191],[12.356571327910693,42.38592889824627],[12.356631054056235,42.38589900813467],[12.357044054256543,42.38560373854366],[12.357616051527954,42.385194791227164],[12.358281755518044,42.38457074134615],[12.358345959070762,42.38451032480447],[12.358628392151854,42.38424615082322],[12.35892384700188,42.38396783962963],[12.360355589997749,42.383231616650654],[12.3604729071088,42.38317081727315],[12.361263733766233,42.38276461669123],[12.363386492769111,42.38176130229924],[12.363571493061938,42.38155160132143],[12.364003538952469,42.38106465107965],[12.364139341576285,42.38091102187693],[12.364218025907835,42.380821456394976],[12.364239749410052,42.3807965741461],[12.364474607007764,42.380531740322],[12.365378373264193,42.38029201437199],[12.36598890161065,42.38012851289095],[12.366056088506094,42.38011156967231],[12.366710667188304,42.3791513589781],[12.366832253718618,42.37800419974132],[12.36859415187127,42.37687183443988],[12.368931446180328,42.376366670210174],[12.368708278674957,42.376040055626476],[12.367916793782435,42.37580220628742],[12.366988329223396,42.375685444497165],[12.366396734707978,42.37550923946966],[12.366037413070988,42.375375720071936],[12.365112414843939,42.375380388373856],[12.364100235274089,42.37530207787857],[12.362713440027392,42.375243760089255],[12.361954366154787,42.375175922824546],[12.361613669351021,42.37514548337511],[12.359909063175941,42.37483533084524],[12.358868214155454,42.37490187939544],[12.357783896066808,42.37462301423207],[12.357115804504959,42.37470904081459],[12.356878528836976,42.374739606362276],[12.35649660606408,42.37496600010556],[12.356135427292838,42.375180099333896],[12.355852175131858,42.37455006606623],[12.355013949565256,42.372688778114316],[12.354113150493038,42.37068753414997],[12.3544001220608,42.37026149960163],[12.354434696416291,42.370210176115364],[12.354491121952208,42.37012724107759],[12.354666438469891,42.36986611610057],[12.355409378708522,42.368763101307465],[12.356059803074883,42.3682082658891],[12.355980499561772,42.367778697891055],[12.35793282004695,42.36732493814097],[12.358476026053657,42.366809267596636],[12.358843015705794,42.36617717754196],[12.358710557155108,42.365955947824965],[12.358612986775785,42.36572019771738],[12.358664160186771,42.36531348399158],[12.35883966705034,42.36380907096176],[12.357633837419922,42.36332054894329],[12.357088310949512,42.36309953072826],[12.357543379468868,42.36204167086711],[12.357766993912227,42.36121119058578],[12.357844876763712,42.36038048307561],[12.358067423440891,42.3601350868089],[12.358327235170577,42.35984857886322],[12.359251508386649,42.3596638895581],[12.360963641112134,42.35966768830926],[12.364121287739017,42.35873305347529],[12.366200072975124,42.358086660121266],[12.367553772307069,42.35819994440828],[12.368453274769214,42.358659734663085],[12.369144714306007,42.359116639542414],[12.370508146632027,42.359850910453765],[12.371894024039156,42.36032337465674],[12.372264492116312,42.36031060888202],[12.372319329583565,42.36030827916867],[12.372791581779495,42.36029244514431],[12.373657259840622,42.35990676871137],[12.374680583322968,42.359759274221766],[12.374777850319436,42.35974229594806],[12.374929879874815,42.35972631605224],[12.375297867836203,42.35968547043417],[12.375659458316091,42.35964517418853],[12.377011560492159,42.35971335912276],[12.377140841493906,42.35973035753703],[12.378490344860715,42.35990835645223],[12.379629861031152,42.35986123503792],[12.380892017343868,42.36004909487874],[12.381519913736186,42.36021065413937],[12.381297040886393,42.359451844821216],[12.380219818439398,42.35883532113914],[12.379709074627202,42.35839564952519],[12.37996129062703,42.358129801759894],[12.38004304134307,42.35804363235091],[12.381216627970536,42.35748671131885],[12.382313250567904,42.35638729395972],[12.383001191117549,42.35542148642739],[12.383473353441506,42.35471869830403],[12.384260735747143,42.35472701205548],[12.384168045011007,42.353878748426894],[12.384143000965524,42.35338424570344],[12.384184699521233,42.35317778421397],[12.384297871664213,42.352623278357775],[12.384318957074477,42.352563191307254],[12.384964606647538,42.35072330626748],[12.385384357355512,42.3495271081106],[12.385477658167716,42.34926121906887],[12.385833328832124,42.348566391248134],[12.385873181050119,42.34848865376516],[12.38653270393256,42.34878523945829],[12.386957348587607,42.34897484449796],[12.387479076576305,42.34931060332761],[12.388300792436315,42.34983957074801],[12.38835822767855,42.34988126487864],[12.38860475387465,42.350060193290254],[12.388819738297816,42.35015637253138],[12.389183643304202,42.350319888050215],[12.389360045025116,42.350399139315556],[12.389524581608837,42.350471162258586],[12.38973748394143,42.3505669475384],[12.390460280308995,42.35091474773666],[12.391126674167836,42.35104974989368],[12.391321898023666,42.35109006659931],[12.391450596563324,42.351117280126935],[12.391970450611641,42.3512224386934],[12.39200481935633,42.35122631659742],[12.392115105776432,42.351239452063105],[12.393264612293393,42.35136744958919],[12.394201384714002,42.35113709324047],[12.395236650451844,42.351214453092986],[12.396595848398201,42.35141727988542],[12.397583861650547,42.35174365083655],[12.39903569878052,42.35207426550158],[12.399857466959798,42.352229952142125],[12.400566490924744,42.35233496540936],[12.401426349587217,42.352507545968976],[12.401639716534989,42.35258233141444],[12.401959217097225,42.35269431355314],[12.402141716077974,42.35273760732195],[12.402869988864861,42.3529103678255],[12.403674280941255,42.352981014784824],[12.404930733283374,42.3528401183233],[12.406444719685112,42.35263795448693],[12.40649749097624,42.352632520049234],[12.40726776492626,42.352266351429776],[12.408003514418724,42.35262715329753],[12.408572372608853,42.352146498394816],[12.40969272619532,42.35200058126754],[12.410598022787184,42.35231130247775],[12.410901042229431,42.35254089054872],[12.411600493275674,42.35314138069946],[12.412683460156964,42.353383741112054],[12.41383971703705,42.353214216230725],[12.41397504322742,42.35326403342826],[12.414375377583205,42.35341146240154],[12.415129522891403,42.35368901887108],[12.415169259566179,42.35370683634492],[12.415206149462243,42.35371907839694],[12.416420026986886,42.35420430043474],[12.416802509586251,42.35410735937191],[12.417683303571518,42.35423006871646],[12.418281694690643,42.35431378245889],[12.4186389248008,42.35436319537818],[12.419407247485964,42.354543246673565],[12.41961036018358,42.35459084316563],[12.420983710175268,42.354678772308056],[12.421756843545914,42.35472932992007],[12.422445550204325,42.35424950540726],[12.422876535543848,42.353935707925764],[12.423380527743673,42.35356873699643],[12.424187399062687,42.35321145500709],[12.424409317027084,42.353113884700285],[12.424637932859966,42.35301338257819],[12.424788247209618,42.35241457977666],[12.425287886086952,42.35243565464367],[12.42618429078681,42.35239984124433],[12.426872089901604,42.35210011497968],[12.427620659239462,42.35199668156135],[12.428462309804583,42.35207053624831],[12.429105158120185,42.352060286972886],[12.429731201985733,42.35199202541671],[12.430175149459624,42.35209127508048],[12.430556639940654,42.352395009238194],[12.430992695306873,42.35282317273465],[12.431243164719216,42.353387371751815],[12.431767909574845,42.35344063724707],[12.431998033045156,42.353463888556725],[12.432437916839552,42.35373884983029],[12.432573337811121,42.353982421059996],[12.432781980663718,42.354232795619076],[12.432933871427887,42.35459741860061],[12.433323565119535,42.35485588156289],[12.434031490351233,42.35489768728401],[12.435157114310229,42.35505752505321],[12.435557312970236,42.35522281610337],[12.435716027129917,42.35528836977839],[12.436052092672227,42.35544036712521],[12.436784268227191,42.35549494582777],[12.436970102652506,42.35553099162014],[12.4374354962473,42.355623962903955],[12.43770790312528,42.3559579633708],[12.437929574016602,42.35644656706284],[12.438027868901173,42.35671824368261],[12.438385686847385,42.357031660090854],[12.438448854277727,42.35705299266918],[12.43870821595103,42.357143540654306],[12.43937280555536,42.35729466310383],[12.440348338741673,42.35740044144973],[12.441347609623993,42.357663062228326],[12.442106430085767,42.357788819220346],[12.44293169853035,42.35775501119596],[12.443467104239962,42.35772563080685],[12.443657204765433,42.357715197962406],[12.444076778821474,42.357603532675654],[12.444660494914622,42.35782908589314],[12.445027944199891,42.3583308789957],[12.445072789955832,42.35837497515812],[12.445193736343677,42.358485298711315],[12.445279429980346,42.35856553764745],[12.445641167248056,42.35890264549592],[12.446162648781353,42.35887793774153],[12.446693079734485,42.35858734645348],[12.446782580056892,42.35854587268139],[12.447154739425685,42.358370843292064],[12.448044017309158,42.35841160327578],[12.448867200214867,42.3585894273025],[12.449807009846026,42.35844405508869],[12.450446465445383,42.35837001167883],[12.4505846208099,42.358354008865795],[12.450700505365463,42.35834059132858],[12.451379311726084,42.35829238962874],[12.451467867555642,42.35828610355442],[12.451593314731186,42.358277196347515],[12.451692203296071,42.358270170953645],[12.452106765320178,42.35812261168684],[12.452636794352449,42.35793555414935],[12.45420676632943,42.35753566930193],[12.454296097823729,42.35751242363641],[12.454649313076533,42.35742848872275],[12.454654047550221,42.3574975748954],[12.454702558457676,42.358205766725284],[12.454928816016011,42.35953611332625],[12.454964218888673,42.360444492017926],[12.454974473058119,42.36110152017723],[12.454913267690923,42.361729170177696],[12.454753330233414,42.362368814976975],[12.454609929565772,42.36292241272598],[12.454425367236803,42.36327915584855],[12.454249508388076,42.36372568546453],[12.454212192540869,42.36405547070948],[12.454407487004813,42.36448677694706],[12.454443490211464,42.36456632052948],[12.454559058864882,42.364822038060474],[12.454598598772764,42.3649094259344],[12.454624126926662,42.36496600773731],[12.455550338949479,42.366383280865215],[12.455720143805923,42.36668431753224],[12.45609132250352,42.3671143217119],[12.456397349130626,42.36736623041606],[12.456761627977988,42.36767037666845],[12.45687368923057,42.367914623082434],[12.457034519115954,42.36813487941809],[12.457269865234114,42.36832084941234],[12.457315471504568,42.36835486046361],[12.457346628233369,42.3683770048101],[12.4575403981055,42.36851581642227],[12.457618030441033,42.368525630409835],[12.457859140871378,42.368556107195204],[12.458144145978787,42.36859213202055],[12.458734947418506,42.368587250500944],[12.45889702986328,42.3685853489613],[12.460502713136792,42.368574896078094],[12.46185206298688,42.36880875586318],[12.462391233800052,42.36902206684107],[12.463259308903796,42.36918491173138],[12.463752591866935,42.36957068159983],[12.464051897354762,42.36997583492375],[12.4641536062455,42.37047251467932],[12.464122635333236,42.37073556430914],[12.464117461618851,42.37077976390351],[12.464011010102169,42.370844088108655],[12.463357150655515,42.37123947423003],[12.460740458543025,42.37139513516675],[12.458003184358017,42.37240978915947],[12.456526050949778,42.372904609584694],[12.455221150118579,42.3730115222908],[12.45476074720404,42.37300289722041],[12.454095826801568,42.37293290695955],[12.453791996314575,42.3729285732158],[12.45324412981084,42.37295859459417],[12.453126132606533,42.37317376547311],[12.453498498231923,42.373873886832456],[12.454856896161482,42.375156563609664],[12.455201170665864,42.37534429012144],[12.456258208934763,42.3753394065847],[12.457889116581327,42.3749344758895],[12.462334333049666,42.37372863237098],[12.462649079946885,42.3734759861601],[12.463342260202568,42.37314888224181],[12.464124229570205,42.37331881305486],[12.463996260584057,42.37349898613461],[12.463751609549572,42.37384335045286],[12.463397049589629,42.374343744890034],[12.463291701632532,42.37449242393604],[12.462978968399337,42.37493374644396],[12.462209790165149,42.37510002581754],[12.462034620013693,42.375137898528074],[12.461770677561754,42.37511113029681],[12.460050897529806,42.37493672739321],[12.458208191653247,42.37546511388198],[12.457787499730088,42.37570269757224],[12.45769215686333,42.375756035319824],[12.45698632223102,42.37615502932757],[12.4561696788763,42.37661620013613],[12.455536376163783,42.377261132884385],[12.455299505242817,42.37799312934122],[12.455388023886751,42.3784992139606],[12.455776691702017,42.379122304595214],[12.456321229290507,42.37976320514376],[12.456873248901283,42.38026429573726],[12.457647769958266,42.38061460333503],[12.45845096022989,42.380864973477884],[12.458885607739047,42.381105094781795],[12.459045941036836,42.38119367746971],[12.459017590486294,42.38122533572494],[12.458944786581252,42.38130913502841],[12.458588077007153,42.381716260884296],[12.457665462934497,42.382000750186336],[12.456200001626408,42.38189641211782],[12.455463162493242,42.381707054974896],[12.45440840599186,42.38142371994235],[12.45341832161629,42.38133651864338],[12.452093578076177,42.38123690193549],[12.451561106997275,42.38121693638034],[12.451337738085146,42.381462279748874],[12.451240916422655,42.38170382675265],[12.451132503000425,42.38192768780056],[12.450985106337892,42.38238237128014],[12.450890493278319,42.38285794375458],[12.450428355140872,42.383617348903],[12.450132722739594,42.384100881248784],[12.449879766540997,42.38417766731367],[12.44981985230264,42.384195854341925],[12.449341635497396,42.38408639022199],[12.449107201159448,42.38403272683369],[12.448344957481083,42.38382671653218],[12.448144640203788,42.38373287644149],[12.447883136099943,42.383610371794795],[12.447393447748974,42.38334597116801],[12.446880802511224,42.38306426112356],[12.446064241624821,42.38280519386086],[12.44494039742902,42.38246531710741],[12.444608684733875,42.38238711057882],[12.444521623887985,42.3823665949059],[12.444212112243747,42.382293629096694],[12.443794416622843,42.38240074039888],[12.443414477277711,42.382583094233176],[12.443314692432585,42.38264933562214],[12.443098386965515,42.38279086397919],[12.442664489269642,42.383087553248835],[12.442025687383481,42.383385882594396],[12.441383639978959,42.38401504802649],[12.441205749251353,42.384189424079246],[12.44111471467726,42.384162212385355],[12.440206372246923,42.383890779518794],[12.439642720687626,42.383606068701106],[12.438892371626368,42.38365562227394],[12.438253078253782,42.38394494533644],[12.43804255694633,42.38431595916307],[12.437779594853472,42.38475032548238],[12.437762689109901,42.384779085739694],[12.437354907112573,42.38530458287669],[12.437019538368178,42.38586392067004],[12.436948846886946,42.38600108750394],[12.436698996864704,42.38648584083072],[12.436513991316524,42.38685156846331],[12.43636164423593,42.3871757997067],[12.436405521346257,42.38753467632765],[12.436471976148868,42.38767503426061],[12.436495033228805,42.38772366030118],[12.43661150578578,42.38796972360282],[12.437026814599301,42.38845699578565],[12.437041659261869,42.388491265506474],[12.43749891598899,42.38923755904753],[12.438039268348179,42.390119444299636],[12.438296805613238,42.39038635520304],[12.438605771433195,42.390705736799596],[12.438842527652499,42.391009286894075],[12.439383150916791,42.391371222460215],[12.440017622407472,42.39163130758621],[12.442220007627574,42.392587131732654],[12.443390834274128,42.39289410422379],[12.444254543329274,42.39313825379861],[12.44469522715625,42.39343565734622],[12.44476769995428,42.39363607231293],[12.44470274058019,42.39400271887391],[12.444531568499363,42.39442657426067],[12.44427952157598,42.394704283406206],[12.443712367863828,42.395009485369194],[12.443351526926419,42.39504735320752],[12.442951236168495,42.39509990390074],[12.442028770687743,42.39511413876738],[12.440483465918549,42.39530464342541],[12.43986534961455,42.39541295491657],[12.438572315489726,42.39563952269741],[12.438512007193504,42.39565009063235],[12.437913395366786,42.39575497846482],[12.437857770077873,42.39576468058775],[12.437126877310329,42.39476231331675],[12.437039594909962,42.39452630438108],[12.436362636345834,42.39457363826115],[12.436214977669144,42.39458875960761],[12.436178960339383,42.39459243824895],[12.435382640138457,42.3946138005593],[12.434822079377875,42.39462884109004],[12.433772587862109,42.394763884160035],[12.433197484069257,42.394952207943554],[12.432512109801165,42.39551302672025],[12.431849697526008,42.39561841220724],[12.431489159343045,42.39591286078786],[12.43112752011635,42.3961471331479],[12.430913480922749,42.39628578743766],[12.430790858032301,42.39629306147381],[12.430646283829775,42.39630162156201],[12.43006175816594,42.39633628619339],[12.430002294742133,42.39634010783647],[12.428953261679645,42.396470574600826],[12.427909611694181,42.39669993608824],[12.427503433163048,42.396686379566844],[12.427056148521608,42.39667145044117],[12.42641924624927,42.39633933416592],[12.426306682275412,42.39583394723919],[12.426166705042911,42.395257348378756],[12.426176653291742,42.394338587804924],[12.426051892475515,42.39359495432223],[12.426034384714205,42.39306420512299],[12.425973929145737,42.3928183856109],[12.425711910569982,42.39267766275483],[12.425088212899896,42.392628788382325],[12.424327856513482,42.39270554374936],[12.423992027645905,42.39300824802122],[12.423422516339182,42.393732127299124],[12.42273480189316,42.394292938968064],[12.422056015853116,42.394888580418176],[12.421923227449783,42.395006048572924],[12.421593939458356,42.39548372526051],[12.421394022248599,42.39577372805608],[12.421346421910098,42.39582643131337],[12.420808920734245,42.39642152679957],[12.420405366216784,42.39653592238521],[12.41930915334903,42.39679497423738],[12.418750515817976,42.39705028346759],[12.41826111385888,42.39718195881733],[12.41777486282634,42.39696684409159],[12.416219977061681,42.39562655686964],[12.416073354453921,42.39513569307325],[12.415170369270683,42.39486546597992],[12.414546872448613,42.394568899626854],[12.414073135847335,42.39456952623514],[12.413316810914349,42.39449752539597],[12.413035893504057,42.39446988399504],[12.41259915475923,42.39428480520157],[12.412400249375903,42.3941451647952],[12.412359216843356,42.394116357298635],[12.412264116868089,42.39391659632903],[12.41179970280521,42.393669307074035],[12.411651967982573,42.39338106531695],[12.41165965959654,42.39307467507213],[12.411815698685826,42.392606302783136],[12.412335909747458,42.39210454387718],[12.411329032521525,42.39162622081638],[12.410609782703103,42.39128204138577],[12.41057235652893,42.391264765131595],[12.410156100420993,42.391066438671494],[12.409285365567417,42.39074568959147],[12.40804623856626,42.39008472227041],[12.407567652800534,42.38975680673581],[12.407320175360834,42.389449009348624],[12.406959963906665,42.38930214669991],[12.405826475501181,42.38900720628265],[12.405051780483593,42.388818631511604],[12.404704711276617,42.38915311191599],[12.403860191851612,42.38972299239393],[12.403738400814245,42.38978241400729],[12.403267372746983,42.39001975558024],[12.402843687184824,42.390018830774146],[12.402638905921881,42.389853837694396],[12.402421308574873,42.38964870798053],[12.402101884046662,42.38956814979606],[12.401589862925114,42.389772457004156],[12.401430815782861,42.38975570546073],[12.401089744444242,42.38971978026324],[12.400598798680427,42.389330763145566],[12.400568677918963,42.38930752801439],[12.399889004758396,42.38910709804496],[12.39890082554431,42.38880327382288],[12.39841891423125,42.388637480264926],[12.398103516376421,42.38879991989532],[12.39782439553084,42.38888925269526],[12.39751296342206,42.388862820509175],[12.397470516801002,42.388859218284615],[12.396082527379864,42.38796715817218],[12.395338733548684,42.387487700461655],[12.395255788933602,42.387434668917095],[12.394261848428206,42.38814847134807],[12.393642549043303,42.38840545621117],[12.39261900067337,42.38855733263202],[12.391845937453079,42.389102508092726],[12.391233071493902,42.38957720704538],[12.39114486267244,42.38964552943645],[12.390682044590143,42.39007344315964],[12.390311617506457,42.3904265900936],[12.38976561753036,42.390649848923516],[12.389726068448763,42.39066013679499],[12.389296922785555,42.39077176923218],[12.38898610777165,42.39094918223825],[12.388930919954035,42.39097796797635],[12.3887122983228,42.39141939507204],[12.38854224741138,42.391856653398534],[12.388163683902794,42.39253869307873],[12.388114135780633,42.39256655427388],[12.38762278479107,42.392842841242725],[12.387405046188189,42.39301384419338],[12.387087337416347,42.39326537206794],[12.386658416289134,42.39368626723797],[12.38600868765245,42.394056657679656],[12.385480418822718,42.39436301834197],[12.385419689742184,42.39439824513173],[12.385394761596071,42.39442691257329],[12.385315759774,42.39451775705459],[12.384836950697828,42.395068314264314],[12.38458429424302,42.3955935386303],[12.38441637876079,42.39607122590989],[12.383772912289565,42.396346871281644],[12.383483004772,42.39630013316628],[12.3824984206771,42.396141400902906],[12.380509609816762,42.39554279249815],[12.380058036457251,42.39546157423073],[12.379754043217348,42.395470547749845],[12.378860676286255,42.395857120034016],[12.378542525589019,42.39568127076137],[12.378334847264743,42.39556648046644],[12.377994325150073,42.39483815563779],[12.377927919620666,42.39462390582577],[12.377876785492226,42.39445892892866],[12.377690524771763,42.394171777882924],[12.377365842450004,42.393978759706314],[12.376993696442325,42.39386366957463],[12.376255954150906,42.393808149423656],[12.375650879310978,42.393741183191196],[12.375613603359417,42.39373296585388],[12.375256200761074,42.39364474910268],[12.37505426623054,42.39347512185976],[12.374682586893679,42.39338252732205],[12.374122255258316,42.393328639941764],[12.37343922809447,42.39327506237469],[12.372710559298142,42.392903811396195],[12.372428419601414,42.39276006171404],[12.37193813091228,42.392706966941915],[12.37145609664663,42.39211335380727],[12.371227316129165,42.391683362732344],[12.371034285679544,42.3910137072561],[12.370888652266558,42.390576768107046],[12.370860238099702,42.39004634655086],[12.370965732494506,42.389507465540646],[12.371652387666193,42.38894697605539],[12.372155348917115,42.38877008494942],[12.372518714515202,42.388750384985116],[12.37314108127905,42.38860598869999],[12.373502298052559,42.38853231581009],[12.373375709076218,42.3881545175485],[12.373097453786498,42.38732414827463],[12.373017232838569,42.38700679413275],[12.373000281540927,42.38694031167593],[12.372973160668918,42.38683252831894],[12.372754796217851,42.38656883214791],[12.37252232237778,42.38611193554476],[12.372507238232235,42.385788217974145],[12.372463057041,42.38571935961554],[12.372266223728543,42.38541264270326],[12.37217434298169,42.38538637691096],[12.372087243012974,42.38536149204805],[12.371994856609295,42.385335103229465],[12.371394741167325,42.38548333676904],[12.370847665673484,42.385913653283836],[12.369933573265918,42.38632325119218],[12.369354947296848,42.38664642100928],[12.368735260505776,42.38702926283287],[12.36867290887033,42.38706610970377],[12.368622173380913,42.38708982377204],[12.367724851864699,42.387522793753654],[12.366661104467983,42.38786023460417],[12.366359545907418,42.388098713172106],[12.365798732786002,42.3882727787033],[12.364967815830516,42.38845027996088],[12.36400023342511,42.388798369204274],[12.36330178378389,42.38912503026236],[12.36243922582298,42.389591586887285],[12.361536358348907,42.390198886601716],[12.361088759617093,42.39070276603453],[12.36099544982188,42.391457393512056],[12.360589104001171,42.39202309437599],[12.359860307773515,42.39225159409361],[12.359289592258936,42.392511449763084],[12.358897077764782,42.3930947553746],[12.358675433245319,42.39356499990017],[12.358143060650251,42.39383272542195],[12.357713871261911,42.39442611971425],[12.357461669446188,42.394708142780075],[12.356911060182671,42.39507546346181],[12.356279593966297,42.395350602833325],[12.355655177946373,42.39572907901116],[12.354960922343096,42.39613661632772],[12.354473886065374,42.396357997826506],[12.353702680329127,42.39671824811534],[12.352018366146625,42.39748343756275],[12.351320753213685,42.398071148199016],[12.351114239724383,42.398279436588034],[12.350824267745399,42.39857190804639],[12.350379841476197,42.39889555695069],[12.350157945847975,42.39905985044415],[12.349829048761958,42.399303382556525],[12.349049963399994,42.39974488100529],[12.347734248301327,42.40014803048152],[12.346263602057624,42.40056471139257],[12.345511519587758,42.40071986278351],[12.345437558038613,42.40073517032166],[12.345372801455877,42.40074831972725],[12.344401587512015,42.40094776942468],[12.344349871018363,42.400953274275764],[12.344076161091744,42.4009834478795],[12.343673843986883,42.40102755496102],[12.342559506795093,42.40109160349836],[12.342432013448459,42.40110617546794],[12.342395799485233,42.401110585811935],[12.342081389295231,42.40114672045417],[12.341448892129492,42.401220353283],[12.340576493430477,42.401284535249815],[12.33994404466584,42.401514598504306],[12.33913729344709,42.40171302821301],[12.338273771936842,42.40164883299062],[12.337820219378175,42.40180163666321],[12.337177471489674,42.40183836816138],[12.3365529371328,42.40171700408792],[12.33555854635181,42.40156587518464],[12.335211502248761,42.40166603338659],[12.334948206338764,42.401741233689215],[12.334865497659012,42.40173583895972],[12.334720602543838,42.40172491903671],[12.33441234981419,42.401702823826916],[12.334228492969563,42.40165191719984],[12.333843525938889,42.40154378704308],[12.333267494260458,42.40119137913697],[12.332773817712445,42.400928608756686],[12.332417367372319,42.400738879398645],[12.331841981273957,42.401129299243046],[12.331042046540214,42.40140920146985],[12.330169861694678,42.401443586998845],[12.329637195486711,42.40150859186467],[12.329184513742375,42.401692834273106],[12.328513951091862,42.401908060166704],[12.328469411018395,42.40189851590155],[12.328060237836388,42.40182365577796],[12.327098615819407,42.40164990943569],[12.326750035955405,42.40160602226768],[12.326279039675132,42.401673718620394],[12.326006254450029,42.40178519167635],[12.325947064717512,42.40181723483867],[12.325711559953081,42.40194232268848],[12.324975082473824,42.40227437292501],[12.324725704302738,42.402412178129545],[12.324205729722758,42.402688403763506],[12.323708572959067,42.4029369481415],[12.323380785650395,42.40294196195869],[12.323120318929448,42.40307108625157]]],[[[12.48653283567595,42.39942311914317],[12.486457419668904,42.39948950599614],[12.486294081927992,42.399633146073484],[12.485537018069149,42.400345042818536],[12.48338999889928,42.40248505133454],[12.483128010842925,42.40274523310713],[12.482602742109055,42.40316699970406],[12.481361858706501,42.40416388008295],[12.480322777858113,42.40405129992569],[12.479748863343502,42.4038211163067],[12.479320718433597,42.40376701829749],[12.479279422663655,42.40376179439561],[12.479033633281517,42.4037307991543],[12.478995391804137,42.40372596678918],[12.478369296990405,42.403646852708384],[12.477213562977317,42.403250352123266],[12.477134825457377,42.40322303284028],[12.47627326632097,42.4029272286948],[12.475561113283439,42.40276425320236],[12.474880910750608,42.40247873905979],[12.474328464127824,42.40230640849566],[12.473941054333148,42.402132099116415],[12.473587908986612,42.4019732038006],[12.47302151603762,42.40160318965024],[12.472587284870167,42.40123367490951],[12.471184237722047,42.4004253101799],[12.470356824548645,42.39985158353224],[12.470265926120263,42.39976987783714],[12.46900984406359,42.398640784701854],[12.468115250996899,42.39760536344185],[12.467605110762154,42.39668432925123],[12.467395910240166,42.396470059798354],[12.467384680225498,42.396101231328934],[12.46711829113909,42.396033792059534],[12.466853757987174,42.395966380615064],[12.466639961167145,42.395912080182015],[12.466420458808724,42.39564860036823],[12.466326876876922,42.395259737217245],[12.466255889688735,42.3948888950975],[12.466653671225354,42.394392059784266],[12.467036182192379,42.39391394935522],[12.466901376927133,42.39335524508331],[12.466507789875303,42.39286742491443],[12.46657751521303,42.3926447030115],[12.46694558390542,42.39222835274837],[12.467011660671862,42.392124059703214],[12.467055613128366,42.39205468885234],[12.467282943041353,42.39169588579527],[12.467368457451673,42.39153175323824],[12.467486848688813,42.39130665755401],[12.467586476194723,42.391114908270644],[12.46782609050777,42.390865554110505],[12.467889494871873,42.390799572038446],[12.468715018662815,42.39066032885653],[12.468930538090195,42.390623976948476],[12.469534905598481,42.39065843006154],[12.469706602522013,42.39066799314453],[12.470169323633117,42.3905172309478],[12.470285182346204,42.39047918644936],[12.470346492444035,42.39045950746701],[12.470839130324695,42.389962837175815],[12.471099621854503,42.38922107712282],[12.471203139247315,42.38907767910507],[12.471744241837932,42.38832810670697],[12.47187773501909,42.38829463782332],[12.472540982642347,42.38812835006785],[12.473074508234824,42.38813918537011],[12.473543062622616,42.387701767047844],[12.473731127322639,42.38760450841417],[12.474014707467628,42.3874578477762],[12.474461801166575,42.38748479844113],[12.47449806036107,42.387538502501904],[12.474679241252659,42.38780685682952],[12.47497378552996,42.3879651822089],[12.475273873258875,42.38812648745686],[12.475733489246057,42.38839185945848],[12.476207907572283,42.38866745327344],[12.476339967637836,42.388743030603],[12.47666277840174,42.388930735103926],[12.476925449826268,42.389364881767996],[12.47698362476777,42.38946126193126],[12.477468661121025,42.38974819333771],[12.478237467990049,42.38996345166373],[12.478745711755414,42.390299184892505],[12.478993626445845,42.39048524918122],[12.479201784549273,42.39076256614733],[12.479288231973717,42.39098052774061],[12.479298042995525,42.3910158443167],[12.479568903602612,42.39129167762361],[12.480630546722232,42.39179066210797],[12.482053905379683,42.39236420382306],[12.48286949777847,42.392559813332056],[12.483156012928644,42.392578291705384],[12.483635926212274,42.39260445725517],[12.484110186209413,42.39263031286178],[12.484818602912059,42.39266489196065],[12.484884685149693,42.39265228698096],[12.485023741344637,42.39262052797312],[12.48515060160112,42.39259414921625],[12.48541519649251,42.39253957452921],[12.4858164194667,42.39245681863578],[12.486169510510104,42.392313603611115],[12.48626043946611,42.392276721563356],[12.486737772173282,42.391861481079765],[12.487074713237947,42.39194126743314],[12.486981906401345,42.392266029430075],[12.486948816465885,42.39238182396369],[12.486953242375408,42.39285892575173],[12.48706651004158,42.39338222694639],[12.487132069765048,42.39419514333602],[12.487285362447656,42.39491982048385],[12.487220630813884,42.39531349718841],[12.487284718094797,42.395690690230666],[12.487368267792009,42.39618242663423],[12.487465339383641,42.39657989889111],[12.487525433614843,42.39682595370773],[12.48775257164666,42.39748536808076],[12.487856493356144,42.39777329942237],[12.48790687382109,42.397912889728445],[12.4880422583306,42.398611738561634],[12.488055130151453,42.398675057842844],[12.487731813737074,42.398671850905714],[12.487693886320669,42.39867176174823],[12.487534657773399,42.398699255333526],[12.487217090573735,42.39875397611847],[12.487119852434315,42.39935571839187],[12.486754994160579,42.399362330834464],[12.48653283567595,42.39942311914317]]]]}}]}
