{"type":"FeatureCollection","metadata":{"code":"056008","referenceDate":"2026-01-01","sourceDbfExportDate":"2026-02-18","upstreamArchiveUrl":"https://www.istat.it/storage/cartografia/confini_amministrativi/non_generalizzati/2026/Limiti01012026.zip","sourceManifestSha256":"70ac8256c4785dc6ed2814c32b6965ae76f9161b51abaa1660059e1c6cbd8ca6","license":"https://creativecommons.org/licenses/by/4.0/","attribution":"Istat, Confini delle unità amministrative a fini statistici al 1° gennaio 2026, versione non generalizzata.","modifications":["Converted from WGS 84 / UTM zone 32N (EPSG:32632) to RFC 7946 WGS 84 geographic coordinates.","Converted from shapefile to per-municipality GeoJSON without geometry simplification."]},"features":[{"type":"Feature","id":"056008","properties":{"code":"056008","name":"Bolsena","alternativeName":null,"regionCode":"12","regionName":"Lazio","territorialUnitCode":"056","territorialUnitName":"Viterbo"},"geometry":{"type":"Polygon","coordinates":[[[12.00708352530676,42.66245216155389],[12.005241360807185,42.663265903433086],[12.00370861537916,42.66385091356918],[12.002394089882168,42.66440768175849],[12.000393936859233,42.66518498756108],[11.99913920491931,42.66571763311987],[11.996058912838947,42.66737859894273],[11.995571923476161,42.66763897541103],[11.99460737777766,42.66807149320341],[11.991486711582828,42.66947075649097],[11.989555635431746,42.67033654963911],[11.988719330240988,42.67071082016435],[11.979074964941628,42.675036267903],[11.977979596573434,42.67552682252638],[11.976890393505707,42.67574875575565],[11.976333847752047,42.67588710504269],[11.972562617808743,42.67681572840421],[11.968519330482842,42.67750146432846],[11.966956913926635,42.677735066448484],[11.96680016845324,42.67775789088767],[11.966410937290046,42.677817260480204],[11.965126222302219,42.678003633836056],[11.964011920007206,42.67818107992703],[11.962717563978579,42.67842169007362],[11.961349914319792,42.67880583356955],[11.961285168153083,42.67882343800204],[11.960963484224582,42.67890523760227],[11.959934545608549,42.67916453944966],[11.958786168384696,42.679428346234864],[11.957298043834598,42.679669422780464],[11.955715481327962,42.6799939514328],[11.954662473944426,42.68017870385402],[11.953365904181915,42.680374263122964],[11.952307008518217,42.68063312231892],[11.952093494570944,42.68068825791228],[11.951147252234259,42.68075978609356],[11.950117093458967,42.681054325710654],[11.94979897984163,42.68131225912878],[11.949660347356001,42.68134840903932],[11.949623928976857,42.68135809651662],[11.949518024604872,42.681385472405175],[11.949403239023296,42.681415144528465],[11.949051798762946,42.681502833559456],[11.948644676531591,42.681607277458255],[11.94842679728866,42.6816595408617],[11.94833950510262,42.68168088392869],[11.9479234949484,42.68178557223779],[11.94735941125157,42.681928929275884],[11.94730352987869,42.68197680604858],[11.94704799042514,42.68219601510004],[11.946432356534725,42.68228344004346],[11.94636169998469,42.68229347575251],[11.945799200165165,42.68236909034934],[11.945764570593205,42.682373813138284],[11.945662081363562,42.682387715804836],[11.944997997894593,42.68247386772116],[11.944810935291011,42.68249855064624],[11.943948878589127,42.682616199862125],[11.943859269733442,42.682638296964605],[11.943798875544882,42.68265417495272],[11.943606877706555,42.6827045370496],[11.942581106546777,42.68297418561973],[11.942393685618821,42.68302348072213],[11.942103073525216,42.68309925718444],[11.941772390013282,42.683185298939904],[11.941497460389078,42.68325713645435],[11.941329818575527,42.68330088248084],[11.941255253890887,42.68339722207095],[11.941237338559642,42.68342168158398],[11.941185483572434,42.68349248661543],[11.941135065342984,42.68356128269013],[11.941059394941593,42.68366671011103],[11.941042190351595,42.68361819953226],[11.939518939426714,42.68004470869907],[11.93898260341859,42.6792660776947],[11.938213427823374,42.6784664241432],[11.938086575562746,42.67830764425808],[11.937682211606734,42.67779570449841],[11.937444408277429,42.67737859791169],[11.937336620728965,42.676893092943565],[11.93755751778083,42.67543543551036],[11.937644537746193,42.67486120009813],[11.93790647171459,42.67365927429954],[11.937340866697276,42.67257431178199],[11.936797245420621,42.67153147399801],[11.937039195621745,42.670694998629806],[11.937052167641221,42.670059051141735],[11.93705589758977,42.66993767740619],[11.937057892701706,42.669784460074524],[11.937058019386459,42.669753174722466],[11.937058747834387,42.669717387819006],[11.937062504354495,42.66964292934504],[11.937072239051025,42.66937113486142],[11.93707219960182,42.66933502908743],[11.937074419149305,42.669307399036384],[11.936761064329632,42.668728259237],[11.936652435603989,42.66852481599885],[11.936537383733567,42.6683117728192],[11.936429674572148,42.66736906733908],[11.93631903685552,42.66651902966211],[11.936300595869051,42.66637737624022],[11.936141729665716,42.66612932189778],[11.936000747074834,42.66600366967779],[11.935698215560107,42.665730987530424],[11.935164178530414,42.66499731142173],[11.935092375462798,42.66485053655937],[11.935060159736096,42.66478500749137],[11.934746938520727,42.66415256963668],[11.93437084970943,42.66419822908],[11.933600934787403,42.66423255736335],[11.933421163588386,42.66424057318965],[11.932711827010639,42.66420473649915],[11.931989746136054,42.664173703481204],[11.931252051108793,42.66402151837874],[11.930599480595896,42.66391216406422],[11.930558401553217,42.663895646007425],[11.93011526638666,42.66371746422782],[11.929839696424049,42.663305789920905],[11.929706145665174,42.66274656208114],[11.929795842538118,42.662492077424254],[11.929898353912936,42.662201236163355],[11.93020308097665,42.661675675145716],[11.930375766175905,42.66114945539927],[11.930396096533684,42.660558663903146],[11.930301194327022,42.65980470207989],[11.930270502924023,42.65913306009618],[11.931326111674277,42.656967125337744],[11.931091142775973,42.65681749733961],[11.930832562285113,42.65666360553988],[11.930764705723195,42.656623222898496],[11.930318804683996,42.65660690436105],[11.929896157181869,42.65658831847664],[11.929667975966279,42.656586566508246],[11.929615688204898,42.656585784258105],[11.929458753168563,42.65658284489326],[11.929325793850593,42.65658029032059],[11.928289373364848,42.65655943274899],[11.928199759533333,42.65655830992297],[11.927893756036337,42.6565526391691],[11.926674751304956,42.656556798721205],[11.925662326626354,42.6564854296403],[11.92526868641608,42.65645767751774],[11.924349665827759,42.65648486800703],[11.92397576918552,42.65649521356192],[11.922724677716928,42.65635158726825],[11.92241246700413,42.65610007101872],[11.922283517225415,42.65599618718217],[11.922254609713018,42.65596987792694],[11.92219422818765,42.655914920673766],[11.92201178752037,42.655424296763655],[11.921920016901552,42.65475129709467],[11.92188595310728,42.65444292135014],[11.921837115070002,42.65400078476485],[11.921795540465968,42.65362440477028],[11.921834577729305,42.65235825381751],[11.921688717126003,42.65184871659901],[11.921548475103306,42.65164365009275],[11.921682122806484,42.65131760692124],[11.921800717489084,42.651098482953856],[11.92181959275288,42.65106198516266],[11.921939879121235,42.65083667848259],[11.921951760216102,42.65080581784481],[11.924338369337525,42.646337856848405],[11.950839325600235,42.59427999478113],[11.95208735765431,42.59401563743601],[11.985572554206541,42.587149994040246],[11.993388705055345,42.585545795523416],[11.994502423091305,42.585390683314195],[11.994656777336221,42.58537007963236],[11.994756493218464,42.58535687073232],[11.994860919808069,42.58535863847657],[11.996697266140515,42.58544114761282],[11.996765552318399,42.585453277682156],[11.997511351971392,42.58558575711772],[11.997559865722089,42.5855943748435],[11.998331883970403,42.585731506648465],[11.998489405672007,42.58576995943537],[11.998533797664441,42.58578079540736],[12.000230705320222,42.58619501821927],[12.000875970559457,42.58645275335568],[12.001588657247298,42.586591649781944],[12.001760528748498,42.586688957306734],[12.001872140056888,42.58675213129408],[12.002189138963065,42.58693158394578],[12.00301058303864,42.587526848203126],[12.004061913383426,42.58837270562823],[12.004989892577342,42.58890214483408],[12.006520704638332,42.58927198019045],[12.00660352304228,42.589291988068034],[12.007018388295474,42.58937044273196],[12.010324509245953,42.589995603193],[12.010375900871871,42.59000665657352],[12.01043992401856,42.59001958569311],[12.010387805791835,42.59015415977555],[12.010299019568818,42.59038347189551],[12.00970778473269,42.590790713349016],[12.00852967823705,42.59171164820157],[12.008462128524199,42.59176445029013],[12.008435599507164,42.5917831460414],[12.008368010767919,42.59183445702538],[12.008085808194725,42.59226958430771],[12.007906707982007,42.59278242075829],[12.007773180584314,42.593164757760015],[12.007657105003222,42.59396622958875],[12.007645590529519,42.59405956931513],[12.00772271073262,42.59491748486979],[12.007726290571021,42.59501391550368],[12.007766289940363,42.59586400238242],[12.007773029026316,42.59601021246322],[12.007314164081498,42.59763408556901],[12.00727697946957,42.59768817289815],[12.006424946572103,42.59892709793074],[12.00634798893287,42.599148977101024],[12.006249873662622,42.599429866572216],[12.006220835802681,42.599513252405984],[12.006082310196547,42.60019673284662],[12.006071159004781,42.6003304397493],[12.006031225249542,42.60075328508344],[12.006018583094193,42.6008968939381],[12.006016122847386,42.6009325503935],[12.00600276336858,42.6010767804928],[12.005971294936337,42.601552994744296],[12.005967260171925,42.60162693536223],[12.005557998675501,42.6021694442546],[12.005474796999714,42.602279248962326],[12.004828627502555,42.60278245746917],[12.004495426859531,42.60291903552822],[12.004182380838532,42.60304705061469],[12.004133054451135,42.60319217307407],[12.004000190449695,42.60358309192676],[12.004283676000956,42.60388631579293],[12.004784635991845,42.60392720026097],[12.005067851374614,42.603717149840776],[12.005424831481136,42.6035366963732],[12.00597811512339,42.60338260334974],[12.006504682250608,42.60317967650094],[12.006968777489226,42.60267672393793],[12.007242495340106,42.60204822322602],[12.007404315947666,42.6015802451514],[12.007524794259503,42.60077567084784],[12.007698311667165,42.600059734133275],[12.008094860442249,42.59968913559352],[12.009859812210617,42.599656257122014],[12.010260911512724,42.6001544520141],[12.010433876878034,42.60045606737853],[12.010634975573078,42.60107208868246],[12.010895199490237,42.601682071890345],[12.01092829823094,42.60265368954997],[12.010566186192408,42.6040365389745],[12.01055691846652,42.60406817566652],[12.010551259643663,42.60472564939384],[12.010749466611417,42.605044617598686],[12.011097991664878,42.60546316068093],[12.011146806987838,42.6055630421219],[12.01131523815872,42.60590767421767],[12.011876687022365,42.60646019624704],[12.013378710253482,42.60700595709858],[12.014544032797902,42.60745701753788],[12.015034379569931,42.60783002628645],[12.015379244954472,42.60809236218411],[12.015805505564312,42.608700478819415],[12.015902910248128,42.60883943771901],[12.01600145428765,42.609541636247826],[12.016012540530458,42.60961093928838],[12.015726793158583,42.61079357114112],[12.014939853411594,42.61263760202731],[12.014916335391701,42.61269271759916],[12.014710484297224,42.61317507318817],[12.014640537044542,42.61333897472276],[12.014728946664077,42.614444198004016],[12.015220939086655,42.61620777086021],[12.015272586738739,42.61639288841409],[12.015607464113195,42.617643636748674],[12.0157476897819,42.61816777913062],[12.015553590162664,42.61909362004737],[12.015519425636603,42.61926334450164],[12.015699544438693,42.6197268251268],[12.016368376895695,42.62019544425775],[12.016745316924665,42.62024087093914],[12.01698155995419,42.62026933294959],[12.01733542755382,42.62047245351088],[12.017746509382919,42.62070841094512],[12.0177673733639,42.62073035896312],[12.018027874034779,42.62101163635438],[12.018661614872984,42.62099042525125],[12.0190959610271,42.621415698103135],[12.018992233112865,42.62179211014248],[12.018778175344174,42.62213993459948],[12.018627481277877,42.62258513680408],[12.018811324381623,42.622841417287795],[12.018890403107228,42.62317462187686],[12.018947244575045,42.62341412449368],[12.019062973325267,42.623732747275284],[12.01924122408399,42.624230292436266],[12.020878486666874,42.62505602952861],[12.021368660704843,42.6251061241766],[12.021940590812013,42.62533413824102],[12.02248382894107,42.62572500567252],[12.024330200220078,42.62609944359956],[12.024793368094215,42.626071336723335],[12.025012318435149,42.62602761215398],[12.0251362932357,42.62600180786867],[12.025383804955256,42.625950051988085],[12.025619688453526,42.62607456413302],[12.025847895925763,42.62619467644155],[12.02604370020032,42.62657072344767],[12.026151175063056,42.626776108572805],[12.026193756327023,42.62686382780933],[12.027043544913369,42.63058403267473],[12.028766214109407,42.63795962441861],[12.029027705200342,42.639079860919786],[12.029095125687284,42.639368684164324],[12.029999144032098,42.64324289056358],[12.02993884712067,42.64972069253265],[12.029934804868782,42.650157615150704],[12.029933571600079,42.650291092291106],[12.029791718610266,42.65041751709501],[12.029210976476449,42.650446590382444],[12.02636018527953,42.650715420545524],[12.02614700394768,42.6508156064371],[12.02471125777897,42.65148837554031],[12.024215045988543,42.65185238736253],[12.02315510033868,42.65262876169449],[12.021025449911274,42.65418803190383],[12.018332291553225,42.65577630616862],[12.013847551270562,42.6584248016082],[12.007740375147433,42.662030734774675],[12.007589598301593,42.662119192584676],[12.00708352530676,42.66245216155389]]]}}]}
