{"type":"FeatureCollection","metadata":{"code":"057055","referenceDate":"2026-01-01","sourceDbfExportDate":"2026-02-18","upstreamArchiveUrl":"https://www.istat.it/storage/cartografia/confini_amministrativi/non_generalizzati/2026/Limiti01012026.zip","sourceManifestSha256":"70ac8256c4785dc6ed2814c32b6965ae76f9161b51abaa1660059e1c6cbd8ca6","license":"https://creativecommons.org/licenses/by/4.0/","attribution":"Istat, Confini delle unità amministrative a fini statistici al 1° gennaio 2026, versione non generalizzata.","modifications":["Converted from WGS 84 / UTM zone 32N (EPSG:32632) to RFC 7946 WGS 84 geographic coordinates.","Converted from shapefile to per-municipality GeoJSON without geometry simplification."]},"features":[{"type":"Feature","id":"057055","properties":{"code":"057055","name":"Poggio Nativo","alternativeName":null,"regionCode":"12","regionName":"Lazio","territorialUnitCode":"057","territorialUnitName":"Rieti"},"geometry":{"type":"Polygon","coordinates":[[[12.757995941639772,42.24136365858833],[12.757429395604614,42.24164336922424],[12.756859062077142,42.24199974866542],[12.756630866209177,42.24226385722256],[12.756215643960978,42.24236302253963],[12.75546119922552,42.242450775066],[12.755035007603743,42.24250528184524],[12.754628273865407,42.242352039698744],[12.754281632478467,42.241922186515076],[12.754430751221584,42.24156660926446],[12.754966976137633,42.24028793273303],[12.755068090273298,42.24016262421607],[12.75582657038887,42.23922251531242],[12.755930674073438,42.239093611597845],[12.755958782234236,42.238776430678755],[12.755982426799779,42.23850957769601],[12.755991388430086,42.23840846684126],[12.756133749472413,42.23748984976837],[12.75578834278427,42.23697893144635],[12.755654969437519,42.236645633948946],[12.755602266028687,42.23640875594549],[12.755578016594903,42.23586089329053],[12.7555756023499,42.2358063354743],[12.75565024017114,42.235061034872466],[12.755608891677598,42.2345176281261],[12.755312169243032,42.23400961035564],[12.75535154653111,42.23357610198697],[12.75585637693787,42.23301028703631],[12.755936485957845,42.232778052962544],[12.755903393515895,42.23267242769025],[12.755817814186795,42.23239925939353],[12.75538243261278,42.232017351500325],[12.754890599368112,42.231551726256875],[12.754072055734255,42.23102929487071],[12.75395075776519,42.230945379143094],[12.753363732607042,42.23053926161285],[12.753011282550405,42.229857488124736],[12.75290116213587,42.229226287260715],[12.752985898543683,42.22886784070739],[12.752813467603005,42.22845445066884],[12.75257277658462,42.22787738208166],[12.752488386759891,42.22617382828608],[12.751938267096206,42.22478896880336],[12.751842226659393,42.22454720595185],[12.752240971073673,42.22461967292085],[12.753116651351858,42.22484253300918],[12.753416452094953,42.22491883030479],[12.753679081294711,42.22503178638262],[12.754362489954827,42.22524349516557],[12.754386857676247,42.22491404219349],[12.755075845028742,42.22459430107037],[12.755208153142922,42.22429732422987],[12.755349500737724,42.22407658036901],[12.755586675262474,42.22387521179062],[12.756104672220506,42.22396628965581],[12.7565077125489,42.224187180120374],[12.7576219365569,42.224551334038395],[12.758263090005821,42.223895690643026],[12.758477086115176,42.2236768588894],[12.758840131374228,42.22368296174841],[12.759347397484966,42.223720326193366],[12.759382152830607,42.2237172378394],[12.760151041498549,42.22364893236461],[12.760894939251699,42.22348944863777],[12.76160521808759,42.22329954778582],[12.76288527739034,42.22338356394088],[12.762946292238457,42.22338430853894],[12.764083977791573,42.2233981914397],[12.764289109957842,42.223117049627184],[12.764504724871276,42.22282160158209],[12.76426552160356,42.22241526247263],[12.764182240060864,42.22200829841515],[12.764567695755739,42.22171649100304],[12.765988069589508,42.22166529957674],[12.766474422365306,42.22127562113904],[12.766554555725953,42.22070122644069],[12.766912390970953,42.22051836343825],[12.767466244874468,42.22027054058418],[12.76756255609834,42.21992970086744],[12.7673685077959,42.21925176127954],[12.767212566096118,42.21852753421709],[12.767109828231337,42.21808522777731],[12.767086241661877,42.21798242837744],[12.767304527344855,42.21765559331995],[12.767996680563265,42.217569795624776],[12.768677943028688,42.21752938405651],[12.769310100428187,42.217700839254626],[12.769565220934739,42.21777030934389],[12.769850332221823,42.21789602206673],[12.77012580199302,42.218017480772296],[12.770689141345134,42.21782786074784],[12.770943326086686,42.21748182195492],[12.77107702334984,42.217171283790954],[12.771557284387159,42.21693486228416],[12.772346755791084,42.2168683512235],[12.772485195359037,42.216867182871916],[12.772904423357591,42.21686348051044],[12.773338924111366,42.216925716146655],[12.773494589346473,42.2166414476746],[12.77393576540124,42.21646033661461],[12.774664360814144,42.216427310012755],[12.775802721427306,42.2160926525128],[12.776220759093345,42.215574624625205],[12.775709937463764,42.21494315628835],[12.774919153922959,42.21435242775735],[12.774546201787473,42.21395051783157],[12.77450099235756,42.21349729279804],[12.77444299557226,42.21305798760471],[12.77459956059519,42.21203983355543],[12.774603641448843,42.21158863099104],[12.77461887218182,42.21156546407846],[12.77475342548361,42.211309351239386],[12.775139265259659,42.2105925919942],[12.775200482806474,42.21047578790695],[12.775553444882105,42.210149170962914],[12.775665050050254,42.210047479215746],[12.775802192381745,42.2099746529456],[12.776181513131291,42.209777125048305],[12.776060753899792,42.2092635492714],[12.776050864646603,42.209221495988984],[12.775887382156139,42.208526223540886],[12.775674182772235,42.20835315745641],[12.775525059524462,42.208359983486346],[12.775268082564276,42.20837174803473],[12.774970610075338,42.20838536432797],[12.774748861860948,42.20818794573744],[12.774678010683342,42.20812486703192],[12.774375491143259,42.207761149517225],[12.774313859386547,42.207425527171665],[12.774321210358675,42.20687602254676],[12.774426420945467,42.20661641067907],[12.774874399071786,42.20634320819714],[12.774911087968832,42.206320821623876],[12.77537822373656,42.206093816031576],[12.777004212804771,42.205333373689875],[12.776644836936448,42.20449882188241],[12.776729842236497,42.20418536313404],[12.776785167375511,42.20415929100822],[12.77803442568402,42.20357056202012],[12.778058419242141,42.20319394149782],[12.778063743499082,42.20311037956267],[12.777627740946095,42.20274207392621],[12.777160142242984,42.202325384972326],[12.777111314855663,42.2022818747547],[12.776781865488543,42.20198659975573],[12.776577087680657,42.201624164566795],[12.776580474797495,42.201528333182914],[12.776589597408497,42.20128257545571],[12.776667242319565,42.2011378978345],[12.776795847202344,42.20090111305622],[12.77853907955225,42.20057348120484],[12.780828813050496,42.20087033530055],[12.781393477250727,42.20103304994698],[12.781561203679146,42.20096478009162],[12.782597204974172,42.20054309074126],[12.782374359111808,42.199663533902665],[12.782311345881855,42.19951046842765],[12.781983050621776,42.198712992044214],[12.781942185232444,42.19834836110879],[12.78191015525415,42.1980625692843],[12.782114958779802,42.1973985000445],[12.78229375368353,42.196438132488744],[12.78213572605452,42.196123695058986],[12.78173783530688,42.19570913323298],[12.781397064555826,42.19541422702027],[12.781283788088956,42.1952153739675],[12.781159812650943,42.19491331047021],[12.78024643956349,42.19192250332848],[12.784457364596799,42.191697914372526],[12.784761634276379,42.19097652135842],[12.784932856606904,42.19057466226388],[12.785102031097182,42.19022691963358],[12.785211491546828,42.189867632483676],[12.785667820102066,42.188352721946266],[12.786101847666295,42.18691178408324],[12.787215704915646,42.1866890458212],[12.78737447079184,42.18665729589075],[12.78801692065308,42.18652881701689],[12.788588193882457,42.18646491003282],[12.788908342546543,42.186301242630684],[12.789958757735683,42.185708233297035],[12.79051840727067,42.18515415923215],[12.790643832636196,42.18502992143084],[12.790714560498293,42.18494510227855],[12.790755702408426,42.184919224499374],[12.791837386536328,42.18389854821516],[12.792005406403945,42.18359584775548],[12.792278876708243,42.18341120060996],[12.792442348619694,42.18323471199531],[12.79272571877696,42.183076752017925],[12.792771127262268,42.18283664220703],[12.793230984194073,42.18215059007022],[12.793904014024642,42.1815880395493],[12.794271523330682,42.18135588861886],[12.794498217507162,42.18121268863101],[12.795114473351342,42.18066722639818],[12.795185165986304,42.1806046556126],[12.796233115558259,42.18111985774116],[12.797211508723542,42.18152414678559],[12.798303291821934,42.18179155089318],[12.798544559598538,42.181849030113234],[12.798576920522718,42.18185743059211],[12.799155935110466,42.182013438110246],[12.79939741112026,42.182087730660456],[12.800189011187816,42.182331270619585],[12.80031841263172,42.182371080546346],[12.801383074674305,42.18274993792519],[12.802735026321407,42.18288515832468],[12.803862965708356,42.18315834558665],[12.804507410549279,42.1834565982187],[12.80485699859284,42.18364680222547],[12.805502181807158,42.18399764549821],[12.805610326860213,42.18405451652663],[12.805696346494853,42.18410054283729],[12.805743392517945,42.18411482221466],[12.806322670744633,42.18428054599493],[12.806881942075922,42.18444023601627],[12.807331746366296,42.18442076857643],[12.808008975386091,42.18478546080861],[12.808138108184627,42.18502862801103],[12.808723625008271,42.186131171797705],[12.808916274454054,42.18649392608402],[12.809243227507435,42.18710955985031],[12.809421872258511,42.187445934088075],[12.810067157487133,42.1886609133905],[12.81100240565436,42.189615778612215],[12.811076401099147,42.18981923119454],[12.811167425077906,42.19006950281435],[12.809233253004578,42.19068761815202],[12.804898716813389,42.192511140109595],[12.804780243435019,42.19256097700885],[12.804318137323186,42.192755368485315],[12.803622762867484,42.19328579192514],[12.803068307383024,42.193708329674685],[12.801312275559056,42.19504811090806],[12.801118027918191,42.19519627894835],[12.800872803809803,42.19538330110508],[12.800074692121035,42.195992019743976],[12.799628020980037,42.19633268641014],[12.799777580544516,42.196404886806356],[12.800116670268785,42.196568581082],[12.800893229875363,42.19687148693687],[12.801870785797437,42.197320776047285],[12.802051088375087,42.19740072694307],[12.802270541535599,42.19749804052756],[12.802337410899437,42.197527691946405],[12.803076188426532,42.19854925336955],[12.805264814560001,42.19975394448935],[12.807014114153642,42.200321152722935],[12.808404353207981,42.201272435569955],[12.808871120993755,42.20163528101248],[12.80897603966211,42.20173993854484],[12.80929045911776,42.20178006404418],[12.809358861408203,42.201785804074845],[12.809537249247029,42.20187635076961],[12.809098370334532,42.201818209481544],[12.809305517028145,42.2022094103061],[12.809407120832358,42.20229215292795],[12.81013559312099,42.20258191968468],[12.810705384168866,42.2027256088255],[12.810670814827033,42.20278333163711],[12.811106604900857,42.202820219285954],[12.812204714443842,42.20338610396723],[12.812289314278894,42.20332145793916],[12.813813490187393,42.20412175053274],[12.814079767052466,42.204268258642585],[12.814483094974305,42.20447602335281],[12.815691628332802,42.20509855572038],[12.815697362483277,42.205064564963905],[12.815794920826526,42.20511145234454],[12.816657568700435,42.2053675194111],[12.816912184767792,42.20553178600323],[12.817430405671153,42.205866114740616],[12.818137587044749,42.20645933310355],[12.818553359978837,42.20668859671152],[12.818824476461396,42.207020973414764],[12.818935898070396,42.20715757197887],[12.819042506732742,42.20735660785505],[12.819175541251068,42.20760429467703],[12.817921039555856,42.2081278467842],[12.817083865272128,42.20854293280307],[12.81648257660161,42.20878163655028],[12.815780540977444,42.20906032860739],[12.815523969403618,42.20916218158339],[12.814505656174235,42.20951125212188],[12.814454564551975,42.209529907008196],[12.81371698213767,42.20977027253586],[12.812681678065355,42.210107724119524],[12.811915937850351,42.21051589441071],[12.811927207173945,42.210741924572275],[12.811930503247229,42.21080804658729],[12.811352815112535,42.21210138456152],[12.811299521240871,42.2122735999598],[12.810983990229577,42.21329322191979],[12.810946074527354,42.213353083018745],[12.810358414606965,42.21428086566971],[12.810080358383699,42.21471984102444],[12.809920715409566,42.21497187389189],[12.809668143630478,42.21559846218133],[12.808643380955308,42.218140621528505],[12.808342409269143,42.218887213870445],[12.807504459294307,42.22002260917948],[12.807100142715402,42.220426070528795],[12.80663506468731,42.22089015842931],[12.80646485944688,42.221059999846354],[12.805810249545777,42.2217131970039],[12.803984211007016,42.22318137665293],[12.803528208363577,42.223547997055135],[12.803468063279807,42.22359635333496],[12.803310255107526,42.22373069739692],[12.803192900928858,42.22383059700687],[12.803137813515729,42.22387831334788],[12.802917264133136,42.22406935616432],[12.80193523510579,42.22402009775493],[12.801884283325338,42.22401754165057],[12.801325647661114,42.2239895170105],[12.8005948044457,42.22395322372663],[12.800046873945707,42.22370424291937],[12.799438967962448,42.22342844123386],[12.798944786785864,42.22369695652505],[12.798788403315278,42.22403896830011],[12.79867069403962,42.224294478883586],[12.798420527494754,42.22483988216071],[12.797640501477293,42.22532946130026],[12.797788066684442,42.22608748260162],[12.79789244682251,42.226625397257926],[12.798483512001436,42.2296595863317],[12.798206909746998,42.23169924037058],[12.797418643101253,42.23204053197466],[12.797080384523325,42.2320067137217],[12.796704241451705,42.232010184898634],[12.79639830987145,42.232123870619425],[12.796086494748339,42.23234131435326],[12.796041617306846,42.232590406749175],[12.795953019902713,42.23305707382058],[12.795822293984008,42.23332702724847],[12.795560186116143,42.23356532144373],[12.795230130131738,42.233630289375746],[12.794685651832454,42.233630313902886],[12.794358854780812,42.23324495883784],[12.793708442780382,42.232438105754056],[12.793252124026377,42.232304642491165],[12.792226394236744,42.232878869409085],[12.791974350925404,42.23279266818121],[12.791114118589613,42.23245197882742],[12.790161931324587,42.232307899360585],[12.78928562005939,42.232102787605776],[12.788805845193165,42.231956584022804],[12.788620175914005,42.23170160399242],[12.787898306222939,42.231230233027894],[12.787589033609772,42.23106038650322],[12.787190039466484,42.23102404870535],[12.787073564727981,42.23126652333323],[12.78680035236284,42.23177528465702],[12.786350073281547,42.23183070408824],[12.785892658295543,42.231728761949135],[12.78557689830041,42.23177971386024],[12.78551666627758,42.2318009757718],[12.785187342045896,42.23191721910788],[12.784999929000582,42.231983373652646],[12.784710386443317,42.23210548558618],[12.784421341865047,42.23222309975478],[12.7842240384887,42.23201351069955],[12.784065093869767,42.23168561046212],[12.783831552543871,42.231427685675754],[12.78360562671017,42.231309087659156],[12.783198698512988,42.231164952527855],[12.782681023579539,42.231056007751775],[12.78216270726059,42.230974059848975],[12.781415050523066,42.230868185842276],[12.779510979537765,42.23081914898811],[12.778665641823556,42.230832864658076],[12.77894622193222,42.231498948162844],[12.778913771086158,42.23178324750495],[12.778823452003476,42.23257450433416],[12.778371283681347,42.23267496766904],[12.778043290578955,42.232685787992516],[12.777625882338915,42.2328481145574],[12.777402746760766,42.23301755101007],[12.777426829877287,42.23333191052716],[12.777671769970707,42.233616469517536],[12.7784662313643,42.2355316644952],[12.77860954853624,42.235877142414026],[12.77832703010371,42.236003525894446],[12.777962298883995,42.23603355509455],[12.777436461204022,42.2360548785576],[12.777367717927294,42.236057665267815],[12.77714216274079,42.236790186881215],[12.776983973288253,42.237303920172984],[12.77652646008838,42.237251476222944],[12.776000505751515,42.2373723630462],[12.775562283923074,42.237427323828065],[12.775185968128406,42.23746674399311],[12.774847822872955,42.237396860304784],[12.77456092312638,42.23740097503242],[12.77436352998116,42.2374038044227],[12.774184759752412,42.237446186606746],[12.773862534238777,42.23752385805266],[12.773386320105782,42.237602578698265],[12.773078659602449,42.2377387765908],[12.77183968662298,42.23756533220791],[12.77175206523269,42.237552863383975],[12.772006175032361,42.236873672126045],[12.772242245408815,42.23637516774417],[12.77222099890617,42.23625303762827],[12.772192331760708,42.23608417416573],[12.771917333432144,42.23598066768977],[12.771302930511537,42.2358883554061],[12.770946341543112,42.23601714068367],[12.770768303903067,42.23625712731208],[12.770612790184957,42.23653236904595],[12.770436603264129,42.2367272614449],[12.770189872543853,42.2368569454077],[12.76927141163585,42.236783630401916],[12.768902617548047,42.23672360967741],[12.768512028374772,42.23666004038267],[12.767912016655456,42.236496462678524],[12.767275236473683,42.23634055902991],[12.766984515289822,42.23635462038869],[12.766772853794153,42.23650114251501],[12.76671205747942,42.236840812353],[12.76685459697456,42.23725032436222],[12.766487390375572,42.23737944500149],[12.766090099892722,42.23798230361449],[12.765812128962626,42.237968925991126],[12.765648010826313,42.23816341519569],[12.765650371753397,42.23840646179658],[12.76595698369858,42.23868451888518],[12.766065793416308,42.239684916393564],[12.76576208831296,42.24039724169348],[12.765521234468212,42.240702297432215],[12.76571645822186,42.24104254832398],[12.765411857334898,42.24106606116001],[12.765010802330377,42.2410972622813],[12.764713183912507,42.24101629979905],[12.764434966225044,42.24094061388219],[12.764213637917422,42.240871842314384],[12.763982428216227,42.24080000218886],[12.763727362012547,42.240720744329536],[12.763495368468151,42.24111105190995],[12.763064895447034,42.24130978975079],[12.762303515394594,42.241573409139114],[12.761841907894372,42.24159307169091],[12.761311972446324,42.24152042914957],[12.760916366475612,42.24137586192934],[12.760377508909874,42.241204462262274],[12.759919208371414,42.24115195971589],[12.75965127729688,42.241094772440185],[12.759568512211695,42.241077099614515],[12.75938915178075,42.24103879686326],[12.759166096286448,42.24104458721602],[12.758733517072587,42.24105581618758],[12.757995941639772,42.24136365858833]]]}}]}
