{"type":"FeatureCollection","metadata":{"code":"058018","referenceDate":"2026-01-01","sourceDbfExportDate":"2026-02-18","upstreamArchiveUrl":"https://www.istat.it/storage/cartografia/confini_amministrativi/non_generalizzati/2026/Limiti01012026.zip","sourceManifestSha256":"70ac8256c4785dc6ed2814c32b6965ae76f9161b51abaa1660059e1c6cbd8ca6","license":"https://creativecommons.org/licenses/by/4.0/","attribution":"Istat, Confini delle unità amministrative a fini statistici al 1° gennaio 2026, versione non generalizzata.","modifications":["Converted from WGS 84 / UTM zone 32N (EPSG:32632) to RFC 7946 WGS 84 geographic coordinates.","Converted from shapefile to per-municipality GeoJSON without geometry simplification."]},"features":[{"type":"Feature","id":"058018","properties":{"code":"058018","name":"Capena","alternativeName":null,"regionCode":"12","regionName":"Lazio","territorialUnitCode":"258","territorialUnitName":"Roma"},"geometry":{"type":"Polygon","coordinates":[[[12.528173167339853,42.17895922678028],[12.527845601379552,42.178960294699934],[12.52697316536479,42.17898715428163],[12.526262927700678,42.17888294987951],[12.52559176001485,42.17870550585053],[12.524305506201529,42.178461428744185],[12.522808474486789,42.17835890256282],[12.52179116198884,42.1780660113434],[12.521414398320085,42.17776692736903],[12.52056528164769,42.177518372607096],[12.519360348197768,42.17737530747187],[12.51843074146406,42.176985144611514],[12.51794953986423,42.176603705008475],[12.517483648171062,42.17583009604838],[12.517337130999547,42.1755437789053],[12.517122988588968,42.17512530697339],[12.516805816133573,42.174590262278734],[12.516275962094355,42.1739041621724],[12.51588862257544,42.173263220571314],[12.515759477953317,42.17297495352934],[12.515476753371628,42.172343860847306],[12.516395274691794,42.17208606163429],[12.51685258860738,42.171833411528965],[12.517095198410493,42.17151529987009],[12.517295167607351,42.17129554214323],[12.517425087957092,42.17115141732971],[12.51785031048248,42.170758186327824],[12.518067578465066,42.17044247330083],[12.518172598029935,42.17028911515458],[12.518286971962349,42.16991262932717],[12.51838064143255,42.16960738052939],[12.518398327757897,42.169531881378006],[12.518482077670127,42.16918555325083],[12.51859761204595,42.16869125799727],[12.518863163377507,42.168301695352056],[12.518918833942505,42.16822214450641],[12.519088257602876,42.16813753329457],[12.519696903562734,42.16783356627608],[12.520042241668705,42.167700022072275],[12.520151633672434,42.16765751531197],[12.520943474224135,42.16738105452703],[12.521029154596791,42.1671555011985],[12.521071532906166,42.1670439363286],[12.521094868226363,42.166887409017534],[12.52112077038852,42.16670475940974],[12.52113684130255,42.16629905105368],[12.521143596860094,42.165821596681354],[12.521153250622744,42.16578474901632],[12.521532664437903,42.16567401120233],[12.523217343336825,42.16518229224634],[12.523723562182951,42.16529231196062],[12.523758446229488,42.165298666275426],[12.524649237012841,42.165460925849615],[12.527226658274783,42.1648229835118],[12.528049864584888,42.16511084689279],[12.529034904417326,42.1654552888768],[12.529556744805342,42.165637757610895],[12.529758467086582,42.16570785225124],[12.53008807176785,42.16582477350278],[12.531153039958273,42.16545252338382],[12.531376287309113,42.16533228496314],[12.531447118510282,42.16529554465416],[12.531719471595885,42.16515077792427],[12.531778918319077,42.16511689791418],[12.532151957381908,42.16487957494273],[12.531614210934633,42.164438653880474],[12.53163473590092,42.1639106871971],[12.531629237107875,42.163481226260224],[12.531450204302338,42.16294895371987],[12.53147104963873,42.162882911036164],[12.53160251126718,42.162456852262515],[12.531968683602257,42.162078719844814],[12.532088628298384,42.16195637397019],[12.532136131321915,42.1619436907214],[12.53265194805125,42.16182033438642],[12.532649768199992,42.16178093579077],[12.532658984358502,42.161511906373185],[12.532710710439252,42.1602127945465],[12.53271244219002,42.160168221910496],[12.532716263455486,42.16006994114337],[12.532521694082611,42.16019060008904],[12.531738327035695,42.1606763835255],[12.531044805297272,42.161388020615796],[12.530521935784716,42.16170701606186],[12.529760217310892,42.16201658138639],[12.529603641176035,42.16201286809696],[12.528669738991475,42.16196428924978],[12.528777078079877,42.16148777567483],[12.52901233037052,42.16114607517379],[12.529217695631123,42.16100188271718],[12.52927330930154,42.160089772552226],[12.52928125207295,42.15996743401509],[12.529283551688495,42.1599320233198],[12.529284841254025,42.15990064632576],[12.529288158040199,42.159846234088135],[12.52940314116773,42.15963636949972],[12.529632231682132,42.15921666605199],[12.52985891372852,42.15838415165552],[12.529887498857017,42.15797992956924],[12.529910395383492,42.15766380736147],[12.530051784550862,42.15713268894798],[12.53009827133378,42.1569675701633],[12.530112754342195,42.15692231745897],[12.530573697705565,42.155216620488],[12.53059654997449,42.15507395084574],[12.530654553835586,42.15471183662812],[12.530670816617723,42.15461031351127],[12.531197494163566,42.15398139407098],[12.531787203039915,42.15327925184974],[12.5312786728486,42.15297525897636],[12.531283223298933,42.152631230656354],[12.531297262107724,42.15156996201624],[12.530636365481294,42.15018560257841],[12.53056524869476,42.149832112050454],[12.530535478377775,42.149364781441655],[12.530594399732813,42.14785469067075],[12.530810226585889,42.14665042967741],[12.530959607943377,42.14624963096371],[12.530723374848709,42.14608130980159],[12.530191462628755,42.14515222012037],[12.53029105878158,42.14495699925097],[12.530400461907206,42.144749564714786],[12.530452760771041,42.14429123589273],[12.53051027649508,42.14378718602015],[12.531293473594927,42.1435649524257],[12.531393992851568,42.14317015846881],[12.531669390430029,42.14291403781705],[12.532074422827337,42.14247384087543],[12.532474977238078,42.14180414669133],[12.533096000031419,42.14108713627343],[12.53348564183903,42.1407104410452],[12.533822751276249,42.14012374817969],[12.533818095494828,42.13972769485677],[12.533816842453545,42.139664699552135],[12.533854953553794,42.13930332553949],[12.534199212434913,42.13915764330821],[12.534713837204567,42.13898868668744],[12.534930746309902,42.13807703395059],[12.534763791146512,42.137713002086066],[12.534133338189152,42.1374172828645],[12.533630472138404,42.13699605855335],[12.533488801639683,42.13627104615966],[12.533349816361778,42.13579808392124],[12.533843141180332,42.13523359098795],[12.534660504677047,42.1347446518214],[12.535253383450117,42.13443371317023],[12.535840155713363,42.13428504402263],[12.53646595515547,42.134063116192465],[12.537309890196969,42.13382095102131],[12.537916330427578,42.13348256498762],[12.53812297072727,42.13314752090354],[12.538020945617282,42.13268694022355],[12.538019759008236,42.13236731186968],[12.538353922356173,42.13217689369643],[12.53848507050661,42.13191171260753],[12.538662585892562,42.13139296551103],[12.538825713659996,42.13095569684672],[12.538892168545466,42.13077806242883],[12.538865380587636,42.1302160916695],[12.538756994734166,42.12970038199572],[12.538701797130601,42.12943774825448],[12.53868176979886,42.129024150179944],[12.538695604015867,42.128966869846785],[12.538825307137321,42.12845242088345],[12.539034139835612,42.12832827465574],[12.539208763268785,42.1282244618871],[12.53937545155291,42.127661032437146],[12.539912113488239,42.12630276180088],[12.539900595844282,42.12616926769903],[12.539863687559613,42.125691800163935],[12.539879682722617,42.125468479571005],[12.539907923575687,42.12507269313162],[12.53991469956895,42.12497900482987],[12.540217215789589,42.12440864086703],[12.540241095405243,42.12436560615447],[12.540274827581207,42.12430333191963],[12.540299707394803,42.12426005738631],[12.540327716996467,42.12420824422455],[12.540488495491752,42.12392123101295],[12.54090941103227,42.12366061148596],[12.541098547705355,42.12354801987825],[12.541330821799473,42.12340895643846],[12.541571717192033,42.12316413209375],[12.542023250721702,42.12270321018785],[12.542507672456283,42.12208060659992],[12.54253000799092,42.122036516966645],[12.542782209752518,42.12153029078249],[12.543267958285062,42.12117895189385],[12.54373489159525,42.12098443204134],[12.54426417372004,42.12074294848446],[12.545064899487558,42.12037068715271],[12.545147795838705,42.12036207431192],[12.545332605511692,42.120342894114884],[12.545931397056913,42.12008024801653],[12.545947043431877,42.11999722474995],[12.545946314587619,42.11964918573678],[12.545550710358512,42.11919014887887],[12.545218149888933,42.118836810970116],[12.544708275601197,42.118183301881785],[12.544502789161227,42.11814034586307],[12.544426424465724,42.11824422796923],[12.544265995971921,42.11795703383927],[12.544104704938816,42.11766829121195],[12.543790310222212,42.11754765029221],[12.543788703020763,42.11748686131589],[12.543763455156935,42.11653070724818],[12.543760028516411,42.11640094063494],[12.543742975434732,42.115755139656436],[12.544245731657966,42.115277433257],[12.543041524772269,42.11467605208098],[12.542977515209586,42.11462458516677],[12.541044501856161,42.1131009956765],[12.540676782878052,42.11288829202399],[12.540039554428402,42.11251944899145],[12.539898713051286,42.112438214751336],[12.540504123952635,42.111922065085366],[12.540800657363054,42.11166971722143],[12.541946341082895,42.11069278054736],[12.542476433474757,42.11024058847748],[12.542528729025477,42.110196002259435],[12.54259514070644,42.11018882839466],[12.543218555634462,42.11012667540137],[12.543507131384251,42.11009791029693],[12.543965375267552,42.1100517612669],[12.544235359083768,42.11002403119738],[12.544623228052261,42.10998549568307],[12.54489944955011,42.10984796093554],[12.54593454525023,42.10933255835647],[12.548307083120578,42.10755334227105],[12.548612700175735,42.10732556241481],[12.548647876912849,42.10727249065017],[12.548946498890087,42.10682195208864],[12.549053534898466,42.10671047436918],[12.549290104903811,42.1064554259593],[12.549587664729819,42.10614981747822],[12.550146447438937,42.10596439628387],[12.550566687147173,42.105441338539585],[12.551164202246571,42.10474576288067],[12.55119498852401,42.104709917376724],[12.55119561077752,42.10460142432102],[12.551203665976473,42.10444529820288],[12.551308267182101,42.10412680827659],[12.551439611343993,42.1039379159693],[12.551500978554408,42.10386925586117],[12.551671843008107,42.10367808864493],[12.55194439184377,42.103608352110435],[12.552180040021952,42.10354756936977],[12.55272867972809,42.103407157708],[12.552824004476824,42.10338271914795],[12.553284182445134,42.103267388795395],[12.55339247988441,42.1032403927199],[12.553601945213916,42.103057616765234],[12.554056628804739,42.102659927366695],[12.554153622784876,42.102575090697265],[12.554266356593704,42.102475705814584],[12.554342632122395,42.102369789395574],[12.554505314549647,42.10214410536238],[12.55457112381639,42.10206462894052],[12.555015827955668,42.10224895849005],[12.555310701637499,42.102255248135165],[12.55571157569124,42.10226379617644],[12.556057780966398,42.10216420295119],[12.556363201189066,42.10207606495606],[12.557314554117115,42.101801456679866],[12.557658076224735,42.10177213922735],[12.557747228999991,42.101764858501205],[12.557992140587372,42.101862672017624],[12.557908384391915,42.10201206740079],[12.55781510228883,42.102178446917236],[12.557768004731102,42.102546140519614],[12.557685099507678,42.10298681064166],[12.55769892648292,42.10305688487111],[12.557633458608294,42.10320477133008],[12.557605469819539,42.103271873577754],[12.557469983144863,42.10357404770557],[12.557235276569289,42.10385649871209],[12.557141242705152,42.10396966052832],[12.556836605324904,42.10420530268463],[12.555289911382834,42.10458719738908],[12.55499912910112,42.10490511336663],[12.554804756742548,42.10543250401884],[12.554796552119788,42.10550905471551],[12.55479230337911,42.10554071297455],[12.554790092548219,42.10558046270868],[12.554698334402927,42.106389581805495],[12.554390577893955,42.10737477725437],[12.55426677280354,42.10787773752184],[12.554320103446864,42.107919532275304],[12.555113665312073,42.108492164052585],[12.555230411409891,42.10851336486535],[12.557620671742322,42.10894747391291],[12.558137078003066,42.109101066759365],[12.559200318150896,42.109852804689744],[12.559239518080432,42.1098635113163],[12.560475167945745,42.110330573047236],[12.561074065593827,42.11057827600595],[12.561100510040564,42.1105959914096],[12.562149757507106,42.11138388219685],[12.563039505478336,42.11179171727804],[12.563692649975495,42.11201302878953],[12.565679348286498,42.11180598556772],[12.566453927773871,42.11172530900674],[12.566608452914675,42.111709154070695],[12.567804305944769,42.11188579721159],[12.569537748474517,42.11209294664422],[12.570903868818435,42.112217614706864],[12.571119791889128,42.11265032985689],[12.572745552242635,42.1151604963345],[12.573351744846338,42.115198450073876],[12.5761471354352,42.11493266212757],[12.576705464980384,42.11498055878202],[12.577094072907666,42.11500896415365],[12.578179910709075,42.11509661215361],[12.579472491357489,42.115150794557735],[12.580751746777588,42.11522339618375],[12.581555621371082,42.115243290960684],[12.582126677133802,42.11514135110305],[12.582839778299922,42.11501405055335],[12.583875490546466,42.11488261535634],[12.583994949964797,42.114869880124154],[12.584099580967408,42.1148572771564],[12.584801990169575,42.114772678494276],[12.58495442555271,42.11475431833193],[12.585365773335013,42.1146388212539],[12.585399113932034,42.114629451507376],[12.585459664287221,42.11461244180304],[12.585586804594652,42.11457574263267],[12.585896983334214,42.114486209785944],[12.586308060071934,42.11414918253588],[12.586332806897431,42.11383774434608],[12.586166583253988,42.113410714475],[12.585470600376432,42.11327942728441],[12.58400531105353,42.113338762205935],[12.582517105244122,42.11331326362263],[12.581819111816682,42.11322701616373],[12.581085052138734,42.11299830790418],[12.580886648332795,42.11293649236343],[12.580356810049597,42.112547849752964],[12.58000875476068,42.112273883786735],[12.579735136767981,42.11205850839625],[12.579629157481332,42.11200776985948],[12.579081862329412,42.111745748524996],[12.578543080460745,42.111573475119805],[12.578040515967515,42.11145408400821],[12.577609907650004,42.11133696202723],[12.577155631282265,42.11117556176241],[12.57691099951097,42.11107366689178],[12.575858459470714,42.11063524879877],[12.576083333058346,42.11024306366793],[12.577093862991921,42.10848060694757],[12.581043689571462,42.109446808717536],[12.580891371296474,42.10901033862931],[12.580963052578332,42.10839128556118],[12.580956914431237,42.108247322839006],[12.580937664665308,42.10780676491316],[12.580820805330413,42.10736920375093],[12.580889536527541,42.107000144119624],[12.581197421033526,42.10698829301126],[12.581101705235623,42.106585359930826],[12.58109135322378,42.10648155028251],[12.581044135975025,42.10600808505703],[12.580832253218539,42.10560519497607],[12.580772371643402,42.10544564850247],[12.5808514136629,42.10542617431438],[12.58181457144775,42.10518903587187],[12.581882497317292,42.105172001993786],[12.582082161776913,42.10512278189758],[12.58214564872942,42.105025733911525],[12.582198704469617,42.10494440549075],[12.582271088155354,42.10483409365817],[12.582615024439022,42.104057947657516],[12.582704103462508,42.10299711965778],[12.5825585223771,42.102716210604186],[12.582356139249045,42.102325697663105],[12.582251528943152,42.10212386191037],[12.582185176457893,42.10199581335339],[12.582149588682181,42.101945252188145],[12.581786792295333,42.10142960785946],[12.581612382197816,42.10118171920739],[12.581543550049236,42.1010838892135],[12.581312858996927,42.100741774995164],[12.581234322569651,42.10062530484201],[12.581086228640554,42.10038833333432],[12.581063237771069,42.10035152009147],[12.581133843896916,42.10028844648382],[12.581347182757721,42.100097877607595],[12.581490106655183,42.099970198839294],[12.581639416130106,42.099836825656965],[12.58411646621871,42.09762406285935],[12.584177922871447,42.097569214785615],[12.584440822760522,42.09733478698906],[12.584525513812808,42.09726006532412],[12.584715817352075,42.09709330239578],[12.584805978871888,42.09701084185675],[12.58655766032903,42.09557401183491],[12.586769017791012,42.09540063093838],[12.588394579472796,42.09407032882648],[12.588517175902627,42.09397000382509],[12.589125515191876,42.09346873117899],[12.590066204475812,42.092701998228065],[12.590194042988184,42.09259750284702],[12.59023835934178,42.092561232132006],[12.590394430075674,42.09243354113841],[12.590506022261145,42.09234220779313],[12.59060056717298,42.092264825444836],[12.590811752842642,42.092091995435766],[12.590952303811337,42.09197692739477],[12.591154471303218,42.09181150655177],[12.591216707493782,42.09176058068078],[12.59149381336459,42.09153379235691],[12.591614591191314,42.091434936604756],[12.591842795417845,42.09124816426527],[12.592829183942273,42.09047886633282],[12.593114061659795,42.09041457801822],[12.593769176803972,42.089823914084064],[12.59392152633336,42.089714555149065],[12.594326338104851,42.08942395053988],[12.59501290856112,42.08893106662408],[12.59634495583189,42.08809432983428],[12.59641360237298,42.08805225244839],[12.596654595342256,42.08773852703118],[12.596551964605467,42.087454988281685],[12.596482546316762,42.08726267396424],[12.596448590402474,42.08716869570262],[12.596370843311211,42.08691026174441],[12.597466400950713,42.086717907928424],[12.598101723930395,42.0866080429473],[12.599126980282605,42.086647883082],[12.600174166776743,42.086768074685715],[12.601255093406577,42.08696372926737],[12.601570437695193,42.087088884277215],[12.601749038537136,42.08716126044941],[12.601806887617286,42.0871844494005],[12.601856241533543,42.087207310993726],[12.601923154421248,42.08723166568969],[12.602386972862414,42.087418921039784],[12.603489585882512,42.088010068775674],[12.603994309737732,42.08836483078671],[12.604372476069337,42.08863063326871],[12.605060573995914,42.08926633739158],[12.60520096156843,42.09004981352417],[12.60512164727539,42.09055657338748],[12.605232106217592,42.09660870194614],[12.607272724551766,42.10184961313081],[12.60728258012029,42.10187491763831],[12.608763249304229,42.10302266747391],[12.611055817844298,42.10479964059841],[12.611816063313492,42.10499826312273],[12.612732008028601,42.10523755486864],[12.61406423867423,42.10550326128584],[12.614603329273692,42.105610774819574],[12.615913028674479,42.10586210449701],[12.617508412247254,42.1058882856861],[12.618928939772806,42.10606854983279],[12.62038781951811,42.10607176311093],[12.620677102207983,42.10607162397864],[12.620850884360122,42.106071926035874],[12.622169982996205,42.1060742193048],[12.62396052372852,42.10607614325984],[12.624260371461995,42.10610295319159],[12.625671250349003,42.10622912775485],[12.62711468345189,42.10644008062026],[12.627977297680864,42.10668290409801],[12.628411256740668,42.10704286187459],[12.628722266262384,42.10743372696407],[12.628883337963266,42.10797790166765],[12.628827872610307,42.108501919149006],[12.625088301268782,42.11243821567257],[12.624168062521735,42.11373850892837],[12.62257277340717,42.1159890414708],[12.622366229190472,42.116661913285235],[12.622338759026277,42.11708149270008],[12.622412779709446,42.11737179877614],[12.622487487264635,42.1176350493033],[12.622423651316078,42.11780690851852],[12.622191334530703,42.11843233868879],[12.621545667668983,42.11861692479768],[12.62119985518137,42.11871578440651],[12.620937814109048,42.11875182599993],[12.620179800627714,42.11885608132746],[12.61920211161403,42.11911657691509],[12.618919710308077,42.11990438665182],[12.61862766202451,42.12089511496149],[12.618564820833287,42.12194163752144],[12.618680289426532,42.12256590200035],[12.6186948069236,42.12264439095982],[12.6187402854079,42.12286733546067],[12.618771031428217,42.12301805691627],[12.618828036470292,42.12329750805443],[12.618723636219862,42.12331168527924],[12.618115719283082,42.12339423871212],[12.617730544723464,42.123446543091035],[12.617575261509051,42.12346763029153],[12.61732082619254,42.123521295154156],[12.616897958515475,42.12361048733246],[12.616746836631261,42.12364236201178],[12.616592446180922,42.12387333981863],[12.616374847625528,42.12419887824007],[12.615861431211629,42.12498047090803],[12.615034539987589,42.12574043551573],[12.614568421648269,42.126556546239144],[12.614129621827502,42.127268245356014],[12.613445792169406,42.12746089199737],[12.611589643604612,42.127604957878965],[12.610579977515489,42.12774482378037],[12.610528057919227,42.12848033468003],[12.611062702280648,42.12938646061707],[12.611015442455344,42.13000475792914],[12.609812817568612,42.13044786213144],[12.608040872190697,42.13091788115698],[12.607233511449694,42.131159414510726],[12.606386684370733,42.13146519797708],[12.60582009186683,42.13141999571942],[12.60523082465869,42.13133498937342],[12.604899924820339,42.13129493658565],[12.60484484691151,42.1312885992867],[12.604864136888724,42.13125418536022],[12.605312378463372,42.13045448455011],[12.605748305182296,42.129796922651096],[12.606307743794364,42.12907697876197],[12.606938858111798,42.12838177206582],[12.607430455219518,42.127839518391184],[12.6076675238685,42.12734131100023],[12.602893559767956,42.12651335696376],[12.601609947031877,42.12629042734458],[12.601119367398756,42.12621286550153],[12.60064182447933,42.12613840823895],[12.597180849335283,42.125599380281365],[12.597039237077993,42.12557735537268],[12.596982950826977,42.12604684644735],[12.596952225341171,42.126303114949664],[12.597243675097825,42.12658395725631],[12.597325979846016,42.126629698934494],[12.597895465487854,42.126946190581265],[12.59795259199228,42.12735411124742],[12.597978251352632,42.12767973027941],[12.598215443849988,42.128403895821776],[12.59821507538158,42.128438806785816],[12.598212800040274,42.128669377033944],[12.598208557339811,42.12917396887247],[12.598201268183576,42.129728009124385],[12.598144735198987,42.13090488877507],[12.598017482718905,42.13171479300479],[12.597933384740065,42.13215076956366],[12.59791180047386,42.13226267018916],[12.597731705697411,42.133196021238746],[12.59775711431506,42.133378567469364],[12.59778733101236,42.13359679048861],[12.597817169125854,42.1338101430511],[12.597891999984816,42.13422351005042],[12.597897461350433,42.134253360122564],[12.597546385176923,42.13440844196068],[12.597283783710136,42.134524752771334],[12.59666682005197,42.13479174926258],[12.595497008007843,42.135337222199325],[12.595426009001912,42.13537546677444],[12.594805104117224,42.13571009213843],[12.59462761100425,42.13594077496863],[12.594514734014151,42.13597794463028],[12.594415206656905,42.136010703667225],[12.594174076647278,42.13609006669477],[12.59367854257789,42.13576009298694],[12.593076396737755,42.13535911840741],[12.592214336026082,42.1348098524631],[12.590447328986606,42.133861226858855],[12.589175710149377,42.133248217982135],[12.588440684250251,42.13284821347737],[12.587974748861107,42.13267969685944],[12.587855759828564,42.13263672421356],[12.587696968686506,42.13204738547231],[12.587660463790588,42.13194659635089],[12.587305406607317,42.130966343017924],[12.587269660622415,42.13086765689846],[12.586266956400946,42.12956635470289],[12.585999479929614,42.12896691385909],[12.58578617443116,42.12852336006152],[12.58575016319407,42.128543443550384],[12.585009675908234,42.1289572951802],[12.584954390259247,42.12900681620157],[12.584776070495224,42.12916219021517],[12.584711832392271,42.12921699597803],[12.584294121721488,42.12958756861568],[12.582959944274299,42.12999397241828],[12.582226659999575,42.13018347963815],[12.58217764857114,42.130199598429556],[12.581663843537498,42.13036844756355],[12.581124230661624,42.13023595326564],[12.580555670019908,42.130168168093725],[12.580292997640564,42.130135859514255],[12.580020096687894,42.13031098663709],[12.579525852492765,42.13056954019094],[12.578800181569958,42.13064915295883],[12.578134529531106,42.130722168621354],[12.578008345208527,42.13073600926481],[12.577897220239027,42.130703645676604],[12.577672735328923,42.13063641080908],[12.57755275031301,42.130654621878534],[12.577506997765981,42.13066604364462],[12.577438012941704,42.130680347295254],[12.577403671440486,42.13068680688599],[12.57733666619607,42.13074281691727],[12.57718450642127,42.13076008880675],[12.576131337210468,42.130907961611946],[12.575047626977923,42.13092730813526],[12.574976458722137,42.13092244260606],[12.574779207466987,42.13090337125374],[12.57467808204509,42.13089210663828],[12.574477277978191,42.13087090702533],[12.574212167426385,42.13095312903793],[12.573365932930722,42.1310054240497],[12.571966951918386,42.1312310021585],[12.571239361012434,42.130832809056216],[12.571176963281355,42.130838735497704],[12.570651303400584,42.13088828912964],[12.569652781906296,42.130983505008594],[12.569238982574165,42.13084712977845],[12.568955700863608,42.130784418555365],[12.567531119725063,42.130683329861306],[12.56665575188787,42.131160957284045],[12.566477047531508,42.13160636621686],[12.565642553190576,42.132015401955016],[12.564706798627933,42.13276037634786],[12.564905915131392,42.13354659280317],[12.56499694297034,42.13465581838729],[12.564793300911905,42.13555361384196],[12.564452802039646,42.136545715616],[12.564274314593437,42.137107879974124],[12.564166911403655,42.137225491061045],[12.563945209554491,42.13747098113382],[12.563067400923831,42.13795750817286],[12.562785168128062,42.138384996323005],[12.56172921678936,42.13907965103303],[12.561421626727583,42.139105078302364],[12.560600992529348,42.13917324434026],[12.560063719664013,42.13866767572769],[12.559720211960993,42.1381650838782],[12.559184520010797,42.137929593792826],[12.558838389461451,42.13800324896669],[12.55839064525323,42.138101216857756],[12.558111655384282,42.13844465838184],[12.55784496828275,42.13877260287131],[12.557421756451745,42.13876322480773],[12.557365366768527,42.138377778717825],[12.55730494684661,42.138041990742146],[12.556690783628264,42.13798450480998],[12.556526892099255,42.13801696581264],[12.556043880768838,42.13811262972073],[12.55547523751266,42.13811227592989],[12.555074920173661,42.138444361044456],[12.555002310005626,42.139059698731195],[12.554967493721476,42.139361671809645],[12.554860083128608,42.1399412993626],[12.55475282534106,42.14022226677657],[12.554551504299452,42.14074422265981],[12.554510176181836,42.14085213917719],[12.554454727627105,42.14099692488861],[12.55444365520852,42.141025759207395],[12.554232797512617,42.14146003171888],[12.553677198340162,42.14207155804976],[12.55334211940038,42.14294499175203],[12.553311659796382,42.143019632524755],[12.552879982619118,42.143613863771314],[12.55273911777074,42.14380701831023],[12.55256936696789,42.14433081395863],[12.55240895749944,42.1448257793643],[12.552174408798459,42.14526978272069],[12.552087540266145,42.14536089265403],[12.551442370591959,42.14603985107329],[12.551164791833404,42.14635010111996],[12.551278782449899,42.14647710955391],[12.551709322842227,42.14697255179034],[12.55179715525814,42.14751460808083],[12.552111945990868,42.14845034427181],[12.552168059364876,42.14919598181051],[12.551638092522774,42.15016051794002],[12.551556509371386,42.15030899553843],[12.551545162825361,42.15090366055047],[12.551826953554547,42.15141730924822],[12.551941041073045,42.15162526785552],[12.551938754723162,42.15232769923995],[12.551925921146136,42.15265226141511],[12.55163900958905,42.15287725190525],[12.551446096997045,42.15284630736233],[12.55112159382007,42.15279425722146],[12.550529638349964,42.15277206703272],[12.550234659641877,42.1531909201763],[12.55044908706667,42.15358949020279],[12.551132120026258,42.154090585740875],[12.5509944355017,42.154522584390996],[12.550499638355797,42.15491369254296],[12.550420096817115,42.15497709367801],[12.5497858342421,42.155415458847735],[12.54959017453127,42.15559240746782],[12.549497154672487,42.15567653196815],[12.549248014050008,42.15621020508837],[12.549100821224416,42.156525499862354],[12.548995968017989,42.15675009714286],[12.549258709760409,42.157160672626986],[12.549294126182692,42.157292321826155],[12.549421743556609,42.157766699636745],[12.549533787107537,42.15818317601109],[12.549290829749669,42.15914069461967],[12.548923322824526,42.159899454048585],[12.548911829132827,42.16032637372567],[12.548900671742237,42.1607674797544],[12.548897861233769,42.16086373414204],[12.548949903728468,42.16202373022655],[12.548903980703116,42.162306461609234],[12.548822751012683,42.16280656187055],[12.548633302037615,42.16365693258013],[12.548559135964352,42.16398983191051],[12.548641671119922,42.164991284384186],[12.54888453439772,42.165600572465195],[12.548922927133647,42.165710478594605],[12.549004343600215,42.1659435418326],[12.548986824086809,42.166136093072474],[12.548963809213328,42.16635451027034],[12.548426878756839,42.16615502439452],[12.547890442783505,42.16623421284537],[12.547825937399391,42.16629440741036],[12.547769059193802,42.16634926823161],[12.547692921039086,42.16641715451519],[12.547612519305256,42.16649135176712],[12.547464757182155,42.16663054657056],[12.547239697243135,42.1668130946995],[12.546830301608944,42.1672425947873],[12.54670019174776,42.16737909277686],[12.546070826615887,42.16761016947811],[12.545738522254162,42.167755517963606],[12.545564379104212,42.16813238944957],[12.545540119663272,42.16818488822565],[12.545635686690966,42.16849886158673],[12.54560064694662,42.168541552890005],[12.545383492270938,42.16879304655798],[12.545236472753848,42.168811579821565],[12.544957532651333,42.16884674240103],[12.54448150313983,42.16895151849728],[12.544425680435111,42.16909911125553],[12.544395593138523,42.169180702301375],[12.544375432106444,42.16923746563866],[12.544382510342675,42.16929690000014],[12.544512842930958,42.170026587733894],[12.544705114997685,42.17067798498357],[12.54491728042369,42.171144166846105],[12.545011653942575,42.17153294339365],[12.544874390948511,42.17193338516731],[12.54474012993795,42.17198839997429],[12.54449348982705,42.172089252695706],[12.544132746932146,42.17199684425346],[12.543722142666548,42.17200054572749],[12.54362059241663,42.171996438547914],[12.543230722137693,42.17198086993314],[12.543154187497626,42.17197759339806],[12.542906660990104,42.17191709634154],[12.542794440981938,42.17188966934959],[12.542066324747738,42.17222282638532],[12.541486741825075,42.172519889620304],[12.541418004123361,42.17272463030353],[12.5406269075905,42.173149775232474],[12.540222566038429,42.17326581747345],[12.53999241388952,42.17357459418582],[12.53977609829834,42.173860406062886],[12.539269756475441,42.17410116197568],[12.538608853160312,42.174283657271566],[12.538052724317886,42.174282832485105],[12.53762041150546,42.17450779629318],[12.536761821125886,42.17479543314401],[12.536197082608018,42.174979445826885],[12.535923360722206,42.17517249282052],[12.535641805238562,42.17556387763672],[12.53520667747068,42.17586093331952],[12.534600067111915,42.17621732988661],[12.534108826676446,42.17637656591164],[12.533672189399184,42.17637902907977],[12.533539667855486,42.176379956273536],[12.533502909861413,42.17637996426981],[12.533452332399452,42.17638000582188],[12.533394795360834,42.17638057083153],[12.53301038736208,42.17629787534073],[12.532734623299422,42.17653599216444],[12.532615966119083,42.176796282306945],[12.532602448829895,42.17682502870159],[12.532586117168265,42.17686062348278],[12.532391492204663,42.177275949777226],[12.532293854785255,42.17730946409784],[12.532214473149914,42.177335436921545],[12.532011701134918,42.17740228117127],[12.531859483410562,42.17744052118381],[12.531743887079237,42.17746853566303],[12.53160853016935,42.17749994694754],[12.531546047224802,42.17751499353501],[12.531460102332055,42.17753427414198],[12.531027976477002,42.177777206936064],[12.530493444994319,42.177811696026986],[12.530030397908456,42.1778934952775],[12.529327568711373,42.17823481185599],[12.528574890121988,42.1785911564483],[12.528173167339853,42.17895922678028]]]}}]}
