{"type":"FeatureCollection","metadata":{"code":"058053","referenceDate":"2026-01-01","sourceDbfExportDate":"2026-02-18","upstreamArchiveUrl":"https://www.istat.it/storage/cartografia/confini_amministrativi/non_generalizzati/2026/Limiti01012026.zip","sourceManifestSha256":"70ac8256c4785dc6ed2814c32b6965ae76f9161b51abaa1660059e1c6cbd8ca6","license":"https://creativecommons.org/licenses/by/4.0/","attribution":"Istat, Confini delle unità amministrative a fini statistici al 1° gennaio 2026, versione non generalizzata.","modifications":["Converted from WGS 84 / UTM zone 32N (EPSG:32632) to RFC 7946 WGS 84 geographic coordinates.","Converted from shapefile to per-municipality GeoJSON without geometry simplification."]},"features":[{"type":"Feature","id":"058053","properties":{"code":"058053","name":"Mandela","alternativeName":null,"regionCode":"12","regionName":"Lazio","territorialUnitCode":"258","territorialUnitName":"Roma"},"geometry":{"type":"Polygon","coordinates":[[[12.951059691314345,42.04339047413036],[12.95072598841953,42.04377376170769],[12.950619224731426,42.04389638837825],[12.95064007280418,42.044426930367436],[12.95069099416043,42.045113994947044],[12.950260050956508,42.0457006278781],[12.949246515020876,42.046401881805274],[12.948349587431416,42.04686498734259],[12.947246232005991,42.047384727898425],[12.946327209931152,42.04777205060378],[12.945466170275107,42.04786473104635],[12.944556325321315,42.04795008423229],[12.943394296630608,42.04803509342139],[12.942672715204788,42.048355434188984],[12.942597471687057,42.04839076108978],[12.942410551005224,42.04849969329705],[12.941773072327427,42.04887425696991],[12.941302778889256,42.04896820752916],[12.940715509049754,42.04908619741932],[12.939936811551599,42.04959470299352],[12.939854833642324,42.04976606731773],[12.939783573054052,42.049915030297754],[12.939483516295237,42.05054224875354],[12.939175747804375,42.05146225681956],[12.938399328084538,42.051898644180106],[12.937714777087798,42.05219679028006],[12.936881480331218,42.052531576893315],[12.935727129162949,42.05274230544113],[12.934762817711725,42.05340122930417],[12.934739478643415,42.054086350293154],[12.934837070517649,42.05521303478916],[12.93514075504079,42.056265129731706],[12.935243471532305,42.05719354574263],[12.93523572671291,42.05748608126161],[12.935217326053138,42.05804083995555],[12.935334072803146,42.05887874540528],[12.935433893549368,42.059528122017895],[12.935324962530999,42.059646293385576],[12.934821021151912,42.060192975362156],[12.934516194222637,42.06064915710821],[12.934539082211662,42.061800921570274],[12.934022544316662,42.062448962670814],[12.933672944001188,42.06264874356748],[12.933578315262755,42.06270281990813],[12.932448667372672,42.06330436895678],[12.931024866583398,42.06430316598809],[12.929921434004216,42.06518293035883],[12.928492944347072,42.06599728171418],[12.927653281977067,42.066462726456365],[12.927341644298965,42.066637310975466],[12.927064513891988,42.06678909793696],[12.926806500324533,42.06692850001397],[12.92633173986068,42.066652131611896],[12.925747963581069,42.06599229324324],[12.92542167483735,42.065661320961176],[12.925003289184827,42.06552707589022],[12.924400566065936,42.065453173376376],[12.923920680199815,42.06537506134967],[12.923487239644176,42.06493518969965],[12.9232217333744,42.06467896690733],[12.922854569774922,42.06432654330279],[12.922660073782193,42.06421159638141],[12.922085373171667,42.06387037063088],[12.92185328391395,42.063645528228214],[12.921485997532944,42.06328386668251],[12.92008116009041,42.06190926032678],[12.918648686586451,42.0606121121616],[12.917839736210514,42.059824872299934],[12.917440893740617,42.05949183951149],[12.916739233899847,42.0591466575848],[12.916352485049176,42.05877719084043],[12.915971212542908,42.058213944600446],[12.915997685915684,42.057908700204166],[12.91604701232396,42.05739647135348],[12.916081676219138,42.05728546818599],[12.91614135994403,42.057094338829316],[12.916182018184658,42.05696413959555],[12.9161330545995,42.0562544751277],[12.915757850651952,42.05587561346722],[12.915494882018685,42.0557990518347],[12.914689740268635,42.05531781352166],[12.91424628889559,42.05445504841414],[12.913956270886642,42.053717582392814],[12.9133817680932,42.0535481105253],[12.91162211819402,42.053396599654235],[12.909945426332508,42.05330524398373],[12.908753817621447,42.05315680346129],[12.90810047568813,42.052809921035],[12.9081384682596,42.052407925355524],[12.908172260582957,42.05174044899355],[12.907845740517256,42.051102330788964],[12.907739799226214,42.050895293274266],[12.907191436476937,42.049868401136266],[12.907069228202024,42.04963954519445],[12.906800178383143,42.04862672371314],[12.90648421328722,42.04757498624689],[12.906671953830775,42.04662312219392],[12.906965539918255,42.0457847103353],[12.906931250461989,42.044979994511],[12.90646461802966,42.0444871541597],[12.90576378636383,42.04448402708282],[12.905481705039554,42.0445181642152],[12.905426107375183,42.04373016392026],[12.905684243521028,42.04214110996396],[12.90579953337559,42.04047587592364],[12.905995330713372,42.03892946007483],[12.905769382108499,42.03840847680988],[12.905704965624874,42.03825993267297],[12.905535486433664,42.03786910489797],[12.905077673551549,42.0374843528163],[12.905038850386,42.036787500155015],[12.905019469446438,42.036530508693154],[12.904996552962082,42.036204975307946],[12.904980479665754,42.03598360159838],[12.90500728064147,42.03576882773737],[12.905054784229565,42.03538814323258],[12.905128300466124,42.034798991349206],[12.905720596748596,42.03296359017573],[12.905761352648971,42.03283697204696],[12.905388673709625,42.031634102905954],[12.905223338889883,42.030784317476645],[12.905741919147832,42.02971313271553],[12.906035212627765,42.029392315453464],[12.906493861789375,42.028890615930024],[12.906797691590802,42.02820085815169],[12.907095107461602,42.02761726622345],[12.907129483053613,42.02754981264395],[12.907924386501838,42.02692391415827],[12.908664670193764,42.0260477668947],[12.909126152624333,42.02525313703496],[12.908982399473285,42.02481682291732],[12.908500469378689,42.02444157377159],[12.908111435714634,42.023784015419],[12.908305126342078,42.02301653808068],[12.908283463081212,42.022589575924954],[12.908268197794355,42.02245722970156],[12.908198088500942,42.02184963100459],[12.90846225712625,42.02116079710678],[12.908851294056863,42.02082793907662],[12.908918732427903,42.02076662208596],[12.909305241861944,42.02034494521101],[12.909335470151657,42.020311609786795],[12.90962298844931,42.01967148949279],[12.910041543536078,42.018707262942506],[12.910137186458263,42.01858766974459],[12.91058197277759,42.01803149733677],[12.911117797128165,42.01789616713901],[12.91157192461981,42.01806524445017],[12.911804752934984,42.0183049225783],[12.912255523753924,42.01897826383416],[12.912311577354663,42.019061993380525],[12.912470677295309,42.01918519144793],[12.912510550441608,42.01921788323713],[12.91296801274942,42.019210606207025],[12.913374787606967,42.019439894694095],[12.913749414955323,42.01998346906038],[12.913766832267493,42.020006583849934],[12.914318979789153,42.020368957704136],[12.915058094212863,42.02039090103312],[12.916213426862022,42.02053600296785],[12.9177539089169,42.020672445304015],[12.918922934173272,42.0203893701344],[12.919661665647958,42.02014845390155],[12.919740486147354,42.0201227887501],[12.919868081607891,42.02005386657135],[12.919968880517112,42.01999959794653],[12.920013353340853,42.019975606260935],[12.920319760619309,42.019810332209715],[12.920337061303693,42.01926947745986],[12.920066667227697,42.01867931873799],[12.920050616006343,42.01827269379152],[12.92004606762749,42.018158388665015],[12.921096406411545,42.01816749010166],[12.921555409249933,42.01827201234252],[12.922643323989847,42.01851973851297],[12.923732137349216,42.01884715315637],[12.924988831217748,42.01915529143646],[12.925845736274795,42.0190497973809],[12.926010226582285,42.019029546691904],[12.926304211049237,42.018993352766046],[12.926431682303463,42.0189776590121],[12.926597002638864,42.01895730430722],[12.926712218244381,42.01894315478878],[12.927643497896106,42.018879748324494],[12.92823257260401,42.01897210511001],[12.92850974342036,42.019012136044076],[12.929133678721534,42.01909429238071],[12.929722871847122,42.01955582209087],[12.930033122808716,42.02005842985438],[12.930049521715304,42.0206791785152],[12.92996713305017,42.02132581135496],[12.92994769984667,42.02143916619773],[12.929848348555197,42.02201870790905],[12.929882508513522,42.02211998968179],[12.929960357786747,42.02234079892303],[12.930036546382148,42.02256151647753],[12.9308766061264,42.023099983205135],[12.931547052204891,42.023275077007405],[12.932551292757077,42.02324513935413],[12.932857777782335,42.023246445886656],[12.932992816160418,42.02324702168032],[12.933601431455752,42.02324961353964],[12.933918721687732,42.02343903475102],[12.9339200927528,42.02376220184856],[12.933919803808024,42.023846477725904],[12.933983667520648,42.023967639610134],[12.93419251585236,42.02436386063091],[12.934962339383326,42.02486419430914],[12.935729853010088,42.02540059801699],[12.936119745596086,42.02569179960654],[12.936395332719822,42.025897624876045],[12.936613391149534,42.02606069170731],[12.936687309190065,42.02611800217211],[12.936719604963471,42.026149160969],[12.93677527994268,42.02620451377533],[12.93683492484402,42.026264384555226],[12.936982434009593,42.02641739673871],[12.937083703303578,42.026520851355],[12.937445472216098,42.02689042169158],[12.937569644862034,42.026934052497516],[12.937707087177296,42.0269823444281],[12.938166784461774,42.027143864938076],[12.938449255918004,42.02724311377896],[12.939368309685248,42.0273395898942],[12.939676972739566,42.02737199073574],[12.93979079600906,42.02737629879978],[12.94023960236083,42.02739391592567],[12.940574019691695,42.02740594513625],[12.94117273527626,42.02742860497618],[12.941287398183265,42.02746141580648],[12.942117782025752,42.02769775626036],[12.94329556570309,42.02798323509908],[12.943484102923605,42.02802893259373],[12.944656147308072,42.02841629490051],[12.945022028158505,42.02870533769921],[12.94499890360645,42.02936795745183],[12.94523264220759,42.03002173380762],[12.94525532154329,42.03004393135427],[12.945630203377105,42.030444744343555],[12.946858854484562,42.030879664985335],[12.948120390149422,42.03110185066154],[12.948170515961557,42.0311134070224],[12.94896637943578,42.031297710894144],[12.949071086846779,42.03132050722191],[12.949139660158876,42.031336851700274],[12.949505111818514,42.03138159208058],[12.95040228893354,42.03149142436352],[12.951496475435922,42.031656309582004],[12.952081191739213,42.031955799382445],[12.95264619886512,42.03276469272505],[12.952828701808777,42.03344273612659],[12.952859053028316,42.03355771965925],[12.953037368430696,42.034233246289475],[12.953097900295784,42.03446255636685],[12.953108990571144,42.034504570920255],[12.95329058470598,42.034876490497396],[12.954346483387388,42.03509218280956],[12.954820121597377,42.03514440305284],[12.955421995397366,42.035210759574106],[12.955839325276479,42.03525676742326],[12.956223176535744,42.035388072697266],[12.956431211478016,42.035467340663075],[12.955783490971477,42.03614823332949],[12.955007371015007,42.03723075477659],[12.954951181190815,42.037308816983646],[12.954604130095746,42.037563965966925],[12.95438029940163,42.037724718329706],[12.95407428176886,42.0379424349854],[12.95362723383274,42.03826849479255],[12.953135280936404,42.03856460372655],[12.952692409254155,42.03883650311708],[12.95247079449084,42.03895642695777],[12.952134413646553,42.039138453271754],[12.952060496328372,42.039214415140776],[12.952026767521339,42.03925937291604],[12.951748896566272,42.03962991378808],[12.951590739321828,42.04004956617215],[12.95155993771537,42.04058248163031],[12.952106149893412,42.04123837391271],[12.952105926800469,42.041526519770784],[12.952107040320312,42.041787601901966],[12.952106219295299,42.0420872858606],[12.952105957536949,42.0421838235705],[12.952106827286038,42.04221969221018],[12.952105476166762,42.042431467636696],[12.951585835307604,42.04280505674969],[12.951059691314345,42.04339047413036]]]}}]}
