{"type":"FeatureCollection","metadata":{"code":"058034","referenceDate":"2026-01-01","sourceDbfExportDate":"2026-02-18","upstreamArchiveUrl":"https://www.istat.it/storage/cartografia/confini_amministrativi/non_generalizzati/2026/Limiti01012026.zip","sourceManifestSha256":"70ac8256c4785dc6ed2814c32b6965ae76f9161b51abaa1660059e1c6cbd8ca6","license":"https://creativecommons.org/licenses/by/4.0/","attribution":"Istat, Confini delle unità amministrative a fini statistici al 1° gennaio 2026, versione non generalizzata.","modifications":["Converted from WGS 84 / UTM zone 32N (EPSG:32632) to RFC 7946 WGS 84 geographic coordinates.","Converted from shapefile to per-municipality GeoJSON without geometry simplification."]},"features":[{"type":"Feature","id":"058034","properties":{"code":"058034","name":"Colleferro","alternativeName":null,"regionCode":"12","regionName":"Lazio","territorialUnitCode":"258","territorialUnitName":"Roma"},"geometry":{"type":"Polygon","coordinates":[[[13.00848999667514,41.76870894756945],[13.008333719776042,41.7688313568677],[13.007467222052558,41.769510066513014],[13.007374261994418,41.76962852001265],[13.006577163088979,41.77064421526173],[13.00618013452946,41.770759897766986],[13.00610314691434,41.770782337162444],[13.005237701105823,41.770056473708316],[13.00387027229284,41.76946460125013],[13.002703615903197,41.769031799484914],[13.002584109076155,41.768987051627384],[13.002551243039262,41.768976316978836],[13.00250770181648,41.768974385767386],[13.00163283563054,41.768922898296736],[13.001546430887942,41.76891776708697],[13.001374030350759,41.768907909816875],[13.001209915474814,41.76889841248964],[13.001070795383207,41.768889640485554],[13.000881025439103,41.768880054266766],[12.99965347888899,41.7689048665929],[12.998109349668047,41.76943593800556],[12.996492895466309,41.76996500910202],[12.99618983278048,41.76997159230075],[12.995939848736377,41.769977414284305],[12.995084533791164,41.76999605332881],[12.994973342226514,41.76991424771416],[12.994433342826847,41.76952103521592],[12.994249009946717,41.76938583332305],[12.99372226926069,41.768855998805435],[12.993456062880153,41.76858952879972],[12.993364794648164,41.76855817288331],[12.992849236965244,41.76838104296954],[12.992387548009834,41.7686116014676],[12.992259066441948,41.76831894917927],[12.992076251061349,41.7679025318832],[12.991836268436822,41.76765993756585],[12.991410417086641,41.76743614579804],[12.991114873098544,41.76728885055282],[12.990676967319876,41.767095684796786],[12.990607012802425,41.76706676464313],[12.99055870117802,41.7670472864683],[12.990489594599818,41.767022879540065],[12.990254578026885,41.766942120777664],[12.990211148091184,41.76692755660888],[12.990140966397385,41.76690119055653],[12.989998312609865,41.76684476778341],[12.989935835241146,41.76681736282513],[12.98939136856141,41.766601421595375],[12.988494059546642,41.766448049076395],[12.98785221061989,41.76658291110042],[12.987763471758553,41.767103750933984],[12.987771432541972,41.76724611626676],[12.987795333505515,41.767589950970084],[12.987796830563285,41.76761588967692],[12.987638349666803,41.767984121596406],[12.987600340744676,41.76807289967204],[12.98740830674773,41.76815376558857],[12.986930135478103,41.76835734281706],[12.98657981437946,41.76840553408537],[12.98595661402223,41.76833264439243],[12.985781805071243,41.76833055965708],[12.985598416244937,41.76832967142432],[12.985514485398337,41.76832881292883],[12.985208127741297,41.76832521803324],[12.985127002289198,41.76832545399052],[12.984877753797706,41.76822154793639],[12.984346895448382,41.767879814149296],[12.983868697400462,41.76744170102965],[12.983663162564524,41.767048130780964],[12.983317533372613,41.766952106684215],[12.982934215220977,41.76597299888095],[12.982912712570302,41.76591956773891],[12.982827196815554,41.765699476824615],[12.982538014372707,41.76532682593253],[12.982461746997094,41.765090863639884],[12.982539992357559,41.764885533573285],[12.982951028639663,41.764470570793705],[12.982934887967142,41.76421000514493],[12.982745157546056,41.76370783664166],[12.982620707665165,41.763482546470925],[12.982402488010647,41.762738237728925],[12.982101616830267,41.762175686053496],[12.982020541322202,41.76202484566317],[12.982006368302542,41.7619955460462],[12.981589663952311,41.76144730155913],[12.981085589141488,41.7610145746116],[12.98067219993775,41.76077229312812],[12.980019650174464,41.76035185781214],[12.97980777553417,41.76021711575984],[12.97903536451426,41.76002318394751],[12.97858551260821,41.760187349181024],[12.977959336321266,41.760222583959155],[12.97774688810593,41.760081370136774],[12.977621133048139,41.75988313591776],[12.9775923574164,41.75963650518031],[12.977607733815933,41.75913171486526],[12.977894747575002,41.758437428125106],[12.978100381263644,41.75800708838112],[12.978244095822832,41.75763291230393],[12.978703501497593,41.757198269975035],[12.978815320989787,41.75655841635306],[12.978802730595154,41.75650008738136],[12.978782696450661,41.75642949392687],[12.978768725742576,41.75638022640728],[12.978753483209331,41.756328147646684],[12.978679192714273,41.75606454724232],[12.978651798386041,41.75543361465999],[12.978607352163012,41.755192433296926],[12.978568646136472,41.75496981926522],[12.978370046821235,41.75479662896212],[12.977943348244164,41.754617830662916],[12.97721319302331,41.754490067391835],[12.976745860584476,41.754122762247846],[12.976515313260167,41.75394155902386],[12.976318371262986,41.75378676700554],[12.976214720976078,41.75370532768997],[12.97559497064731,41.75274976807005],[12.975440165633698,41.75235421733139],[12.975395049886497,41.75223893911726],[12.975203673505009,41.75185013015833],[12.975146655476134,41.75173429088394],[12.974930968959063,41.75161293158768],[12.974814978666926,41.75154766934543],[12.974674308736573,41.75156304992037],[12.974272256935892,41.751607007116235],[12.973494284499438,41.75187256861566],[12.972864143283193,41.75202495738397],[12.971550473641775,41.75211096226022],[12.971055527133059,41.75198240597162],[12.970783739871774,41.751911485811156],[12.971057330456183,41.75184832553374],[12.971926240292555,41.75164772735952],[12.97226893107753,41.75156606424442],[12.97287476208192,41.75142170906226],[12.972943125419585,41.75140541856908],[12.973431853308838,41.75119039684711],[12.97348411732458,41.75116662617164],[12.973546604938004,41.75113820705896],[12.973871206080588,41.75099057954629],[12.974093753535579,41.75090252484756],[12.974195464400813,41.7508622823407],[12.974613301669287,41.75070374174332],[12.97470247985725,41.75066721608621],[12.975311646997886,41.7504177084189],[12.975616408811794,41.75029289047498],[12.975657563473103,41.75027652019672],[12.975954637811128,41.750154346792876],[12.977122989350049,41.749675778354934],[12.976265744771649,41.74863396833782],[12.97540223527499,41.74819565442684],[12.97403153645006,41.74740573032996],[12.973215485579559,41.74662809683284],[12.972480761924666,41.74548746457451],[12.972310015925684,41.74479102592532],[12.972172653385385,41.7441969739778],[12.971807005609795,41.74397102304123],[12.971400974234443,41.74381508485237],[12.970677871768082,41.743537369843466],[12.970106806944143,41.7429898435405],[12.969710152506703,41.74277152854263],[12.969598868084274,41.74271027696208],[12.96827717806729,41.742260745512304],[12.967289937675568,41.74188518222443],[12.966773739834698,41.74171460377101],[12.966660913773104,41.74167732061777],[12.966462440956395,41.741682004755816],[12.966251270940187,41.74168698525846],[12.963874681569477,41.74305677178047],[12.963309146289312,41.74308532913321],[12.962768027293793,41.74269431253103],[12.9623054759105,41.742516693008994],[12.96211958841877,41.74247904641057],[12.961504762093288,41.742350750294584],[12.960135468319248,41.7422989789443],[12.959462732008488,41.74225916821291],[12.958659087521111,41.74222836950858],[12.957871677824183,41.74012435068619],[12.957199057400814,41.738325460492696],[12.95717256967208,41.7382546172408],[12.957053510365585,41.73797447062222],[12.956825585971925,41.73743816575179],[12.956652649546694,41.737056936965566],[12.95644763150639,41.73660638554018],[12.956420700587914,41.73654717783635],[12.955740390194093,41.73562516999859],[12.955641864353824,41.7354758370592],[12.955223366990937,41.73484157370098],[12.954794097015847,41.73434763172775],[12.95463579207577,41.733691249662265],[12.95475108891805,41.73309746601729],[12.955055809372295,41.73254218615582],[12.955590667034294,41.732015004745705],[12.956035021294383,41.73127481087364],[12.956172201373096,41.73036512733478],[12.956119667506645,41.729754632385514],[12.956487471138797,41.72951683591651],[12.957654904279567,41.72907585768206],[12.958634525672998,41.7285378004132],[12.95890378227167,41.72799275234026],[12.958537979891178,41.72745608064497],[12.958080382183287,41.726697481488436],[12.957231152346989,41.72542111344336],[12.95655977709611,41.72459334903598],[12.956009840313055,41.72410355298978],[12.955662067363209,41.723737350432444],[12.955727798136339,41.72352348789649],[12.95612847934382,41.72301441120802],[12.956498095819143,41.722366841632024],[12.956679777819959,41.721595186909575],[12.956796275571042,41.72056915060419],[12.957008092655366,41.719517327684216],[12.95736765964621,41.71843787320037],[12.9578630512827,41.71720968685849],[12.958382277002006,41.71603919092675],[12.958505613400296,41.71572931293887],[12.958916458582951,41.71469707774409],[12.959216928971195,41.71356114178524],[12.95917601699936,41.71216233885813],[12.959027650304717,41.71084829522938],[12.958820427155175,41.70976139347275],[12.958790274566596,41.709057307502675],[12.958772103803133,41.708632993764155],[12.958744836757829,41.7072112030395],[12.958825544545823,41.705799204445185],[12.958990813118193,41.70474898321697],[12.958932849821835,41.70354886500891],[12.95888710607694,41.702731019739474],[12.958751587996876,41.70129496472149],[12.958648598027114,41.699997369003086],[12.958540664686975,41.698839508403566],[12.958494403672201,41.69767050175167],[12.958373108108383,41.69691829565879],[12.958245655717729,41.696395933872104],[12.958020120439725,41.696230393295814],[12.957764475080294,41.69604333599103],[12.956848691249297,41.69536356335518],[12.956212296891369,41.694953296566],[12.955380189292717,41.694657821547715],[12.954557260737378,41.69447457236132],[12.953960532008525,41.69435557353626],[12.953538918017292,41.694374600877964],[12.95263782197302,41.6947206019701],[12.952370833120403,41.694823116806155],[12.952227450008806,41.69487670418019],[12.952523632257742,41.69458053116372],[12.952635404548088,41.69446876097473],[12.952809091674265,41.69430069655341],[12.953022382662866,41.69403220002182],[12.953446610170976,41.69351784088621],[12.953854922603018,41.693148092365405],[12.95391859963752,41.69310075329541],[12.954291202365667,41.69282533112376],[12.954531534284625,41.6926475304658],[12.955192564529234,41.69222403321544],[12.95607145990156,41.691851572890535],[12.957061511120484,41.69158728425459],[12.957136711392867,41.69156720923572],[12.957763966022748,41.69148113200667],[12.958186543374532,41.6914229515079],[12.959201277714332,41.69133482991028],[12.95957348213152,41.691303065949384],[12.960800977239774,41.691565609441575],[12.960896597755594,41.69158606118166],[12.962132796345198,41.69204312344575],[12.96293906402283,41.69274915337025],[12.963628253834678,41.69338269036195],[12.963994616142081,41.693955325511226],[12.964127206076089,41.69432894089219],[12.964399255730852,41.696359063150474],[12.964548469207331,41.69734441115747],[12.965029835749583,41.69848036210323],[12.965779851750275,41.69945396210114],[12.966235566221789,41.70025761432166],[12.966490297729704,41.70095566459737],[12.966463727102742,41.701780505621564],[12.966045824848928,41.70284848685124],[12.96507920183021,41.70605600055506],[12.964929363017287,41.70667005759192],[12.964788909433837,41.7072456329733],[12.964573436885134,41.708747840597745],[12.964563316608723,41.70982872373203],[12.964559268915702,41.710058864418784],[12.964547261131546,41.7107387499586],[12.96469274492287,41.7118457713499],[12.965295829809472,41.71254080336567],[12.966265517876796,41.71302954368609],[12.968259749123234,41.713433328977395],[12.970183309703344,41.71379899312081],[12.971877686242125,41.714199589005524],[12.973192978222434,41.714833885769906],[12.973768781636194,41.71558383077716],[12.974092161764283,41.71604087267446],[12.974588760164457,41.71629829757731],[12.975036343444685,41.716588953552694],[12.97542329929345,41.71725988332144],[12.975799371911847,41.71758453015649],[12.976313637949533,41.7176657569027],[12.977311347876983,41.717644672008944],[12.977664495739187,41.71748836519546],[12.977487838439766,41.716999230729385],[12.977152198273608,41.71658765759356],[12.976719508304004,41.71583276884639],[12.976699729313852,41.71529318034821],[12.97727876728598,41.71485439894609],[12.978418854131274,41.71413503289303],[12.97911780937639,41.713327390986336],[12.979872385523468,41.712630376766015],[12.981007007282352,41.712091271641974],[12.981618880151109,41.711759395454486],[12.982476756772677,41.71236892476958],[12.983507015028307,41.71325162509263],[12.98465277438975,41.71390067537253],[12.985039857502775,41.714585085288164],[12.985414127845079,41.71518365315715],[12.985474512116943,41.715284808638394],[12.985795356029643,41.71579696794694],[12.986166048404742,41.71625231323195],[12.987305711564396,41.71596510017918],[12.987587601356314,41.715882372168274],[12.988311908075046,41.71566899695142],[12.988930079986577,41.71549892483883],[12.988946804824241,41.715636634156475],[12.989008509344735,41.71613101758465],[12.98893695063733,41.716822344597276],[12.988964214033237,41.71750573249121],[12.989115325842894,41.71804075149312],[12.9891879346536,41.71802077596969],[12.98967439644918,41.71788694838636],[12.98993956626892,41.717813993264016],[12.990216232530615,41.717759800369045],[12.990564646202863,41.7176879466442],[12.990666098392444,41.71767167814525],[12.991338140440945,41.7177653456092],[12.991790342384936,41.71782616280119],[12.992543786966424,41.717380234385686],[12.992795826713492,41.71717147122818],[12.993213546239556,41.71682664014301],[12.99343377269716,41.71664731042138],[12.99411657839567,41.71609286517557],[12.99498361416506,41.715297290999494],[12.995598882181465,41.714839139053545],[12.996212482609073,41.71466920590025],[12.996450503802599,41.7146068812004],[12.996554485357485,41.71457626065404],[12.99687371714821,41.71456642041329],[12.996919022899673,41.714565024872364],[12.997662504074443,41.714542140605445],[12.997801002942715,41.71459457482476],[12.998566293143108,41.7148843392557],[12.999360296659441,41.71524835519564],[13.00010046584294,41.715398148708566],[13.000411739371497,41.715391795161835],[13.000291329213482,41.715049316225524],[13.000491399144865,41.71479921102814],[13.001259061547607,41.714497813775715],[13.003931834554315,41.71434603391501],[13.00455586503394,41.71431975375913],[13.005449114337354,41.714275072336655],[13.006291536038054,41.71458331660585],[13.006923868569404,41.715173537116186],[13.007826453706045,41.716231553229996],[13.008202282012698,41.716732067957196],[13.008416123634825,41.7170168528571],[13.009318760807444,41.71777321245317],[13.009870143448058,41.71829254245656],[13.010019339473807,41.71843306129894],[13.010101661052083,41.71851630450397],[13.010380885035008,41.718798614702344],[13.010669579372898,41.71959894012662],[13.010828626379705,41.7199279779566],[13.010842475267669,41.71995662897438],[13.010904997541777,41.72008594766048],[13.011228768136453,41.720182675559826],[13.01179713525295,41.720347397434054],[13.0124192419642,41.72052541507327],[13.013485343823463,41.72104023366123],[13.013846430697594,41.72127048200952],[13.01388352212372,41.72129413414236],[13.014027511156993,41.721385952991405],[13.014240178069501,41.72153159311449],[13.014532423254119,41.72180950670987],[13.01467229664573,41.721944180070174],[13.014725690992268,41.72207265529009],[13.01473959576199,41.72210609878299],[13.014752629460174,41.72213744587972],[13.014941219415611,41.72259101509974],[13.015008092664875,41.72275184367735],[13.015049626731217,41.72296488319954],[13.015064955825919,41.723043464376076],[13.01517376104738,41.72360145891621],[13.015218784883812,41.723762212810676],[13.015260652971861,41.72391169627154],[13.015270720408136,41.723947641290245],[13.015366071479212,41.72428807911672],[13.015373308367261,41.724314694522086],[13.015391979295268,41.72438336171549],[13.015756721213274,41.724285177770945],[13.015808271627362,41.72427129729595],[13.015854901655345,41.7245324639279],[13.015925281141548,41.72495904039346],[13.01593027586335,41.72498832125562],[13.015937510922393,41.725040878810496],[13.01594279746103,41.72523119953963],[13.01595151985271,41.72545413425226],[13.015889011568538,41.72584873009274],[13.015967653301528,41.726093297222874],[13.016137397682966,41.72663374784271],[13.016176854962085,41.72674181419963],[13.016308512406829,41.72710222000819],[13.016614823346236,41.72794070369994],[13.017223202131557,41.7293105842284],[13.017825248596917,41.73041055632404],[13.017965973942577,41.73073585780147],[13.018084260925214,41.73100928728877],[13.018192209852415,41.73126526954289],[13.01837613909305,41.73170141413587],[13.019039396895868,41.733005983987795],[13.019056082994014,41.73303726109773],[13.019083672055087,41.73308283814334],[13.019098783762958,41.73310780599078],[13.019135871908231,41.73317028403037],[13.01917960742799,41.73324395953752],[13.01971930416191,41.73415309084612],[13.019737760303393,41.73419316179489],[13.020259974763663,41.73532723127098],[13.020980882834696,41.7365355854169],[13.021414862424447,41.73748980549834],[13.021430333567372,41.737523820777554],[13.021777564377865,41.73795854689704],[13.021874475994496,41.738079877473375],[13.021919675164373,41.7381364648423],[13.022101980459809,41.738364702613886],[13.022909036225872,41.7387506086137],[13.023532110721057,41.73886867561226],[13.023828400239688,41.738925458010854],[13.024574101968051,41.738930832153365],[13.024895776353793,41.73902759367757],[13.024954881608938,41.73916651020265],[13.025041109841748,41.73936916900398],[13.024820471072623,41.73959270035815],[13.02449784512838,41.739833508773195],[13.024326773284118,41.739961498240795],[13.023938183432369,41.74045236808478],[13.023673584263546,41.740835340981306],[13.023622562141531,41.740905362431356],[13.023397473845494,41.74121421654636],[13.023443092068423,41.741667339213684],[13.02418580747865,41.7422130706585],[13.025260979389511,41.74278764964564],[13.026429660413587,41.74271961830883],[13.027207667038637,41.74286788550653],[13.027856297670585,41.7430578598835],[13.028017577966363,41.74310511379313],[13.029090734146413,41.74303588550806],[13.029962777618893,41.74322136393942],[13.031059554113329,41.74351598493489],[13.0322631228296,41.74346468416173],[13.033011320748846,41.74338884913244],[13.033553957353394,41.74334275402899],[13.034368155393654,41.743277810768014],[13.03501034385682,41.74408841090832],[13.035745533321714,41.74482342822281],[13.034831102304485,41.74522028641845],[13.032600457209654,41.74580296069554],[13.02886761646125,41.7467580374791],[13.02640291174206,41.74752890782989],[13.02549361113501,41.74853781251382],[13.025410451356475,41.7486461359062],[13.02517247360899,41.74895611121363],[13.024605576399583,41.749694528790776],[13.023856041774302,41.75071131491714],[13.0236016289616,41.75105339648906],[13.023298602102532,41.75132068102341],[13.022809605897615,41.7517520073631],[13.02275330384729,41.75178944433389],[13.021816038847422,41.752412664731104],[13.02052867539588,41.75321867474771],[13.0194685089786,41.75401668988949],[13.018490590211435,41.75492889821503],[13.018571238117435,41.75542580897633],[13.018746391258455,41.755929938677205],[13.018935964410899,41.75647556986575],[13.019143823623805,41.757370112989065],[13.019159056475468,41.75743572831192],[13.01838608144769,41.75789953136624],[13.01694313888351,41.7586839167928],[13.015697636241404,41.7596820023291],[13.01441808100664,41.7606047358879],[13.01313548748743,41.761635607921775],[13.012438367116136,41.76238934136454],[13.01224006782336,41.76267237907338],[13.011989335796525,41.76303016452688],[13.011714366548697,41.76342256499795],[13.01164601202278,41.763520112756744],[13.010879709092348,41.764550900894356],[13.010393472147332,41.7655043604244],[13.009832254444984,41.76691967913777],[13.009247604358206,41.767935106288014],[13.00848999667514,41.76870894756945]]]}}]}
