{"type":"FeatureCollection","metadata":{"code":"060041","referenceDate":"2026-01-01","sourceDbfExportDate":"2026-02-18","upstreamArchiveUrl":"https://www.istat.it/storage/cartografia/confini_amministrativi/non_generalizzati/2026/Limiti01012026.zip","sourceManifestSha256":"70ac8256c4785dc6ed2814c32b6965ae76f9161b51abaa1660059e1c6cbd8ca6","license":"https://creativecommons.org/licenses/by/4.0/","attribution":"Istat, Confini delle unità amministrative a fini statistici al 1° gennaio 2026, versione non generalizzata.","modifications":["Converted from WGS 84 / UTM zone 32N (EPSG:32632) to RFC 7946 WGS 84 geographic coordinates.","Converted from shapefile to per-municipality GeoJSON without geometry simplification."]},"features":[{"type":"Feature","id":"060041","properties":{"code":"060041","name":"Giuliano di Roma","alternativeName":null,"regionCode":"12","regionName":"Lazio","territorialUnitCode":"060","territorialUnitName":"Frosinone"},"geometry":{"type":"Polygon","coordinates":[[[13.227494176179123,41.55933058934197],[13.227205271073812,41.559404261533615],[13.226906577520108,41.55954582199959],[13.226749102990928,41.55961279614218],[13.226570484679296,41.55968876067835],[13.226303471676188,41.55985583394565],[13.226188228364709,41.55992794258511],[13.225896480613917,41.560118778834294],[13.225582468041155,41.560301417023965],[13.225482420578558,41.560353677192765],[13.225331630141522,41.560435260611],[13.225276244565165,41.56046576692485],[13.224955315979495,41.56068017253365],[13.224671881783483,41.56090671461714],[13.224388007158273,41.561115253506685],[13.224034937587167,41.561434384784754],[13.223895273298936,41.56168264984704],[13.223756015179722,41.56197141242162],[13.223563409766056,41.562131579412814],[13.223628418221171,41.56258839933634],[13.223368815873691,41.562881592552756],[13.223239518562432,41.563197004819614],[13.223146688351182,41.563520074175955],[13.223015769651266,41.56394809102165],[13.222835491381746,41.564377922848216],[13.222605790247792,41.564877104802505],[13.222446017752947,41.565058575785045],[13.222146940773474,41.56544776388054],[13.221908591615884,41.56580318310775],[13.22168482560225,41.56611756904477],[13.221345544013865,41.56670632542905],[13.221133573169919,41.56715080617802],[13.221026470720355,41.567375385414465],[13.220784998846051,41.56782096307801],[13.22044610804064,41.56845021783567],[13.220107037689619,41.568984949068465],[13.219836290209729,41.569291859128114],[13.219577300594576,41.569526671129765],[13.219095011368955,41.57004864862952],[13.218784347680197,41.57051037311857],[13.218705468661957,41.57062572759289],[13.21840467344704,41.57112753254642],[13.218005891960733,41.5716779328396],[13.2176673408367,41.572244153405904],[13.217294250935158,41.572694561409214],[13.216958152100151,41.57306414523142],[13.216849487064302,41.57318363543366],[13.216561355797262,41.573603921737266],[13.21627492180442,41.57399263046008],[13.216120796196185,41.57424462225038],[13.215973507624081,41.57448543404431],[13.215782026301392,41.574870652724094],[13.215697211498862,41.57540951231819],[13.215600133253895,41.575840795503005],[13.215413746029109,41.57652296471291],[13.215393520277905,41.57657529112032],[13.215207213442385,41.57705729447962],[13.215115126304259,41.577299381538865],[13.214988368476849,41.57763261029439],[13.21461540380042,41.57807400714589],[13.2143311790144,41.57835908386133],[13.213840246972827,41.57877329354692],[13.213409874002416,41.57918529598779],[13.212843254357136,41.579714843269905],[13.212510028234027,41.579999632408175],[13.212265317267782,41.58020876843659],[13.211823652606526,41.58056264811178],[13.211016919891748,41.581146012748015],[13.210773134663476,41.58125850337117],[13.2104424720489,41.581486743013],[13.210278709553176,41.58178088998796],[13.210276422745736,41.58181832327176],[13.21025820574132,41.58208779750798],[13.210262436438251,41.58211812763878],[13.210308808457626,41.5824506089702],[13.21041848896531,41.58281127200284],[13.210443950682262,41.583179505188944],[13.210330967814254,41.584012051152165],[13.210382166259055,41.58498264540289],[13.2100749385404,41.5848228429307],[13.209686345030834,41.584575974620854],[13.209450443993067,41.58441805187279],[13.209120430500676,41.58419602912008],[13.20889653439341,41.584009063309765],[13.208190827575738,41.58365992464093],[13.208052984356607,41.58359192778354],[13.207972010167763,41.583551986165105],[13.20602148987128,41.58258981265779],[13.204157298523283,41.58143207523936],[13.204017223536939,41.581344096920766],[13.202133623726972,41.58006242978649],[13.20176356140733,41.57981994648195],[13.20150893594254,41.57965310180095],[13.201001206312764,41.57940604690826],[13.20061165443399,41.57915468254141],[13.200244058260596,41.57898804185954],[13.200212452666664,41.57896619849562],[13.19965633425819,41.57858184756389],[13.199961662532848,41.577968511921036],[13.200049773227367,41.57779151205721],[13.200176816402806,41.57753630753174],[13.200388302863692,41.577199487599984],[13.20084130020504,41.57648099426513],[13.201272628556003,41.57554299727154],[13.201353412304158,41.575327303379915],[13.201428853751844,41.57513148957181],[13.201612040796736,41.57463839783103],[13.201917580157625,41.574417617223006],[13.2021325525311,41.574263671622916],[13.202260579145142,41.5741597707572],[13.202518551411325,41.57395240078568],[13.202657096039136,41.57370870242851],[13.202640333522572,41.573643718064076],[13.202570024106832,41.573383236292315],[13.202133106378094,41.57321014054882],[13.201642778438446,41.57313804525388],[13.200236349921946,41.57235662086377],[13.199654138189079,41.57128389963506],[13.199549112432322,41.56988909647227],[13.199543968519322,41.56982590877592],[13.199540425115833,41.569780182445186],[13.19953158629874,41.56967211137172],[13.199503846754325,41.56922463887023],[13.199483685632485,41.56888242013495],[13.19945742903399,41.568436719428284],[13.200050645972942,41.56730551398524],[13.200189624930552,41.56710172380551],[13.200274736704232,41.56697425975018],[13.200423168209765,41.566756479861915],[13.20072870396648,41.56630569167178],[13.20079898612926,41.566153672819915],[13.200910855386468,41.565912854556075],[13.201202144247356,41.565291427582295],[13.20117084011604,41.565039446118426],[13.201164816113016,41.56497730459474],[13.201075281611017,41.564163467019306],[13.20072967428994,41.563248666412115],[13.200688163888973,41.563069807825094],[13.200450939386476,41.562047795590495],[13.200227159534496,41.56053873943852],[13.200219320181443,41.55917035861607],[13.200250753811092,41.55800315036118],[13.200177198095606,41.556776753657935],[13.200925197116947,41.555740881798805],[13.201794862576014,41.55503372305732],[13.202133143906199,41.55485476259746],[13.203014655630938,41.55429572175116],[13.204313794738857,41.55328017860938],[13.205623930316444,41.55237676279107],[13.206473344374233,41.551566766482466],[13.206940587224304,41.55072123804314],[13.207292632726842,41.55005102622273],[13.207556878548909,41.54921743524823],[13.207668929372083,41.54820934926828],[13.207894556896536,41.547404190032324],[13.20796896290879,41.546392964353494],[13.208479825501621,41.54573492489973],[13.208873419753875,41.54532815777279],[13.209282065530344,41.54490412064544],[13.209722877307087,41.5445848792798],[13.210224998773848,41.54422122965293],[13.211231853346028,41.543761094192696],[13.212368963238228,41.543426731704805],[13.213561987962608,41.54315783519443],[13.214648105741317,41.542915351028725],[13.215171098013068,41.542642032268034],[13.215572904754715,41.54243286561277],[13.215621032662332,41.54240688970101],[13.215893501195852,41.54224706538498],[13.216657324882664,41.541801565857604],[13.217743905574686,41.54153203670526],[13.21841898684981,41.54141531796757],[13.218669811999023,41.5413719497933],[13.219189186142756,41.54122679784154],[13.2193627131969,41.541004309654284],[13.218995826257768,41.54047753291564],[13.2188231645138,41.54019573985825],[13.219294976719949,41.539975806002005],[13.220033087501985,41.53977307757199],[13.220797828040896,41.53941630710395],[13.221199228021755,41.53920795265521],[13.221517841975457,41.53899364418713],[13.221737278236354,41.538834233852086],[13.222666523773391,41.53860922248167],[13.223335756936129,41.53854193629245],[13.223468979628812,41.53852891898785],[13.223530682005071,41.53852312621016],[13.22393976074137,41.538481328988055],[13.224419872380258,41.538580660100635],[13.225260024248781,41.5387566083755],[13.225538916683528,41.538814175300224],[13.22581297795702,41.53890354291514],[13.22692413039281,41.53926902998664],[13.226987029030086,41.539289432863974],[13.227759407364177,41.539542796634414],[13.22820017009025,41.53964958672682],[13.228553139209659,41.53973579799243],[13.229415596078125,41.539945500435124],[13.231047715754116,41.53989886732693],[13.231271272067934,41.53987464945802],[13.231355107193814,41.539865442427946],[13.231469536369802,41.5398524080175],[13.231579686020169,41.53983972665072],[13.231780475425447,41.53981790934018],[13.232626038803556,41.53972370991682],[13.232990445341546,41.539684460355474],[13.233067549189768,41.53967581995751],[13.234241201692498,41.53948427878124],[13.234559415793854,41.53943169980178],[13.235691161514342,41.539259382524854],[13.236229103410567,41.53921804117191],[13.236554284600262,41.53919324826703],[13.23737401103779,41.53912974050447],[13.239245510574898,41.5390786540568],[13.239396166095357,41.5390845049363],[13.24094077630838,41.53914702556743],[13.241335735292887,41.53916282073145],[13.241459506178417,41.539167941519096],[13.241894688388667,41.539147491494504],[13.242804373269617,41.539104740519036],[13.24481536498099,41.53878570099278],[13.244911207721861,41.538770222271886],[13.24660891203643,41.538513834666574],[13.247579481922942,41.538099738487404],[13.247848233122332,41.53781272462961],[13.248294835625368,41.537334910787244],[13.249413183509247,41.537198968142846],[13.249608080541961,41.537185274252735],[13.251550071840445,41.537061314114],[13.252723466348508,41.5366801765686],[13.25352054370026,41.53631399620585],[13.25384018797336,41.536166085000886],[13.25400964374951,41.53608627262002],[13.254381084888562,41.5359086347927],[13.254801321587431,41.53570987989734],[13.254957937206132,41.53563390971258],[13.256207503210737,41.53497259546453],[13.257314286276003,41.534425503857136],[13.257686521122503,41.534231353403875],[13.25800747083388,41.53406663955744],[13.25845149226399,41.53385701230824],[13.258652651426502,41.53376356574449],[13.259003512727034,41.53355832365465],[13.259117969403386,41.53349137400906],[13.259236114948507,41.53342226319076],[13.259535593595912,41.53320406072455],[13.259601308217979,41.53315730534071],[13.25963570303444,41.533135915924305],[13.259732766348698,41.53307554230055],[13.25987196319664,41.532988968124364],[13.260839885684447,41.532355963626415],[13.261433794515431,41.53196753953931],[13.263015827622983,41.53102638454052],[13.264032154721624,41.53024126658826],[13.264426083599956,41.52978866371388],[13.26488529443395,41.52926413110986],[13.265573684102325,41.528185046586],[13.266257625833505,41.52723218546919],[13.266727448664952,41.52679453696372],[13.267017393617131,41.526523945515976],[13.267216428865593,41.52633663493938],[13.267461411201465,41.52620842782131],[13.268008430716325,41.52592214914378],[13.268420309874193,41.52570659525553],[13.269512152727263,41.52508619213394],[13.269755801351717,41.524947753099795],[13.26984497063938,41.524897484857966],[13.269880237349213,41.524865253849875],[13.270531001062569,41.524281776208305],[13.270949730290567,41.52390620214645],[13.271380123531065,41.523347203128175],[13.271856146205643,41.52272892517609],[13.27244113664088,41.52185624129341],[13.273130825655322,41.52067131436736],[13.273183082695823,41.52058152970654],[13.273588567862646,41.51931483953272],[13.27368503024787,41.518913746071505],[13.273722567498016,41.51876489396933],[13.273855448198846,41.518228901654325],[13.27431801654423,41.517113142630166],[13.274580562175833,41.516692288390736],[13.275031111393565,41.51597005167779],[13.27523540383745,41.51561499201549],[13.275270262198319,41.51555445497333],[13.275608177459736,41.51496710468331],[13.27623298456594,41.5138002582766],[13.276353502672976,41.5135751861456],[13.276693365262412,41.51247300668248],[13.277056915051562,41.51146898904424],[13.277374743643097,41.5107368130043],[13.27760424827974,41.50980081873569],[13.277866151033267,41.508913129934754],[13.27822055734087,41.50860279295439],[13.278565742514138,41.508485282233735],[13.278804573404187,41.50840361727867],[13.279048252586554,41.50832053391226],[13.279080379990068,41.508309623362344],[13.27909414461866,41.50844143035243],[13.279154668510097,41.50897800638336],[13.279187112350689,41.509269109343585],[13.279164808886534,41.50963460672545],[13.279560823654965,41.51011059025721],[13.27984604700761,41.51021250071207],[13.280178347058465,41.510290157808896],[13.280763239983518,41.51037189349068],[13.281194151966613,41.51042335403453],[13.281715795589607,41.51060198848871],[13.282191549390616,41.51087235883675],[13.282236193041248,41.510897730002384],[13.282635941391977,41.511157455922145],[13.283119603423339,41.511441046430306],[13.283197143336382,41.51149596762343],[13.283602674577502,41.51178320682612],[13.284071213439391,41.512166402745244],[13.284483512844583,41.512434652580254],[13.284749070643429,41.51281642228707],[13.28506136106557,41.51328199368328],[13.285348567999042,41.51370798635592],[13.28560111167814,41.514153270235944],[13.28571378110406,41.514419183700966],[13.285918680538268,41.514834749211126],[13.286112291452229,41.51516967052035],[13.28641353600059,41.51562665139722],[13.28676415305318,41.51594670984202],[13.287091636827602,41.51622261656415],[13.28742890636607,41.51662421680862],[13.287764248484464,41.51709791917888],[13.28812272808594,41.517570774199925],[13.28834006865581,41.51795883561329],[13.288601296432462,41.51851185087922],[13.28871335272828,41.51881379868167],[13.288967324979593,41.51917799283683],[13.289307842042428,41.51943539002109],[13.289676471187354,41.51957469177289],[13.290136051035924,41.51983215365638],[13.290453421338245,41.52009041150086],[13.290877742768448,41.520358187980634],[13.291292379328858,41.52053627879103],[13.291599035546406,41.52070038831697],[13.291647010280837,41.52072263359878],[13.291859827394553,41.5208218951547],[13.292097456574654,41.52093387464698],[13.292170067364074,41.52132414593328],[13.292192153194852,41.52144807522686],[13.292015793244811,41.52172480863264],[13.29189097596961,41.521932065009324],[13.291800674574372,41.522174064335516],[13.291781590787553,41.52246291398147],[13.291961933502552,41.52287936786122],[13.292257673319428,41.52302588485043],[13.293224627257096,41.52319991500006],[13.293463403857814,41.52324191733113],[13.293866724812466,41.52338440709829],[13.294039653927866,41.52366607430726],[13.294103304333413,41.5238131057764],[13.29414129769159,41.52390086431881],[13.294267034313993,41.52412578369744],[13.294544350572584,41.52450259076951],[13.294962526504168,41.525004685982836],[13.295228971406033,41.52534138396434],[13.295447314436641,41.52567536112716],[13.295666727942425,41.526054477010405],[13.295689238976614,41.52609402531178],[13.296098634952905,41.52649739975678],[13.296346466986186,41.52660968425466],[13.296787644043032,41.526678698351674],[13.29711095473929,41.52672062692795],[13.297588870610724,41.52677926365311],[13.298089198116456,41.526904606950005],[13.298528713876227,41.52702770874861],[13.29863143353148,41.527073321036575],[13.299240128452999,41.527343229059355],[13.299710071189587,41.52772180626637],[13.299774859014672,41.52797599993018],[13.299577305799236,41.528158993193934],[13.299433654659083,41.528432127338824],[13.299413062998903,41.52847127864629],[13.299360110110342,41.52873438290892],[13.299461502740568,41.5289421912686],[13.299482442610087,41.5289742772193],[13.29965658054382,41.529241028493274],[13.299947690941044,41.52959928831083],[13.30037001239772,41.5299481493288],[13.30051044506689,41.53007661029304],[13.30068630039587,41.53023262255355],[13.300734077765341,41.530276657248635],[13.301082885813184,41.53066878481386],[13.301490249398057,41.531108230794025],[13.301896423916888,41.53151016010276],[13.301957696747897,41.53157243817195],[13.302199091837911,41.53193707266651],[13.302489352824153,41.53232687171257],[13.302802753030488,41.53273833767948],[13.303173407191771,41.53316563524845],[13.303759821539433,41.53366139029274],[13.304266899313717,41.534011558737646],[13.304787583852384,41.5343747120278],[13.305008277327445,41.53450599372293],[13.30513150809571,41.53457741681977],[13.305446034299596,41.53475971196277],[13.305543172063308,41.534801508586014],[13.305811570513061,41.53491707408783],[13.305568727430304,41.535106275146575],[13.305322616731386,41.535381126608755],[13.304816896937345,41.53597636569569],[13.303856704185154,41.536980323833724],[13.302961545492135,41.537621672649784],[13.302797712776188,41.537729506333335],[13.301966396030208,41.5382802786366],[13.301321210202822,41.53897527502286],[13.301054363024784,41.53928348483817],[13.300630247026627,41.53977102872735],[13.300170196315321,41.540220459554156],[13.29987770054897,41.540474539205306],[13.299480166092252,41.540759550378155],[13.29918929560293,41.54100456851619],[13.298844195460935,41.541256098443114],[13.29851554544984,41.54150701129511],[13.298300006168185,41.541668159101114],[13.297965230685959,41.54183827084874],[13.297621663271169,41.54195468041729],[13.297071821418696,41.542168856505135],[13.296788752137182,41.542283017599004],[13.296323329459288,41.54260657304828],[13.29605901875122,41.543003647334444],[13.295821147989026,41.54342674623043],[13.29576096589538,41.543874710588675],[13.295798080925426,41.54431003363308],[13.295822017034395,41.54479536283369],[13.295841283322995,41.54542494486343],[13.295728600094565,41.546063963865905],[13.295569609077463,41.54659215466494],[13.295284510652365,41.54695849012068],[13.294565990025248,41.54738605624442],[13.294099295226996,41.54784922922462],[13.293560232797581,41.548283592361756],[13.292962760283828,41.54866160693814],[13.292106063439554,41.54928793502553],[13.291698491271886,41.54973988771731],[13.291254455249694,41.55022919977667],[13.290870664795824,41.550666762076986],[13.290551791054654,41.550930785537275],[13.290123147894633,41.55130249235368],[13.289686975961716,41.55194458070988],[13.289512306590154,41.55220322882535],[13.289203098428718,41.55253443691199],[13.288859068710158,41.5528714430347],[13.288551381185579,41.55318007457646],[13.288232047462538,41.553381097573755],[13.287953974275336,41.55354906310418],[13.287510371386402,41.553966332768205],[13.28709759422474,41.55419334055781],[13.28625605745417,41.55466598336193],[13.285791674588632,41.55502999117845],[13.285521318027532,41.55531472438287],[13.285517124864025,41.5553418786157],[13.285490741668326,41.5555319536366],[13.285484828819449,41.55574828180255],[13.285424860160575,41.55622324703706],[13.285393423361272,41.55785419169743],[13.285427901592064,41.558375145179376],[13.285430837330866,41.558444589455284],[13.285442307086676,41.558716787771665],[13.285332235167106,41.5592386389488],[13.285012831097166,41.5595297018119],[13.284851445361985,41.55975181450864],[13.285099538752252,41.56029632602049],[13.285264566826577,41.5605503218576],[13.285342293578744,41.56066994515131],[13.285610039963114,41.5610246119976],[13.285744304220296,41.56134374951278],[13.28560442157451,41.56166412313636],[13.28543703414196,41.561965750103816],[13.28541562971505,41.56200431613565],[13.2854264245232,41.56219905830112],[13.28543274877122,41.562284512674296],[13.2856305686236,41.56247801613909],[13.28587924580788,41.56263532265761],[13.286411496692716,41.56287656558066],[13.286899065259094,41.563042946353455],[13.28736166242505,41.563250771868105],[13.28766089324093,41.563341289139906],[13.287729949471721,41.56334676455286],[13.287919800840793,41.56341898986247],[13.28819439773417,41.56348077754784],[13.288267348694285,41.56358542741268],[13.288414626507626,41.56379669975272],[13.288439441197534,41.56383178710635],[13.288495132864465,41.56391525345216],[13.28846715230105,41.56396025982805],[13.288368950587692,41.56411833873225],[13.288294687850671,41.56423787516059],[13.288130119619606,41.564277664096124],[13.287942218548325,41.564323094122074],[13.287643307469818,41.56437027589941],[13.28733129600347,41.56442244663019],[13.287101819519789,41.564422717561825],[13.286958192748353,41.564422891464986],[13.286396747609981,41.5643628333482],[13.286174838441818,41.56456469389214],[13.28649438363782,41.56475086653278],[13.286817594154442,41.56476581124096],[13.28711700670076,41.56479514055012],[13.287403987137687,41.56480691855661],[13.287761894618935,41.56487009446743],[13.28789039055483,41.56491815728624],[13.288035450483267,41.56497241826422],[13.288097823993933,41.565041000433055],[13.288189049951471,41.56514130906613],[13.288233467280088,41.56519012676606],[13.288203168143719,41.565434380729826],[13.288018646844387,41.56561234969306],[13.28781467537308,41.56573288796269],[13.28772587886498,41.56578536262535],[13.287503941756164,41.56600975917628],[13.28726945532397,41.566221092409],[13.287124559501432,41.566353346037104],[13.286958510857051,41.566655919242244],[13.287056275919939,41.56710249754411],[13.287201148065263,41.56752478006223],[13.287299723985683,41.567813732510295],[13.287266250405716,41.56820216391789],[13.287075902332143,41.56858743749247],[13.28667032766568,41.56851705915086],[13.286382671876412,41.568541320148945],[13.286104014832807,41.56861025783195],[13.285849176278859,41.56872331975325],[13.28517836494674,41.56872135156881],[13.284708070282639,41.56874791092838],[13.28461946622503,41.568971824537485],[13.284523476924976,41.569412120080166],[13.284368329265087,41.569763045571335],[13.284295137807693,41.56992486698649],[13.283712554763948,41.57059943346187],[13.2835111893338,41.570770079544126],[13.28332024464851,41.570933727193406],[13.282971366019535,41.57112052707741],[13.282906315502109,41.57115626341952],[13.282659947074709,41.57129637720077],[13.28256536496205,41.57134907825078],[13.28267449312095,41.571458632463504],[13.282722490341476,41.571507668960855],[13.28286903748795,41.571657385157174],[13.28299111496192,41.57179210010905],[13.283091547103737,41.571905701714634],[13.283287601209206,41.57215050572127],[13.283366468980528,41.57236816887628],[13.283330832035803,41.572529132833886],[13.283311943855253,41.57260880742567],[13.28322020131911,41.572888888083384],[13.283154125127771,41.57316845200441],[13.283226795911586,41.5735529398453],[13.28335401768377,41.573739473079335],[13.283397996987055,41.57380335156048],[13.283433493357258,41.57385517380333],[13.283668692301136,41.57410370072069],[13.283890035034071,41.574311543304724],[13.283991452342846,41.57443158767325],[13.284099873390579,41.574560334299036],[13.283999776073498,41.57475766171817],[13.283772494324934,41.575139823594846],[13.283588319906174,41.574832520352516],[13.283532710671597,41.574802174992506],[13.283480006589546,41.57477298357913],[13.283435761042162,41.57474846483214],[13.283293284027799,41.574671482099674],[13.282735498472851,41.57447619208165],[13.282079966875347,41.574275548356006],[13.281458599899544,41.574195186378894],[13.280967005323495,41.57419550789571],[13.28058182586275,41.57426390722052],[13.280119430679438,41.57447924236845],[13.279592840039436,41.57442685162481],[13.279376952179074,41.574171137318196],[13.279946023285996,41.5739360172205],[13.279530848427424,41.57372763306494],[13.278538058997597,41.57266695252786],[13.278361427559059,41.57262617897484],[13.278166508935232,41.5723182289319],[13.277524056719447,41.57215105163623],[13.277233631927384,41.57207547650686],[13.276296234200538,41.572957450384926],[13.275652833442058,41.57290340938179],[13.275093126224384,41.57282301333491],[13.27493475518587,41.57279959894078],[13.274659526447296,41.572796352079045],[13.274409721913177,41.57270211257801],[13.273923325032875,41.57248610349947],[13.27355728250465,41.57226562972759],[13.273471707716267,41.572231826403254],[13.273130227192937,41.57209693944726],[13.272745974223676,41.57211124554254],[13.27217606733594,41.5721932261612],[13.272071920272188,41.572208386241265],[13.271325541268462,41.57232201115593],[13.269736768273372,41.57256090711486],[13.269118290794287,41.57263716450138],[13.2689976218243,41.5726520413364],[13.26895250289228,41.572657604967034],[13.267827492643146,41.57281232026422],[13.26778574976192,41.57281806043893],[13.267059659520964,41.572899071933605],[13.266042908662543,41.57298190234927],[13.265357045682919,41.573025393117724],[13.264683929937526,41.57306037873579],[13.264444390496957,41.57307282811493],[13.263388500054258,41.57308504101454],[13.262452071845253,41.57312432447796],[13.261423196986776,41.57300045609678],[13.260283245724795,41.573056276536754],[13.259659686260294,41.573159529699716],[13.259216919232822,41.57323383037355],[13.259131276576545,41.5732471520339],[13.25833348296391,41.57334474660263],[13.2574189764329,41.57341018947096],[13.256375021264416,41.57346692925641],[13.255546067082085,41.573488652122],[13.254813105830879,41.5735338440842],[13.254150049850873,41.573639452690145],[13.253177567956431,41.57368901363865],[13.252556229546542,41.57360849301626],[13.251910855516568,41.57351534301254],[13.2511135168345,41.57328825787818],[13.250695532710662,41.57321687788099],[13.250349595959253,41.57315897481955],[13.249739338973988,41.57308702736631],[13.248737482403742,41.57287199953737],[13.248127820860836,41.57280903835946],[13.247910492631245,41.572835332399485],[13.247538195471943,41.57288037537336],[13.246693439919953,41.573037697770246],[13.245825924288486,41.57321387278864],[13.245076535889003,41.573395849738084],[13.245016686469373,41.57341038317755],[13.244655559841277,41.57346126438422],[13.2441501076298,41.573532478394135],[13.243599268859624,41.57354382976845],[13.243214211596099,41.57358058277538],[13.242589024147465,41.573635211201285],[13.241673538938267,41.57375459697699],[13.24074409009653,41.57394652009254],[13.239562939939864,41.57417473238178],[13.238971749399632,41.57429111590737],[13.238079474065202,41.57451316073821],[13.237846551757894,41.5746059605273],[13.237108060357118,41.574900193724474],[13.23645811102032,41.575000735639534],[13.235639654691042,41.57510297438642],[13.23550706462861,41.57512568093719],[13.234893245559855,41.5752295647174],[13.234221436769632,41.57523633473746],[13.233911749974226,41.575130716067484],[13.233712973189652,41.57492194089481],[13.233723542520014,41.57457938174805],[13.23382548962939,41.57432799690053],[13.233944051377774,41.57396345596203],[13.233951465938405,41.57390807290931],[13.234001609665906,41.57358314850514],[13.234024650849081,41.57316809864817],[13.233990518609728,41.572692147061474],[13.233762139072864,41.57223683973072],[13.233286148629885,41.57167362246168],[13.233115462133426,41.57152893150228],[13.233091075214022,41.57150916318424],[13.233055341679954,41.57147936825949],[13.233020209253471,41.57144950523095],[13.232840436277135,41.57129837857254],[13.232812773393508,41.57127963235014],[13.232322604132095,41.57096630670528],[13.231754826636653,41.570649573333085],[13.231775869156554,41.57030662800202],[13.231970833195277,41.57019803645425],[13.232153505363485,41.57009911112041],[13.232493560616449,41.56990199768204],[13.233112139922165,41.56973510641972],[13.233500988982303,41.56950465432475],[13.233783130056546,41.5692466425881],[13.233818386487108,41.569203844422944],[13.233970561263842,41.56901912098041],[13.234120048807531,41.56878399897385],[13.23428497596465,41.568504864610695],[13.23435914588974,41.56838347657838],[13.234487467953903,41.56807710527073],[13.23463815083177,41.56783743991681],[13.23500508573802,41.567535762574764],[13.235279355662426,41.56734947488119],[13.235314072905185,41.56732478057416],[13.235910757108876,41.56691254751684],[13.236486089483531,41.56646361427615],[13.236808571674533,41.56607802500944],[13.237034369196694,41.565750036721866],[13.237389179877743,41.56545781737158],[13.237899826896252,41.565222855715064],[13.238264185884443,41.56506532259291],[13.238855318569668,41.5649039317937],[13.239242065151242,41.564790602394616],[13.239725195638362,41.56469620702881],[13.240121716296258,41.56464104571206],[13.240706212271325,41.56426378275333],[13.241122864465217,41.56405963416026],[13.241798362901426,41.56372871978568],[13.241878294101374,41.563688818042195],[13.241915832729164,41.563670490742815],[13.241978960547947,41.56363921934984],[13.242136420090313,41.563562622585955],[13.242305979388503,41.563394279377],[13.242399695825105,41.56312067593307],[13.24228710125762,41.5628772334209],[13.242076316205218,41.56271392922612],[13.241573576902352,41.5625151992423],[13.241469484137893,41.56247523514573],[13.240704175752294,41.56211633185939],[13.239416857702166,41.56160111110026],[13.237702761400021,41.56107913698142],[13.236108926741084,41.560665242479594],[13.233587164099836,41.560177511307714],[13.232870454210314,41.56006875111915],[13.23176388621455,41.55989808091715],[13.230486855432732,41.55974112328779],[13.229819650490116,41.55965911447968],[13.228533106040187,41.559440835985164],[13.22779213496253,41.559315114258816],[13.227494176179123,41.55933058934197]]]}}]}
