{"type":"FeatureCollection","metadata":{"code":"061045","referenceDate":"2026-01-01","sourceDbfExportDate":"2026-02-18","upstreamArchiveUrl":"https://www.istat.it/storage/cartografia/confini_amministrativi/non_generalizzati/2026/Limiti01012026.zip","sourceManifestSha256":"70ac8256c4785dc6ed2814c32b6965ae76f9161b51abaa1660059e1c6cbd8ca6","license":"https://creativecommons.org/licenses/by/4.0/","attribution":"Istat, Confini delle unità amministrative a fini statistici al 1° gennaio 2026, versione non generalizzata.","modifications":["Converted from WGS 84 / UTM zone 32N (EPSG:32632) to RFC 7946 WGS 84 geographic coordinates.","Converted from shapefile to per-municipality GeoJSON without geometry simplification."]},"features":[{"type":"Feature","id":"061045","properties":{"code":"061045","name":"Liberi","alternativeName":null,"regionCode":"15","regionName":"Campania","territorialUnitCode":"061","territorialUnitName":"Caserta"},"geometry":{"type":"Polygon","coordinates":[[[14.258240274731238,41.253771289137156],[14.25785166311213,41.2542887310022],[14.257167628723645,41.25457213576109],[14.255681796280438,41.25512181134421],[14.25430251219833,41.25568910453654],[14.253510968301114,41.256026931772816],[14.252734111627266,41.25612097916114],[14.252560970845192,41.25607463796836],[14.251901245104076,41.255898002063276],[14.251000015240988,41.255381056905144],[14.250550679090221,41.25505949334051],[14.25000290382322,41.25489548123521],[14.249002874120142,41.25468012708276],[14.247751946777086,41.25441321064848],[14.246390995455721,41.25446640876682],[14.245078148915642,41.25444985688994],[14.243768787997782,41.25422607358418],[14.243293450062037,41.253923682290065],[14.242934675177457,41.25307579407443],[14.24249600788906,41.252812233388255],[14.241484548169828,41.25245329673464],[14.23984220895346,41.25205560739861],[14.238569838633063,41.2516410130797],[14.23724900897083,41.25129163703855],[14.236060290813654,41.25085070568854],[14.235883116466894,41.25072374488221],[14.235946292492134,41.25044177134412],[14.23595046122843,41.25000043680276],[14.236042435405116,41.24937055429412],[14.236015710845237,41.24855250640598],[14.236071930098607,41.248230340476816],[14.236194594236155,41.24750902632639],[14.236729417143941,41.24667436632919],[14.237672621266379,41.245735558982645],[14.238612736253293,41.24483291392307],[14.239338353736573,41.24400755044105],[14.239774659272033,41.243460964426156],[14.241068569749038,41.24298327769274],[14.242122559938355,41.24264707161746],[14.243788711629819,41.242098337463204],[14.244788933728039,41.24130542385619],[14.245777090651986,41.24042752081505],[14.247215289639666,41.23981713292753],[14.248165615672324,41.239193020163874],[14.249081666135725,41.238457921257364],[14.250434404252653,41.23799095723907],[14.251599521199495,41.23741549753026],[14.25263333793095,41.236634477030115],[14.253797611726357,41.23607706591167],[14.255175599977633,41.235581862025846],[14.255344259463847,41.23553813303736],[14.256491916163451,41.235238017317364],[14.257632952782018,41.23459609868376],[14.258593115698034,41.23412450185511],[14.259820388443071,41.233276037584766],[14.260699318658467,41.23260106998554],[14.261328161385178,41.23185654094062],[14.261973401662773,41.23122200437649],[14.26220233216736,41.23099711489542],[14.26234149082464,41.230860301871566],[14.263171884531147,41.230120022301946],[14.263991511135588,41.22937573088446],[14.264754472163048,41.22839996511763],[14.265312614516013,41.22752809877532],[14.265408219801191,41.22729032954993],[14.265607601016722,41.22679435688614],[14.265650053531242,41.22621277321259],[14.265678152435415,41.22582782333795],[14.265710483124948,41.225173625620585],[14.265579577137553,41.224000258378304],[14.265533001929265,41.223502342599566],[14.265494466890013,41.223090386731776],[14.265532777126838,41.222759697140496],[14.265560000700935,41.22252469888511],[14.2654766335181,41.22149770526745],[14.264980453545597,41.220016987476754],[14.265633144765555,41.219172313397536],[14.266302435401762,41.218400200290844],[14.266624640158309,41.218028487769416],[14.266988773070281,41.21755265058266],[14.267004731281355,41.217074768698296],[14.26631205915138,41.21613424062049],[14.265607554821932,41.21521507516758],[14.265358816173581,41.21489053805766],[14.265351167197077,41.2144463452954],[14.265345298298735,41.214008894191615],[14.266331929436204,41.2133424459303],[14.267529430516886,41.21279687300688],[14.26896648700166,41.212339326313334],[14.270460086521982,41.212095238378765],[14.271151903838168,41.21214449953465],[14.271791529431729,41.212583289505446],[14.272569549124778,41.21337131057092],[14.273503721752297,41.21406214172411],[14.274876194393284,41.21399910411896],[14.276315854093271,41.21327576834123],[14.27752708292271,41.21268893626805],[14.278855975370275,41.21226774693188],[14.27894693239876,41.21225906689116],[14.27906613030921,41.21224655599818],[14.279882820959648,41.21215751753856],[14.280146163525089,41.21206684294202],[14.280241843393355,41.21203392779407],[14.280577351454765,41.21191850799247],[14.281084414919976,41.2113595369071],[14.282001875968824,41.211224228887275],[14.284536394776698,41.211745932034916],[14.284802359986427,41.21180067424274],[14.28634751661498,41.212314726142274],[14.286474009169146,41.21234941033249],[14.287976174618287,41.21283842574354],[14.28925909089658,41.21328799821509],[14.290096706358785,41.21342353841412],[14.290341758733463,41.21346319151142],[14.290590636735422,41.21351293105407],[14.291330110994338,41.213660715354074],[14.291883357082652,41.21431042523148],[14.292640397206744,41.214955256978364],[14.293520204321538,41.21525679367887],[14.294732576944748,41.21557001781282],[14.295028700498612,41.21564132929379],[14.295579839102123,41.215774357223765],[14.295732597317414,41.215811934878396],[14.295829108209897,41.21572722912355],[14.296273839282874,41.21533689057496],[14.296235559486268,41.21449238786451],[14.296242342099518,41.21421640581714],[14.296257263334045,41.213609127033976],[14.296694828282115,41.212828208614475],[14.296732208672635,41.212827439594506],[14.297059184216312,41.21282062599014],[14.298472463599712,41.21279120351843],[14.299115473755123,41.2128920703134],[14.299758293739904,41.21298844262347],[14.300101146108531,41.21295901787992],[14.300894236628693,41.21289100200344],[14.301424942606406,41.212802150590974],[14.30193353900674,41.21271699771239],[14.302465912897555,41.2131605467223],[14.303159832300231,41.213947739597884],[14.304122469157024,41.21431286814648],[14.305091097587523,41.21405658622658],[14.305598623029724,41.213456962245075],[14.305971167013245,41.213432730826895],[14.306315157195499,41.21341035515309],[14.30754692114625,41.21423570285565],[14.30804618694952,41.214474766773364],[14.308646964130473,41.21476272468119],[14.308686549862825,41.21478168924838],[14.310139955522303,41.21492603722065],[14.310292031189784,41.21486050249144],[14.31057874577176,41.21473367522398],[14.311711230169728,41.21423220061228],[14.312411458924897,41.213711948546646],[14.312648024988803,41.213536154538694],[14.313571148992676,41.213347469341784],[14.313759842125247,41.21330918231756],[14.314402934612147,41.21345494656024],[14.314958409528092,41.214009908925874],[14.31539463486521,41.21439034543028],[14.316336127609604,41.21445928273937],[14.316414809400124,41.214475685467164],[14.316895536819649,41.21457739641853],[14.3177331586825,41.214376616054984],[14.318245310972214,41.214460903148336],[14.318109148984139,41.21491284545197],[14.317100973702482,41.21547268808138],[14.316332170213117,41.21604395201563],[14.315788550227113,41.21668130297488],[14.315722753502019,41.217220014850454],[14.316432146340292,41.21787137137938],[14.317166605909978,41.21839102395546],[14.317703132099158,41.218375192465366],[14.318366530845818,41.21771427197046],[14.31919547550506,41.21710423683324],[14.319341261463775,41.21712929285919],[14.3198508299708,41.21721789100244],[14.320431972435449,41.217537553342474],[14.321074636039812,41.21766082360696],[14.321271234016427,41.21774174342307],[14.321369507833124,41.217795708983864],[14.32156683516824,41.217885591853666],[14.32172560792638,41.21795025021947],[14.321893597749458,41.2180459908844],[14.322125313044534,41.21813680332765],[14.32222632453438,41.218197134042065],[14.32237913753225,41.21827106509174],[14.322621034314357,41.21834988282036],[14.322840234735347,41.21845226358697],[14.322947438811346,41.21849679840201],[14.32304328189786,41.2185328624169],[14.323143966418698,41.218568683900145],[14.32323366083991,41.21854654898116],[14.323321528882277,41.218524461753056],[14.323356073616935,41.21851836154847],[14.323423366082608,41.21843872632243],[14.323527199623557,41.21824935195602],[14.323609506609978,41.21804298169796],[14.323615403233315,41.2178311377488],[14.323704763362493,41.217637936482866],[14.323794462474236,41.2174582343988],[14.32386859251542,41.217270236935825],[14.323972550758652,41.21699984317226],[14.324212972079897,41.21679513775929],[14.32432565529254,41.21664136257103],[14.324519107047115,41.21632630972245],[14.32455647136348,41.21627987925072],[14.3245783663851,41.21625267309386],[14.324707249491677,41.21609251961169],[14.324895241074223,41.21596676045147],[14.325047620328402,41.215815641510105],[14.325075133596494,41.21578737346897],[14.325300782565725,41.215529328914336],[14.325496191206014,41.215412222184966],[14.325714320790883,41.21522656125098],[14.325817946392428,41.21511802955547],[14.32589420883344,41.21503815606638],[14.326044321195718,41.21492316827581],[14.326194871290902,41.2147586375606],[14.326368093509641,41.21456154348992],[14.326411658875664,41.21447399093955],[14.32655804443644,41.21423053572322],[14.326584272663693,41.21418691240614],[14.3266431152496,41.2140401312977],[14.326744307642421,41.213873389047265],[14.327159190693644,41.213908163148645],[14.327969484678627,41.213042318200365],[14.32829209811762,41.212968826864305],[14.328684938659794,41.21310814650668],[14.32913468168833,41.213433880150454],[14.329226710018975,41.2137221943406],[14.329007897601933,41.214146473917104],[14.328718102030063,41.214623552545305],[14.328245893252548,41.21524864880921],[14.327883015938207,41.21571562059895],[14.327543706485471,41.21628954091544],[14.32743146973287,41.21666834870047],[14.327294885262937,41.21719685415299],[14.327204541295643,41.21784473531114],[14.327305330254815,41.21849724581904],[14.327159764435583,41.21907117357489],[14.32654425125327,41.21941932555313],[14.326267363743836,41.21967974855543],[14.326222648810077,41.21971698302977],[14.325843893548868,41.22003238641141],[14.325786512894737,41.220080169757416],[14.32552144109728,41.220376051355125],[14.325070054920822,41.22013139335076],[14.32495795497398,41.220065376557216],[14.324666183971713,41.21989354729027],[14.323942079958792,41.21958503538231],[14.323262949967436,41.219499481507334],[14.322884502418821,41.21974157209352],[14.322828492455747,41.21977712948945],[14.322746541670993,41.21982950198009],[14.322360538395056,41.2203335554623],[14.321995590894971,41.2208861191477],[14.321869477663512,41.221580679380075],[14.321585729491936,41.222453590916565],[14.320924051707253,41.22309643687071],[14.320273293546784,41.22361723299136],[14.320509379588586,41.22387186845008],[14.320245491913878,41.22410016529416],[14.319702843139412,41.22456644458864],[14.31916068228807,41.225185748754924],[14.31789846090566,41.22599593273369],[14.317344585917201,41.226489732218155],[14.316909867639852,41.226991507564975],[14.31657671457068,41.226853884091256],[14.316137777496149,41.22671665961332],[14.31583976905101,41.22667193601584],[14.315485348761191,41.226607796039076],[14.315422258901942,41.22659673535205],[14.31464917638056,41.22649298598379],[14.314109931658068,41.22663498689598],[14.31406895638642,41.22665497529354],[14.313738795361695,41.226818710172125],[14.31309978548371,41.22737493137072],[14.31242014219181,41.22848670982268],[14.31164605543114,41.229454302076306],[14.311312634863494,41.230635569566786],[14.310936537679922,41.23111661660807],[14.310444319781187,41.23107636338041],[14.309875656684964,41.231021631390306],[14.309464572894965,41.230922816381664],[14.309340554469532,41.23089331509951],[14.309242786674654,41.230965382994235],[14.308951235326989,41.23117619533291],[14.308750663207864,41.23132123127084],[14.308679612466834,41.23141954355793],[14.308303018939338,41.23194061451727],[14.307796509756963,41.23245917250757],[14.306873115960048,41.23295650811506],[14.306118334753387,41.233180432080204],[14.305770304891798,41.23308091183569],[14.305540675178932,41.23301524740911],[14.305440760228938,41.23298667628321],[14.304780141769754,41.2332872917982],[14.303274122336507,41.2336134409543],[14.302825739950118,41.234196810240945],[14.30241006820469,41.23516580156342],[14.301613826306905,41.235945292789715],[14.300444596385418,41.23624811442919],[14.300391768810082,41.23626179585475],[14.30015440212239,41.236323272549704],[14.298551817550903,41.236608811250484],[14.29672352894176,41.236868714205116],[14.294824481769824,41.23702832312278],[14.293306244323416,41.2372513778971],[14.291903920460777,41.23782017968056],[14.291843800435474,41.23786264673051],[14.290617979319617,41.23868518500814],[14.29028102997445,41.239075609153076],[14.289796685409543,41.23963681421453],[14.28912015967384,41.24041520315998],[14.28789324922366,41.24122795480395],[14.287633916503262,41.24138592945885],[14.286343750413314,41.242172570855644],[14.28532675317126,41.24252097660976],[14.283922726479277,41.242959976968905],[14.283385381210467,41.24312798396787],[14.28190191098423,41.24351583762355],[14.28075259929048,41.243897319216785],[14.279769276134045,41.2442756373563],[14.27858049216595,41.2450640255186],[14.277699978836205,41.2458022223056],[14.276556144299203,41.24672356127865],[14.275218805643766,41.24781582958068],[14.274037557449788,41.24884690828736],[14.273940816649983,41.248932366979616],[14.273662816160554,41.24918124180369],[14.273582590123436,41.249252649825785],[14.273503696920582,41.249323117896715],[14.273424806898106,41.24939358306832],[14.273344659590316,41.2494651304591],[14.272868453533908,41.24989091369599],[14.271796922424732,41.25080438650962],[14.271602230661872,41.25101588301425],[14.271289243459462,41.2513228408296],[14.270890632004049,41.25171476348823],[14.270312822420768,41.25219592570587],[14.270184642573549,41.2522917715343],[14.269915541631514,41.25249325392547],[14.2696355443211,41.252978737875964],[14.268588069790743,41.25272072637497],[14.2680160106336,41.2526164368183],[14.267420766743301,41.252585226499406],[14.266774516110326,41.25259686039451],[14.265459606918716,41.25285974622413],[14.264311220860693,41.25304294721674],[14.262615109706047,41.25320171964053],[14.261684983620453,41.25311381184626],[14.261149845747184,41.25294027590407],[14.260167700578215,41.253187835217446],[14.259962463138171,41.25343582242728],[14.259448559533245,41.25355389583585],[14.258815002850804,41.25353789192525],[14.258240274731238,41.253771289137156]]]}}]}
