{"type":"FeatureCollection","metadata":{"code":"061038","referenceDate":"2026-01-01","sourceDbfExportDate":"2026-02-18","upstreamArchiveUrl":"https://www.istat.it/storage/cartografia/confini_amministrativi/non_generalizzati/2026/Limiti01012026.zip","sourceManifestSha256":"70ac8256c4785dc6ed2814c32b6965ae76f9161b51abaa1660059e1c6cbd8ca6","license":"https://creativecommons.org/licenses/by/4.0/","attribution":"Istat, Confini delle unità amministrative a fini statistici al 1° gennaio 2026, versione non generalizzata.","modifications":["Converted from WGS 84 / UTM zone 32N (EPSG:32632) to RFC 7946 WGS 84 geographic coordinates.","Converted from shapefile to per-municipality GeoJSON without geometry simplification."]},"features":[{"type":"Feature","id":"061038","properties":{"code":"061038","name":"Gallo Matese","alternativeName":null,"regionCode":"15","regionName":"Campania","territorialUnitCode":"061","territorialUnitName":"Caserta"},"geometry":{"type":"Polygon","coordinates":[[[14.204853256489946,41.49993407618482],[14.203610137153316,41.49970688377799],[14.203388410350968,41.499684812234875],[14.202677586531967,41.49961427959689],[14.202173025475911,41.49966416479519],[14.20168671225134,41.49952851804553],[14.201576251137098,41.499497668827935],[14.201410896206314,41.499307097770036],[14.201222601492445,41.49905455523292],[14.201007277714595,41.49887084995228],[14.20074538020598,41.4988061139825],[14.20014603029582,41.49875675889853],[14.199153718146519,41.49869324242547],[14.198746376837233,41.49866716648222],[14.19831869963755,41.4986060836322],[14.197550142567048,41.49849630948749],[14.196688188801943,41.498499346015585],[14.195838156895645,41.49845859938666],[14.195487048096615,41.49844178441182],[14.195191175112425,41.498427621625154],[14.194997026093272,41.49843477300728],[14.193609150837474,41.49848576612781],[14.193187431326857,41.498491541697604],[14.192326239914697,41.49850332999776],[14.191187309166038,41.49864763375837],[14.191054809539878,41.498664419529334],[14.190818516610978,41.498396022044595],[14.19064780892117,41.49777354403176],[14.190661434769622,41.49726432866855],[14.190667586738467,41.49703441490707],[14.19079272309787,41.4964660779541],[14.190699005917452,41.49616979900375],[14.190643066138444,41.49599603753671],[14.190292047216987,41.495735861736065],[14.190264893374156,41.495715709352936],[14.189867373710332,41.4957938405061],[14.189699765006981,41.495826811461164],[14.188858504530282,41.49613946271804],[14.188347714894599,41.496301549628],[14.187679644370101,41.49651688877921],[14.187339235166608,41.496643784666524],[14.187162043443248,41.49670982280701],[14.187096884239377,41.496734119961104],[14.187060815787587,41.49674757102174],[14.186607857465402,41.496916347638894],[14.185476499721606,41.49742226760058],[14.184820360064249,41.497064806081895],[14.184475245516124,41.496909344912176],[14.184039568352837,41.497221638673174],[14.183384332476825,41.49689863354205],[14.182868167038047,41.496590857800115],[14.182790193606099,41.49654436328478],[14.181975617239148,41.49665768806569],[14.181430562022824,41.49678547128135],[14.181359852000478,41.49680198438731],[14.1807854031723,41.49693637524619],[14.179717177658183,41.49712901088493],[14.178996662017179,41.49719391820302],[14.17892390331079,41.4972005236205],[14.177976474506757,41.49724802145548],[14.176932844458802,41.49750209687645],[14.176219705498415,41.49793941445168],[14.175697596650762,41.498440129110676],[14.175114247892044,41.49908314509747],[14.175028698163075,41.49919132766712],[14.174809874524206,41.49947050141404],[14.174658685087335,41.499981486716],[14.174067412876378,41.50041778404966],[14.173881999487266,41.500608582945425],[14.173788336721822,41.50070496486958],[14.173397652689838,41.500353464673886],[14.172759015483782,41.499671040465905],[14.172413802690219,41.49918309602958],[14.172206348884874,41.49888976536637],[14.172181990661347,41.49885529387648],[14.171141585583406,41.49781285273954],[14.169995050792732,41.496926852089224],[14.16991972090406,41.496868648978214],[14.16818812786661,41.49550618202835],[14.167302342793532,41.494416217885195],[14.167118692745541,41.49366388454557],[14.167007860473243,41.493209589846735],[14.1669797767534,41.49268751769411],[14.166939906771983,41.4919387383881],[14.166933000430319,41.49185442052209],[14.166860619636436,41.49097068244207],[14.166855249848714,41.490905119696244],[14.166826287903005,41.49055150314788],[14.16681575108575,41.49042284433711],[14.166615695224447,41.48987755587593],[14.166457596536688,41.48944662383654],[14.166445333280821,41.48941319709983],[14.166957877561678,41.48854834089765],[14.16706352638408,41.488378188139855],[14.167309568468836,41.48798218586671],[14.16743542220728,41.4877795824515],[14.167498377909244,41.487682215051045],[14.167219674205526,41.48698992438451],[14.166367864926672,41.48604059034667],[14.165547175869833,41.48471361510516],[14.165616718073766,41.483900214474474],[14.165700128075317,41.483063689034665],[14.16568473042981,41.482344154038024],[14.165659747798815,41.48019744375418],[14.165651812625427,41.47951537348605],[14.165650455301874,41.479398748643774],[14.165911208548327,41.47937354421464],[14.166202550573816,41.479345382482386],[14.167008362817425,41.47901649664907],[14.167791079713096,41.478688645653506],[14.168850754023454,41.47834379265215],[14.170088187786902,41.4780044518178],[14.170893779576538,41.47772955417536],[14.17159405015652,41.477522438003845],[14.17211986479517,41.47732316454724],[14.172962060129981,41.47713213493666],[14.173850574343003,41.47691201735563],[14.175399916741046,41.47656303116894],[14.17621766980037,41.47631907523126],[14.176614758931105,41.476157101031156],[14.17711972285723,41.47599025704528],[14.17797627795488,41.47551046834423],[14.178821680451842,41.4750041472308],[14.17935288439777,41.474629051427485],[14.18017217008877,41.474245441590696],[14.181157419150425,41.47404789309772],[14.182511170675333,41.47399575552432],[14.183417185669386,41.474117125663106],[14.18349051333846,41.47412705293671],[14.184737692724852,41.47406169224711],[14.18477273290326,41.474054514984346],[14.18562636152875,41.473881984782146],[14.186449534242128,41.47419319104011],[14.186615393686566,41.474255903396866],[14.18681502511012,41.474389658624254],[14.187257276951852,41.47468601957673],[14.18796693770616,41.47489701117784],[14.188675870108455,41.47510801324023],[14.189016752193146,41.4750956360717],[14.189683709145482,41.47507141892902],[14.190931395817783,41.47485291453697],[14.192194998464938,41.474413103096616],[14.19296685773007,41.47391452410428],[14.193562726011493,41.47318982159169],[14.194072599400847,41.47268058447054],[14.194547883076009,41.47189831541335],[14.194854083899996,41.47145232161914],[14.196057556881726,41.47102868774419],[14.197200326868277,41.47058529862203],[14.198227913700704,41.469899533398035],[14.198323751803954,41.46982248366318],[14.198927185763235,41.46933666712045],[14.19965451901679,41.46861049263792],[14.200478673398571,41.46789792041546],[14.20098917510536,41.46726708267403],[14.201355549765752,41.46673280891141],[14.201731126169314,41.46623111613659],[14.202157116172351,41.465701628921046],[14.202631650507906,41.465126439138054],[14.203027300019421,41.46425773406647],[14.203564374412299,41.46331507637512],[14.204002289332685,41.46276411261485],[14.20416161267681,41.46256324726687],[14.204381315880754,41.46225889338207],[14.204830137281741,41.46163713243708],[14.20535486501513,41.46082106799589],[14.206095388778625,41.45998171199902],[14.206510325293019,41.45938219917569],[14.207202323177963,41.45869359144939],[14.207612716369493,41.45823381827381],[14.207871601034107,41.457731417424455],[14.20811809609902,41.457130529236316],[14.208533111927395,41.45648599844321],[14.20897117034264,41.455858416799146],[14.20958940724391,41.45527665376597],[14.210216727557304,41.45491056847789],[14.21054050888234,41.45476982109005],[14.210604088960375,41.45454636173659],[14.211333704794079,41.454495205250055],[14.211924616497932,41.45434683741732],[14.212323098737022,41.45400011388194],[14.212472525847696,41.453457669862765],[14.212502159600207,41.45337175450421],[14.212559285199669,41.453206143972345],[14.21273511698607,41.45329921679399],[14.212856880198618,41.45336366994513],[14.213392262720149,41.45315310942973],[14.213710954300097,41.45302776794064],[14.214410815161331,41.45298209011437],[14.214849290882873,41.452953515410634],[14.215867982144111,41.45289820477603],[14.217209798415121,41.45278766480556],[14.218233294139816,41.45233599746036],[14.218306564685987,41.45224845410743],[14.218482155136455,41.45203912311853],[14.218544011057334,41.45196554109814],[14.218767002634358,41.45169952912989],[14.219151335849936,41.45076824880006],[14.219397570656223,41.45008183546875],[14.219517029847436,41.44995866583459],[14.21988170763171,41.4495826557438],[14.22072274113565,41.44950804310096],[14.221871907857592,41.44937955493803],[14.222572207662203,41.44934437338067],[14.22282977532771,41.44933143305485],[14.223883084971307,41.4494005169987],[14.224782698156462,41.449408863268694],[14.225032686330671,41.449411181862914],[14.225810911208512,41.44939824704536],[14.22648146117472,41.44941279712566],[14.22656099640156,41.449388728927694],[14.226675556437623,41.4493542322074],[14.22704510659593,41.44924298872966],[14.227208089166929,41.44932454447784],[14.227556279575781,41.449498771199764],[14.228076306277652,41.45008726111138],[14.22867634714283,41.4506022887627],[14.228979213383326,41.45086087397804],[14.22993987731177,41.45148779113102],[14.23092572979799,41.45218556998119],[14.231261451320414,41.452437321967544],[14.23191036202687,41.45292392215423],[14.233359076547119,41.453870644410095],[14.234417735528408,41.45452456219868],[14.235298270655166,41.45505606089834],[14.235964806980444,41.45534523887127],[14.236622220594244,41.45555831387514],[14.236955181057878,41.45579611571544],[14.237119828542568,41.45591369953191],[14.23756944929021,41.45644733588324],[14.237602065890357,41.45648603822836],[14.237637522586896,41.4565281553227],[14.237863185112582,41.456811566100434],[14.238128461023091,41.456956984746576],[14.238244189689683,41.457019238031066],[14.238916667137353,41.456853472161264],[14.239478325811557,41.45692684843435],[14.239869151582942,41.457237612778805],[14.24042961017021,41.45750009934216],[14.241586869318914,41.45778931996986],[14.242554676776574,41.458001672397735],[14.243629625730414,41.45828115458934],[14.244549634445496,41.45838313183471],[14.245424850775917,41.458356629068575],[14.246088768802313,41.45885292234283],[14.246673995967708,41.45935376955583],[14.246774923573408,41.45944014341548],[14.246907581368676,41.45955370034881],[14.247097112564571,41.45971224927779],[14.247489215143624,41.460040252582495],[14.24768965310347,41.46020664630684],[14.24849913494212,41.46077278207174],[14.249720748193921,41.46165318415225],[14.249797686304996,41.46170984264397],[14.250647363506054,41.46233548381114],[14.251753590377065,41.46300957254397],[14.251882395640353,41.463097261820046],[14.251960900722406,41.46315072757562],[14.25260855117107,41.46359160891837],[14.252986314444083,41.46383470870297],[14.253678665428891,41.464280828175255],[14.253769275558945,41.46432137823574],[14.253969142282875,41.464410819590256],[14.254251107312609,41.46453700030649],[14.254655085274425,41.46471776975623],[14.25614482022412,41.465387740570904],[14.256202922890374,41.465426136545524],[14.256905007575757,41.465888554964806],[14.257569930170089,41.466515290441045],[14.258328912859774,41.467065673917936],[14.259030466811652,41.46747015190231],[14.259862090577693,41.46803970691142],[14.260132616388752,41.46816474523919],[14.26048228980278,41.46832636435894],[14.260911698914468,41.468437208213345],[14.26090403588846,41.46852583600834],[14.260815183736561,41.46955346160686],[14.261724422847708,41.469538768478046],[14.262646461079497,41.46964501993062],[14.263191771700205,41.4701241583053],[14.263663893894917,41.47069666542119],[14.264725058026501,41.471116112907715],[14.26552666878874,41.4712683770954],[14.266229730005207,41.47152418756425],[14.26700895021381,41.47149290872828],[14.267547878652575,41.47145014632493],[14.268163474745764,41.47203857580422],[14.268760382189006,41.47225872055386],[14.269607428476204,41.4724358789473],[14.27033525203735,41.47281206765879],[14.271095235556038,41.473326308284165],[14.271569077640793,41.47380869050041],[14.272067572844001,41.4742809203134],[14.27248040171106,41.474923651103396],[14.273092717225127,41.47571925744484],[14.273526926003964,41.47650503626585],[14.27362036234434,41.476621437393],[14.27366763373129,41.47667911553586],[14.273904706787137,41.47697381008571],[14.274250514759304,41.47720548838778],[14.27535729489765,41.47709222893577],[14.275448829045667,41.47708286133366],[14.27623455269104,41.47695181419257],[14.276528772938654,41.47690264752979],[14.27784958818801,41.47663030618063],[14.278737957168676,41.47644988917861],[14.279128932892284,41.476463844238346],[14.279288716460773,41.476469546811],[14.279610438224314,41.47660778880484],[14.279639633990852,41.47610228755849],[14.279478911693438,41.47551549737963],[14.279288324669484,41.47538923395007],[14.278637603909848,41.475356018797285],[14.278498742290605,41.47534905716965],[14.27801967743279,41.47525406159802],[14.277871854574926,41.47511383981735],[14.277712380935808,41.47496211897794],[14.277763211449823,41.47465817919689],[14.278331075646465,41.474057072490766],[14.27907069848507,41.47345015942317],[14.279676590394114,41.472814587130195],[14.28018583456966,41.47224198350523],[14.28104407666611,41.471554280189665],[14.281445260411108,41.47096863175644],[14.281895733289463,41.470335707368484],[14.282748343713672,41.47008488908822],[14.28367154300992,41.46994783659331],[14.283856113458738,41.4705515159378],[14.283981892226643,41.47110388205632],[14.284019354281407,41.47124360899898],[14.284068924554953,41.47142846637889],[14.284097814124479,41.471535179758554],[14.284166243633614,41.471833609916125],[14.28428229963329,41.47210434370684],[14.28434049183354,41.472123392831655],[14.284808668323002,41.472276646263865],[14.286076206230563,41.47237128578461],[14.286483435954327,41.47241103584011],[14.286916182153721,41.47246843673261],[14.287023859522101,41.47247981629216],[14.287248668043642,41.4725063031135],[14.287384160401121,41.472541670086045],[14.287703092037216,41.47262489295792],[14.28831094915736,41.472799436402966],[14.288565759585076,41.472888595739626],[14.288668237542424,41.472924375121764],[14.28876560336373,41.47295855625978],[14.288848877218443,41.47300300656038],[14.288934088689263,41.47304849370179],[14.289014447195704,41.4730913623769],[14.2891087334485,41.473141988350115],[14.289202935439455,41.47319259202085],[14.289276951292083,41.47323242105593],[14.289370833803261,41.47330912936714],[14.289448070736348,41.473372299797454],[14.289526711825928,41.473436584783514],[14.289609813013074,41.473504523519836],[14.289661692716022,41.47356240909262],[14.289722891558359,41.473630677200674],[14.289784093065164,41.473698946951764],[14.289845293512542,41.473767216717086],[14.289869725419477,41.47379445769843],[14.289889112970544,41.47384473264816],[14.290009905602362,41.47416152416772],[14.29005279800529,41.47461417986469],[14.290157796212872,41.47491092303452],[14.290499747630783,41.475206812862325],[14.290578549449858,41.47527556584428],[14.290618781528329,41.47530839060922],[14.290662246490887,41.47533301955867],[14.290757942143905,41.47538717480477],[14.290858342965544,41.47544409644881],[14.290947353887832,41.475494456418915],[14.291036367257467,41.47554481530446],[14.291127357975693,41.47559619744661],[14.291216372738303,41.47564655522333],[14.291305387489944,41.475696911128644],[14.291396344194078,41.47574834053363],[14.291488162966555,41.4758004161053],[14.291577172864315,41.47585070719667],[14.29161917563217,41.47587446874082],[14.291658798705189,41.47590929643131],[14.291801113223645,41.47603482925855],[14.29187539660885,41.47610059379093],[14.291945486657987,41.476162687752996],[14.292015690153374,41.47622486466311],[14.292090076542515,41.476290771042464],[14.292141524583458,41.47633633704256],[14.291515643760476,41.47714697513165],[14.29016939313508,41.478245886868166],[14.290026128490796,41.47834332708298],[14.289829569243192,41.478477015169084],[14.289033424404638,41.479018496031905],[14.288930681725232,41.47905568062023],[14.288775087893367,41.47911199416088],[14.288182104562054,41.47932663535721],[14.287856584091413,41.47944441427986],[14.28778107615758,41.479471731102045],[14.287579541091532,41.47954466537001],[14.287351261619786,41.479602972853776],[14.286521458194917,41.479814007008],[14.28619987499566,41.47987835103862],[14.286011948194215,41.47991595236978],[14.285669645053693,41.47998444040449],[14.285381442845837,41.48004210324772],[14.284997468771445,41.48043045721758],[14.284789027798316,41.48064106481102],[14.283690661497328,41.48136688089587],[14.282581300757965,41.48196264452906],[14.281582410824896,41.48245878142627],[14.281550319472318,41.48255771975714],[14.281521557018745,41.48264640546377],[14.281494195702676,41.48273077462807],[14.281371859586816,41.48310766933139],[14.28105976717295,41.48408532908563],[14.280643340274116,41.48504078332754],[14.28012241025251,41.48563193986947],[14.27946985361776,41.486238640139106],[14.279419471556812,41.486285481626304],[14.279130701922297,41.48637829759001],[14.278786477452938,41.48622687063095],[14.278726257386019,41.48620051004819],[14.278567031869848,41.4861525663064],[14.277613761299635,41.48586670288416],[14.277555156136382,41.48584912791563],[14.275939475522911,41.48582893063411],[14.275663329018382,41.48586300901689],[14.274541084618013,41.48600153868358],[14.274487441045208,41.48600811444561],[14.272941324428654,41.486052326336626],[14.272338422484696,41.48598468771885],[14.272115929119012,41.485959731099626],[14.271687502512172,41.48565078382553],[14.270574965828784,41.485634436450134],[14.268308102213318,41.48584211309076],[14.266736286823349,41.48573018432023],[14.266656125320504,41.48572431138619],[14.265092196134573,41.485310078360364],[14.264021034665333,41.4847200498597],[14.263317422572865,41.48430671606188],[14.262588711308803,41.48434023751111],[14.262523538389166,41.484349719670625],[14.261831885942936,41.48445138348913],[14.261052865329598,41.48417259486734],[14.260984569484817,41.48414815360099],[14.260215584376814,41.48437698145874],[14.259420136242067,41.48478706787833],[14.259092214448707,41.48477782420104],[14.257839541258276,41.48474250482356],[14.256418536390921,41.48430797959202],[14.25509384430886,41.484004192348216],[14.254661697089713,41.484084170201506],[14.253640779856926,41.484273197968136],[14.25285608695452,41.484372262834015],[14.252297905654263,41.48444272850185],[14.250918410477608,41.484478890657684],[14.250305606055596,41.48450718229722],[14.249652103542278,41.4845402691646],[14.249421803987891,41.484551895092785],[14.24862778979819,41.48495284127493],[14.247694809941377,41.485657237559444],[14.247164876487435,41.48596056980208],[14.246650610913834,41.48692938209311],[14.246631834924885,41.48699756065578],[14.246592352397036,41.48714092747051],[14.246486326499952,41.48752407608145],[14.246387220222216,41.48788221598504],[14.24595830840523,41.48884262975722],[14.245661912593373,41.48915386839428],[14.245623573918675,41.48919410986156],[14.244890894476523,41.48996277151892],[14.244412079426795,41.49088494267911],[14.244249579987144,41.491545079400446],[14.243260198123256,41.49207646149413],[14.242403455204476,41.49262878230036],[14.24174882029865,41.4933113994153],[14.241488889234873,41.49401199575419],[14.241599345461507,41.49478568515042],[14.241673032174127,41.495660094291736],[14.241625280411697,41.496661582711354],[14.240745764167874,41.49719692334067],[14.240458234510639,41.497210978354026],[14.23931817838323,41.4972666540866],[14.237697917054664,41.49756116971931],[14.236355949554284,41.497590984470854],[14.23531114857286,41.497688199517064],[14.234902916392079,41.497708059663296],[14.233813442000933,41.49776105404475],[14.232337934512147,41.49790490639976],[14.231599590209054,41.49798881539593],[14.230759133294766,41.49808420792662],[14.230682317061104,41.498093105644955],[14.22969721494979,41.49828192400439],[14.229385889244538,41.49828624171878],[14.228704034673212,41.49829569552193],[14.227903225606974,41.498008091268126],[14.227405795568645,41.497603151562885],[14.226688502196394,41.497469273685404],[14.226435728025454,41.4974856456327],[14.225759069004857,41.49752945114695],[14.225513241058048,41.49754533441996],[14.224935244232872,41.49763930465954],[14.224360098972612,41.4977328252001],[14.223973650072516,41.49765822297858],[14.223703698498818,41.49760615344901],[14.223621066482478,41.49759016892164],[14.223058525225463,41.497481585565005],[14.221793066852833,41.49738467079727],[14.22165779692603,41.497374443822984],[14.220959562153798,41.49732098246408],[14.220819563003612,41.49731027203757],[14.220365580391132,41.49727558660972],[14.220117373926849,41.49722041484375],[14.21984750243597,41.49716041622842],[14.219660996210468,41.4971186515119],[14.218800862854524,41.496878643651364],[14.21864280725849,41.49684899795171],[14.218202438046411,41.49676633012588],[14.218042454420322,41.49675888961694],[14.2170778516531,41.49671395870254],[14.216509448927193,41.496770244497],[14.21632061647958,41.49678974936527],[14.216283056322325,41.49679599769683],[14.216044837675959,41.49684055423318],[14.215502929429755,41.49707817477217],[14.214600089922227,41.49746132663849],[14.213121654952683,41.49783913290313],[14.21186545699265,41.498270349255655],[14.211171903983656,41.498508417438245],[14.210416683923807,41.49861024820928],[14.209894530333862,41.49853369697306],[14.209268526569812,41.49844188426975],[14.208046870477672,41.498433727160894],[14.207929109416229,41.49842247820968],[14.207613790163332,41.498391061888924],[14.207184403772375,41.49834741610247],[14.206207142106358,41.498073517947304],[14.20613390969106,41.49805299231639],[14.205364088959287,41.49830850284453],[14.205221321276367,41.499224265788804],[14.205126625296804,41.49940688488678],[14.204853256489946,41.49993407618482]]]}}]}
