{"type":"FeatureCollection","metadata":{"code":"061015","referenceDate":"2026-01-01","sourceDbfExportDate":"2026-02-18","upstreamArchiveUrl":"https://www.istat.it/storage/cartografia/confini_amministrativi/non_generalizzati/2026/Limiti01012026.zip","sourceManifestSha256":"70ac8256c4785dc6ed2814c32b6965ae76f9161b51abaa1660059e1c6cbd8ca6","license":"https://creativecommons.org/licenses/by/4.0/","attribution":"Istat, Confini delle unità amministrative a fini statistici al 1° gennaio 2026, versione non generalizzata.","modifications":["Converted from WGS 84 / UTM zone 32N (EPSG:32632) to RFC 7946 WGS 84 geographic coordinates.","Converted from shapefile to per-municipality GeoJSON without geometry simplification."]},"features":[{"type":"Feature","id":"061015","properties":{"code":"061015","name":"Capua","alternativeName":null,"regionCode":"15","regionName":"Campania","territorialUnitCode":"061","territorialUnitName":"Caserta"},"geometry":{"type":"Polygon","coordinates":[[[14.306434328949436,41.14342657867579],[14.305204502364246,41.143654433492514],[14.304539746014276,41.14393500838579],[14.304186061289977,41.144084284952726],[14.3039830103384,41.14416999337703],[14.303853135269843,41.14424430110028],[14.303160023982173,41.144640890521096],[14.302918546223019,41.144779037309945],[14.302784986927952,41.14485551976725],[14.30274889986487,41.14488559775444],[14.301751123195995,41.14571347583891],[14.301653830737601,41.14580169278329],[14.30144558575927,41.145990499289],[14.300929004783955,41.14645889107941],[14.300872369380507,41.14651025328246],[14.30032400830956,41.14692955274345],[14.299694545512507,41.1474108732618],[14.29910736561263,41.14773504980203],[14.298424408662214,41.14810866639612],[14.298036330824852,41.14822559537353],[14.297931082653411,41.14825766450047],[14.29717295987611,41.14848864078312],[14.297061353079624,41.1485226426758],[14.296431328364973,41.148556193769004],[14.295963349133713,41.14857777238183],[14.295120048069373,41.14845910095071],[14.294668074741425,41.148389081494535],[14.294597499219398,41.14837813085363],[14.294553021868701,41.148226618585305],[14.294423235286155,41.14778450680505],[14.29446548655597,41.14723789175248],[14.294663438606243,41.146517552638755],[14.295049185465942,41.14606762933162],[14.295578087188579,41.14560210678059],[14.296022783235324,41.14534753775941],[14.296262485611352,41.14524645376252],[14.296750610771705,41.14514293051958],[14.297707481814035,41.144806197149464],[14.299024157753136,41.14436284392461],[14.300137683146383,41.143901857359744],[14.300543724056224,41.143719892616694],[14.301131362303003,41.143456569754804],[14.301526239239836,41.143279596619685],[14.30277365769695,41.14257832071243],[14.303937366461055,41.14181787702989],[14.304803416477784,41.14101264854531],[14.305288789829945,41.140166474408566],[14.305416293900178,41.139386352383404],[14.304841367706933,41.13854414314998],[14.303799280095213,41.13794407106789],[14.302524528849089,41.13786338762879],[14.302262952026876,41.137947380298606],[14.30197745967836,41.1380390510089],[14.301198393876488,41.13828920192719],[14.301039106235262,41.13836269313854],[14.30088844627682,41.13843225057647],[14.300670402029859,41.13853290351846],[14.300613213455113,41.138559758312304],[14.2997138024186,41.138974392170496],[14.299471231614215,41.13912150643278],[14.2987175873794,41.13957853157766],[14.298561924510205,41.13960527512216],[14.29809664717668,41.139685220297984],[14.297249370394168,41.139830793418675],[14.295668484615751,41.139498575161795],[14.293950712843223,41.138668465112836],[14.292974711763133,41.13734503443063],[14.29265651732024,41.13657989307266],[14.29262572112716,41.13650584740224],[14.29191277754181,41.13526929694393],[14.291158923317067,41.13469677779183],[14.291001918949965,41.13457752750003],[14.289955849684425,41.134146228559395],[14.289860910629214,41.13410646941541],[14.289825624392764,41.13409214577123],[14.289412956659316,41.133921475936546],[14.287583538577595,41.13341152653835],[14.287157421330171,41.13338382882544],[14.287115499499745,41.133381093924804],[14.286835394354195,41.1333629004855],[14.286710807993607,41.13335478696155],[14.286083522238476,41.13331401522016],[14.286012260473829,41.13331637251995],[14.283628933524668,41.133395433058425],[14.281531534950732,41.13338384020459],[14.279410716706009,41.1333958166074],[14.277124280885126,41.133365819914886],[14.274990907531704,41.13336027704777],[14.272645006075686,41.13323840882135],[14.271121681698315,41.13312825599479],[14.270392141480047,41.13306044368911],[14.270181416028711,41.133040853771554],[14.27014344951993,41.13304633896572],[14.270062037632822,41.133058093637366],[14.269678927965455,41.133113430338014],[14.269515449374868,41.13295888002393],[14.267394651454929,41.1326080158817],[14.26717207403374,41.132571186690605],[14.265342148573147,41.132173427356655],[14.263166752224363,41.13178246840377],[14.261197376363159,41.13169796621519],[14.26098766782138,41.1316886812991],[14.260081406691093,41.13172626225771],[14.258924127764159,41.13177421383472],[14.257431829998435,41.1320701965873],[14.257385479726619,41.132084750846786],[14.257301464139628,41.13209605200467],[14.257143778251551,41.1321606465779],[14.255472494643001,41.13284525282596],[14.255400657887304,41.132872428474485],[14.25530280817027,41.13290849249361],[14.255238709219,41.13293207210851],[14.253769829711409,41.133477507483164],[14.252392376772335,41.13390600767467],[14.252194904121355,41.1339674369245],[14.25198855206549,41.13403161344964],[14.251226189099146,41.13407124077839],[14.250919286207655,41.13408718697396],[14.249831049388101,41.134143747106464],[14.248045121498482,41.13408129548437],[14.246318726450752,41.133926083909266],[14.244580120136673,41.13390644142993],[14.242579316835263,41.133790693032786],[14.240628371533495,41.13360963326302],[14.238377959136828,41.13340616771312],[14.236094237414195,41.133064638020564],[14.234845909912394,41.13284610895834],[14.234791994911165,41.13283658369252],[14.234246372262398,41.13274114557363],[14.233788472828344,41.13266104578369],[14.232785673330268,41.132377216197156],[14.232089806866233,41.13218025231401],[14.231033708383178,41.131787201312065],[14.229790642311661,41.13119559432963],[14.2287859668748,41.130485076155296],[14.228384443536623,41.12961595875134],[14.228349216922664,41.12953962137193],[14.228329767472129,41.12949746509527],[14.228309423871844,41.129453424671425],[14.22833115609473,41.12937883991586],[14.228464255069195,41.12892205844625],[14.228546073090316,41.128641321344205],[14.228595244083598,41.128472609461326],[14.228648795850269,41.12841744176617],[14.2292333403965,41.12781335654388],[14.230530520808625,41.12702958249012],[14.2305803371789,41.126982399473086],[14.231539883781359,41.12607396824228],[14.231674342400517,41.12594667158738],[14.232146505235166,41.125484004585665],[14.232332364392354,41.12530193927195],[14.232550877674521,41.12508775200471],[14.232571636633807,41.125067310585166],[14.23261379937357,41.1250260931652],[14.233153878742007,41.1244548797281],[14.233219606938661,41.124385361882275],[14.233530011368153,41.12405705985216],[14.234112598216662,41.123215764941115],[14.234397905818962,41.12236327022607],[14.234533299398919,41.121958694057405],[14.234675708343948,41.12080433454059],[14.234662606073002,41.120599969115],[14.234632118604237,41.12012444863047],[14.234605207732342,41.119704701492495],[14.234548323921084,41.119558720024365],[14.234155288300798,41.11855034458667],[14.234030151132638,41.11842369298956],[14.233944015456194,41.118336408931306],[14.233437383400217,41.117823952193476],[14.233263489107971,41.1176481398584],[14.23309445797809,41.11747774159004],[14.232972194768806,41.11741141190605],[14.232845667763417,41.117343351455915],[14.232688038617354,41.11725851963259],[14.23263365885675,41.11722721903674],[14.232571150485645,41.11719330144331],[14.232379080551237,41.117089037439456],[14.232337758541535,41.11706660593295],[14.232131043753357,41.117023857746354],[14.231445826876673,41.116882150769705],[14.23095064016671,41.11677415835461],[14.230673578957166,41.11671475431645],[14.230630101621683,41.11676799127372],[14.23028251201709,41.11719360945139],[14.230201765578546,41.11729247022362],[14.229562392977295,41.11807526380946],[14.229029323623813,41.11883776306669],[14.228756268183767,41.11977299213695],[14.228492041032196,41.12023352850996],[14.22807472566478,41.12096087840582],[14.227979723767682,41.12111092733416],[14.227521486307706,41.12183586380004],[14.227494176375627,41.12187881093604],[14.227286245535414,41.12220765163164],[14.227223170478123,41.122273985294186],[14.22717929072038,41.12232016118585],[14.226418324314432,41.123120414772764],[14.225554094568173,41.12393139966466],[14.225430224053785,41.124047636337856],[14.22478189949475,41.124531784972724],[14.223632300105516,41.1249351752859],[14.22261231208443,41.125203015641056],[14.222478275061437,41.12523821182653],[14.222418679071957,41.125253932941405],[14.222222577199327,41.125305354671475],[14.22156709236395,41.12544506763743],[14.221439302996485,41.125472493575145],[14.221123534118275,41.12553987210479],[14.220598213655181,41.125680788986465],[14.220446392035354,41.126183294472966],[14.220399656305727,41.12633801615475],[14.220431353993805,41.12659204108505],[14.22055148367252,41.12755550937089],[14.220579555073655,41.12829247088054],[14.219874621309799,41.128486555249076],[14.219003966801436,41.12857113663815],[14.21861018664523,41.12859802229695],[14.218201263884987,41.12812797725989],[14.218162620684717,41.12810088507441],[14.21812698773495,41.128075848377755],[14.217894937231467,41.127910951111204],[14.217865987598088,41.12789037877086],[14.217640891451707,41.12773042106381],[14.217063259659577,41.12731738817049],[14.216372910257519,41.12634520187323],[14.215841382435272,41.125599064849276],[14.215273323205365,41.124822702078625],[14.213812862861342,41.12417238333835],[14.211735041391012,41.12307647750576],[14.211293445331703,41.12284344068714],[14.20890876459498,41.12141446324444],[14.20847800357255,41.12118006869587],[14.20740627341423,41.120597109123516],[14.206214102173991,41.11988242068799],[14.20583863465213,41.119689369402735],[14.20522064398525,41.11937161304106],[14.204357631593137,41.118927862573074],[14.204019136850176,41.118736025718725],[14.202855757897808,41.118076638677614],[14.201357828351105,41.1178771487088],[14.201030592956355,41.11783357174078],[14.200990801317824,41.11782827235863],[14.200671843969442,41.11943645864051],[14.200663247010635,41.119479698614455],[14.200564435818189,41.11997788675201],[14.200533804886582,41.12003993568077],[14.20013257128187,41.12085693122079],[14.200033573332526,41.12105843701333],[14.200011154673078,41.1211040689178],[14.19997159125849,41.12118459018018],[14.199733016950704,41.1217380095746],[14.199422376712322,41.122458845812126],[14.199202166350231,41.122819208479264],[14.198378598658763,41.12416692424101],[14.197926261127472,41.12489825537864],[14.197877489548432,41.12497705885833],[14.197842790350144,41.12503313130542],[14.197815084826972,41.125077797396564],[14.197425689349412,41.12570742662198],[14.197393715351732,41.12581775489035],[14.197291535080158,41.1261717077068],[14.196902657344022,41.12751369147657],[14.196887973140287,41.12756472859463],[14.196871990212033,41.12761996855533],[14.196770222858222,41.12797254732803],[14.19675848826018,41.12801296517458],[14.196639380946852,41.128423228276475],[14.196589902682367,41.12859410125715],[14.196465339742591,41.129043428459276],[14.196217646542623,41.1299368562681],[14.194967516886797,41.12986334367693],[14.193777019804816,41.129793325512885],[14.193181064227042,41.12975807542999],[14.192972735971344,41.129746100065006],[14.192448954015836,41.12971443334517],[14.192372549304228,41.1297098251866],[14.192317750513466,41.12970653177572],[14.189816770602286,41.129555688164366],[14.186571878980613,41.12936464326469],[14.183550651365167,41.12907421155486],[14.1832574045153,41.12904549214194],[14.18132923340186,41.1288566375555],[14.178751150717192,41.128703754766875],[14.17586131648597,41.12858221114039],[14.17372763785255,41.12846601954202],[14.172977485857977,41.12842624902464],[14.17243714487914,41.12830935896712],[14.171888525030994,41.1281522351011],[14.171499930019504,41.128040940943094],[14.170275398980959,41.127780946321785],[14.169516164072457,41.12750450226638],[14.168828296953407,41.12727436653161],[14.16871838078814,41.12724661676004],[14.167723593000213,41.12699545761353],[14.166940140039252,41.12684612784214],[14.166154028675182,41.12680496101302],[14.165926439847118,41.12698624508552],[14.165432978639446,41.12727853266517],[14.164809139451393,41.12763518494009],[14.164681457512573,41.12775833493161],[14.164363657185232,41.12806485108361],[14.164224792827925,41.12834488433371],[14.163923012083409,41.128953446233076],[14.163688434126325,41.1296707253842],[14.163608800586898,41.13020097306188],[14.1634242042705,41.13074945345527],[14.163182395604267,41.13095335426166],[14.162713691418665,41.13134857945868],[14.161643697980951,41.13200436158194],[14.16069559025992,41.13267717132066],[14.160349181752895,41.132847148669285],[14.159836909919335,41.13309850864574],[14.15980130270064,41.13311598028121],[14.15948381449949,41.13327176287248],[14.15848803588551,41.133802656717506],[14.157472779282099,41.134019289677276],[14.156699194445572,41.13397749561324],[14.155496670200572,41.13393241394038],[14.1544017597981,41.13380131596632],[14.154277115058244,41.13377386922238],[14.153284571495293,41.133541000017246],[14.151846047217717,41.133285908457026],[14.150617751121473,41.13307155753814],[14.150491601375455,41.13304954175074],[14.149029176533876,41.13283149473566],[14.147947173770994,41.13269991439085],[14.146758824638995,41.13246505831083],[14.145641462064003,41.13219549953348],[14.144360032052509,41.13179823443421],[14.143941172852914,41.13176947431304],[14.143169581421617,41.13171648978927],[14.141670844770271,41.13150897278872],[14.141402600744362,41.131448602506545],[14.14018600487606,41.131174786475505],[14.13910462396712,41.130993587381745],[14.138377177403182,41.130908466674],[14.137629471986006,41.13082097096695],[14.13632219444556,41.13058682347803],[14.135052354308945,41.130269953005396],[14.133587412693764,41.1301418533189],[14.13314095350215,41.13007172503409],[14.1326727026026,41.129998171351346],[14.131363675772098,41.12982704975632],[14.130509094508549,41.129595129441036],[14.129867026753415,41.1295022540348],[14.12917760590295,41.129470012211954],[14.128332788132083,41.12840035605979],[14.128065405744378,41.1279306263312],[14.128226308330543,41.12752279762104],[14.128444983012054,41.1269219523926],[14.128497762525964,41.1267769278944],[14.12835863488213,41.126472525979054],[14.12810849332367,41.12603896576895],[14.128009230263253,41.12586691509469],[14.127647787424303,41.125221314326936],[14.127302181560509,41.124435462780426],[14.126774572911877,41.123729770932805],[14.126813545180115,41.12356145984688],[14.127124429775805,41.1234260601623],[14.128254978827531,41.123524143835496],[14.128907467656225,41.1236750881506],[14.129526897106404,41.123742986506144],[14.130133123661095,41.12380943537115],[14.130270130123684,41.12335316438968],[14.130326857190315,41.12262137799822],[14.130450793471278,41.12235009410661],[14.130610269743952,41.12200101314949],[14.130793996229821,41.12154265630033],[14.130924716278953,41.12067252257952],[14.130924231772635,41.11979925006051],[14.130958210989666,41.11901445394083],[14.131139422571469,41.117961997502746],[14.131235349789748,41.116998884003124],[14.13108790616464,41.11649229260087],[14.130719270716316,41.116373712753564],[14.129796995500795,41.1163113613573],[14.129326750428334,41.11628282895936],[14.128231757807415,41.116219177240175],[14.12718331976938,41.116265966466514],[14.126576690849914,41.11625423115274],[14.126409080135838,41.11625098740654],[14.125548472848326,41.116183711102664],[14.125439177481816,41.115749570098075],[14.125256096613587,41.11522847326994],[14.124897879482196,41.114418754467714],[14.124480360383664,41.11357757782453],[14.124073349035447,41.11279445335469],[14.123504133177148,41.111743977382126],[14.123060188822446,41.11101651931037],[14.122990652424546,41.110902574620894],[14.122293791638507,41.109655199646284],[14.12197238902062,41.10864317463478],[14.121861803941142,41.108044892427515],[14.122268353473299,41.10788721009403],[14.123236146176483,41.10747636453473],[14.123393913149323,41.10740938798996],[14.124411892514702,41.107030886079166],[14.125274330226807,41.10662328592851],[14.125414707417884,41.10600031680601],[14.125208458866465,41.105406306025266],[14.124988305702136,41.10485342296315],[14.12525211776595,41.104783152047226],[14.126170912093684,41.10460260659047],[14.127233267064245,41.10439315377783],[14.129259216063224,41.10430276753058],[14.129705208572908,41.10477349077228],[14.130332746733883,41.105074101070976],[14.131111945713812,41.10536916367404],[14.13116207520138,41.10538829328531],[14.13131824965379,41.105429560926474],[14.131355181450225,41.10543899368993],[14.131551540472884,41.1054919586486],[14.131700262439708,41.10553080990747],[14.132528019060427,41.10575032643022],[14.13355839461514,41.10570843887276],[14.133647053067047,41.105704833584625],[14.13444852762377,41.10540343678712],[14.134954938518712,41.10503868472762],[14.135494160642159,41.10472014301388],[14.13558996077712,41.10466368452762],[14.13612883634885,41.10448654277276],[14.13669270486263,41.10413313295231],[14.137298733694987,41.103873510262744],[14.137338950475899,41.10385630154068],[14.137865512015976,41.103634638789984],[14.138038223812826,41.103499027298746],[14.138479504610263,41.10315253167044],[14.13877025558324,41.10277041276197],[14.138793013747144,41.10246654603441],[14.138813576759755,41.1021922790037],[14.138699079996346,41.10185977479362],[14.137620232176028,41.10155239820978],[14.137125694577499,41.10147192343646],[14.136911154788988,41.101436934426],[14.136710780556811,41.10140429902351],[14.136413563231752,41.1013559826541],[14.13601533811686,41.10129101829771],[14.134827599526052,41.101056002078046],[14.13328258056337,41.100836935368214],[14.132188172096528,41.1007012720505],[14.131407740955115,41.10029947009403],[14.130809624275836,41.0995744285777],[14.130570467732944,41.09879732940778],[14.130575331105339,41.098432918740265],[14.130586246553715,41.09761721594613],[14.131024974281134,41.09689088608407],[14.13169579743778,41.09653682116356],[14.132662987824949,41.0963678370325],[14.132734137684668,41.09635540288075],[14.134007656463526,41.0963660322416],[14.134898246617922,41.09656931114633],[14.135665667036447,41.09706170540006],[14.136620841132148,41.09782478435863],[14.137304190721885,41.09830741057242],[14.13850234993982,41.09868599421036],[14.138983173770548,41.09873295284442],[14.139798358374385,41.09881258013415],[14.140298793070484,41.09872656449124],[14.140754008993563,41.098648303748995],[14.141561691959664,41.09825013009626],[14.141687980198837,41.098187855858626],[14.142588712046964,41.09761637753594],[14.14279797425174,41.09739369976263],[14.143131868015603,41.09703838476445],[14.143473663625558,41.09650089480846],[14.14383817520753,41.09584535966166],[14.144130619363802,41.09531459569338],[14.144338053709273,41.09499019941996],[14.144437759139072,41.094889504771956],[14.144832296999434,41.09449090733859],[14.14488589312731,41.094444790252915],[14.145422556256499,41.093982815069545],[14.145926329070981,41.093672157740144],[14.147130735898505,41.09362723031255],[14.147366212644757,41.093659478134825],[14.148294594913715,41.09378665312942],[14.148430601221168,41.09383455419009],[14.148690834929171,41.093926341496406],[14.149076326045831,41.09406223722413],[14.15002294549882,41.09460051025374],[14.150656547454554,41.09529236451715],[14.150979057502433,41.09612418726659],[14.150954688333211,41.097057093888644],[14.15078680417008,41.09810448199763],[14.150760109702894,41.09819062401923],[14.150731816740095,41.09828187043765],[14.150714422980837,41.098338001356055],[14.150539192675573,41.09890333693471],[14.15051123574125,41.09899420001492],[14.150376044612882,41.09943344796523],[14.15022730509107,41.099916652199994],[14.149834099132802,41.1008796041035],[14.149538053700526,41.10164913570735],[14.149456439719016,41.10253508221839],[14.14944469139243,41.10337289016018],[14.14973313871712,41.10412072521293],[14.150476089928004,41.104659122113944],[14.151649087061791,41.10516021982161],[14.153348046867043,41.10546216568229],[14.153739909131911,41.10547091378825],[14.15378005807309,41.1054718175496],[14.155157462060828,41.10550254339026],[14.155545210598499,41.1054271574304],[14.155825976105618,41.105372599749586],[14.15613904023046,41.10531172406003],[14.156542350810653,41.105233321722714],[14.156982572273893,41.10510098029317],[14.157774248953368,41.104862939579476],[14.158219684176295,41.10441528727648],[14.158706979126919,41.10360112515157],[14.159311508323947,41.10286725927939],[14.159567816774329,41.10267708113482],[14.159912569584447,41.10242162952153],[14.160424248155445,41.10210063371531],[14.160644769769776,41.10196227887256],[14.16069315230154,41.10193192346866],[14.161343774507952,41.10132200721323],[14.16180871881274,41.10088435267689],[14.162187448023616,41.10052784597056],[14.162878093653594,41.09999804435098],[14.163209674724515,41.099743669220466],[14.164610422849771,41.09918556048195],[14.165924847079982,41.09879786870992],[14.16763121320757,41.09851406089092],[14.169417730607913,41.09848322550733],[14.170738205669466,41.09856973004247],[14.170880683446766,41.09857906222908],[14.171535958259705,41.09862198254024],[14.173508577587802,41.098942823504395],[14.1745479616373,41.0992518038668],[14.174600049049342,41.09926728701307],[14.174759316727025,41.09898229549944],[14.174792373934213,41.098922688248926],[14.174929920607566,41.09867623919608],[14.175272026005569,41.09789107496419],[14.17538341320196,41.09769667013655],[14.17545668808464,41.09756878242096],[14.175600311123265,41.09731811018755],[14.176274709948975,41.09673855114994],[14.17690909735383,41.09644437002197],[14.177420867899295,41.09636594758249],[14.178531862628853,41.09619569597486],[14.178819708657771,41.09601617162702],[14.178992074747436,41.09570470755145],[14.179087973248084,41.0955314172747],[14.17947662732543,41.09496022071665],[14.179746867382269,41.09434933369437],[14.179629232398042,41.094102551038105],[14.1795730940878,41.093862011029906],[14.179730816976054,41.09370184550004],[14.179994946408721,41.093523387446645],[14.180433713761374,41.09334208390283],[14.180533021408305,41.09330104885265],[14.181488995474833,41.092992361186006],[14.182585330135385,41.09299244363081],[14.183629087389747,41.09327846520737],[14.183710321835232,41.09329798800111],[14.184827701705979,41.093566506363274],[14.186397128044364,41.093783773880915],[14.18802654917014,41.09390377968288],[14.188302366163512,41.093945973940635],[14.189571442012348,41.094140107191926],[14.191206884212635,41.093836659031076],[14.191975328664322,41.09363088909639],[14.192557237167987,41.09347405199095],[14.193334444874502,41.09334209457691],[14.193821816510557,41.093259344228684],[14.195074091706815,41.093058677129584],[14.196292661322492,41.092855038918565],[14.197260904836895,41.09241060716296],[14.198114101076085,41.09190386978614],[14.198970925084712,41.09180681834401],[14.200863629498242,41.0918829812589],[14.20202996901882,41.09187519182318],[14.202770641366644,41.0917516237954],[14.203424059300252,41.09179407307437],[14.204300817563613,41.092168502319375],[14.205625599888881,41.092089835778395],[14.20655657701254,41.09168818893439],[14.20774841825528,41.09158915175015],[14.209281364481425,41.091843766976396],[14.210305354804213,41.0918603605166],[14.211128695217125,41.09171949349102],[14.212318111989111,41.09189963284038],[14.213277858275804,41.092175678207134],[14.21339951528318,41.092212162970974],[14.214203541534147,41.09245327913254],[14.214963441978503,41.09267537648984],[14.21615218718766,41.09283749275034],[14.217354990972956,41.092782882451665],[14.217620581456918,41.09277261066964],[14.218022336163935,41.09275707765721],[14.218558443890394,41.092755242637075],[14.218891055786411,41.092785160909415],[14.219237878591624,41.09280683687735],[14.219308149726114,41.09281122277518],[14.21950893775374,41.09280818005885],[14.21960529724208,41.092806722550826],[14.220023151747409,41.092711222039604],[14.22025876963571,41.09271851206885],[14.220448509457848,41.09273228037751],[14.22079699232485,41.09275257524906],[14.221020520906483,41.09274787451928],[14.221535049659618,41.09273705231588],[14.221616026990164,41.09273422143065],[14.221963754333515,41.09272206785524],[14.222226490399422,41.09270562830001],[14.222364643062175,41.09267847768626],[14.222941994046415,41.092565059575485],[14.223071655697499,41.092568182217185],[14.223357307596318,41.092568692686925],[14.22350016865484,41.092494679456486],[14.223555777163215,41.092471540926454],[14.22387672492096,41.09233802679827],[14.224185174975622,41.092269978982074],[14.224418879775408,41.09217831900122],[14.224743649223134,41.09210954658989],[14.224930108663786,41.09195701201044],[14.225463818299344,41.09165364540167],[14.225591918905565,41.091562304794046],[14.225689394097127,41.0914318290004],[14.225838833756207,41.09127197901498],[14.225974529516247,41.091126268323464],[14.226175679384955,41.09077500327183],[14.226234781029268,41.09059224994037],[14.226354720192521,41.090388734257544],[14.226399856855142,41.09029214984074],[14.226563013415124,41.09000565120825],[14.226848042607035,41.08972708607303],[14.227043515611635,41.089650675283686],[14.227201789468346,41.089629977955866],[14.227577301382354,41.089554372520944],[14.227835293782283,41.08950662470972],[14.22798662706732,41.08945471361977],[14.22815070326329,41.08934821811724],[14.22824109604132,41.089222562195495],[14.228277794677524,41.08910386615819],[14.22833833125289,41.08893004502558],[14.22833584962865,41.08877712248531],[14.228320614149116,41.088669769084504],[14.228313002109942,41.088620609822016],[14.228288743403327,41.08843715060301],[14.228295354883105,41.08833331993317],[14.228461045756848,41.08819074131484],[14.228657539752485,41.08813677445027],[14.229017801860136,41.08808437030907],[14.229275003918628,41.088054651369404],[14.229772638995522,41.088018505853526],[14.229913550093556,41.088097626092534],[14.229948726932282,41.08810052379793],[14.23066395564713,41.08802294187086],[14.231163451238707,41.08799120260024],[14.231593295597387,41.087940154641174],[14.231641058358836,41.08803781044345],[14.231686989220584,41.08813171706265],[14.231836653849044,41.08843770394846],[14.231847162197264,41.08878367453138],[14.231854199577262,41.08901375204677],[14.231894162714433,41.08961896819184],[14.231928757984521,41.089930016006306],[14.23198028147913,41.09039322659746],[14.232055073957318,41.09083164935989],[14.232214388281587,41.09176507290233],[14.232240932296081,41.09190430704033],[14.232286409963487,41.09214283171797],[14.232372650936158,41.09259513312595],[14.232448432039439,41.093145373400425],[14.232517481556064,41.09346183194954],[14.232670828883197,41.093472843696446],[14.23270902093936,41.09347605784435],[14.232910959607203,41.09349304277576],[14.233087354281475,41.093507877634394],[14.233504563693268,41.093430408326675],[14.233552761566164,41.09342367731386],[14.233886331926403,41.093390506173954],[14.23406805141112,41.093547421378354],[14.23410837091445,41.093582237615855],[14.234133879925157,41.09360426545921],[14.234322697038996,41.093771229245284],[14.234475856589338,41.093975826329114],[14.234685648600566,41.0943128652107],[14.234762887192248,41.094368642604806],[14.23512574089068,41.09440290646215],[14.235309202453598,41.09445325488989],[14.235580012257548,41.09443868272312],[14.235970673864593,41.094359372834234],[14.236360657399528,41.094337377515416],[14.236772502276905,41.09429915598476],[14.237170879916821,41.094227104158946],[14.238211728432136,41.09411219203188],[14.239377283320847,41.09406575942928],[14.239505418436543,41.0940666038909],[14.240043852913887,41.09407214220182],[14.240054503914509,41.09414886046238],[14.24003013199592,41.09417087952528],[14.240071096912654,41.09510272559871],[14.240263834235765,41.09596271140586],[14.240349540545893,41.09669253844411],[14.240205223555696,41.0978964971147],[14.240015944704862,41.098769405621205],[14.240080069861001,41.09932044860101],[14.240091918960147,41.09941866077913],[14.240270221926815,41.10015326405065],[14.241781995807903,41.099503620958835],[14.242730747588052,41.09889764524201],[14.242893052525575,41.09874519259513],[14.2433805291402,41.098287308027224],[14.243837182047452,41.0978388381654],[14.244733551244583,41.0975413419271],[14.245402528297257,41.097411809501764],[14.246687017129785,41.09761418616774],[14.24811654563322,41.097481396954684],[14.248370511432915,41.09743056877453],[14.24848053454941,41.097408614771375],[14.248904126484025,41.097323913881546],[14.249915068362055,41.09743973865234],[14.250986420992252,41.097525782042716],[14.251330310629115,41.09738938891309],[14.251641232145879,41.09726607043144],[14.251871385688316,41.097174785143864],[14.252650884664881,41.096761008984075],[14.252889499879961,41.09661979979481],[14.252901063808904,41.09768588321166],[14.25286080962094,41.09804783201483],[14.252812169112115,41.09849120054102],[14.252781041952113,41.09876270178964],[14.252754392708532,41.099304093603216],[14.252737110665413,41.09966499303963],[14.25273554459877,41.099692077045844],[14.252569944157583,41.10063593962433],[14.252467056614659,41.10127534841331],[14.252521912422827,41.10168247424076],[14.256248739838336,41.10181362271267],[14.257165048049316,41.10183471882278],[14.257068980534676,41.10313553330929],[14.256889969497694,41.103994501526536],[14.256857800332032,41.10414475488479],[14.256827677498865,41.104285443527836],[14.256795514634149,41.104520301590824],[14.25679118227175,41.10455191552769],[14.256725277131416,41.10503286032042],[14.256689120825518,41.106096847380776],[14.25691937885785,41.1066039731384],[14.257002645804397,41.10678922373845],[14.257234551966073,41.10688348022627],[14.257749252156422,41.10709267447242],[14.258740339679212,41.10687174829182],[14.2587708794788,41.106838952742955],[14.258848185406908,41.106755931987976],[14.25922193679167,41.10635455576451],[14.259403462516714,41.10608516684785],[14.260577469531949,41.10662559374186],[14.26173081098164,41.10670331799404],[14.262637738577748,41.10663928458996],[14.263173844985127,41.10652469394394],[14.263425753434365,41.10640962557966],[14.263950265217296,41.1073145904974],[14.263564775021381,41.107848208881094],[14.264440511832897,41.110450405729594],[14.272192110287536,41.11390313343551],[14.27269111637753,41.115059603604365],[14.273041744466758,41.115664715896145],[14.273848313658636,41.1159247791169],[14.275594268980312,41.1163847862396],[14.27665302833796,41.1165702298376],[14.27718116539268,41.116574476933366],[14.27740350042829,41.11657626370804],[14.278219747182673,41.11602110637036],[14.279036429629315,41.11542541489405],[14.279303275852257,41.1153241394552],[14.280791870292717,41.11475995526799],[14.281236214671749,41.11465359982051],[14.281750277468882,41.114467917190886],[14.281964876786109,41.114354633950605],[14.282320762187831,41.114536199291095],[14.28268705233816,41.11480744614249],[14.28319479032467,41.115126209700215],[14.283517153058439,41.11515639001314],[14.28410077532042,41.11517907155354],[14.285034825750078,41.11579329915246],[14.285127036160954,41.11599613121199],[14.284350785757931,41.11625240986002],[14.283875682896868,41.116323366861614],[14.283610450328009,41.11636297838107],[14.28316882771773,41.116468821885306],[14.283070504577193,41.116583740300825],[14.282940309004152,41.116735909830105],[14.283091279566264,41.11704406875159],[14.283398965123284,41.11722782900976],[14.283592178507515,41.117084107932975],[14.284222767258091,41.11715819203295],[14.284310532215466,41.117176312963046],[14.284353880536377,41.11718505946472],[14.284697705416864,41.117253770774475],[14.284755303094641,41.117360325126654],[14.284837576359608,41.117512913954506],[14.28519175774933,41.117744201883745],[14.28553593541544,41.117971431293505],[14.284736274339807,41.11804422931223],[14.283938204354593,41.11797741216582],[14.283227210817417,41.11771302499403],[14.282871212088963,41.11761246413824],[14.282606197575388,41.11781809978171],[14.282923121645398,41.11833019980213],[14.283290008123577,41.11849787039622],[14.284065468002725,41.118448726151115],[14.284731666005419,41.118521608707425],[14.284895232257254,41.11876612863175],[14.284383422497122,41.118753701287915],[14.284132046743412,41.11880575252754],[14.284284675507314,41.11917529603282],[14.284341820894689,41.11931376044542],[14.284373723355134,41.119636409816415],[14.284310696121175,41.119698168828855],[14.284036469612671,41.11996700498886],[14.284129030946863,41.12011242655234],[14.28422298258239,41.12026003030028],[14.284449147532467,41.12042069240686],[14.28525818533179,41.12047344984151],[14.285627852819836,41.120375462237895],[14.285632884294351,41.119907079823136],[14.285645189704374,41.11986322426564],[14.285695705928934,41.11968363715252],[14.286135201014869,41.11967689235341],[14.286299585456247,41.119738188470635],[14.286597730521526,41.11984916749045],[14.286796086387906,41.12032620399181],[14.286508618940417,41.120433962958835],[14.286280562981885,41.12066952714239],[14.286497648766943,41.12139776541409],[14.286850937370954,41.121876651455246],[14.28749153747763,41.12215327062305],[14.287966439333843,41.12227994623206],[14.288491000776173,41.12223782133168],[14.288893954062885,41.12239481557222],[14.289632036536352,41.12250931065042],[14.289943336797448,41.12231046994296],[14.289303995548423,41.121957290540365],[14.289059271778955,41.121477912809745],[14.289146221969505,41.121064296538236],[14.289754714481672,41.1210587731555],[14.290440362733134,41.12142331469012],[14.29112580499404,41.12209396400725],[14.291325266041506,41.122300570971305],[14.29160349835411,41.12191441132505],[14.29185928565534,41.12134896317376],[14.291942811981425,41.12134008655063],[14.292054553543533,41.12132833640247],[14.29216629221852,41.121316595281286],[14.292312298963193,41.12130108138396],[14.293041248052376,41.121159471373566],[14.293830997385522,41.12083049292933],[14.294821498015775,41.1207308213429],[14.295476610583744,41.12063310557302],[14.296192133397343,41.12053713667084],[14.296722576392119,41.12137534253108],[14.296754034734558,41.1214249634185],[14.297106537593889,41.121957876246896],[14.297375968179503,41.12233708687166],[14.297705939582228,41.12266396138088],[14.297857202418026,41.12267053943077],[14.298158840050332,41.122688065351056],[14.29867833495384,41.122029443461],[14.299050334503898,41.121791843752526],[14.299475541430827,41.12200166660006],[14.299469183543222,41.122587152624625],[14.299974031359756,41.1233200826749],[14.300338720868847,41.12351124756966],[14.300756410363972,41.12372962195483],[14.301004737212674,41.123920717996484],[14.30140907507902,41.12622927776536],[14.301602509555046,41.127021595902505],[14.301762104024721,41.1275810911381],[14.301831897668942,41.127825768415704],[14.302432102546954,41.12854978584866],[14.30243831279928,41.12917969751153],[14.302286214863217,41.1300149742252],[14.302236213468484,41.13027064439462],[14.302121868139919,41.130855314849086],[14.302340677762302,41.13158343936775],[14.302573634794998,41.13192829356768],[14.302648178481538,41.132038169411416],[14.302744216255281,41.13218018881524],[14.30276318716084,41.13220763148402],[14.303842902804924,41.13264842676502],[14.305212274375217,41.13273822313435],[14.306464272897072,41.13257238550338],[14.307193145105927,41.132462178304],[14.307622147643555,41.13240184800323],[14.30792105745698,41.13237453949579],[14.30895576610244,41.13251578275731],[14.310108535617635,41.13275508426745],[14.311567489640867,41.13343035461589],[14.312569582380974,41.13441932105383],[14.313596292286874,41.135344137840534],[14.314718232769698,41.136314044425696],[14.315544483145281,41.136996020907766],[14.316788408748481,41.13777120244252],[14.317163474829147,41.1380578336534],[14.317244786957822,41.13812010797427],[14.3173305704714,41.13818575926524],[14.317414974489468,41.13825021125547],[14.317698447054445,41.13846729726958],[14.318277885749646,41.138913117159596],[14.318527164562369,41.139050127888154],[14.318585479489087,41.13956816772265],[14.31859397975792,41.13964367494163],[14.318600599187318,41.13970247812597],[14.318646632111324,41.14011141179176],[14.318246393925666,41.14014972878914],[14.317854286360083,41.140187279051965],[14.317645138788324,41.140207304899434],[14.317440948215205,41.14029108740544],[14.317099592562379,41.140431151187165],[14.316519957328447,41.140668999285396],[14.316059391819156,41.1408584112763],[14.315936019453918,41.14090916468091],[14.315312179260447,41.14116577974714],[14.31416131496321,41.141772945772686],[14.313200861959949,41.142569115332876],[14.312323775178898,41.14315434794609],[14.311259883721291,41.14348263699186],[14.310840966174606,41.14354273621449],[14.31073114143624,41.14355848859125],[14.310102487069885,41.143648675172685],[14.308767063545327,41.14364738381666],[14.307529773089193,41.14348849184754],[14.306924156262124,41.14344888134636],[14.306481423371046,41.14341990434376],[14.306434328949436,41.14342657867579]],[[14.287896866849106,41.127293954502534],[14.287982683319015,41.12736127629911],[14.288304536319535,41.127310451619486],[14.289415374813126,41.127110755700826],[14.290586248678068,41.12683958697874],[14.29070463258683,41.12681222455223],[14.290895416442117,41.12676802320357],[14.291424820647437,41.12636551828926],[14.291118737960891,41.12596548792833],[14.290167658511313,41.12581574900526],[14.29009560880449,41.12582068112971],[14.289571116111738,41.12585669588511],[14.289439450513974,41.126126906789246],[14.28942526532853,41.1261560170724],[14.28904865727968,41.1262810384749],[14.28873194519056,41.12638599767083],[14.287718959790425,41.12640563771451],[14.287194796119106,41.126393753759984],[14.286717033376739,41.12655964974481],[14.28651635136621,41.12628090684548],[14.285552636876183,41.126320753905574],[14.285746641235214,41.12710404011919],[14.286879300062518,41.12697543725328],[14.287296041955031,41.12692476514549],[14.287521982578543,41.12699986152266],[14.287896866849106,41.127293954502534]],[[14.283806908035793,41.124659012232435],[14.284785528356817,41.12451498495136],[14.284733490032803,41.1241202137306],[14.284719529424446,41.12401835919805],[14.284334026954106,41.12394564802163],[14.283720685214268,41.12383023859236],[14.282827753282,41.1236822449959],[14.28244986669909,41.12344304265503],[14.281986561119336,41.123306814306375],[14.281128302697546,41.123382244389994],[14.280832049446365,41.12325634548639],[14.28051518946424,41.12273973814595],[14.280029419837055,41.122582077510515],[14.279383629881716,41.1227332247059],[14.279330986955687,41.12323530642209],[14.279757825852409,41.12345425652297],[14.280350001144457,41.12367462012662],[14.280411975760712,41.12463056976805],[14.2809109850285,41.12465400284324],[14.281090196885245,41.12466241346811],[14.281307530721634,41.12448143062175],[14.282628558147952,41.124591681440386],[14.283806908035793,41.124659012232435]],[[14.27774480544113,41.12121954432944],[14.277810214931685,41.121792718413275],[14.278879766504197,41.12199113951192],[14.27957079623181,41.12198639525626],[14.280333951540577,41.121919808474345],[14.281050404741942,41.121751837640936],[14.281101117242331,41.1214479019284],[14.280651683331634,41.12121650002049],[14.279974567871726,41.12104054823427],[14.278594135243184,41.120941973764296],[14.27774480544113,41.12121954432944]]]}}]}
