{"type":"FeatureCollection","metadata":{"code":"061100","referenceDate":"2026-01-01","sourceDbfExportDate":"2026-02-18","upstreamArchiveUrl":"https://www.istat.it/storage/cartografia/confini_amministrativi/non_generalizzati/2026/Limiti01012026.zip","sourceManifestSha256":"70ac8256c4785dc6ed2814c32b6965ae76f9161b51abaa1660059e1c6cbd8ca6","license":"https://creativecommons.org/licenses/by/4.0/","attribution":"Istat, Confini delle unità amministrative a fini statistici al 1° gennaio 2026, versione non generalizzata.","modifications":["Converted from WGS 84 / UTM zone 32N (EPSG:32632) to RFC 7946 WGS 84 geographic coordinates.","Converted from shapefile to per-municipality GeoJSON without geometry simplification."]},"features":[{"type":"Feature","id":"061100","properties":{"code":"061100","name":"Vitulazio","alternativeName":null,"regionCode":"15","regionName":"Campania","territorialUnitCode":"061","territorialUnitName":"Caserta"},"geometry":{"type":"Polygon","coordinates":[[[14.229192939504271,41.1699757525559],[14.229003547283414,41.17080362724329],[14.228840647651158,41.1715717916768],[14.228496659035118,41.17248773625408],[14.227793392680613,41.173474057832024],[14.226954976167738,41.172755965763365],[14.226175965126263,41.172147709529725],[14.224978904771199,41.17154496995455],[14.223887174661524,41.171076946219564],[14.22231856525362,41.17068913558824],[14.221282528772136,41.17057418541227],[14.21987845267597,41.1703724229367],[14.218200698591081,41.17013805173864],[14.216282538265478,41.170045114159436],[14.21458876651508,41.17007701509291],[14.21276262334824,41.170317458463195],[14.212624750573072,41.17035304532393],[14.211577626774712,41.17062331503401],[14.210142935835352,41.171048514521935],[14.208467504334005,41.17158364406779],[14.20683889447496,41.17219316236485],[14.20488882898522,41.17274970483017],[14.203488991199068,41.1731552283922],[14.202163018206194,41.17320629288401],[14.200850788087934,41.17315343714324],[14.200795118066996,41.17315119429747],[14.200258577947949,41.17210414649858],[14.200469115816603,41.171500411873936],[14.20071677648222,41.17077347158325],[14.200701856511003,41.17028337377608],[14.200696964561514,41.17012269515493],[14.200695297269819,41.17006843293727],[14.200691417720348,41.16993734910828],[14.200675280538706,41.16928057952074],[14.2006669837219,41.16894363192969],[14.20062289624226,41.16886163888648],[14.200177859798334,41.16803397497274],[14.19958789580661,41.16733593905942],[14.199481781882856,41.16720699354311],[14.199194978570366,41.16685840515972],[14.198816619371144,41.16639853838435],[14.198403674150605,41.16589504482656],[14.197391862497117,41.16480646757602],[14.197314397447409,41.16471914106873],[14.196853768071492,41.16419982543289],[14.196445427783093,41.163739519613664],[14.196320798642647,41.16359901950604],[14.195581058387662,41.16279520903398],[14.195204724591735,41.162216281822936],[14.194705638900388,41.16144850024481],[14.194337016325914,41.16017308883108],[14.1935884867742,41.159041041324365],[14.193435356400913,41.15886515888167],[14.192483673366342,41.15777205850066],[14.191356484601332,41.156351021187724],[14.190775960154367,41.15515313405538],[14.190752342152367,41.15510439825883],[14.190423554369474,41.15371480816776],[14.190459632937198,41.15292743944239],[14.190461129967826,41.1528929783851],[14.190472642340978,41.15264122926336],[14.190356682837782,41.15235393015248],[14.190324001175789,41.152367055820996],[14.189938339859776,41.152521332730956],[14.18907413520828,41.15306349300675],[14.188917695040775,41.15316162530574],[14.188358462443071,41.15359571725391],[14.188314181354755,41.15363041626914],[14.18811104791753,41.15378776359533],[14.1871814469374,41.15459829936231],[14.187162001101722,41.15461986464033],[14.186351839078297,41.15538869491326],[14.185344736976377,41.156766607789535],[14.185043993807401,41.157162356856325],[14.184912847001357,41.15733360475792],[14.184606142144398,41.15773625076721],[14.184112031134678,41.15847033446523],[14.184021792529188,41.158604395569604],[14.18362916780506,41.1590309482777],[14.183427666513527,41.15924985967185],[14.1833111227753,41.15937645978383],[14.183213362077064,41.15948266753974],[14.18241831876113,41.16015323465436],[14.182338306836375,41.16019023215807],[14.182192999760273,41.16025780203467],[14.181434030737416,41.16060996622335],[14.181064462930083,41.1607814987517],[14.180141785649626,41.16131101764712],[14.18004219316466,41.161368172105654],[14.179838631325929,41.1614849919179],[14.179660359051567,41.161567922428105],[14.179555408849234,41.161616284386724],[14.17883168699758,41.161953475520406],[14.178515082034993,41.16163920007549],[14.17794923513088,41.16092412911204],[14.17779437079583,41.16072842097481],[14.177714455697146,41.16062744888803],[14.177517652879121,41.16037874258694],[14.176595135373843,41.15884028226305],[14.175990416714034,41.1577989969835],[14.175649329885442,41.15740185807845],[14.175548940668738,41.157285042206624],[14.175474843347178,41.15719876491926],[14.17528448739423,41.156977200881194],[14.175653064185676,41.156024288928734],[14.17549153458439,41.1555141106168],[14.175461363582759,41.155418816568265],[14.174628674306206,41.15477966132985],[14.174557754802136,41.154725229947815],[14.174454301037649,41.1546468123102],[14.173424205140092,41.15408100623982],[14.172691444285059,41.15386736609166],[14.172642274548982,41.15385305856287],[14.17238103857817,41.153776863790206],[14.171224285153684,41.1536849037336],[14.170231735438463,41.15400412370907],[14.170194129158315,41.153975593801704],[14.169925431737159,41.15377174051606],[14.169475631868924,41.15343048622522],[14.169436060371469,41.15340492908001],[14.167877234007893,41.1523981197687],[14.167820635092577,41.15236156280533],[14.166450089238296,41.15154685119356],[14.166388014299208,41.15150995096929],[14.166307056665547,41.151461824060334],[14.165815395317452,41.15069166488452],[14.16553107878754,41.149727632400904],[14.165114146965445,41.148733533965235],[14.164317275680508,41.14769801019095],[14.163817114253954,41.14665814083917],[14.163539751181423,41.14598931751826],[14.163446920850877,41.14576546492043],[14.163738834997355,41.145369714642825],[14.164044254177693,41.14527277245572],[14.165126671497921,41.14492919407873],[14.16536310254597,41.14485298806226],[14.16653865838899,41.14447407516098],[14.166312516858127,41.14384129217817],[14.166274253358447,41.143734223166256],[14.166187533078014,41.14297286485747],[14.166552633223306,41.14244777428467],[14.167256540327068,41.141756824363675],[14.167311999463214,41.141702386591085],[14.167222398848633,41.14155121783476],[14.16712488565656,41.14138669678308],[14.16634091681977,41.14131927161197],[14.166196923957445,41.14130688630453],[14.165609730845775,41.141319133657376],[14.165204900359319,41.14132757621727],[14.16451675885312,41.14134192121549],[14.162155161271546,41.141484054519395],[14.160275799474931,41.1412218864795],[14.159098330409877,41.140140378538725],[14.157773452640075,41.139344591919766],[14.157660151518781,41.13927517146313],[14.15621271902751,41.13838830791437],[14.15478152210764,41.13745294088271],[14.154008494388597,41.13737525102189],[14.153890623795759,41.137363404054234],[14.153047483690697,41.137278660461895],[14.152522770311863,41.13722591881759],[14.15064559378221,41.13776472465308],[14.149359629607028,41.1385831325514],[14.148738880798344,41.13956078012049],[14.148216015556148,41.14044850502012],[14.147628300277708,41.140948779516],[14.147245637400244,41.14127450484189],[14.146999114132619,41.141484351143],[14.146564685502666,41.14166727920796],[14.145981559016185,41.14191252984546],[14.145736542174804,41.14201911127463],[14.145681336599035,41.14204305816893],[14.145367943647184,41.14206589225399],[14.1447715942018,41.14210934047236],[14.14423828911419,41.14214819266856],[14.143578833082085,41.1422003403101],[14.14298243208923,41.14224749711445],[14.142663290404517,41.142272730193866],[14.141792193421464,41.14214475210649],[14.141129387161078,41.142047133339744],[14.139807639612648,41.14184997096114],[14.13717730195993,41.140852606745554],[14.136143205284363,41.14020436834385],[14.135179840384462,41.139600447718735],[14.133724902207671,41.138679630944445],[14.132547463513088,41.13773739895198],[14.131578155585316,41.13709647177458],[14.131485055789613,41.13699369504033],[14.13103731177083,41.13649940397861],[14.130167947702125,41.135574899290496],[14.129319493862795,41.134955566963924],[14.127887942794896,41.13415067464301],[14.126858999628444,41.133602383040156],[14.125201516629298,41.132762531706966],[14.12465716176313,41.13246268545695],[14.124926498248854,41.132023031158965],[14.125382055691476,41.13171910909708],[14.125551943286915,41.13154047825446],[14.1260687021722,41.131229324379696],[14.126666114664063,41.131036114900496],[14.127147909263797,41.13066799400101],[14.127725335816237,41.13044474598115],[14.127806034372712,41.13041354519036],[14.128356189149647,41.130253948130196],[14.12889777241346,41.1298606371389],[14.12917760590295,41.129470012211954],[14.129867026753415,41.1295022540348],[14.130509094508549,41.129595129441036],[14.131363675772098,41.12982704975632],[14.1326727026026,41.129998171351346],[14.13314095350215,41.13007172503409],[14.133587412693764,41.1301418533189],[14.135052354308945,41.130269953005396],[14.13632219444556,41.13058682347803],[14.137629471986006,41.13082097096695],[14.138377177403182,41.130908466674],[14.13910462396712,41.130993587381745],[14.14018600487606,41.131174786475505],[14.141402600744362,41.131448602506545],[14.141670844770271,41.13150897278872],[14.143169581421617,41.13171648978927],[14.143941172852914,41.13176947431304],[14.144360032052509,41.13179823443421],[14.145641462064003,41.13219549953348],[14.146758824638995,41.13246505831083],[14.147947173770994,41.13269991439085],[14.149029176533876,41.13283149473566],[14.150491601375455,41.13304954175074],[14.150617751121473,41.13307155753814],[14.151846047217717,41.133285908457026],[14.153284571495293,41.133541000017246],[14.154277115058244,41.13377386922238],[14.1544017597981,41.13380131596632],[14.155496670200572,41.13393241394038],[14.156699194445572,41.13397749561324],[14.157472779282099,41.134019289677276],[14.15848803588551,41.133802656717506],[14.15948381449949,41.13327176287248],[14.15980130270064,41.13311598028121],[14.159836909919335,41.13309850864574],[14.160349181752895,41.132847148669285],[14.16069559025992,41.13267717132066],[14.161643697980951,41.13200436158194],[14.162713691418665,41.13134857945868],[14.163182395604267,41.13095335426166],[14.1634242042705,41.13074945345527],[14.163608800586898,41.13020097306188],[14.163688434126325,41.1296707253842],[14.163923012083409,41.128953446233076],[14.164224792827925,41.12834488433371],[14.164363657185232,41.12806485108361],[14.164681457512573,41.12775833493161],[14.164809139451393,41.12763518494009],[14.165432978639446,41.12727853266517],[14.165926439847118,41.12698624508552],[14.166154028675182,41.12680496101302],[14.166940140039252,41.12684612784214],[14.167723593000213,41.12699545761353],[14.16871838078814,41.12724661676004],[14.168828296953407,41.12727436653161],[14.169516164072457,41.12750450226638],[14.170275398980959,41.127780946321785],[14.171499930019504,41.128040940943094],[14.171888525030994,41.1281522351011],[14.17243714487914,41.12830935896712],[14.172977485857977,41.12842624902464],[14.17372763785255,41.12846601954202],[14.17586131648597,41.12858221114039],[14.178751150717192,41.128703754766875],[14.18132923340186,41.1288566375555],[14.1832574045153,41.12904549214194],[14.183550651365167,41.12907421155486],[14.186571878980613,41.12936464326469],[14.189816770602286,41.129555688164366],[14.192317750513466,41.12970653177572],[14.192372549304228,41.1297098251866],[14.192448954015836,41.12971443334517],[14.192972735971344,41.129746100065006],[14.193181064227042,41.12975807542999],[14.193777019804816,41.129793325512885],[14.194967516886797,41.12986334367693],[14.196217646542623,41.1299368562681],[14.196465339742591,41.129043428459276],[14.196589902682367,41.12859410125715],[14.196639380946852,41.128423228276475],[14.19675848826018,41.12801296517458],[14.196770222858222,41.12797254732803],[14.196871990212033,41.12761996855533],[14.196887973140287,41.12756472859463],[14.196902657344022,41.12751369147657],[14.197291535080158,41.1261717077068],[14.197393715351732,41.12581775489035],[14.197425689349412,41.12570742662198],[14.197815084826972,41.125077797396564],[14.197842790350144,41.12503313130542],[14.197877489548432,41.12497705885833],[14.197926261127472,41.12489825537864],[14.198378598658763,41.12416692424101],[14.199202166350231,41.122819208479264],[14.199422376712322,41.122458845812126],[14.199733016950704,41.1217380095746],[14.19997159125849,41.12118459018018],[14.200011154673078,41.1211040689178],[14.200033573332526,41.12105843701333],[14.20013257128187,41.12085693122079],[14.200533804886582,41.12003993568077],[14.200564435818189,41.11997788675201],[14.200663247010635,41.119479698614455],[14.200671843969442,41.11943645864051],[14.200990801317824,41.11782827235863],[14.201030592956355,41.11783357174078],[14.201357828351105,41.1178771487088],[14.202855757897808,41.118076638677614],[14.204019136850176,41.118736025718725],[14.204357631593137,41.118927862573074],[14.20522064398525,41.11937161304106],[14.20583863465213,41.119689369402735],[14.206214102173991,41.11988242068799],[14.20740627341423,41.120597109123516],[14.20847800357255,41.12118006869587],[14.20890876459498,41.12141446324444],[14.211293445331703,41.12284344068714],[14.211735041391012,41.12307647750576],[14.213812862861342,41.12417238333835],[14.215273323205365,41.124822702078625],[14.215841382435272,41.125599064849276],[14.216372910257519,41.12634520187323],[14.217063259659577,41.12731738817049],[14.217640891451707,41.12773042106381],[14.217772146879774,41.127959957539254],[14.21781105961944,41.1280280066513],[14.217937085271114,41.12824842543041],[14.217993413208491,41.12834694279537],[14.21843318223296,41.129470342805895],[14.218514274186498,41.129690635786865],[14.218744474763616,41.1303159837822],[14.218913898240357,41.13112754172107],[14.21912922324534,41.13207657121368],[14.219406050452438,41.13280674860187],[14.219525997420645,41.13344393974011],[14.219618616497822,41.13393594860698],[14.219610334013066,41.13467456295274],[14.219862696119382,41.13541484990814],[14.220254420347725,41.1366349379615],[14.220489508217062,41.13713355416649],[14.220647510486383,41.137468668452016],[14.220674650310102,41.13752597522043],[14.22073060382843,41.13764414537165],[14.2213987297731,41.138577088981144],[14.221771423104423,41.139081003184884],[14.221865758998554,41.139208563854375],[14.22195068475877,41.1393217485826],[14.2223589126448,41.14002791353047],[14.22232956347465,41.14051991756625],[14.22198690696341,41.14125571852095],[14.221884574964067,41.14185007106451],[14.22203052841594,41.14260866760286],[14.221793807064065,41.14303809754184],[14.22177040332224,41.14308055529404],[14.221616240406531,41.14336123726748],[14.221216111648777,41.14397362472836],[14.221185930116425,41.14449266003689],[14.221190035985117,41.14453659975233],[14.22119510772329,41.14459088591282],[14.22119806278154,41.144621285226336],[14.22121106921499,41.14475259950445],[14.221260278530309,41.14525902881617],[14.221293320831933,41.145395874952],[14.221430147731386,41.14596253372713],[14.221767566150934,41.146676434554166],[14.222058516384083,41.147311413525856],[14.222586994981647,41.147881587714984],[14.22339210212716,41.14844817780165],[14.223694825372021,41.14858906999916],[14.223994251116224,41.148728425975165],[14.224065183347795,41.14876143721522],[14.224789164281615,41.149221909740035],[14.225533245861964,41.149750751849915],[14.225991871245448,41.15026554619853],[14.226057436055786,41.15077122961238],[14.22595801879343,41.151149378652285],[14.225921460964862,41.151344603047036],[14.225889309694262,41.151519853730846],[14.225881486310339,41.15156249661211],[14.225932825829371,41.15223537594305],[14.225903081461105,41.15274989323464],[14.225718365164093,41.153253447487],[14.22572511929066,41.1537123000008],[14.225896927077066,41.15428966730351],[14.225949867264418,41.15480492259017],[14.225658821714873,41.15527280527496],[14.225379509489743,41.155654638774045],[14.22523142505433,41.15617903971726],[14.22538041875348,41.15669442379027],[14.225707842593305,41.157197191670846],[14.225831435836975,41.15777677031168],[14.226048830377733,41.15860864431308],[14.226456672224366,41.15938234708085],[14.22654897218677,41.15957747137289],[14.226862791611284,41.16024087877793],[14.22647967337776,41.160484147345784],[14.226416145653365,41.16076163387333],[14.226277169995013,41.161154504222964],[14.226262399563707,41.161196259515194],[14.226232117052994,41.16128317184978],[14.226095900283674,41.16139270821492],[14.226068452854653,41.16141477906486],[14.22601229581038,41.1614599306851],[14.225978197857815,41.161487346653644],[14.225787070281823,41.161641018726],[14.22536700891134,41.16183569452629],[14.224858947524218,41.162006844170136],[14.224816813608815,41.16202277381522],[14.224756137587505,41.162076404118885],[14.224671015844924,41.16215544713161],[14.224681515372708,41.16236202805057],[14.224875236374167,41.16262703740816],[14.224893145568656,41.16265400865099],[14.225015061378086,41.16284736748776],[14.22511386980214,41.16300408006972],[14.225150700949776,41.163298670870404],[14.225169270049033,41.16344720349059],[14.225142044997625,41.16352903475036],[14.22504612286342,41.16381741581605],[14.22494478050163,41.164035452856396],[14.224875118427263,41.16418532504235],[14.2248960780815,41.16437341516583],[14.224946422728085,41.16445456736149],[14.225024138414206,41.16457916522387],[14.225083884001448,41.16468207484294],[14.225176899311277,41.16484229461553],[14.225518594886223,41.165177863591765],[14.225680223589983,41.16532806250256],[14.225743838268357,41.16538818916904],[14.226096690139148,41.16571425120485],[14.22650721176153,41.166231249171254],[14.226848774936848,41.166611826720484],[14.227053319439976,41.16678471902675],[14.227308644682681,41.1670005335908],[14.228711137834264,41.16735083260672],[14.229436473564192,41.167529367276394],[14.229528038143801,41.16779979518531],[14.229582603053958,41.16828796157763],[14.229381994082154,41.169143376185424],[14.229192939504271,41.1699757525559]]]}}]}
