{"type":"FeatureCollection","metadata":{"code":"062019","referenceDate":"2026-01-01","sourceDbfExportDate":"2026-02-18","upstreamArchiveUrl":"https://www.istat.it/storage/cartografia/confini_amministrativi/non_generalizzati/2026/Limiti01012026.zip","sourceManifestSha256":"70ac8256c4785dc6ed2814c32b6965ae76f9161b51abaa1660059e1c6cbd8ca6","license":"https://creativecommons.org/licenses/by/4.0/","attribution":"Istat, Confini delle unità amministrative a fini statistici al 1° gennaio 2026, versione non generalizzata.","modifications":["Converted from WGS 84 / UTM zone 32N (EPSG:32632) to RFC 7946 WGS 84 geographic coordinates.","Converted from shapefile to per-municipality GeoJSON without geometry simplification."]},"features":[{"type":"Feature","id":"062019","properties":{"code":"062019","name":"Castelvenere","alternativeName":null,"regionCode":"15","regionName":"Campania","territorialUnitCode":"062","territorialUnitName":"Benevento"},"geometry":{"type":"Polygon","coordinates":[[[14.56359074589903,41.25182867729912],[14.563027632065472,41.25220256250779],[14.562940192720884,41.252769447379784],[14.562948759504016,41.25327314331898],[14.56293521913205,41.25333523943399],[14.562838710201943,41.25377786388912],[14.56277715541392,41.25406016812795],[14.562870018881945,41.2545642949181],[14.562840013779981,41.25524541342212],[14.562574204141763,41.25574891116132],[14.562130925641139,41.255936933004236],[14.561820439793498,41.25606451432343],[14.561776455050095,41.255503998782515],[14.561777548174428,41.25532391134555],[14.561600759339598,41.25497239382488],[14.561043363595891,41.25445025113757],[14.560496329957498,41.25405815239952],[14.559771221453376,41.25357115587536],[14.55927815254789,41.253175519663394],[14.55903587338514,41.252981114005934],[14.558005819311646,41.25191473754258],[14.557812697403724,41.25223015534668],[14.557582131110152,41.25256090022039],[14.556968593694664,41.253333287888466],[14.556307610500793,41.25396844236362],[14.555854388743942,41.2540369256967],[14.555781295724852,41.25404793933917],[14.555666480469288,41.253670900130224],[14.555885863710143,41.25278706838402],[14.555817418200006,41.25236774510009],[14.555089816088119,41.25227194908506],[14.554640513014851,41.25223106661367],[14.553765942782531,41.2521514830661],[14.552583670881484,41.25210064601921],[14.55243291869041,41.251738856935184],[14.55214693715399,41.25151412128733],[14.551658065940005,41.25139374191708],[14.550455165143887,41.251046811531026],[14.549653944393066,41.251225083999984],[14.547172425917854,41.25109749467861],[14.544965244531719,41.25093406815379],[14.543974200599276,41.250693869625806],[14.543149607226173,41.250493376902845],[14.54236801786491,41.2503033337829],[14.5422471163685,41.25028543249145],[14.541175891178577,41.250126821614565],[14.539769628591177,41.24980760747212],[14.538459325258495,41.24937122691414],[14.538426175934516,41.24931051574772],[14.538365316702164,41.24919117693653],[14.538294998525686,41.24905651606548],[14.538129186675398,41.24873898145485],[14.538137492555684,41.248711047897196],[14.538324728061125,41.24808138687377],[14.538138165250906,41.24799136535529],[14.537827234771674,41.24784106676369],[14.537587838934646,41.24772534663048],[14.537270106701216,41.247591870547765],[14.537193856037158,41.24755983752906],[14.536790119308726,41.247390228839684],[14.536258576132251,41.2466506727372],[14.536036425345335,41.246328159683294],[14.535715450738197,41.245862168582356],[14.53500247388588,41.245365408608016],[14.533787822344229,41.24499187603344],[14.53282454209323,41.24463770245735],[14.53204087317311,41.244027314538265],[14.532331397374579,41.2433291261403],[14.532622489237811,41.24272545347762],[14.532507624557576,41.242222357949096],[14.53253613136614,41.24156382647086],[14.532335845837917,41.24103783986612],[14.532065738896716,41.24049722215546],[14.532106390775457,41.239761574463486],[14.53205081927946,41.23921059895755],[14.531500268043054,41.2388078736667],[14.530934071302848,41.238503734544366],[14.530331343835426,41.237934117141684],[14.530023107652111,41.23743583643298],[14.52975164585886,41.236940282664115],[14.529502266659291,41.23675874841619],[14.529193175795537,41.236620593318065],[14.528724512725159,41.23627858175419],[14.528639206100554,41.2356750364308],[14.528354490289704,41.23546369226477],[14.527768297840165,41.23562695254784],[14.527360140757832,41.2359481784845],[14.526928894834155,41.23620751426574],[14.526274995611935,41.23586989370512],[14.525607961277961,41.23587049717225],[14.524938522127346,41.23598375036336],[14.524436761664951,41.23604390544228],[14.524284635515217,41.235646117594506],[14.524250651515688,41.235296662808615],[14.524467825040796,41.23508816232368],[14.524542491446958,41.234674961309786],[14.524594774280956,41.234181825081784],[14.524581037638134,41.23385021002425],[14.524576554204252,41.233745088912464],[14.524573520305923,41.233674216923866],[14.524398207446,41.23316952365619],[14.524320230201152,41.23304797755709],[14.524196523977142,41.23285514920332],[14.52397349325462,41.23287773732284],[14.523432391363338,41.23293242498434],[14.522739849458238,41.23298375981631],[14.522094839887774,41.233050797872956],[14.522121515629173,41.23271293602861],[14.522160751865146,41.23264728732298],[14.522207989825691,41.23256954606558],[14.522387247289199,41.232271372400696],[14.52256903392209,41.23203772924541],[14.52295431758004,41.23193406805898],[14.523465411542675,41.231796553547454],[14.523597083816359,41.2316936464787],[14.523753437705702,41.23157113271432],[14.523781837622991,41.23099811645516],[14.523951645154735,41.230431809959164],[14.524394254080228,41.23019846988345],[14.524515329901021,41.230134603775255],[14.525022367380755,41.23008916416779],[14.525125267247613,41.23008003349463],[14.525385949453499,41.23005669324425],[14.525803675060915,41.23015811976313],[14.525959370766108,41.230033607427245],[14.52627040307033,41.22971469234416],[14.526335085473379,41.22964784337498],[14.526402509262404,41.22957852447569],[14.526718575142812,41.2292543533753],[14.526831410560998,41.22917389950893],[14.526917514622061,41.22911267251098],[14.527003591838728,41.22905142603721],[14.52764090545425,41.22859778849714],[14.528563564711986,41.22792770510648],[14.529605005183557,41.22749044498798],[14.530667907716538,41.22744823599411],[14.530734403628255,41.227465184951285],[14.530964961641274,41.227523949242496],[14.531261968672524,41.227793213141354],[14.53176958004864,41.22794909019287],[14.532369619118798,41.22807741040417],[14.532583928506396,41.22817060351236],[14.532595751766445,41.2282182557597],[14.532618221190813,41.22832275168503],[14.53263069596211,41.2283783333214],[14.53269951610175,41.22868266151478],[14.5319685905299,41.22924003347838],[14.531593591207033,41.22973288232706],[14.531545323113637,41.22979607148487],[14.531626716304132,41.23001589331683],[14.531657485052834,41.230099337174416],[14.531690044524114,41.23018754250559],[14.531721022406293,41.23027152541014],[14.53183808364163,41.23058766585413],[14.531885312360794,41.23064174290826],[14.532285022473985,41.23110078561776],[14.532383688714697,41.23121403076161],[14.53269902200267,41.23168495071103],[14.532818740078998,41.23186373349531],[14.533630542298086,41.231892115620646],[14.534356860161918,41.23116772341818],[14.53459202297033,41.230932040162685],[14.534708083954465,41.23025257502515],[14.534728632882825,41.23013324637386],[14.534819355632758,41.22918812237133],[14.534714407300342,41.22893505234446],[14.534537534666521,41.228508546297135],[14.535317481938543,41.22777325827178],[14.536146250467677,41.227157144322064],[14.536653839904146,41.22626844408657],[14.536645951812751,41.22582776468782],[14.536636063683456,41.22527455141419],[14.536562505608565,41.22487468359359],[14.536537349690377,41.224738405615845],[14.536510489856026,41.224591922812806],[14.536724647556897,41.22416760492939],[14.536765947800221,41.22402872124238],[14.536817365806193,41.223841103187205],[14.53686285859147,41.22367470499219],[14.53628057552969,41.22326619037122],[14.536212564360843,41.22323828529179],[14.535485416591364,41.222939932477445],[14.534800366833588,41.22273633771998],[14.534635959736882,41.222687475707005],[14.534377774896189,41.22261074138812],[14.533541782390243,41.22248000628726],[14.532659187491623,41.2224415185355],[14.531897115477303,41.222356728848425],[14.531737565342603,41.22221808557641],[14.531849726713713,41.22215779417677],[14.53192613746129,41.222129000811435],[14.53197843700279,41.2221093049002],[14.532033531802538,41.22208855691987],[14.532316205567051,41.22193380161387],[14.532724683633889,41.22178166518978],[14.532777333338268,41.22176205556988],[14.532909801491966,41.22171609025732],[14.533259124775391,41.22157754469474],[14.53341260360787,41.22151660970335],[14.533857302741698,41.22134301717261],[14.534203197485182,41.22120799373126],[14.534998070893357,41.22095609969031],[14.535242158332988,41.22085798434792],[14.535295484406927,41.22083669083912],[14.535332074910363,41.22082190457372],[14.53547661285109,41.220762946380006],[14.535511046235504,41.22074911659858],[14.535992196924784,41.22053233380425],[14.536033590097665,41.22051383179719],[14.536113864809485,41.22044327552823],[14.536133248757336,41.22040721800759],[14.536161110823588,41.22035483634233],[14.536185862026349,41.22024163529856],[14.536196221975862,41.22007866284652],[14.536160163574095,41.21986946835486],[14.536121371539222,41.219713410687795],[14.536079525496996,41.21966008130356],[14.536004846511453,41.2196030994854],[14.535906692276692,41.21954599655116],[14.535738360740936,41.21946028955324],[14.535640283720335,41.21939256347192],[14.535570278059765,41.2193391351975],[14.535517572168214,41.219287579693095],[14.535421154072713,41.21919326686275],[14.535294913443934,41.21901451838805],[14.535273802657569,41.21898462579168],[14.53507533222343,41.218810938823346],[14.535369223817424,41.218809944880334],[14.535783497296082,41.21880602589942],[14.536145961279304,41.21867831342566],[14.537262460569883,41.21822200829818],[14.537939395800258,41.217944072310644],[14.538117399791318,41.21787775924351],[14.53868130953132,41.21763425462263],[14.539722324474527,41.2171908978334],[14.540013072728,41.21706707693768],[14.540420946692663,41.21691789282868],[14.540835508869407,41.21672975987461],[14.540794164064163,41.21691282155811],[14.540961413377094,41.2168562416215],[14.541049547899009,41.216787270554484],[14.541635340743845,41.21632920547263],[14.541715758171305,41.21626619419773],[14.542233205123576,41.21588026553759],[14.542842154571302,41.21542608452783],[14.542999719172737,41.215308477842896],[14.543146732346692,41.215182917327866],[14.54329028287153,41.21506045409777],[14.543355120935756,41.215005674046424],[14.543445678320644,41.21492893760665],[14.54382846569026,41.21460678367419],[14.544000525389222,41.21449636351716],[14.544044625419003,41.21446750939771],[14.544231396617347,41.21434820249556],[14.54464165303658,41.21408516375417],[14.544735285427029,41.214024804315486],[14.54498884997082,41.21386207821323],[14.546448054974576,41.21338197800778],[14.547476037197603,41.21313427777269],[14.548189996489988,41.2131897429162],[14.549087354970553,41.21297985121131],[14.550365900076947,41.21272449280153],[14.550837370208292,41.212445132061205],[14.55103633612393,41.21232749139891],[14.551146785545061,41.21189904813073],[14.551497209319146,41.211242941535396],[14.551927510371371,41.210937604321735],[14.552481591359335,41.21105982380421],[14.553113231428222,41.21147938167071],[14.55401758582791,41.21171470600708],[14.555079881840793,41.2119636510776],[14.55538670900694,41.21203555239601],[14.556433209876005,41.212462024083585],[14.55722167046417,41.21279842778254],[14.557741253904382,41.213019853049666],[14.559171169979244,41.21329270479587],[14.5608168760413,41.21338851219611],[14.562451145569879,41.2132238261055],[14.563073260937651,41.21305658458444],[14.564064657753596,41.21279004454336],[14.564998506700034,41.21241620015968],[14.565740431824514,41.212011149504434],[14.566433005387035,41.211878564390304],[14.56712338024322,41.21219613651232],[14.567873338474676,41.21228127828517],[14.568636910597352,41.2121857411295],[14.570130260700509,41.212045792249675],[14.570935565115063,41.212051716913706],[14.57139455375296,41.21205193484246],[14.572446586953106,41.212074962257674],[14.572522633410472,41.21207662262492],[14.5726756050331,41.21207997256905],[14.572800567609718,41.21208270601854],[14.573156872476696,41.21212514229516],[14.57333756814625,41.21214667855112],[14.573874139603836,41.212143100894565],[14.574008583632788,41.2117269867988],[14.574166933043445,41.21132518312341],[14.57417857244701,41.2112956521841],[14.574521151814162,41.211298504190054],[14.574573730246641,41.21129895591636],[14.574665517809361,41.21135301617072],[14.575297538170947,41.21172290982009],[14.575892852733077,41.21187904286046],[14.575963602037156,41.2118976196565],[14.576568627481812,41.212090993396906],[14.576797776415502,41.21216422996366],[14.576904944094808,41.21219845905686],[14.577172543428018,41.212261969685734],[14.578062153656623,41.21216474452708],[14.578367042540458,41.211974040759294],[14.578577106303996,41.21184268091768],[14.579210686145702,41.211469773452116],[14.57991661552465,41.211255428242914],[14.580393747121294,41.211101685822435],[14.580800382376363,41.2109423897883],[14.58161024267794,41.21061323215426],[14.581645722966849,41.21059894164225],[14.581794140257431,41.21053848656699],[14.581793737521172,41.210590079270894],[14.581791260272729,41.21090616329911],[14.581789853043556,41.21108574334704],[14.581789625100692,41.21111484887623],[14.582313559519351,41.21157098803237],[14.582764330187294,41.21184163426012],[14.582572195386685,41.21216605852592],[14.582020113214345,41.21233243356513],[14.581864635971778,41.212623565326616],[14.582231504401541,41.213028825342334],[14.582324516551058,41.21356893431552],[14.582199816246108,41.21429968210873],[14.5823992534071,41.21482112035915],[14.582203882063279,41.21533473034244],[14.581511498603456,41.2156384741426],[14.580863946502726,41.21606604810779],[14.58052630831936,41.216528074262584],[14.57999996902577,41.2169092459637],[14.579757274498998,41.2176411728826],[14.579731676098486,41.21772007169338],[14.57989439935685,41.2184852621868],[14.579997496576546,41.219056390937745],[14.579636198267625,41.21971311111444],[14.579072777497089,41.22012309091415],[14.578363665405416,41.220886735876476],[14.578623053786865,41.221490775579596],[14.579069535980137,41.22240981702386],[14.579090448953961,41.22291742746204],[14.57875225364611,41.223618024757634],[14.578174906514331,41.22410968719638],[14.577873255768715,41.22474101071315],[14.577668357532398,41.22525768470723],[14.577594784734321,41.225443201137146],[14.577620966440502,41.225646183485615],[14.577659324140845,41.22594357073998],[14.577698058778308,41.22624387710358],[14.577691366537557,41.2271444383615],[14.57769416421672,41.22719543806695],[14.577716939800045,41.22761058686822],[14.577743823901558,41.22810060602582],[14.577654581870686,41.22860606786149],[14.577583504754028,41.22900863315979],[14.577794360560402,41.22978606869358],[14.578421573102602,41.230525275457985],[14.578884920722372,41.230732308177835],[14.579467235110737,41.231023583557835],[14.579259789971072,41.231780861189925],[14.578887621247379,41.232267053440296],[14.57831432002581,41.232326425142624],[14.577994329398386,41.23247520037668],[14.57764403351542,41.23263807393758],[14.577413731342913,41.23317138785539],[14.577529120665476,41.23374643790382],[14.57757326813056,41.2343429262696],[14.577379574203364,41.234964486818676],[14.577317024083763,41.23503395486922],[14.577171906363628,41.23519512688501],[14.575963171058183,41.23603705453687],[14.575686144824651,41.23643310600535],[14.575216316899255,41.23723461325433],[14.574902600217904,41.23766395307413],[14.574242623305777,41.23813262121978],[14.57385875224169,41.23856084791188],[14.573627871260829,41.2391842265656],[14.573467400808008,41.239648771304964],[14.573399563019404,41.23984514275517],[14.57331158744346,41.240099804143824],[14.573342281811119,41.240818481408525],[14.573207029330884,41.24153172195953],[14.573204327211453,41.24194595477554],[14.573848544493236,41.242166737590914],[14.573892546040355,41.242551692806416],[14.573910948855044,41.24340601448229],[14.573611422681704,41.243731141254074],[14.573295118676882,41.24380474425482],[14.57311498043182,41.2438465888362],[14.572979742393336,41.243877947552996],[14.572510598831228,41.24398713651697],[14.572090196919385,41.2443721289988],[14.57227750867831,41.24462406413199],[14.572513344941518,41.244941261967604],[14.572623139297194,41.24508893338029],[14.572893579214618,41.245355905492026],[14.573007481039065,41.24546834557841],[14.573096846364722,41.24555656526931],[14.57303489004819,41.24558544163358],[14.57288382047129,41.245656232008386],[14.572678203514165,41.245752431052324],[14.571639028117454,41.245874912768485],[14.571602023063619,41.24586738181144],[14.571549865195125,41.245856839635294],[14.571155071648143,41.245776867921336],[14.570602002229244,41.24565516843343],[14.570185389224864,41.24546382806192],[14.569442332679895,41.245841977692564],[14.569344303591494,41.246301343018146],[14.569638153571006,41.247011768936495],[14.56965726132766,41.24771751368224],[14.56911038183147,41.24738846570128],[14.568433483024883,41.246872175377185],[14.567833153104667,41.247490936507006],[14.567207784060194,41.24820995062499],[14.565975463471107,41.248629802506215],[14.565543698877578,41.248961322495084],[14.565597667267689,41.24907772769379],[14.565743707184033,41.24939271780766],[14.565289210706586,41.249527293979526],[14.564815193249682,41.24923969486689],[14.564619153193863,41.24972182123826],[14.564966293417816,41.25069073743945],[14.565637856912074,41.2509777527072],[14.565720312107876,41.251158305108866],[14.565419649878768,41.25134841846358],[14.564320729681748,41.251532230611126],[14.564235799713364,41.25156671992938],[14.56359074589903,41.25182867729912]]]}}]}
