{"type":"FeatureCollection","metadata":{"code":"062009","referenceDate":"2026-01-01","sourceDbfExportDate":"2026-02-18","upstreamArchiveUrl":"https://www.istat.it/storage/cartografia/confini_amministrativi/non_generalizzati/2026/Limiti01012026.zip","sourceManifestSha256":"70ac8256c4785dc6ed2814c32b6965ae76f9161b51abaa1660059e1c6cbd8ca6","license":"https://creativecommons.org/licenses/by/4.0/","attribution":"Istat, Confini delle unità amministrative a fini statistici al 1° gennaio 2026, versione non generalizzata.","modifications":["Converted from WGS 84 / UTM zone 32N (EPSG:32632) to RFC 7946 WGS 84 geographic coordinates.","Converted from shapefile to per-municipality GeoJSON without geometry simplification."]},"features":[{"type":"Feature","id":"062009","properties":{"code":"062009","name":"Bonea","alternativeName":null,"regionCode":"15","regionName":"Campania","territorialUnitCode":"062","territorialUnitName":"Benevento"},"geometry":{"type":"Polygon","coordinates":[[[14.60878729789039,41.0990546665022],[14.608604207623587,41.09910843785639],[14.608042580228123,41.099473453712385],[14.606956552139751,41.10002158839321],[14.606141157483613,41.10079507112017],[14.605375051535429,41.10144912628013],[14.604884373493395,41.101905167096895],[14.603438548021542,41.10073793464518],[14.602893501071769,41.10025138455723],[14.601993712548772,41.09936355624362],[14.601295516789454,41.098659433609555],[14.600179744809958,41.09788114462393],[14.599540135165144,41.09747122095409],[14.598831706890838,41.09650652162723],[14.599034314954944,41.096361616466716],[14.599499548787394,41.096374941007646],[14.600071259768795,41.09631105946889],[14.600488379762247,41.09619619698983],[14.600989457507817,41.096036733117494],[14.601146428839357,41.09572299551649],[14.600661910993766,41.095125482961514],[14.599761293063258,41.09431418601348],[14.598896869407568,41.09359564082928],[14.598141380813448,41.092741267362904],[14.598083513773949,41.0926542246832],[14.59769151689667,41.09206102401451],[14.597233741988264,41.09102557895874],[14.597122337907342,41.09083267930331],[14.596679871488877,41.09006682788149],[14.596312507729124,41.08956857299257],[14.596253846815754,41.08948909296755],[14.596197702023888,41.089413044406726],[14.596139044639875,41.08933364426644],[14.595782823089884,41.08885021961864],[14.595463914950916,41.088388658241726],[14.595363434830496,41.088259121648214],[14.595061945477811,41.08787071713726],[14.594979448422647,41.08776408813606],[14.594272056927442,41.08684431050093],[14.594528805112962,41.08568404260513],[14.594673464706993,41.08548442922912],[14.595296429269917,41.084620403732025],[14.595514561382254,41.08402912208187],[14.59567177864057,41.0838144201535],[14.596330106801732,41.08303967039838],[14.59682581057973,41.081647181218486],[14.596440006767809,41.080626220174096],[14.5959697856071,41.07946084488184],[14.595957724610765,41.07938488180724],[14.59593088506742,41.07923028024425],[14.595787153685789,41.07838048210379],[14.595436796357168,41.07745233195414],[14.59478376173505,41.07685699142938],[14.594733991570013,41.07681185848769],[14.594334973620917,41.07644824590564],[14.593495018038247,41.07545388921777],[14.593408256665125,41.07528239271505],[14.593083878540117,41.07464120837636],[14.592694352714341,41.0740210194757],[14.5922778549333,41.073572900778515],[14.591961943079381,41.07323299270948],[14.591559074893977,41.07276197302249],[14.591382961319688,41.07250948647834],[14.59150710154545,41.07242884908005],[14.591645798930246,41.07233915152051],[14.592411340346262,41.07182026645641],[14.592877712670212,41.07130694644314],[14.592645017802758,41.070616104143596],[14.592557610291935,41.07025417925645],[14.592459147703774,41.0698464713715],[14.592556822250456,41.06935108367634],[14.592882066471747,41.06882212469392],[14.593374067705362,41.06804199657501],[14.593985660662467,41.06726951810247],[14.594848270847521,41.066363296528834],[14.595662406607046,41.065779008407134],[14.59636689854079,41.06531259275728],[14.596869131216925,41.064811005745746],[14.596936032047452,41.06466752159703],[14.597111809779568,41.06429055409183],[14.597170173976743,41.06410029055848],[14.597341692028227,41.06354117706362],[14.597443030535779,41.06288364599225],[14.59747868500347,41.06265229896867],[14.597577440952165,41.06202182659594],[14.597535032358957,41.061182195105566],[14.597448119493006,41.060745613277135],[14.597406395257957,41.06053601962376],[14.597384517030811,41.060426119411915],[14.59736109205597,41.060308449999155],[14.597161240036687,41.059872579082615],[14.5969032185257,41.05926850721938],[14.59664453807621,41.058826484876846],[14.596906034613818,41.05874623298096],[14.597419515971065,41.05861319405101],[14.597942966006496,41.0583896247303],[14.598813839633905,41.058131142191634],[14.599837815260315,41.058162256818434],[14.601098028415999,41.05796978422575],[14.601266450644015,41.05794406087706],[14.601668686309113,41.05758218984694],[14.601774641029378,41.057486908794864],[14.602033528646261,41.05725400536268],[14.602098265161896,41.05716306927837],[14.602584587682287,41.05647993824042],[14.603078595909007,41.055699912871255],[14.603116073238455,41.055640748711255],[14.603137597514422,41.055606770445166],[14.603259526782034,41.0551523314992],[14.60342981967577,41.05451675065434],[14.603626194382691,41.0535754496663],[14.603777529854774,41.053180314849804],[14.60396045845344,41.052701585051935],[14.603989487302844,41.05262612642343],[14.604037264194833,41.05250214215446],[14.604080712384627,41.052238061932385],[14.604145499587572,41.05184421227319],[14.60417575469987,41.05166462159452],[14.604184516968557,41.05161275803808],[14.604330039504434,41.05127504069214],[14.604422768015032,41.051059878857785],[14.604451998713873,41.05099205588359],[14.604981893898032,41.05114564361338],[14.605519057869714,41.051301345269],[14.60565712093932,41.051341362281754],[14.60630263166197,41.05152876961214],[14.606408797294593,41.05155929483957],[14.606454841563023,41.05157261886017],[14.606525960376775,41.05159322441671],[14.606600928737336,41.05161489245958],[14.606671947242946,41.0516354362027],[14.606881069182036,41.051695866507],[14.607044291315455,41.05174331309687],[14.607642756653924,41.051916893171565],[14.608584719688576,41.05218990527758],[14.608759622762681,41.05224059692007],[14.608830678898054,41.05226118967336],[14.609424643983054,41.052433329866474],[14.609838555517895,41.05255328502347],[14.610157231183805,41.052645639241184],[14.610612582689628,41.052777601308854],[14.610805226156012,41.05283343049152],[14.611023811835489,41.053098972859246],[14.611204390231551,41.05331834353064],[14.611303900420333,41.05343923036283],[14.61142762303406,41.0535507369454],[14.61183449623781,41.053917435558674],[14.61204894101027,41.05416822093863],[14.612651001201398,41.05487227862108],[14.613741844168356,41.05570567353114],[14.615008563766985,41.056683517396785],[14.615563132787042,41.057390084586295],[14.616962949268155,41.05814984273103],[14.617195922189289,41.05833569809693],[14.618265463209159,41.059188895228985],[14.618253716751344,41.059417367880236],[14.618213502887729,41.060199685855835],[14.618043529785526,41.06057707608953],[14.617730900245245,41.06130353042958],[14.617477714797126,41.0613764341122],[14.61732653643829,41.0614196838032],[14.616729634650863,41.0615910608256],[14.615089324488304,41.06116263384167],[14.613602895330192,41.060839179065226],[14.611961246759996,41.06086989333369],[14.610367226821383,41.060578736372584],[14.610318681774197,41.060837594253094],[14.61024144948439,41.06171908601929],[14.610284398919708,41.062693712791244],[14.610423322331178,41.063146048353815],[14.611052620333213,41.06355190234768],[14.612013791026506,41.064022585443496],[14.612791947499211,41.06441887028533],[14.613187444103039,41.06462027810235],[14.61342510009233,41.064741301408475],[14.614672547610226,41.06523847498088],[14.616157710602836,41.06575100459798],[14.616325196105045,41.0658165870292],[14.616850267287168,41.0660221834382],[14.617404746177513,41.06623875869176],[14.618826996669533,41.06724535132584],[14.618480141349414,41.06738834947323],[14.617622209256767,41.06772737621358],[14.616882829863336,41.0679750731232],[14.616390164483516,41.068305791057405],[14.61622436848743,41.06841686846791],[14.616271316002129,41.068503227716974],[14.616366855580475,41.06867997615155],[14.616960614281702,41.06892099832933],[14.617282362283442,41.06926554720755],[14.617374649538137,41.069364370411],[14.617978804633776,41.069744403954246],[14.61902539897538,41.06999479204627],[14.620035134359956,41.070300974458085],[14.620184586280043,41.07038818430176],[14.62029283196963,41.07045043955848],[14.620840972924443,41.07076564843783],[14.62092094959919,41.07083603536299],[14.621079164268771,41.07097587507315],[14.621362443841448,41.07122625807248],[14.621413323687396,41.071282285050344],[14.621883210816929,41.0718219092776],[14.622292008197388,41.072308410055946],[14.62236778862481,41.072398593698836],[14.62276961857319,41.07287679248784],[14.623244830458196,41.073604051183636],[14.62331667569214,41.07371400028505],[14.62333676300583,41.073744738813765],[14.623552840791437,41.07387621021858],[14.62379284479099,41.07402223928402],[14.623882025638448,41.074076499648],[14.623930880133202,41.0741062238574],[14.624082924321002,41.07419912497489],[14.624457031936302,41.073972426473624],[14.624603913605272,41.073883526481374],[14.62504150047406,41.07328317648909],[14.625484628559624,41.07316358847758],[14.625530419251765,41.07315122826155],[14.625898008508033,41.07320521683887],[14.62633898480779,41.073467186214735],[14.626691583281271,41.07400803742716],[14.626891625616361,41.07467789244437],[14.627007106198816,41.0748242236384],[14.627098774924612,41.07494037923839],[14.627161812028206,41.07502023628393],[14.62773245876547,41.075181324248796],[14.62850483399409,41.07527135705101],[14.628683967842525,41.07529223654289],[14.629159879151146,41.0754579596891],[14.62916885166883,41.0759886525339],[14.628902714262068,41.07675336258572],[14.628921197675991,41.07709480902428],[14.6289360056937,41.07736837004552],[14.629005607111065,41.077395334235376],[14.630039567387064,41.07779589377161],[14.63063272762305,41.07803689094347],[14.630843408671764,41.078778227836764],[14.630872343288287,41.07977605877382],[14.631179472803614,41.08044515374206],[14.630997934779,41.08090415854989],[14.630541150513242,41.08157020082201],[14.630824730911142,41.08216394064592],[14.631046457511163,41.082868731178266],[14.631316870043625,41.08351713278759],[14.631351439961168,41.08378571662326],[14.631396896816208,41.08413886337139],[14.631480441692062,41.084446030117235],[14.631869903940473,41.08454776186769],[14.63241814765503,41.08461090128878],[14.632822297036649,41.08490165920698],[14.633246754383695,41.08529943762303],[14.63380500919625,41.08572215907869],[14.634171823458429,41.08614977058623],[14.63380151553235,41.08627145507448],[14.633021139412431,41.086421879501316],[14.632955834656965,41.08643446712525],[14.632519307283552,41.086593540446955],[14.632370815838215,41.08664765090169],[14.631550475719104,41.08647193350898],[14.631155650255728,41.0866442768316],[14.630842012665482,41.087253783252976],[14.63085043491007,41.08809056245473],[14.630501521785881,41.088800835923045],[14.630012116965391,41.089225411764836],[14.629638476464438,41.089846872190506],[14.629338211853105,41.090491742552544],[14.629179103348957,41.09103067255845],[14.629355487871113,41.09167467318603],[14.629422369683406,41.092238532644366],[14.629217179268185,41.0927257038325],[14.628987402014486,41.09341212240692],[14.628662317158708,41.09393216007957],[14.628147840429309,41.094533508144565],[14.627716376040919,41.09503628143997],[14.62713925375295,41.09587024618409],[14.626731905999696,41.09638531065944],[14.626315940961943,41.09656878432591],[14.626100509798828,41.09666380714876],[14.625359870362473,41.096830615329985],[14.624953309744015,41.09710708876487],[14.624844936010424,41.09753998990684],[14.624385617999938,41.09764801164988],[14.624338312230854,41.09765223765924],[14.62416269046449,41.0976679254123],[14.623472511267288,41.097859260712035],[14.622555626788007,41.097922164718966],[14.621687623425393,41.097600059023925],[14.620999176022744,41.097246665976044],[14.61997439108204,41.096896093345634],[14.618942090003758,41.09673518554267],[14.618505976308906,41.09682075908066],[14.617751269634732,41.096968991088595],[14.617116661937551,41.09731509051315],[14.616093160909042,41.09752268305338],[14.614805535920766,41.09759015784822],[14.613328102824447,41.09773439109059],[14.612041879081666,41.097914265223324],[14.611860528605359,41.09823820426561],[14.611942196491835,41.09870683121898],[14.611570993458571,41.09881049434689],[14.610750586795353,41.09881907038564],[14.609486535399936,41.0988493088069],[14.60878729789039,41.0990546665022]]]}}]}
