{"type":"FeatureCollection","metadata":{"code":"063034","referenceDate":"2026-01-01","sourceDbfExportDate":"2026-02-18","upstreamArchiveUrl":"https://www.istat.it/storage/cartografia/confini_amministrativi/non_generalizzati/2026/Limiti01012026.zip","sourceManifestSha256":"70ac8256c4785dc6ed2814c32b6965ae76f9161b51abaa1660059e1c6cbd8ca6","license":"https://creativecommons.org/licenses/by/4.0/","attribution":"Istat, Confini delle unità amministrative a fini statistici al 1° gennaio 2026, versione non generalizzata.","modifications":["Converted from WGS 84 / UTM zone 32N (EPSG:32632) to RFC 7946 WGS 84 geographic coordinates.","Converted from shapefile to per-municipality GeoJSON without geometry simplification."]},"features":[{"type":"Feature","id":"063034","properties":{"code":"063034","name":"Giugliano in Campania","alternativeName":null,"regionCode":"15","regionName":"Campania","territorialUnitCode":"263","territorialUnitName":"Napoli"},"geometry":{"type":"Polygon","coordinates":[[[14.140362306922537,40.97905679002338],[14.140274206288787,40.97914415777338],[14.138315133267792,40.9790162036659],[14.136890668633212,40.97886827615893],[14.134598026898361,40.97873660969566],[14.132932304742647,40.978846998101275],[14.131730239869514,40.97899069079664],[14.128659444984795,40.97918621550007],[14.12417523364738,40.97913207641341],[14.122699139077241,40.97911418578055],[14.114486755511631,40.97901444053366],[14.11221205397618,40.97898689656445],[14.112120062670877,40.97879212483292],[14.112080786469123,40.97870896421452],[14.111554036995647,40.97759364256241],[14.110683304959561,40.97686707813161],[14.110090345271106,40.976413656844215],[14.109542958326966,40.975994931444696],[14.109096202322599,40.97553051502047],[14.108616882417921,40.97503223551936],[14.108277575491373,40.97445949079061],[14.108081498480322,40.97412869446152],[14.107644474659114,40.97402656272641],[14.10670587068322,40.97392871048023],[14.105931791489832,40.97320231454781],[14.105875011211834,40.97306954397882],[14.105637382721453,40.97251387908142],[14.10557473293707,40.97236738060664],[14.105446324164422,40.97209754022408],[14.105008327515975,40.97117709998965],[14.104664323471775,40.97018400636806],[14.104165547212002,40.96936885561524],[14.103380867757082,40.96841783277529],[14.102457147636892,40.967328932686826],[14.101392801729425,40.96612021783664],[14.100646188598477,40.964978417507595],[14.10029116154445,40.96441547826084],[14.100041367133425,40.96401939184653],[14.099744966131174,40.96320874092318],[14.0992558055015,40.962420152984016],[14.098840957527406,40.9623350165838],[14.097868988094413,40.96214853315725],[14.096970474360267,40.96177797172292],[14.095949390946924,40.961332684170216],[14.09548253631753,40.961128910770114],[14.09512810197798,40.961025770845005],[14.094366363803621,40.96080410153572],[14.09418028156744,40.96074994980037],[14.093832555971817,40.96058313537468],[14.093763112197328,40.960549814867306],[14.093002590178035,40.96018494910004],[14.092634088243088,40.9600081544472],[14.091079987455622,40.9597798536863],[14.09097619081462,40.9597793568049],[14.09089657191687,40.95977897607415],[14.090849437734587,40.959778502241925],[14.08965450703642,40.95976643934452],[14.088169655325931,40.959791642063585],[14.087101829139023,40.95963180312172],[14.085402324509323,40.95962595703371],[14.083729180849053,40.95946134353452],[14.08253798820987,40.95948518373189],[14.082232091143965,40.95949150901033],[14.082104905179175,40.959559071001514],[14.081262211753145,40.96000585224946],[14.079633166206978,40.960029491767614],[14.077873434126582,40.95988219883415],[14.077613634094796,40.95986134256364],[14.077402475410818,40.95984440444464],[14.07715994993921,40.95983711768056],[14.07642604316914,40.959811155436675],[14.075348303603796,40.95977302575269],[14.075238284484998,40.95977337802426],[14.074029799093891,40.95977724643885],[14.073455647654447,40.95978840420085],[14.073000748900757,40.95979725586519],[14.072861343186513,40.95979997273957],[14.072567984317272,40.95980568845673],[14.07167156964082,40.959906043755645],[14.07117480833013,40.959961653860994],[14.071076517140737,40.95997090781924],[14.069886654406911,40.96008292807377],[14.06955570563216,40.96011408374669],[14.069291952277815,40.9601226643526],[14.068697534050054,40.96014200328621],[14.067606125247133,40.96017750208445],[14.067508806839765,40.96017298453112],[14.06691504918527,40.96014542362763],[14.065765382440812,40.96009205101072],[14.06572750620233,40.96009218626472],[14.064891512169716,40.960095171196485],[14.064208491315089,40.96009760500166],[14.063518330501092,40.960094526653045],[14.062534080040155,40.96009031294996],[14.06156970067465,40.960102663720726],[14.060798092384186,40.960112701011845],[14.059230077181754,40.96002528047157],[14.058767432024434,40.95999948421795],[14.057176953292771,40.95986685440877],[14.055570804345825,40.95984688676551],[14.055419058512031,40.959845115410815],[14.054770684596003,40.95978914402062],[14.054309652027273,40.95974928286992],[14.053829772304182,40.95970773620399],[14.053744011057399,40.95970186528194],[14.053710535800072,40.95969953879444],[14.053566801564042,40.95968941790497],[14.05350890128564,40.95968551323271],[14.053135398474888,40.95965869921726],[14.051668054466445,40.95955079424842],[14.049234308042381,40.95937857448676],[14.047371081521622,40.959221792057456],[14.045855856812638,40.95882011042828],[14.045432994873126,40.958681979003316],[14.044069933341945,40.95823671127757],[14.043943883577308,40.958169195575124],[14.043655989430901,40.95801499074944],[14.04304453771168,40.95768747554864],[14.043310625129005,40.95741019589021],[14.043852832235732,40.95685073180961],[14.044596201427353,40.95634994677403],[14.044728469156523,40.956254293560754],[14.045557062261793,40.95565506002576],[14.045721951294514,40.95550299441339],[14.046592330911364,40.954700287737026],[14.046731931672436,40.95411794980868],[14.046461128222253,40.953895754714694],[14.045596999838109,40.95369959230388],[14.045446036665536,40.95367283649951],[14.04525486214507,40.95363897540108],[14.045055920574024,40.95360373687341],[14.044842675466093,40.95357320219396],[14.044732636945367,40.95355753759635],[14.044687538093546,40.95354390316836],[14.043820989439148,40.95328230942677],[14.04289894022318,40.95295811941555],[14.04272316860272,40.952896247024306],[14.042011932255166,40.95264588340696],[14.040853205451345,40.95226451317443],[14.040782745781005,40.95224973706327],[14.03878001039602,40.95183318298527],[14.037244170824856,40.95159231803408],[14.036895307086946,40.95153760296964],[14.03655472042103,40.95124641831026],[14.03665891210419,40.95060711739265],[14.03702997901369,40.94962301295652],[14.035976892576654,40.9493314999316],[14.034688177203172,40.94887923524701],[14.033960611032079,40.94910015679065],[14.032860810025872,40.949539932739484],[14.032210300302802,40.94943785285686],[14.031335574974033,40.94907098815981],[14.031005415763243,40.948930140042634],[14.030902387268828,40.948886186215],[14.030259764292099,40.94861201991166],[14.030053102658433,40.94852386262956],[14.029871250605083,40.948446278418146],[14.029654121809132,40.94852133468788],[14.028921734000797,40.948774497267785],[14.028857391596485,40.94879673836076],[14.028806299534162,40.948773526107054],[14.028731295433067,40.94873944879292],[14.028600110993652,40.94867984620523],[14.027664338507721,40.94825467539969],[14.026075999357442,40.94929310228322],[14.025836650667003,40.94944956262654],[14.025590206962844,40.949610773914216],[14.025553362866562,40.94963464490566],[14.025398812357613,40.949735796578935],[14.025305594701194,40.94979736842767],[14.023220069845317,40.95117486142465],[14.022997434622122,40.95104261684107],[14.022884448409418,40.95097550350378],[14.022760344321592,40.95090178631977],[14.022270409786202,40.950610762106066],[14.022150063403107,40.95053928315486],[14.022032200680144,40.950469262213396],[14.021352510011187,40.9500655112573],[14.019868529599869,40.94917143843167],[14.018868682521875,40.948494817531476],[14.01799836302217,40.94791155318876],[14.017787064472898,40.947403036980326],[14.017769499593191,40.947358818566514],[14.017773708041974,40.947328309578054],[14.017792851007757,40.94720295144401],[14.017843122950005,40.94687904277727],[14.017912935411795,40.946429233693436],[14.017967021423486,40.94608074034746],[14.017980350627532,40.94597940401974],[14.018039529987389,40.94552950509347],[14.018098708845327,40.94507960616159],[14.018139733567052,40.94476771348925],[14.018159096541016,40.944629636450486],[14.018222414621587,40.944177387927844],[14.018259966592474,40.943907143583445],[14.018402411601453,40.94309513136312],[14.018745802524277,40.942368884697146],[14.019115272007243,40.94149743683128],[14.019664530542745,40.940492111935505],[14.02018607902372,40.9397670852884],[14.020814996248559,40.93901935252599],[14.021444147489799,40.938285123117886],[14.021820886112964,40.937656447886894],[14.0220702173692,40.936884773723335],[14.02228359624334,40.93629094179851],[14.022367245399042,40.93605700649069],[14.022746821327564,40.93527064451241],[14.02349880280947,40.9342294173389],[14.024048218102438,40.933179038083026],[14.024501956461402,40.93223636925403],[14.024878423287406,40.93169323543757],[14.025484909485877,40.93090594853131],[14.025957934275054,40.93017851839836],[14.026337985207114,40.92936061174329],[14.02675170284443,40.928653784379414],[14.027374505899953,40.927505628043974],[14.027528590917568,40.92723898387676],[14.027716111678318,40.92691448231102],[14.02818988168612,40.92617801118136],[14.028636082942517,40.925357206507606],[14.028676104296949,40.92524841776084],[14.028715127339039,40.925133164073806],[14.028814847772068,40.92485421326935],[14.02831669133927,40.924029667818324],[14.027954994959321,40.92354580567425],[14.027714365998134,40.923025119411015],[14.027424446409292,40.922470576024644],[14.027298713980898,40.92219246364036],[14.02722060135584,40.92186726075308],[14.02729873065784,40.92138216706434],[14.02741253866238,40.92086850088741],[14.027429702616002,40.920498623657],[14.027507189037813,40.92011259294434],[14.027535309629219,40.91976023374287],[14.02755794872476,40.91957279131934],[14.027568332543861,40.91948681478915],[14.027576302360751,40.91942080983628],[14.027596237247494,40.91931609655555],[14.027640313781939,40.91908491029312],[14.027638039703955,40.91903745989135],[14.027631589723368,40.918869196755125],[14.02753836835923,40.91849393720022],[14.027487112753642,40.91828758340326],[14.027474504611808,40.91823682395007],[14.027449082599572,40.918128111287814],[14.027425447632183,40.91803115731729],[14.027340644467586,40.91768327637873],[14.027273574125909,40.917408298980234],[14.027247361349822,40.917346419745186],[14.027199071048898,40.91723167662224],[14.027143808201538,40.917102154769],[14.027113340713983,40.917028165469254],[14.027075888940198,40.91691164669107],[14.027033397344193,40.91677987036471],[14.027000296785268,40.91667716262306],[14.026968326674782,40.916577398205206],[14.026971901517152,40.9161905869759],[14.026973589986703,40.91600787950769],[14.026974002983438,40.915944837448365],[14.02717492008871,40.9155970071072],[14.02732206234982,40.91542970283324],[14.027543982069286,40.91517715287149],[14.027758935335665,40.91497775623329],[14.028231975303525,40.914537946454196],[14.028265979769774,40.91450635340332],[14.028371932631863,40.9144080184886],[14.028712867517235,40.914091593552406],[14.028795360595428,40.914015029581904],[14.028974618350864,40.91379638800839],[14.029099193039487,40.91364444039334],[14.029388697794907,40.91329132321853],[14.029430460666498,40.91319681049202],[14.029501997061825,40.913034906254666],[14.029581764732834,40.912853661035015],[14.029598473323132,40.91281505392475],[14.029628666793839,40.912748177038004],[14.029646282786375,40.91270834539326],[14.029793219935657,40.912299063794435],[14.029930334160724,40.91191714081559],[14.029952491121772,40.911849998542],[14.029998351768569,40.91171103389136],[14.030100716057708,40.91140083902397],[14.03012930214786,40.91131421126708],[14.03020081159207,40.9111459982117],[14.030283293947848,40.910951969615255],[14.030425688591674,40.91061700303351],[14.030487979157082,40.910503284658745],[14.030733561660515,40.91005494363277],[14.030779379251303,40.909971294023485],[14.030812339865392,40.90992563394587],[14.031042248330783,40.90960713104669],[14.03120215358638,40.90938560433427],[14.03135841946236,40.909159380153035],[14.031418486469375,40.90907242220633],[14.031664018181015,40.90871655840727],[14.031829664401574,40.90826252653495],[14.031935785136303,40.907971503409456],[14.031996033211213,40.90781351555774],[14.032031905430904,40.907719450526294],[14.032167247431266,40.90736454628613],[14.032330932183969,40.90693553004708],[14.032538358866256,40.90646684763316],[14.032647428213743,40.90622040140385],[14.032736956553086,40.90601810659503],[14.032834191593935,40.905798398642936],[14.032910703472435,40.905569159656984],[14.033060611390667,40.905120009473556],[14.033210517627731,40.90467086008854],[14.03326608328854,40.90450437380781],[14.03334345273668,40.90427255627363],[14.033362726758382,40.9042217592172],[14.033430016817318,40.90404443381602],[14.033710454104488,40.903324749915384],[14.033731555246202,40.90325534740848],[14.033750018633063,40.90320137064477],[14.033886821804945,40.90287568785703],[14.034033264643842,40.90252722306914],[14.034089362302772,40.90242740778988],[14.034102978756097,40.90240324183732],[14.034342144755213,40.90197789823317],[14.03449404914488,40.90170774062142],[14.034594212988234,40.90152960246743],[14.034846279167551,40.90108130537637],[14.034874061376568,40.9010318931588],[14.035102545591956,40.900687544904045],[14.035139570667868,40.900631868627194],[14.035230930754771,40.90049200260043],[14.035313253544032,40.900369134402396],[14.035372436290436,40.90028080330767],[14.035509856291663,40.90011903769937],[14.03571004290778,40.899883383731606],[14.035649702996768,40.89986613033408],[14.035128890869176,40.899717196099395],[14.033934367884271,40.899375593236186],[14.033343226831503,40.89920653556829],[14.033193977125498,40.89916385238412],[14.032569572417438,40.89898527631223],[14.0324513364354,40.89895053226023],[14.032212627207226,40.898885201299464],[14.032074228134872,40.898837900386084],[14.031933606288893,40.898777801826256],[14.03350013105305,40.89548402354678],[14.035292870250819,40.89106765237416],[14.03742236720977,40.88612910972406],[14.037836111873931,40.884631728925946],[14.037844019983947,40.884605548201485],[14.039183353797268,40.880171306366705],[14.040019789013355,40.877826920892744],[14.04077494533451,40.87793602728208],[14.040895726345457,40.87792220163097],[14.041614817676797,40.87782529725662],[14.041962754177742,40.87777840827369],[14.042557316317575,40.87769827920534],[14.043073155075572,40.877628757530594],[14.04315188116373,40.87761804970985],[14.04350945058354,40.87756942827969],[14.043594654149924,40.87755633388745],[14.044332930602858,40.877454221892975],[14.045727233776518,40.87726137097906],[14.045875062591554,40.877240915743826],[14.046823894254288,40.87710965499745],[14.048416704372245,40.87688863013425],[14.04850411990355,40.87687647673611],[14.048539057824211,40.876872355959165],[14.04864570029634,40.87685760664097],[14.048702604595304,40.87684971366538],[14.048778474943258,40.87683917863997],[14.049097723837237,40.87679490548248],[14.049692301982489,40.87671247179737],[14.050034339698,40.87666504214054],[14.05454091524565,40.8760401196165],[14.054621331674555,40.876028982153294],[14.054835646222056,40.87599927925317],[14.055043480081338,40.875970455841745],[14.055638042755183,40.87588799212408],[14.055867150709823,40.8758562146635],[14.055977781186149,40.87584084392418],[14.058565890694743,40.87548098452234],[14.05877154104788,40.87463013805074],[14.058831640413736,40.87437935308879],[14.0589218447964,40.87400287604964],[14.058986188805045,40.873734038052234],[14.059024460367654,40.873575400018815],[14.059077370354201,40.873356240356436],[14.059158600812038,40.87301950076296],[14.059238744978456,40.87303519046182],[14.059830470201307,40.87315102879454],[14.059928473718132,40.87317021362956],[14.060422166879867,40.8732692322779],[14.061012647749099,40.87338764101136],[14.061605551021469,40.873506571221604],[14.062197247583006,40.873625235404845],[14.06225517957912,40.87363685396027],[14.062253207646346,40.87355861496193],[14.062219864720978,40.87340179108449],[14.062120720694747,40.872930619596225],[14.062048827706745,40.87259075882673],[14.062076289549243,40.872479847937804],[14.06210783508903,40.872352644912596],[14.062133489297027,40.8722493151633],[14.062149115580647,40.872185691279604],[14.062157600314867,40.872030100625324],[14.062166097005493,40.871874324874746],[14.062156461448142,40.87157968208964],[14.062141731600914,40.87112915210133],[14.062126999969971,40.870678623079264],[14.062097539357506,40.86977756398039],[14.062082811626537,40.86932703474895],[14.06206735170434,40.86885414091856],[14.062264670861687,40.868857721277095],[14.06277779875271,40.86886798765898],[14.062758837458576,40.86932733072488],[14.062728771764043,40.86979602897055],[14.062722483357861,40.87023305317609],[14.062721120760768,40.87032835265197],[14.062753254590431,40.87068371263909],[14.062783156867757,40.871014364710156],[14.06280008169361,40.87113529602099],[14.062823259695337,40.871310678260805],[14.062860442766635,40.87158540323879],[14.062890359215993,40.87180644214088],[14.062926567006611,40.872036349787464],[14.062988255638507,40.8724287705727],[14.062991798069767,40.87253725299582],[14.063012596924269,40.873174066490556],[14.06320977600203,40.87357538964963],[14.063672814765413,40.873568158368485],[14.064385637388966,40.87343774673193],[14.06540478480706,40.87346489855687],[14.066282911118552,40.873606302876425],[14.067541208059858,40.87360040877742],[14.067636168564583,40.873597487193265],[14.06802407044602,40.87358555754839],[14.068894642036996,40.873558778376584],[14.069615411565167,40.873582374674],[14.069949959819835,40.87359332359369],[14.070932630832731,40.87365176356999],[14.070993262256978,40.87365536094115],[14.072418014518144,40.873538522822386],[14.072705405725012,40.87352585182071],[14.07284693046088,40.87351511144773],[14.072879346289792,40.87352400260142],[14.073496205899257,40.873693492787794],[14.07405717955104,40.87416319888792],[14.074083574312276,40.874185342594124],[14.074189574830863,40.87437935862906],[14.074453423489665,40.87486228737847],[14.074473654593206,40.874935824793866],[14.074505169804011,40.87505369304737],[14.074679915968392,40.875294128881485],[14.074730190570033,40.87536051670118],[14.07549776996897,40.87613848828185],[14.075917791737,40.87650872199842],[14.076517456642993,40.876962500918765],[14.076563544239377,40.87726919189605],[14.077905124160807,40.87793757543739],[14.078159080253643,40.87800702905249],[14.07834267613912,40.87805716529976],[14.078515227658562,40.87810428201008],[14.079222906524954,40.87829361786056],[14.079732940925222,40.87842865697392],[14.07993123098179,40.878478897169],[14.080867771895022,40.87871617163069],[14.081827671259719,40.878849325474036],[14.082779797580313,40.87865871894075],[14.083317918371021,40.87849543149823],[14.0837324537052,40.878369027386185],[14.084791313971262,40.87817816754997],[14.08599066155065,40.878224200216614],[14.087149344727356,40.87854208945749],[14.088535503515574,40.87873287616145],[14.089911354217348,40.87878905493614],[14.091176853810676,40.8788143037566],[14.091299150702465,40.87881765776496],[14.091399950819989,40.878822641012064],[14.092387559844845,40.878871457184225],[14.092980577579983,40.878900765611704],[14.093173042816835,40.87891027727343],[14.094166539868356,40.87896495580593],[14.094714180670017,40.87899509239535],[14.09535341333943,40.87896248862581],[14.095947244842119,40.87893219861123],[14.096057469048953,40.87892657572968],[14.096467446864597,40.87889841506613],[14.096508129488711,40.87889563493979],[14.09679180522855,40.878876136072456],[14.097328267394351,40.87884776035382],[14.097430073196735,40.87884268113849],[14.098646715621438,40.8787488141631],[14.099390148587377,40.8786325889186],[14.099510910308895,40.87861374333154],[14.099812216357822,40.87856660491347],[14.099796935639004,40.8786493627227],[14.099776113141127,40.87876228867455],[14.099668385339255,40.879351780109616],[14.099651997398645,40.879440870389615],[14.0996178134703,40.87962860914368],[14.099586735435862,40.87998536330093],[14.099577783061212,40.880088935278366],[14.09950059694887,40.88047560130981],[14.099411834974712,40.88097922192291],[14.09938207860057,40.881430701483346],[14.099356087123951,40.88146996642453],[14.099288327800014,40.88157233771129],[14.099115076455696,40.88183416445618],[14.098707589581146,40.882126832370226],[14.098566623798703,40.88222943547146],[14.098460401303443,40.882306746939776],[14.098239993742114,40.882467171283835],[14.097939036702947,40.88274342169988],[14.097843207758226,40.88283138568436],[14.097574814199083,40.8833519651607],[14.097530357911701,40.88351149206833],[14.097506879450318,40.88359663052333],[14.097399993359781,40.883989925167825],[14.097486648614119,40.88456679106363],[14.097585654268329,40.885179138077646],[14.097615541286732,40.885245568907415],[14.097811990002059,40.88568220074605],[14.097919259240983,40.885920612594354],[14.098224590811835,40.88656956071252],[14.098327222768457,40.886779565164304],[14.09849216687402,40.8871164291112],[14.098507454546267,40.88714709741127],[14.098554689499535,40.887241913542],[14.09868093782637,40.887493921964136],[14.099024469994855,40.88824848748527],[14.099142399996275,40.88850884908871],[14.099154811571005,40.88853531149716],[14.099173643321798,40.88856543635192],[14.099584456701034,40.88922304196626],[14.100472471878549,40.890192020763685],[14.100713404374671,40.89052567205145],[14.10076681668653,40.89059965153191],[14.10110241728903,40.89106438481351],[14.101274978403925,40.891583415893194],[14.101387077469004,40.89192058491626],[14.101397941854765,40.89196511055177],[14.101430091649624,40.89210523810136],[14.1015244094571,40.89251610870298],[14.101532952820468,40.89255332484935],[14.101619294529067,40.89306307751073],[14.101695442337936,40.89351290252457],[14.101720641684562,40.89366140067677],[14.101848349084841,40.893750271070566],[14.102356148564782,40.89409304778452],[14.102656154084434,40.89421841658963],[14.1029302403737,40.89433011593022],[14.10313487284689,40.89441349784547],[14.103336270990019,40.89455474205894],[14.10350590355933,40.894673708532395],[14.103587635747981,40.89473102726818],[14.103780831682295,40.89486651685597],[14.104244728573912,40.89549252791596],[14.104310486266126,40.89558126787653],[14.104411707786923,40.89572081877193],[14.10448738785002,40.89580600767223],[14.104672993229858,40.8960148851688],[14.105031267478529,40.896418091430625],[14.106098682217034,40.89730704062693],[14.10723995617444,40.8980751864905],[14.107555147827867,40.898323375604285],[14.107592294052822,40.89835254977633],[14.107707486740427,40.89844335917573],[14.107799698493867,40.898515996667484],[14.107862796007437,40.89856569463578],[14.10802797417101,40.898735761848314],[14.108141597937834,40.89885305517727],[14.108191521581203,40.89890459665534],[14.108254761615813,40.898969885343696],[14.10849444575823,40.89921733844858],[14.108529311580439,40.899238596163045],[14.108728407094823,40.89935982211861],[14.109590076611493,40.899884459869156],[14.110692603814412,40.90093835967012],[14.112002897100254,40.90231622821563],[14.111590768104062,40.90309065837955],[14.111349541119262,40.903527680434884],[14.111285060111172,40.90366506909311],[14.111238054949146,40.90375481011842],[14.111729375004336,40.904142448274555],[14.112304392534517,40.90452259269333],[14.112941261444021,40.904943620805106],[14.113094759361491,40.90504509759247],[14.113665666812707,40.90583063832099],[14.113795157936243,40.906008809749466],[14.11459073043996,40.90686025414568],[14.114938500184607,40.90749301314381],[14.11506802607668,40.908468605622716],[14.114902859305932,40.909268217881426],[14.114864050097458,40.909571573666675],[14.114836256250397,40.9097888581973],[14.115026119926481,40.91067171313571],[14.114942922201683,40.9116297540699],[14.11493112118629,40.911884477798544],[14.114908440926442,40.91237404647587],[14.114892429277573,40.91276191217677],[14.11489957773526,40.9131037127092],[14.114783019476413,40.91376529406901],[14.11471458428261,40.91532672225753],[14.114723764112139,40.915627931285485],[14.114752647324647,40.916049791863266],[14.114639861035476,40.91650046699694],[14.114432696028462,40.91691031093478],[14.114412008181427,40.91734339269408],[14.11394826665957,40.91849390810894],[14.113800901726936,40.91884258705287],[14.113641540835767,40.91921881166686],[14.11362053077913,40.91927405617225],[14.113583646394755,40.91936912383095],[14.113568423368614,40.91940858940909],[14.113450507506547,40.91971284919251],[14.113310122145535,40.920075342465374],[14.112904063841484,40.92107023138695],[14.112449562269166,40.92228337048424],[14.111912985214833,40.923314994081586],[14.111778454195223,40.923573640221164],[14.111644821170662,40.923766238889655],[14.111124255084123,40.92451653197864],[14.110700029751143,40.92485023370891],[14.11006888188625,40.925346697654355],[14.109547491436167,40.92611712307468],[14.109328909648195,40.927292757690836],[14.109132673672285,40.928040558047385],[14.10910420627586,40.92814902997238],[14.108722481250718,40.92921036418536],[14.108357231374598,40.93008189597633],[14.108304461737236,40.93020576957638],[14.108212379434132,40.93060280717428],[14.108064387518745,40.931247312266095],[14.108062090451508,40.93129290959782],[14.1080577075045,40.93137475579277],[14.108053942248226,40.93144576883199],[14.108050234633854,40.931515698918886],[14.108008440867271,40.932304180490014],[14.108004194067217,40.93238430011066],[14.108001317769247,40.932438538392645],[14.108014174969826,40.9327485674096],[14.108032860247224,40.93319911802852],[14.108037468158257,40.9333102378458],[14.108099588321904,40.93395120409165],[14.108118090415022,40.93410058826886],[14.108134377212457,40.934232062506496],[14.108174426166748,40.93455535193845],[14.108252478023608,40.934780956023374],[14.108329373787125,40.935003035301065],[14.108346376524565,40.93505214103805],[14.108699360069224,40.93527053898058],[14.108840165143578,40.93524466952353],[14.109435556814274,40.93513528063009],[14.109830429309767,40.935062730017],[14.110628508705227,40.934754682492304],[14.111096612457251,40.93457399604952],[14.111227415739286,40.93452347520982],[14.111822455466863,40.9342985814691],[14.112415600323748,40.934074368538404],[14.11244858178827,40.93406190038408],[14.112577069064146,40.93401332845337],[14.113747387462299,40.93356516179842],[14.113782942265416,40.933554582964646],[14.11463002827354,40.933282816864065],[14.115097815966745,40.93308071324907],[14.115403736790766,40.93294980195775],[14.115705967810554,40.9328203171534],[14.116559529261364,40.932363960534204],[14.116595920433861,40.93234476353364],[14.116763226036518,40.932254803320205],[14.117317910804031,40.9319193641536],[14.117571826518136,40.93176547111524],[14.117788089399303,40.931683826869424],[14.118389726352154,40.931464881277876],[14.11880123467046,40.93131462428496],[14.118989377058739,40.931293309628316],[14.119071249921785,40.93128402660604],[14.119584154129432,40.93122592039156],[14.119708489220816,40.931211834992745],[14.120265071803864,40.9311487786974],[14.120765341522272,40.93109212915071],[14.121367533269122,40.93103662513121],[14.121962933793982,40.93098167610635],[14.122371760542846,40.930943937575776],[14.122442195954765,40.93093747901622],[14.122493114129787,40.930943548940775],[14.123150163055474,40.93102203437236],[14.123516786078447,40.93106582254422],[14.123740969131713,40.93109251758563],[14.123969974319929,40.931119992193274],[14.124060224589465,40.9311309029474],[14.124349941364889,40.93116653413976],[14.126410766011647,40.931650889700585],[14.127542311633313,40.931852532717734],[14.127952237380466,40.93192427195511],[14.12922304469207,40.93183608688818],[14.130021162838311,40.931978453208174],[14.130313217024325,40.93203054344563],[14.13144922427914,40.93153420160122],[14.131617909341985,40.9314613068375],[14.132738547473046,40.93097698949767],[14.133339446793402,40.93075217743347],[14.13350345159569,40.93069076898362],[14.133657902022165,40.93063302976227],[14.134063749663637,40.93048118752511],[14.134443021965197,40.93033095171159],[14.134649650741958,40.93024910192559],[14.134717145943727,40.93022236491729],[14.134795731763703,40.93019121718579],[14.135145550254451,40.930052670373584],[14.135263342274405,40.93000601746816],[14.135306151735676,40.92998905971046],[14.136134182198909,40.929952081292406],[14.136743483730703,40.92992486687095],[14.137847841940435,40.92992955788777],[14.137919330460683,40.92992975556801],[14.138702744652353,40.92993186847173],[14.139574708897984,40.92993381981015],[14.139770014345716,40.92993425743263],[14.140045138030377,40.92993490591781],[14.14034630974145,40.929911715791214],[14.140388867336812,40.92990939311024],[14.14064339023636,40.9298910431829],[14.140677379916363,40.92988852987815],[14.140982183312444,40.92986660275095],[14.141079662460648,40.92985944238525],[14.141125170377968,40.92985628528982],[14.141241014399542,40.929847985081075],[14.141363429646246,40.92983914339094],[14.141576062587632,40.92982393809222],[14.141773898008847,40.92981482382873],[14.14200706382493,40.9297925298091],[14.142573291550121,40.929736822670115],[14.143588432266935,40.92963693041434],[14.144148130798126,40.929611895119486],[14.14453885145141,40.92959891610253],[14.144746558059392,40.929699963875024],[14.144777750816166,40.929715600673525],[14.145140585380009,40.929732102925854],[14.145267095987881,40.92973754017082],[14.145412441095372,40.92973916173159],[14.145553389742597,40.929738501239726],[14.14587919004825,40.92973949177687],[14.146769864815182,40.929742170689124],[14.146922079468531,40.929742904885806],[14.147672843388458,40.929746522909156],[14.148109757040142,40.929748624971964],[14.148313668784654,40.92974960536551],[14.149215451120979,40.92983977499457],[14.149296344060343,40.92983927707782],[14.14979833325276,40.92983618733869],[14.150488466287852,40.92949813103191],[14.15052657502472,40.92947946318289],[14.15060742252919,40.92946695343206],[14.151083681549856,40.929393260507716],[14.151678731396993,40.92930118333835],[14.151918717632801,40.92926404780586],[14.152620162451065,40.9292776296629],[14.152866535554555,40.929296358811435],[14.153127735456245,40.92931621468248],[14.153258244939067,40.92903604334665],[14.153312967063505,40.92890446223835],[14.153372120268765,40.928736552791534],[14.153424155369235,40.92858887732119],[14.153434744558263,40.92853853780098],[14.153463488001911,40.92840256671573],[14.153639844381246,40.928376634839125],[14.154066734304449,40.928319848720434],[14.154260877201253,40.928294022666925],[14.15435630448733,40.92827938032224],[14.15488509065535,40.92830023394672],[14.155160893612635,40.92830992509313],[14.155197403496961,40.92831120909589],[14.156325050179653,40.92835080495733],[14.15729071672305,40.92839392564104],[14.157834157611447,40.928418189527534],[14.159068667678923,40.92839882392341],[14.159899946649169,40.92838402332279],[14.160240096498372,40.928364524001054],[14.16063629829922,40.92834179802045],[14.160981285494202,40.92832201640174],[14.161893064983227,40.92828935641761],[14.161713330103021,40.92809108573802],[14.161619634114091,40.927989750690585],[14.161569743315827,40.927797801640715],[14.161436179084317,40.92753509871403],[14.161193410738626,40.92712865535373],[14.161165861459802,40.92709243948501],[14.160966600215374,40.92683046777606],[14.160701325752528,40.92648859022485],[14.160547235017722,40.926337112248255],[14.160388358259818,40.92618145616741],[14.160167630737433,40.925942444538386],[14.159958556758667,40.92568768163072],[14.159662163936247,40.92533538737462],[14.15951034992077,40.925154937119615],[14.15898093455966,40.92471571595583],[14.158705008940025,40.92428721822376],[14.158453883963265,40.92406121041669],[14.158199986775239,40.92383270554856],[14.157826156985333,40.92344823409783],[14.157696554676841,40.92331494847328],[14.157622264879334,40.92321271080538],[14.157439949407278,40.92296198369718],[14.157550982615787,40.92294869257008],[14.158159416881226,40.922875857756736],[14.158311268396218,40.92285613989451],[14.158372120884955,40.922847507974694],[14.159472899047442,40.92270873898641],[14.160114418871395,40.92265742338761],[14.16101964537251,40.92259430891498],[14.16199301214675,40.92251911125358],[14.162697535637967,40.9224976149214],[14.162932921773546,40.92249044295433],[14.163169763582825,40.92250230625462],[14.163642203236218,40.92234954067935],[14.164123440898225,40.922193902249155],[14.164240081570354,40.92215593809824],[14.164346539931312,40.922121267970034],[14.164409806002814,40.92210067901689],[14.165002951933813,40.92191517808964],[14.165185498414418,40.92185810318229],[14.166025444271687,40.92189817545132],[14.16631198822378,40.92191150170779],[14.166347324659286,40.92192490543949],[14.166616869874145,40.922030857342115],[14.16710340277675,40.92222209955508],[14.167207941340958,40.922248860517094],[14.167720473120442,40.9223802547604],[14.167797878567189,40.922400287325544],[14.168536049880254,40.92259438009447],[14.168985498145638,40.92255835325601],[14.169579905850943,40.92251070290557],[14.170070218780527,40.92247139527467],[14.170768543402021,40.92240550740485],[14.171363353163986,40.922349370382626],[14.171437011373314,40.922342419088494],[14.171958555718104,40.92240503614891],[14.172148591774665,40.92242774042791],[14.172695970961461,40.922493158085665],[14.172889009923125,40.92251873940962],[14.172968984483216,40.92252618713703],[14.173062596331715,40.92253488322533],[14.17318627936922,40.92254955420023],[14.173735283031048,40.92261466779555],[14.174328217196226,40.922684986677744],[14.1746036057186,40.92271764564997],[14.1748601263971,40.922756449512995],[14.174927471154628,40.92276635843467],[14.175585018212683,40.922863219717975],[14.176073154583396,40.92293512078503],[14.177346566460157,40.92316163033616],[14.177507094358628,40.923190185361335],[14.177885873773556,40.92333736589862],[14.177943650681692,40.92335939978004],[14.178547582350683,40.923593486039245],[14.179066255962217,40.92369348072992],[14.17962529684785,40.92380131437466],[14.179660279665514,40.92380806214448],[14.180005057721697,40.92387446486868],[14.180251558694172,40.92388278839482],[14.180742647108731,40.923899371500745],[14.180845134036673,40.92390283207388],[14.181071840485362,40.92391048173363],[14.181287975187395,40.92391870087801],[14.181438697386296,40.923924431644565],[14.18163126645414,40.92393175011866],[14.18203304031296,40.92388242015006],[14.182368221005863,40.923841267425885],[14.182627761821687,40.92380940067062],[14.182963432988174,40.92376818539379],[14.18369383597459,40.92368680352743],[14.183817090964073,40.9236725813091],[14.184092937618356,40.92364073700004],[14.184411515153979,40.923623585419236],[14.184606845998637,40.923613065248894],[14.18487693029853,40.923600879657435],[14.185375766609095,40.92361439800916],[14.185600033940416,40.92355094122999],[14.185866757075205,40.92347546711872],[14.186067995526837,40.923419104295824],[14.186195909267846,40.92338327083301],[14.186461617409316,40.92330884227179],[14.186791682127662,40.9232239469783],[14.187387376091712,40.92307072412518],[14.187734937516563,40.92298120788531],[14.187982300795646,40.92297955353788],[14.1885760669173,40.92297538778182],[14.189041296432608,40.92297299263248],[14.1891702934227,40.92298603799022],[14.189455087168902,40.9230171265602],[14.189567885503731,40.92302886683487],[14.190263664491129,40.92310129409338],[14.190349224714993,40.92310544077153],[14.190411240440945,40.923108439779455],[14.190663552804248,40.92312503602281],[14.190949366107223,40.92314433838221],[14.191331380277488,40.92317013711011],[14.191385766502615,40.923171792815836],[14.191542857616957,40.92317110514651],[14.19166682460919,40.923170561283804],[14.192136705834486,40.92316850170148],[14.192389039537492,40.923167394862986],[14.192505667349133,40.92317602971076],[14.192853151403545,40.92320175918419],[14.192924421733588,40.923207037159926],[14.193029029266341,40.92321485568879],[14.193207325503538,40.92322818482967],[14.193279261866415,40.923234053720144],[14.19331410721658,40.9232381908012],[14.193742593869686,40.92334927045237],[14.193800584798609,40.92336428846184],[14.193915419733266,40.92339403227316],[14.194024052287004,40.92342216635106],[14.194519560225135,40.9234267397795],[14.194563406859885,40.92342705591524],[14.194950487183146,40.92342984392453],[14.195102823903088,40.92341346755655],[14.195818113149043,40.92333656794047],[14.195887650991045,40.92332969613494],[14.195984916351662,40.923320087778144],[14.196198984823976,40.92326826111138],[14.196276535813054,40.92324653381964],[14.196604515155471,40.92316154253556],[14.197040896807996,40.923043534817474],[14.197343986483872,40.922961573099776],[14.197544872657373,40.92259663508315],[14.19761081056242,40.922476850617095],[14.198083507308246,40.92214696290808],[14.198210713082362,40.92205810731552],[14.19830188398453,40.92204930458109],[14.198407354573208,40.92204306227937],[14.198452997591259,40.92204036072514],[14.19868248862196,40.92202677789534],[14.19925642445776,40.92199293183624],[14.199913494971314,40.922026209663734],[14.2000625727483,40.92203291307007],[14.200463174987851,40.9220881820864],[14.200650283450583,40.92211399715067],[14.200815296490077,40.922136739970334],[14.200870354527593,40.92212431687461],[14.201057054613585,40.92208219625421],[14.201093714902614,40.92207392545803],[14.201165253700937,40.9220754705857],[14.201540292943918,40.92208356340525],[14.20165090750827,40.92207856015063],[14.201945336201883,40.92206524129949],[14.202017199484377,40.92206199147891],[14.202068302539807,40.92205393404776],[14.202282706576895,40.92202013751125],[14.202558006993344,40.92199790955357],[14.202653304183423,40.92195165742995],[14.202682684974295,40.92193739799444],[14.202840529348792,40.92191110370879],[14.203051553489935,40.921875951540066],[14.203121501477938,40.921879925326735],[14.203159815012786,40.9218821018729],[14.203295220709215,40.921889791481014],[14.203434519253161,40.92189593721888],[14.203793393295424,40.921911765683625],[14.203932245044573,40.92191035854108],[14.204028162420393,40.92190938521648],[14.204083457145094,40.92190882493388],[14.204621918095627,40.92191360858294],[14.204910111842405,40.921916167522866],[14.204869786114584,40.92205602785282],[14.204991062005707,40.92204851224293],[14.205214155935025,40.92204459785962],[14.2053882230559,40.922041542764994],[14.205513298811642,40.92203673468654],[14.205584956162209,40.92203512510412],[14.206084506015944,40.92205753651784],[14.206401509069268,40.922066314935066],[14.206516120978096,40.92206948985715],[14.206671482242013,40.922058959062205],[14.207383057570262,40.922010716936924],[14.207524949872592,40.92200150792948],[14.207589955490283,40.921997666638724],[14.207662309466993,40.92199338810926],[14.20805440906962,40.92203669834985],[14.208183432542109,40.922025364103135],[14.208309173009456,40.92201431794666],[14.208352780801851,40.92201048200174],[14.208399619916154,40.922006365545066],[14.208539361592088,40.92199408450328],[14.208889313930447,40.92184721221801],[14.209298576410845,40.921575325734864],[14.20945390035676,40.92147214409599],[14.210033658566184,40.921097177286626],[14.210577547278167,40.920725115804856],[14.210753354396182,40.920604854668824],[14.210791988835206,40.92057699159864],[14.2109425383189,40.92045334789912],[14.211377752808959,40.92009587001462],[14.211403894787024,40.92007010518105],[14.211773835313736,40.91970536085772],[14.211944511676839,40.91953733604962],[14.212021483082951,40.919486646313764],[14.212314896581683,40.919186065507766],[14.212374458366549,40.91912960949475],[14.212410061713948,40.91909586203465],[14.212449749206264,40.91905824359352],[14.21253672351854,40.91902192187699],[14.213423430880844,40.91865154261521],[14.213568237008026,40.918604537921524],[14.21361558014881,40.91858918410414],[14.2136749442019,40.918569931644676],[14.214164303990726,40.918411222455696],[14.214235252248567,40.918388212376996],[14.214640217267181,40.91827437625334],[14.214759979344377,40.91825075404179],[14.214954474093869,40.91821238994295],[14.215167125659999,40.91817044538375],[14.215354778659329,40.918164004213125],[14.215685746606619,40.91815264298879],[14.215948652171706,40.91815558657699],[14.216191141175257,40.9181583041289],[14.216869712953219,40.91816182317064],[14.21713613516623,40.918160791701574],[14.217758410802507,40.91815837492812],[14.217834099853972,40.918158088215],[14.218494132656392,40.91812813804103],[14.218917857798278,40.91812655260133],[14.219180581782545,40.918125570761035],[14.219165486873678,40.918240170517706],[14.219536840690688,40.91822016704939],[14.220321462966991,40.91818005353164],[14.220784805639378,40.91819504156404],[14.220114284324854,40.91868463289314],[14.219624139675775,40.91914492320707],[14.219498283212276,40.91926311245083],[14.219152226322096,40.919588225424675],[14.21889793976772,40.91982029638518],[14.218658223092403,40.92003919948476],[14.218420806260958,40.92025598015704],[14.218215522543302,40.920444709965686],[14.21817084330651,40.92048630394775],[14.217693249748804,40.92093103665004],[14.217564561911686,40.92105073249083],[14.217472449163308,40.92113629657663],[14.217140406667415,40.921380130250874],[14.217097798978058,40.92141141858852],[14.216725924206804,40.92168449136053],[14.21653266294983,40.92182639539241],[14.21623758606015,40.922043089060374],[14.215901210979828,40.92217001754897],[14.21563439275858,40.92227069665102],[14.215304739762049,40.922395084882844],[14.215247754391886,40.92241658735552],[14.21491423703586,40.922467722601816],[14.214709702016009,40.92249876075819],[14.214618607010184,40.92251258332493],[14.214459374047888,40.92266178281812],[14.21441251648273,40.9227127887222],[14.214345100759418,40.92278617386445],[14.214186051185935,40.92316165384647],[14.21413238604961,40.92328834281458],[14.214106078997665,40.92332690910364],[14.213832070668929,40.92372860416968],[14.21379254889187,40.92379874185314],[14.213715963248465,40.923934648199484],[14.213504870300918,40.92395066018785],[14.213421668121484,40.92395697287314],[14.213325439154607,40.924268343332955],[14.213469467526359,40.9243923518492],[14.213499325272604,40.92441794707875],[14.213605437946804,40.924508918946444],[14.213748735293436,40.924631770932656],[14.214090886592976,40.924609248995935],[14.214685180705553,40.92457012748356],[14.215067432089553,40.924544965850686],[14.215145944846762,40.9245404275562],[14.215280840982626,40.92453262630374],[14.215471418766496,40.92452163513399],[14.215792802351292,40.924503071423814],[14.215873828298824,40.92448706669058],[14.216325341708163,40.92439788158905],[14.217293107547578,40.92420544027583],[14.217665049357873,40.924095880375226],[14.21830671952599,40.923907361872914],[14.21854859417697,40.92379560390577],[14.218652443207377,40.92374762793271],[14.218780184926231,40.92494374141906],[14.218826340346983,40.92544556539108],[14.218864568495164,40.92586271980505],[14.218874346368915,40.925895978062876],[14.219036949628322,40.926449081396115],[14.219412932468062,40.926517371118585],[14.220005515717187,40.92662499950103],[14.22006810461727,40.926636366066056],[14.220599134283388,40.92664461713452],[14.22102853484076,40.926651291287406],[14.2211095352372,40.926850177622725],[14.221109907209609,40.926974965421735],[14.221110110541462,40.927045594967645],[14.221110790377342,40.92726232317039],[14.221112054897414,40.92769278137683],[14.221088575808714,40.92816298967538],[14.221080778613171,40.92831895228818],[14.221243611061421,40.92855875289969],[14.221264615899202,40.92858968525583],[14.221281219941417,40.928614702559564],[14.221325351364825,40.92868120381323],[14.22172666831284,40.9289724643031],[14.22185931670588,40.92906901244602],[14.22191475089057,40.929109362236915],[14.221863218208679,40.92948081354102],[14.221784733814602,40.92996932632723],[14.221760611699663,40.93011565516176],[14.221884974943613,40.93024507953892],[14.222123980088476,40.930490809858824],[14.222333762789036,40.93064584581211],[14.222600865018066,40.93084324107488],[14.222645116927612,40.93087594519379],[14.222772427815425,40.93097003009775],[14.222696509701224,40.93114036749911],[14.222613714008776,40.93132614052098],[14.222413574846989,40.93177519875343],[14.222344462577205,40.931930268301805],[14.222598301026888,40.93210758137916],[14.222816427023796,40.93225994974394],[14.223192366040596,40.93255797697775],[14.223130241962311,40.932675370555636],[14.222963505130549,40.93299046883955],[14.222895893551282,40.933118237263436],[14.222665892841073,40.93355359829982],[14.222587591035346,40.93370160025182],[14.222472582165015,40.933919252115736],[14.222415533627817,40.93402723982689],[14.222291340953534,40.934262329761275],[14.222046045937084,40.93472664838641],[14.221959916292096,40.93488966147783],[14.221918573341842,40.93496772537173],[14.22183293775567,40.93513023697756],[14.221663712871319,40.93545044319614],[14.221648887422937,40.93547850006311],[14.221467086847433,40.935822470704586],[14.221229873532062,40.936271275833995],[14.220962686683615,40.93677677502497],[14.22051823364894,40.93761768941192],[14.220469049456776,40.937710745064635],[14.220242791305509,40.93813881031372],[14.22005737909073,40.93848955109386],[14.219180961327654,40.94014732235646],[14.219133821984773,40.940236485383956],[14.219113503665184,40.94027492328953],[14.218565031116139,40.94131233571087],[14.218491321133392,40.94145172685402],[14.218382854661304,40.941656908613226],[14.218145572942904,40.94210570647683],[14.218132607970075,40.942130232130495],[14.218039060446703,40.94230716293437],[14.217908288264097,40.942554504023086],[14.217676330466988,40.94299364221564],[14.21743340898166,40.94345264660409],[14.217378444703153,40.943556693137126],[14.217196595891101,40.94390089651975],[14.21695938476712,40.944349691623046],[14.216484957330918,40.945247282511254],[14.216244175157097,40.945700635348544],[14.216216322322643,40.94575552103575],[14.216198178825836,40.945789854350245],[14.216010317113247,40.946144868641554],[14.215768965414632,40.946600785255455],[14.215551392192143,40.947012837647215],[14.215535742308886,40.94704245449854],[14.215402331020693,40.947294954371976],[14.215298481854363,40.947491245977176],[14.215061046241587,40.94794003684561],[14.215025923720953,40.948006423867156],[14.215001070096855,40.948053398221376],[14.214928576277702,40.94819040751156],[14.214913172202408,40.94821959449457],[14.214875975014548,40.94828997028695],[14.214577136871865,40.948855167120485],[14.214558205019149,40.94889095122835],[14.21439073035713,40.94920765064129],[14.214346705916393,40.94929082491862],[14.214029116882328,40.94909815481734],[14.213313637615288,40.94903124899581],[14.213249808079565,40.94902534161427],[14.213186516647845,40.94901931616821],[14.213163973695963,40.94904461496774],[14.213090384476557,40.94912720434989],[14.212764837767255,40.94949759762957],[14.212628756997189,40.949926903130724],[14.212468721428012,40.95042931256114],[14.212230213209661,40.95054817200813],[14.212099598194648,40.950542260988705],[14.211789586462418,40.95052822733071],[14.211683543247466,40.95052342672471],[14.210936241796418,40.95045826637688],[14.210059945503525,40.95036278897882],[14.209789856764393,40.95025814821412],[14.209727426104234,40.95023406944152],[14.20952710278713,40.95026130753692],[14.20917954472913,40.950307833485134],[14.208797210929331,40.95055068887879],[14.20868999724674,40.950617993617904],[14.208472609029688,40.9507544583092],[14.208113383088154,40.950802716901826],[14.208040253889505,40.95081253666122],[14.207461377573845,40.95089029472835],[14.207157044902738,40.95089729255745],[14.205607161459172,40.95093373082371],[14.205318199996738,40.95093493842467],[14.204074367991131,40.95094009391433],[14.203871060121823,40.95099949646299],[14.203368425689291,40.951146357987184],[14.203169097059531,40.951206139221604],[14.202722197372848,40.9517800583884],[14.202078498078345,40.95189020033462],[14.201589315069489,40.9520113621405],[14.201289218135027,40.9522815233863],[14.201637923627883,40.95295898581325],[14.201880944271727,40.953519684174665],[14.201944055737929,40.95415154297425],[14.201576163462331,40.95435273502324],[14.201454275559769,40.95441677075565],[14.200885598306142,40.95423543572264],[14.200140975159039,40.953940492073734],[14.198845987467138,40.95390453806063],[14.197812155503696,40.95392426642158],[14.197171326312366,40.95390369136612],[14.193072387195617,40.953818807016326],[14.191765247917742,40.95386434299243],[14.190789069721509,40.953984952794876],[14.190111551758505,40.95403353381549],[14.189598110598496,40.95334547348703],[14.189043958396333,40.9529518450641],[14.186766483315786,40.95300336738029],[14.184588391308342,40.95305271395807],[14.184309539751256,40.95305903604138],[14.183983867999537,40.953066506774675],[14.1830184709779,40.9530885733727],[14.18052607448689,40.95329542842419],[14.178882362941932,40.95342695740029],[14.177832509397291,40.95351128732363],[14.176740749666775,40.953738566057226],[14.176450036843082,40.953798610579526],[14.175309433666598,40.95380042785343],[14.174108178731139,40.95389050079691],[14.173387370517114,40.953971147059924],[14.17309872555788,40.9540034414584],[14.172230727614268,40.95397046728162],[14.172309914567348,40.95379675598523],[14.172376610428504,40.95365329705624],[14.172726934792466,40.95316037372008],[14.172760447150432,40.953043171383214],[14.17286501176294,40.95267701503617],[14.173038204418857,40.952393986055654],[14.173227573793984,40.952084507995814],[14.173584934341878,40.952032401972716],[14.173831711547232,40.951795389190735],[14.173924502018847,40.95170626589309],[14.17398270858547,40.951649857615585],[14.173969128915886,40.951514411545894],[14.173943213524593,40.95125643423484],[14.173896363579383,40.950815856553675],[14.173745163304933,40.95014391643888],[14.173728023726994,40.95006780627802],[14.173555514170987,40.94994952508283],[14.173103884942032,40.94964123782188],[14.172872268202363,40.949446700416225],[14.172331402580143,40.9489924123484],[14.172219596741968,40.94889850333577],[14.171865588126328,40.948601155859976],[14.171167388933174,40.94801468776413],[14.169741472997105,40.94681694805134],[14.169249085932826,40.946401230528004],[14.16897709091983,40.94617158534582],[14.168320576537752,40.94546284423291],[14.167629580690004,40.94469262849455],[14.16722962014872,40.94442700269135],[14.166491365466754,40.94451419869077],[14.166311794357242,40.94492289403101],[14.166234172422142,40.945097433997795],[14.166275537984156,40.945626763942975],[14.166455212720297,40.946406466764365],[14.166577700153445,40.94707169240105],[14.166507168067039,40.947916643008334],[14.16647535037113,40.94862031347661],[14.16649476540938,40.9492727724403],[14.166508659683167,40.94973969952436],[14.166439030999946,40.950548597797564],[14.166417257894253,40.951323838471325],[14.166456875260065,40.95167765387159],[14.166492427925904,40.951991189044776],[14.166639839927072,40.95262378343892],[14.166771715679117,40.95335160960472],[14.16676613865655,40.95379301065454],[14.16676380971831,40.95399118266736],[14.166297094059404,40.95437610697422],[14.166092771108344,40.95437252413403],[14.16527406728908,40.954359710153874],[14.16483684146886,40.95414977413739],[14.16466998797033,40.953743126473775],[14.16464799366934,40.9536867147857],[14.164630103927898,40.95364138707629],[14.164608462349676,40.95351631503314],[14.164541811100854,40.95310966449396],[14.16449111776818,40.95270683205666],[14.164455633948512,40.95242481036709],[14.164413407184602,40.95215308319967],[14.164345180083668,40.951714015401976],[14.164124464251008,40.95136830901003],[14.162983372550357,40.95131602003574],[14.162056942639946,40.95138012737471],[14.161475961566914,40.95142431632224],[14.160618269383813,40.95148971291819],[14.159686352240056,40.95154599403938],[14.15891635899515,40.95159309435658],[14.157703250468439,40.95169252320294],[14.156755755927618,40.951496445271005],[14.156522602660496,40.95113326693589],[14.155925587802315,40.950444299516356],[14.155361675750818,40.95004644222363],[14.154867664606838,40.94956441276515],[14.15405247183389,40.949141803151086],[14.153118958769213,40.94881000749074],[14.151934544449578,40.948416556661186],[14.151733879942238,40.94834989677204],[14.150575180227737,40.94789689935323],[14.150421892866811,40.94783696966349],[14.149597823627133,40.94726166833459],[14.148657155179096,40.94656103807352],[14.14759648275989,40.945834242590394],[14.146476842363748,40.945150603847885],[14.145359141678147,40.94437352552838],[14.145217624831348,40.944275133358865],[14.14435776980058,40.94362937390389],[14.144164876105854,40.94361590914074],[14.143885029906317,40.94359640848477],[14.143414630552028,40.94356353268592],[14.143349215571657,40.943561940708435],[14.143273403124612,40.94388494219484],[14.143269858545217,40.94417320111122],[14.142709779023129,40.944337811234774],[14.142267979703501,40.94439644317514],[14.141995076533911,40.94443269575489],[14.14117800734432,40.944531895906444],[14.14087691158733,40.94456830517394],[14.139428240052766,40.94453852772271],[14.138250226711648,40.94465871148306],[14.137440600478767,40.94494624521473],[14.13639761165971,40.94554275594541],[14.135644213414066,40.945999548687176],[14.135454414875602,40.94610640658948],[14.134793130677457,40.946478713040186],[14.133789844759505,40.94692863813567],[14.133177935834826,40.94740161085953],[14.132527769546618,40.94799333695129],[14.131857460551425,40.9483833743941],[14.130961791450634,40.94873845575335],[14.130566318779172,40.94902803948726],[14.130458608586054,40.94910691092737],[14.1301734715227,40.94931570772978],[14.130029164991473,40.94948101184692],[14.129942419664845,40.94958112696557],[14.129699723774236,40.949861629692],[14.130054909535826,40.95002638023944],[14.130549682533607,40.95025586881622],[14.131539560029124,40.95092294289234],[14.13157367944144,40.95094464049121],[14.132730158633846,40.951680080653944],[14.13383660645848,40.95241396826662],[14.134724617907526,40.952943970853134],[14.135120762034703,40.95318040095728],[14.136063913551046,40.953818027899075],[14.136969033828827,40.95452934798096],[14.138064823578647,40.95526817004],[14.13887302277204,40.955945710789145],[14.138911199711785,40.9559776000737],[14.1392040864922,40.956406720420176],[14.139444930800813,40.956759587934926],[14.139513078529355,40.95685943144409],[14.139540302836423,40.95689931781149],[14.139757950333747,40.95731166386918],[14.139854702225874,40.95749496577038],[14.139897868555835,40.957576724561584],[14.139923327158577,40.95762494388533],[14.14093051886722,40.95787251552839],[14.142333981291165,40.95782325557912],[14.143479769911078,40.95736238187983],[14.143945527630974,40.957147979492866],[14.144095357218724,40.95713014792622],[14.145278868933751,40.95698929145199],[14.146477075315685,40.957106720948104],[14.146800719071653,40.95736399347557],[14.147265153208322,40.95773317904374],[14.147508575463961,40.958275967892156],[14.147354954608675,40.95904811069878],[14.146874705905674,40.95943872597236],[14.146119944013035,40.9600216944193],[14.145395567459031,40.960604742478104],[14.145302696257822,40.960679493148646],[14.144661957099874,40.96146893027386],[14.144594188047876,40.96221252118378],[14.145141716210935,40.962977977143154],[14.145246847781742,40.96324939323436],[14.145391628516053,40.963623159471574],[14.14541766913468,40.96369038595441],[14.145490342963365,40.96453793459055],[14.145326636932632,40.96524750319072],[14.144734649687196,40.96604375740592],[14.144624504249853,40.96619272671908],[14.144311164392711,40.966620890702465],[14.144184242417774,40.96716579777659],[14.144271604898451,40.9677525448993],[14.144464716620439,40.968468661156095],[14.144378810107183,40.96865753097771],[14.144232717211047,40.968978721336924],[14.143776822779078,40.969282699488936],[14.14279275088264,40.96926750580283],[14.142577931601066,40.9692643078093],[14.141339562960072,40.9693872101027],[14.14109779276281,40.96968612083786],[14.141227077263093,40.97076521627975],[14.141303677646109,40.97219778981098],[14.141382126324753,40.973396206643955],[14.141417876276437,40.97497994332455],[14.141427910501887,40.97542435201057],[14.141512050098381,40.976470233253835],[14.141519926501148,40.976568136414464],[14.141434971343301,40.97767030887068],[14.141195093242647,40.97809472189924],[14.141019931082091,40.97840462645872],[14.140362306922537,40.97905679002338]]]}}]}
