{"type":"FeatureCollection","metadata":{"code":"064085","referenceDate":"2026-01-01","sourceDbfExportDate":"2026-02-18","upstreamArchiveUrl":"https://www.istat.it/storage/cartografia/confini_amministrativi/non_generalizzati/2026/Limiti01012026.zip","sourceManifestSha256":"70ac8256c4785dc6ed2814c32b6965ae76f9161b51abaa1660059e1c6cbd8ca6","license":"https://creativecommons.org/licenses/by/4.0/","attribution":"Istat, Confini delle unità amministrative a fini statistici al 1° gennaio 2026, versione non generalizzata.","modifications":["Converted from WGS 84 / UTM zone 32N (EPSG:32632) to RFC 7946 WGS 84 geographic coordinates.","Converted from shapefile to per-municipality GeoJSON without geometry simplification."]},"features":[{"type":"Feature","id":"064085","properties":{"code":"064085","name":"San Nicola Baronia","alternativeName":null,"regionCode":"15","regionName":"Campania","territorialUnitCode":"064","territorialUnitName":"Avellino"},"geometry":{"type":"Polygon","coordinates":[[[15.198648168350484,41.06926103481771],[15.198564746918649,41.06932738436939],[15.197835882667937,41.069945102561874],[15.197617602712377,41.07013009379223],[15.196890245401368,41.070488896182745],[15.196058803565665,41.07093432929494],[15.195962219690793,41.07102371079733],[15.195609610379332,41.07135010760905],[15.195185328901566,41.071499673952054],[15.195058638115741,41.0715443337431],[15.194976473085356,41.07157329589752],[15.194230084020598,41.071856590901255],[15.19415619857661,41.07187641254652],[15.19395267316134,41.071931006805485],[15.193889941357842,41.071947833952564],[15.193431815778153,41.07207069521218],[15.193227113800994,41.072118735070546],[15.19262180888631,41.0722629069036],[15.19208783107861,41.07280476528293],[15.191840100885893,41.07362372344107],[15.191925908091987,41.07422665433838],[15.191975760773884,41.07485851233236],[15.191609167829325,41.07518661579951],[15.191547038089443,41.07524203508427],[15.191360067922027,41.075409291686015],[15.190915431660873,41.0755306100945],[15.190755683721157,41.07557419673989],[15.190229401250393,41.07571778567371],[15.189394178554812,41.07606886567442],[15.188671426417802,41.07654888488911],[15.18788533685785,41.0767037687622],[15.186791343388089,41.07685725175015],[15.186609539933317,41.076919363651584],[15.185806027774808,41.07719388357495],[15.18564887934252,41.077246807410866],[15.185385404970745,41.07733554116186],[15.185185620002734,41.07740282597822],[15.184999197298346,41.0774722842444],[15.184437195046327,41.07768168846061],[15.183954988370019,41.07787418236831],[15.183523535654677,41.07805012176418],[15.183472013552647,41.078071324163936],[15.183318261803064,41.07806483538005],[15.182573925137199,41.07803408640659],[15.1825314647277,41.07782037138925],[15.182078892875069,41.077498211219535],[15.18163601280489,41.07727904939647],[15.181397946229492,41.077183041104696],[15.181064934293717,41.07704874418802],[15.180554217294967,41.07659019979519],[15.180329038809418,41.07628279102775],[15.179980949188497,41.07580649177954],[15.179437870663,41.07516643323209],[15.17934553864968,41.07505761246308],[15.179305116394358,41.07503959483925],[15.17870175586672,41.074772740260286],[15.177702167467126,41.0745385141997],[15.1766177101576,41.07409733521517],[15.176533689946414,41.07402257463517],[15.176274297180349,41.07379100827357],[15.176056230661358,41.0735964863945],[15.175756479146775,41.072874540233755],[15.17573673383819,41.07261311449221],[15.175707728663387,41.07222910096011],[15.17578881378462,41.07160802585385],[15.17582396446882,41.07133988146856],[15.175849033667872,41.07114587616924],[15.176356562854407,41.070281484648994],[15.176891122014329,41.069451638773636],[15.176581250900965,41.06940530600526],[15.176187842192327,41.06930046109178],[15.176056481830603,41.068875493544056],[15.176040394821833,41.068827597076556],[15.175887396504278,41.06838058173278],[15.175843269916228,41.06834134242199],[15.1756790496306,41.068195310089514],[15.175352902943898,41.067905281513276],[15.17530797002102,41.06783767100512],[15.175084548232718,41.067502451441584],[15.174933227891017,41.067275299171705],[15.17541859643647,41.0667136135201],[15.175897239358791,41.06702987168455],[15.176180144763636,41.067279495779445],[15.176387581411424,41.06746252924723],[15.177574392593383,41.06761276156619],[15.177686050815641,41.06762689572073],[15.177909428556887,41.067655169400545],[15.17875582046366,41.06809565894042],[15.179569002126918,41.06873594537381],[15.18026986688007,41.069391288463216],[15.181486605772024,41.06991982025483],[15.182904188384029,41.06985698226705],[15.18295132212526,41.069848581984644],[15.184496499212232,41.0695731833761],[15.184742246030797,41.069486345271514],[15.185803658577946,41.069111193205806],[15.186498014165625,41.069017207649125],[15.187105233583562,41.06893501462105],[15.187957908050368,41.06881957375407],[15.188773616076663,41.068771979719216],[15.190016760926055,41.06869956625481],[15.190109534528728,41.06868311942364],[15.190176507466761,41.06867257878332],[15.191325206350095,41.068480476541296],[15.191874850041986,41.06814111258529],[15.192275641942576,41.06789364981967],[15.192760268677052,41.067314646190844],[15.193226388641046,41.06675774551897],[15.194163270236004,41.06615364302352],[15.19478322742128,41.065512804292936],[15.194940382758336,41.06541408740578],[15.19547368157464,41.06508056286038],[15.195511279438135,41.06505704198497],[15.195629016532923,41.064983386162304],[15.19573302491969,41.06491831647234],[15.195908856686302,41.06480831203083],[15.196670217080698,41.06432166800041],[15.197227525459141,41.06388653461896],[15.197477653973623,41.06340949395739],[15.197428142579843,41.06312863720574],[15.197009529279674,41.062669692048296],[15.196208835876934,41.06208157648329],[15.196068081048553,41.061977964778805],[15.19530415050597,41.06147462918061],[15.19378056484597,41.061183308103956],[15.193147964853477,41.06074039281808],[15.192621598564378,41.06007573428179],[15.19170444055766,41.05968866034103],[15.191204137802487,41.05916659543328],[15.190963658195335,41.05849098810305],[15.191415859744717,41.05817857086498],[15.19210679971374,41.05812250989269],[15.192782304868578,41.057812342380544],[15.192663640644867,41.05749921180164],[15.192630279369995,41.0574702354594],[15.192519654047324,41.057374148603984],[15.192127022155077,41.057033116608515],[15.19227877386868,41.05668738932392],[15.19274159330561,41.05646440665642],[15.192850618091777,41.05600398383661],[15.193022312020275,41.05581623033949],[15.193065828204952,41.05576864563574],[15.193370113281114,41.055435898517544],[15.193470394607383,41.05532827767248],[15.193798006806363,41.05497627439118],[15.1938993402581,41.05477554995217],[15.194022232043919,41.0545321434849],[15.19403291166755,41.053982516207945],[15.193853535436315,41.05350613341027],[15.194125249793316,41.053297953642634],[15.194412722883557,41.053462465161715],[15.194709728002724,41.05358594465642],[15.195044478329281,41.05354988771237],[15.194875093446337,41.05323499987614],[15.194864260483971,41.05300154981889],[15.195148133437856,41.052693703790894],[15.194813579237728,41.05236072394009],[15.194836780718449,41.052279347204355],[15.194872230707729,41.05215504550438],[15.19537217859604,41.052042549380985],[15.195679449450212,41.051422903896835],[15.196249664894983,41.050960093920395],[15.197178213186577,41.050806458290594],[15.197346065334347,41.050842111582945],[15.198141263187406,41.0510109900639],[15.198926762922264,41.051121574460915],[15.199390330000094,41.0510650365406],[15.199557454501429,41.05083440419088],[15.199685603766543,41.05065755635501],[15.199720596681475,41.05026485735488],[15.199734983785307,41.05010332895302],[15.199744831076245,41.0499928074372],[15.199751382543647,41.049818508638786],[15.19975669574489,41.04967713374905],[15.199917622061742,41.04940611005402],[15.19993902477896,41.04937007727972],[15.20059883242946,41.04931661450195],[15.201278590614372,41.04960398335869],[15.201668406184552,41.04983385180821],[15.201718975241338,41.04986366093288],[15.201958194998815,41.05001275197885],[15.202186750191967,41.05014339972222],[15.202231525574694,41.05016899416586],[15.202387775738964,41.05001301138465],[15.203299195776172,41.04910320039022],[15.203192745299287,41.048888429896216],[15.202906753382056,41.048597846634266],[15.202987179060413,41.04846200440902],[15.203093924305618,41.048281710969526],[15.203379543348188,41.04796923439941],[15.203664318841293,41.04749031073043],[15.204007379628354,41.046841704872016],[15.20405401274227,41.04673992597721],[15.20426744515098,41.046274101492486],[15.204445526553679,41.04575142924017],[15.204467503954083,41.04541721696752],[15.204716256449426,41.04502123460939],[15.205427133280235,41.044388745059585],[15.205904611377873,41.04406921727233],[15.206046334992001,41.04398558333067],[15.206129041014627,41.04393676007394],[15.206615271441422,41.04364045478319],[15.20708841640857,41.04295330412567],[15.207206192072356,41.04249239661813],[15.207312952161962,41.04220574392118],[15.20743028057922,41.041890713141036],[15.207643228511513,41.0413388460519],[15.207676076614879,41.04129938385507],[15.208044820139337,41.04083588459481],[15.20865183674365,41.040591547013776],[15.208945195369127,41.040506249638376],[15.209222407356215,41.04042568265242],[15.209638480745797,41.04067768812333],[15.210222720417315,41.0410736347064],[15.210664474897996,41.041432272380106],[15.21069173435563,41.04202034391952],[15.21058573246179,41.04269214451006],[15.210897516927536,41.04335033674048],[15.211468217686887,41.043413967097486],[15.212231152944549,41.04340418555472],[15.212886929853024,41.04421926404025],[15.213126184198241,41.044966889116814],[15.213319301292682,41.04550098632448],[15.213225985549407,41.04596057569855],[15.213501689880122,41.04659822420652],[15.214169025442203,41.04692209162901],[15.215500481177346,41.04680952646291],[15.215673271362194,41.04679451898083],[15.216462476554797,41.046725968240935],[15.21719104447425,41.046807914869284],[15.217642288659258,41.04663513906016],[15.218523006082522,41.046830369794435],[15.219621335856312,41.04717722090617],[15.219751562627664,41.04721834589397],[15.220654607561102,41.04744844280572],[15.221083214884478,41.047564721397336],[15.221238714301451,41.04776330384053],[15.221312085691357,41.048114857197646],[15.221704812145653,41.04832310845448],[15.222015818127673,41.04862577957948],[15.222053204446183,41.04912328808245],[15.222529690937163,41.049281980144066],[15.223151495245714,41.04944603790919],[15.22327960802905,41.04947983861982],[15.223746901667417,41.050012564213134],[15.224082109423817,41.05039041755521],[15.22419462276393,41.05049935451502],[15.224487067653666,41.050782496641425],[15.224515590894452,41.051096610074],[15.224522447142583,41.05117211034509],[15.224163038103985,41.05174257893957],[15.224085033693502,41.051866389735345],[15.223913084107352,41.05225002109009],[15.223824340199801,41.052447732539314],[15.223721170901772,41.05267819720051],[15.22328175079432,41.05339059251639],[15.223020853239337,41.05376654902061],[15.22293776021606,41.05388628665099],[15.222962391189107,41.0542719652553],[15.223046097847474,41.05432870444988],[15.223090702877183,41.054358502249976],[15.223470120531802,41.054614796712514],[15.223500541695376,41.05463387551542],[15.223524802779986,41.0551190635098],[15.22308502600165,41.05524641191119],[15.222777788383162,41.05528311111127],[15.222394991748558,41.05532883426356],[15.222078582502956,41.055640537925875],[15.222003399345505,41.05571458701512],[15.221769645473358,41.05651933387325],[15.221725068321847,41.05749383198768],[15.221731411987589,41.057595745482985],[15.221759444326091,41.058046094254316],[15.221773648083412,41.058274279169005],[15.221658729194537,41.058950992628475],[15.22155828338639,41.05936167064791],[15.221423333805976,41.059913401334306],[15.221441237977599,41.06002477197665],[15.221520875262918,41.060520168084246],[15.221688992783521,41.060900557749875],[15.221820805626082,41.06119879895683],[15.221843332746365,41.061249769573635],[15.2218789177696,41.06144465693648],[15.221916222384543,41.06164901812465],[15.221966611248959,41.0619250354403],[15.221977568188782,41.06198505802725],[15.22220544747972,41.06250825768207],[15.222776816285975,41.06279681172495],[15.223600255740081,41.063125689447034],[15.223898000585983,41.0632743020836],[15.223982520482465,41.06331648777147],[15.224125006556397,41.06359678732093],[15.22417204622301,41.06383053871674],[15.224196665606982,41.063952929032354],[15.224305927288992,41.06412689865972],[15.224770295303562,41.064016367544106],[15.225494852037205,41.06404453915885],[15.226104432820087,41.06449301673445],[15.226391312139297,41.06499501695586],[15.226618587218313,41.06546423003089],[15.226871128364717,41.06591544820519],[15.226918485183644,41.06600150450302],[15.227063608460762,41.06656068707699],[15.226790722911026,41.067156040929305],[15.226686296573519,41.0676702531425],[15.226463140967708,41.06855543192183],[15.226427918709417,41.069038886330524],[15.226406642496606,41.069544090035755],[15.226278850051342,41.070023550710445],[15.226160810349624,41.0702369822234],[15.225892343385606,41.07052607715908],[15.225626031505222,41.07081505731174],[15.225318247880535,41.07091186972477],[15.225280315827144,41.070923802818506],[15.224982470719574,41.07116947475431],[15.224579592283087,41.07148384826344],[15.224070045574932,41.07188052307186],[15.223630180542402,41.07213389187302],[15.222904553777802,41.072470257240376],[15.222360173826083,41.07267979442734],[15.221886814154624,41.07281782222104],[15.221810377369806,41.07284011054826],[15.22122934882588,41.07298859574588],[15.220374519432523,41.073196966292976],[15.2195973913425,41.07334256742494],[15.219076748229742,41.07349679123074],[15.218349071502322,41.073513747647446],[15.217793773733842,41.0734489068885],[15.217585680248064,41.07342460609643],[15.21696881194938,41.07350747829045],[15.217051158834547,41.07324649392824],[15.217084836084931,41.07278563433043],[15.216906442912181,41.072471269647096],[15.216761205535244,41.072146112461844],[15.216785192062366,41.07158225477818],[15.216769151488483,41.071137580459265],[15.216518476957711,41.070750630351554],[15.216018776212348,41.070395157033154],[15.215790076201868,41.069925998886724],[15.215860648548455,41.069359616736826],[15.215762948546294,41.06886085660568],[15.215560843817638,41.068295748147534],[15.215592362556919,41.067771998551805],[15.216032840025681,41.06738361856616],[15.216220604637735,41.06699541106369],[15.216066219118224,41.06670673204439],[15.215659881526777,41.06651273085467],[15.215399575890942,41.06641261028393],[15.215003460040023,41.06626024945705],[15.214802913611942,41.06601008694103],[15.21476493479752,41.065710604643584],[15.214730769077793,41.065451433476966],[15.214454937632661,41.06534035466841],[15.21416678278673,41.06527466336677],[15.2138009176268,41.065191241140596],[15.213404651358255,41.06482115961801],[15.21286739271151,41.064256177634036],[15.212384024232723,41.06380875990301],[15.212283459781563,41.06371624831946],[15.211601903465326,41.06324032614119],[15.211248792881221,41.063511202349076],[15.210937702909323,41.06386107761796],[15.21071589105188,41.06425111893599],[15.210545771869407,41.06450333571111],[15.210201818830367,41.0646389435041],[15.209595581840988,41.06465826662802],[15.208991474821424,41.064668438884524],[15.208630885310624,41.06481386451231],[15.208178697289165,41.06476639474135],[15.207953656213203,41.06419351562158],[15.207786816438473,41.064022680385406],[15.207487346919537,41.06411972745463],[15.207309569448416,41.064417368274725],[15.20709827799445,41.064635824492136],[15.20670394716252,41.06468859490743],[15.206227526975828,41.06455698719783],[15.205885065307818,41.06466540505015],[15.205477917742583,41.06502468700915],[15.205258569454294,41.06508215819855],[15.20519520736144,41.06509862045391],[15.205142358466572,41.06504315315761],[15.205059177398786,41.0649558501606],[15.204979183280726,41.064871894186965],[15.204966036099679,41.064351215975165],[15.20492899676394,41.06387551711506],[15.20489031786216,41.063486393226206],[15.20481004587005,41.063322943288604],[15.204688069870071,41.06307645472744],[15.20466301042008,41.06302581270007],[15.204199024869759,41.0626773504681],[15.203471490942015,41.06237914948583],[15.203419478580766,41.06236174158339],[15.202649529533549,41.062104039120825],[15.202185348659297,41.06183209772411],[15.201624740796335,41.06172736114648],[15.201423297514605,41.061553739431375],[15.201241890134684,41.0612756798458],[15.201005180665634,41.0613603021239],[15.200517741784266,41.061755660025824],[15.200554850155248,41.06220369722014],[15.199960828794527,41.06231674578555],[15.199922439938197,41.062312356571475],[15.199079670561263,41.062215949765495],[15.198745998785371,41.062395910478685],[15.198306897777686,41.06278417005839],[15.198061294767237,41.06305706596917],[15.198166678480431,41.06322826856353],[15.19835744574465,41.063406988378475],[15.198478989048574,41.06374246294055],[15.198217919130101,41.06410309680093],[15.198252835575621,41.06443423745541],[15.198307592261724,41.06451973751186],[15.198623345014342,41.065012778713424],[15.19869244330537,41.0651941580713],[15.198730700092979,41.065294579606274],[15.198784018588901,41.06543454349862],[15.198851533877814,41.06561254286946],[15.198862327674961,41.06574475633223],[15.1988899465591,41.06608301814051],[15.19905788811999,41.06639797809276],[15.198947726631626,41.066645413748915],[15.198856688739653,41.06684989015918],[15.19892816011397,41.067458087595504],[15.198962179976382,41.06754619412513],[15.19919370502138,41.068145815075646],[15.199271003185972,41.068713198697715],[15.199278908125354,41.06875776749973],[15.199196907623657,41.06882367171271],[15.199087393718026,41.06891168203858],[15.199005149540247,41.06897709972743],[15.198648168350484,41.06926103481771]]]}}]}
