{"type":"FeatureCollection","metadata":{"code":"064056","referenceDate":"2026-01-01","sourceDbfExportDate":"2026-02-18","upstreamArchiveUrl":"https://www.istat.it/storage/cartografia/confini_amministrativi/non_generalizzati/2026/Limiti01012026.zip","sourceManifestSha256":"70ac8256c4785dc6ed2814c32b6965ae76f9161b51abaa1660059e1c6cbd8ca6","license":"https://creativecommons.org/licenses/by/4.0/","attribution":"Istat, Confini delle unità amministrative a fini statistici al 1° gennaio 2026, versione non generalizzata.","modifications":["Converted from WGS 84 / UTM zone 32N (EPSG:32632) to RFC 7946 WGS 84 geographic coordinates.","Converted from shapefile to per-municipality GeoJSON without geometry simplification."]},"features":[{"type":"Feature","id":"064056","properties":{"code":"064056","name":"Montefusco","alternativeName":null,"regionCode":"15","regionName":"Campania","territorialUnitCode":"064","territorialUnitName":"Avellino"},"geometry":{"type":"Polygon","coordinates":[[[14.876265253795207,41.047962010990794],[14.876123667808809,41.048030327389824],[14.875941799285016,41.04811807880834],[14.875789022029146,41.04801338566093],[14.875634766478417,41.04790874993127],[14.875312910850557,41.04774754888179],[14.87527718739502,41.04772891390462],[14.875004035824041,41.04792752372459],[14.874587348617233,41.048088358133654],[14.874420918998398,41.04765578991134],[14.874374572478688,41.04708657470054],[14.874361064916123,41.046822726502555],[14.87434050476745,41.04641318253463],[14.87426987062459,41.045863203022556],[14.874208373974598,41.04575480174373],[14.873830701629077,41.045089021067255],[14.872939537247111,41.04422094693848],[14.872227763401098,41.04356421594501],[14.872131851673588,41.043063910347875],[14.872108181597007,41.042940212550455],[14.872313275237781,41.04223211714686],[14.872387640896926,41.04162254013027],[14.872435025939243,41.04123119829436],[14.872073490475024,41.040620525965224],[14.872008115176147,41.040510386323035],[14.871389283743383,41.04019546065933],[14.871197472114238,41.0405608470341],[14.870672441583068,41.040947746180244],[14.870173521560906,41.04131079792892],[14.869755410225368,41.04192178419266],[14.869420668583503,41.04266802707203],[14.868919696737427,41.043341739952695],[14.868610369660352,41.04395615944255],[14.868240972224376,41.04427208330895],[14.867919765873385,41.044153474875564],[14.867575539133126,41.04379299271215],[14.867052727603825,41.043054565085846],[14.866518520730343,41.04233021139005],[14.865794038787776,41.041638101967564],[14.865116589181602,41.04124061530735],[14.864391645179513,41.04076004536315],[14.864121157259348,41.04086913607288],[14.863893114939057,41.04096103065242],[14.863779147149687,41.041125815778514],[14.863544928289523,41.041464910736714],[14.863020311564219,41.042040789783314],[14.862365147286388,41.042677345998634],[14.862169239717144,41.04270835590814],[14.861735696610769,41.04277698645586],[14.86072334931965,41.04288264938398],[14.860261359312803,41.04296178353218],[14.85971253762922,41.04305574764082],[14.85937859170748,41.0432528259795],[14.859399830793102,41.04327423311899],[14.859912009319165,41.04381070969314],[14.860125112712636,41.04415089865641],[14.86012578053431,41.044542431141316],[14.85993365975268,41.04487179253935],[14.859433502061416,41.04517186973459],[14.858838469794067,41.04544977616608],[14.858326668008182,41.045610905525834],[14.857957038253579,41.045665764006216],[14.857254868990147,41.04562507208012],[14.856790853532038,41.04544618819215],[14.855813610426443,41.04510472529482],[14.855113167992595,41.04504752999019],[14.854996327492023,41.04503811629327],[14.85501836687128,41.04524402115421],[14.855094420732094,41.04545491462017],[14.85470988757976,41.04543529062473],[14.854475726421574,41.04550122525841],[14.8543235567725,41.04554498638857],[14.854238973537266,41.045570925520025],[14.854006703692278,41.04564216112046],[14.853732800125663,41.04564894979826],[14.85355454767158,41.04563819904866],[14.852329980596041,41.04554757694133],[14.851425250347223,41.04582773274365],[14.850305559664555,41.04634835219936],[14.849291675326164,41.04693110029821],[14.848824783612368,41.047201227137016],[14.848754182461878,41.04724200426245],[14.848361505542208,41.04746905629973],[14.847767204986525,41.04769734932122],[14.847648978792929,41.04737031709638],[14.847633970199707,41.047243991366],[14.847589982542235,41.04687372267763],[14.847571370444712,41.046825777482],[14.84745678271474,41.04653046006913],[14.84736602278532,41.04629675237581],[14.847189097878896,41.045840937367096],[14.84685861038963,41.04538949143397],[14.846772979698573,41.04527252109942],[14.846085084477677,41.04484844298447],[14.845561761811652,41.04458702786337],[14.84523669536047,41.04443606316423],[14.844681205141589,41.0441772676554],[14.843836558360616,41.04388719483936],[14.84317169892815,41.043295401625606],[14.84208061443034,41.0425812673014],[14.840962156759966,41.04210255224415],[14.839809945365145,41.04161204592378],[14.838715242829664,41.04108260252373],[14.837636074342692,41.04048484748326],[14.836542998335291,41.03967174314653],[14.83548579423133,41.03872626374265],[14.834544565513967,41.03804222915234],[14.83436987061777,41.037914302123305],[14.833647295092668,41.03692931478694],[14.833089832899969,41.035710895023],[14.832653248306741,41.034657378832364],[14.832190781997987,41.03397423346541],[14.831416708791952,41.03413504461897],[14.83058276247964,41.03449244583774],[14.829369494904803,41.03502594137607],[14.82928688599538,41.035062321678375],[14.829295335701763,41.03496469450287],[14.82943121512933,41.03339419119891],[14.830123763272416,41.032715419872254],[14.830669644787076,41.03206592480748],[14.830838960149642,41.031864469468324],[14.831423567656472,41.031015628021585],[14.831736501048168,41.030144575482645],[14.831914790427223,41.03001851182996],[14.832251450711135,41.03006962277347],[14.832936699303376,41.03017364296609],[14.83317544115879,41.030134510466645],[14.835174528978218,41.03001497154032],[14.836589720050616,41.03011409002978],[14.837315841888017,41.030108694239125],[14.838233325455239,41.029755996229824],[14.839541238920647,41.02943295825919],[14.84024342949046,41.0293252469501],[14.840909068772762,41.02965145817089],[14.840981673545548,41.02967546695734],[14.841811688123022,41.02995214850252],[14.842902306144495,41.02987110572069],[14.843155743549705,41.02985227158178],[14.844132579353762,41.02989259043113],[14.844452183046473,41.03006986231658],[14.844519222208046,41.030179519019754],[14.844679015574494,41.03044089046247],[14.844832921252472,41.030802134791614],[14.844915651827666,41.031081460245545],[14.845367622423886,41.03064889829744],[14.846594135924338,41.03002835641705],[14.846924605583522,41.029805853398486],[14.84698463212759,41.02976546478573],[14.847491365276385,41.0294232450787],[14.847618952372878,41.02933708771625],[14.847931574170367,41.02900027753729],[14.848263972131456,41.02864217241143],[14.848858608637126,41.02810376225767],[14.849467146732072,41.027636185023475],[14.85009741959969,41.026978462501624],[14.850741714327517,41.026671102815534],[14.850956466327062,41.026763678500004],[14.850740265639988,41.02720677954745],[14.85071440309477,41.02780219485559],[14.851024457582266,41.02787192123525],[14.851893907117422,41.02778260695409],[14.852012746909681,41.02779133104833],[14.852548180337084,41.02783027103443],[14.853422936447089,41.02767102309919],[14.85347524128731,41.027661518871746],[14.853988649993731,41.02754533280175],[14.853982238961704,41.02734525273653],[14.8539752764265,41.02712742330668],[14.854476014486686,41.026993887403016],[14.854735468357811,41.02709779598188],[14.855153891884756,41.02726536438085],[14.855438006380798,41.02744441433664],[14.855724722635925,41.02762782906466],[14.856472419533535,41.02735565061269],[14.85669794276334,41.02727875184797],[14.857341314662417,41.027059339040214],[14.85791260240515,41.02714271300989],[14.858603018962144,41.02728753651751],[14.859410947195748,41.027124796910684],[14.859567181433002,41.02702525398997],[14.859817989840915,41.02686546058529],[14.859762537731662,41.02650186307544],[14.859757779618617,41.02646804521231],[14.859781720625806,41.02644697684141],[14.859936898880301,41.02631479676843],[14.860321932889805,41.0261385375538],[14.860379474673895,41.02611219536762],[14.860372547990417,41.02606342474886],[14.86030866531153,41.02562520697943],[14.860927029336047,41.02543614291075],[14.861209533678814,41.0254249989432],[14.861840663979109,41.02540009856649],[14.862092232686988,41.025390172084784],[14.86260490261812,41.02527398450663],[14.863209810391442,41.02506758357172],[14.863533756205824,41.0248260067625],[14.863712910721745,41.02415973388117],[14.864015622074229,41.023791721092046],[14.864188918523181,41.0235818350636],[14.864986953606792,41.02321703218162],[14.86510291405407,41.023208926977595],[14.86578518333397,41.02316276743144],[14.866177692097901,41.02289067320889],[14.866274449518334,41.02279231645897],[14.866296705104007,41.022769697250624],[14.866321852898919,41.02274413259628],[14.86641544029068,41.02264899641369],[14.86706972672659,41.02258856769564],[14.867784228735113,41.022237026001115],[14.868654663825602,41.02163444487217],[14.869737361598627,41.02125506156037],[14.870831062391733,41.02125767584982],[14.871006221827702,41.021314057607086],[14.871172504715572,41.02136765763466],[14.871583373251326,41.02150009689525],[14.871638709788417,41.02151793406317],[14.871989717003576,41.02165840182509],[14.872566175901751,41.02188908820752],[14.873065806144588,41.02207246000697],[14.873255045241045,41.022141912442656],[14.873566651861582,41.02211695004029],[14.873876094895607,41.02209215954879],[14.874815165941952,41.02181007656173],[14.875493440902055,41.02180238807346],[14.875598383858716,41.021833661806006],[14.875957426406483,41.021940670030105],[14.876419033285082,41.022110586570314],[14.876787513438892,41.022235767007594],[14.876943713427968,41.02202974361013],[14.876999167232652,41.02195626293264],[14.87709916236112,41.02182375844543],[14.87707401788936,41.021778721639926],[14.876954440394313,41.02156454988651],[14.876871945252065,41.021416794180766],[14.876363825521315,41.02075867866241],[14.875900528681042,41.02011176384992],[14.87572252985365,41.019706796185744],[14.875610022623086,41.01950699421984],[14.875498351127916,41.019308678762556],[14.875248933768669,41.019010897148085],[14.874904936410148,41.0186684147467],[14.874821758706862,41.01845214738696],[14.875403468842723,41.018219845049],[14.875530702498647,41.0181937201092],[14.87593408449328,41.01811085246372],[14.875987031338827,41.01809998198391],[14.876345088255428,41.01805015701993],[14.876637572208276,41.017985187546145],[14.876713646502665,41.01796828873799],[14.8769363075814,41.01810768913379],[14.877231671653167,41.01829260618178],[14.877663725398207,41.01856300614968],[14.877825618460134,41.018688963093695],[14.878103823208956,41.018905331844735],[14.878199034285101,41.01900984455488],[14.878419266731639,41.019251587220104],[14.878507330955784,41.01934825232539],[14.878602098799396,41.019460676412685],[14.878969239470617,41.019896212686874],[14.879409275990511,41.02038227820361],[14.879606213878597,41.020584914967685],[14.87971763707676,41.02069956222846],[14.879794625117269,41.02081314658872],[14.879882748221018,41.02094315596757],[14.879978884389779,41.02110476041824],[14.880453529837178,41.02172856823362],[14.880817378151526,41.02237331201651],[14.880843577391282,41.022419720705976],[14.880849732349,41.02245540945289],[14.880950793612355,41.02296332340754],[14.88093052623004,41.023418513244074],[14.880929325262986,41.023445655297564],[14.880925089380307,41.02354074776593],[14.88093703194308,41.02410724013841],[14.880949426148918,41.02441760617454],[14.88095927385606,41.02466419089261],[14.88123056268849,41.025239912903785],[14.881310235256072,41.02531879142378],[14.881381706538159,41.02538954999092],[14.881508983554564,41.025515560014014],[14.88173164874761,41.02573603979978],[14.881765627338055,41.025769680696015],[14.881813537993404,41.025817165562756],[14.88197234018188,41.025894198418655],[14.882235156094536,41.02602151976808],[14.882728830921954,41.02626136492927],[14.88298928079707,41.02636988062238],[14.883095032897474,41.026413936772265],[14.883171055177183,41.02644603483339],[14.883680270787483,41.0266582098037],[14.883816569978467,41.026724156873584],[14.884089368329413,41.026856164488855],[14.884137804252557,41.02687960234698],[14.884630669376262,41.02711809518202],[14.885307918904456,41.02749746501822],[14.885700494825924,41.02784190327909],[14.88579481351638,41.02816564037459],[14.885889179359191,41.02849835229554],[14.885961597771658,41.028673996814845],[14.886020053299566,41.0288156996633],[14.886101846202596,41.02914907463392],[14.886208853638252,41.02938212304825],[14.886565625832466,41.02940885564502],[14.886699526958015,41.0293848876701],[14.887516972476707,41.02923856646132],[14.888136379021491,41.02910284632665],[14.888246002050726,41.029067096772096],[14.88845819765843,41.02899678158271],[14.888752408755739,41.028972888717846],[14.888907470928876,41.02896027973339],[14.889063653114233,41.02909626244938],[14.889014330209847,41.02940033537245],[14.88875889030564,41.03001654137524],[14.888728644178908,41.03008560083755],[14.888660741404216,41.030091239205696],[14.888586309159848,41.03009739774648],[14.888219173352287,41.03010578445841],[14.886430669745511,41.030146569641076],[14.886373162733111,41.03014788054345],[14.886352553038773,41.03018718480004],[14.886278587822488,41.030328248848285],[14.88623084096406,41.03054223984022],[14.886075755980432,41.03074372148768],[14.885658600139015,41.03092262961462],[14.885097779997556,41.03108188941884],[14.885170910706046,41.03133468609809],[14.885170331929423,41.0315777474371],[14.885072824742045,41.03177363268605],[14.885039261881397,41.0318399743731],[14.885061296395813,41.03213693641535],[14.885227208718026,41.03238046169897],[14.885572998396864,41.0326417953522],[14.885727077333067,41.03299395764503],[14.885631451013344,41.033129379298416],[14.8855343479168,41.03326489456024],[14.885215143087176,41.03321824151385],[14.884631080811674,41.03311764815215],[14.884178918432927,41.033370353468655],[14.883607400713878,41.03370117843821],[14.883594840296048,41.03337776812433],[14.883596855248879,41.032909575826714],[14.883435926900706,41.032734121554405],[14.883372140161413,41.03266454336649],[14.883342836217562,41.03269183692486],[14.88315744655765,41.032864585697055],[14.882788393501743,41.03309953296894],[14.88230024543464,41.03334057802073],[14.882287814394887,41.03369227712623],[14.88242958966,41.03430611663431],[14.88213051329384,41.034501472093964],[14.881417508634444,41.03420491926151],[14.880877481613805,41.03396087156008],[14.88083604926628,41.03394214709042],[14.880359284864797,41.034061077049074],[14.880109882747977,41.034163865590436],[14.879859025428404,41.03426672809943],[14.879454778067457,41.03394985695526],[14.879144143772875,41.03370511142139],[14.878896941613304,41.03351034214486],[14.878851507366349,41.03351385423698],[14.878207739830644,41.03356361315836],[14.878051544485063,41.033769638447424],[14.878025482502961,41.0339731206977],[14.878003381226609,41.03414567578296],[14.877765196933389,41.03437390831333],[14.877467946513491,41.034623155645896],[14.877478563165743,41.03488365588948],[14.877978358153982,41.035272150877034],[14.87864260190902,41.03568822921108],[14.879142392979764,41.03629276147504],[14.879171734893172,41.036361935921185],[14.879402124359336,41.03690504423171],[14.879187866732716,41.037393098395874],[14.879122267740186,41.037413395792306],[14.878699816254972,41.03754410539831],[14.878485353559114,41.037397553962386],[14.87827126721547,41.03724648471722],[14.878318231065949,41.036857014254366],[14.878511449867233,41.03659957623609],[14.87846412383515,41.036327461640724],[14.878166341967654,41.036221178096866],[14.877511525673922,41.03621868809046],[14.877200841447184,41.03655864165202],[14.877197207556097,41.03677115241877],[14.877188059991667,41.037306410836926],[14.876925880215726,41.037765407579705],[14.876710776325801,41.03812747750112],[14.877103671931518,41.03851694787323],[14.87713541555235,41.038528717007786],[14.877829134547495,41.03878589552855],[14.878125662158789,41.03870320829765],[14.878423994727036,41.03861591178928],[14.87857150720971,41.038592392334245],[14.878756592066871,41.03856287439652],[14.87904173661466,41.03876881862002],[14.879481558120478,41.03875981550053],[14.88009991675072,41.03845360161503],[14.88051864524501,41.03839165917216],[14.88086275119651,41.03861707034623],[14.88116012028128,41.03904292359423],[14.880991688220814,41.03930359581778],[14.880408467832394,41.039554000136306],[14.879967950447632,41.03978808205051],[14.880133537159594,41.03995485004688],[14.880252896090896,41.040075060748734],[14.880535633372638,41.04028525516834],[14.880739998088616,41.04043718499105],[14.88100193286514,41.04064451959135],[14.881322112965387,41.04089795497395],[14.88158776664055,41.0413006459377],[14.881666770280283,41.041420400440735],[14.881607906119969,41.04190588547067],[14.881593726731976,41.042022831036384],[14.881421161938965,41.042575237659825],[14.881402314060418,41.0426356605939],[14.881285847772755,41.04285546190016],[14.881081188397781,41.04324170562775],[14.880943623713444,41.04335739736956],[14.880591146557713,41.04365385502242],[14.879913309129375,41.043760570536385],[14.879093370976292,41.043915077524524],[14.878673856648216,41.04399789076791],[14.878508449893925,41.044030541416106],[14.877494891827302,41.04399834606517],[14.87726020169454,41.043990883540374],[14.876902242370418,41.04435126768434],[14.876722947541163,41.044648493910465],[14.87660519186197,41.04477761458626],[14.8763181889425,41.045092289654974],[14.876589810313181,41.045595997238],[14.877101591106017,41.0459928769341],[14.877624385891817,41.04648820787524],[14.877848592479605,41.04720136620787],[14.877704852355576,41.04750576692957],[14.877336935510321,41.047596608994034],[14.877121713273597,41.04745009342121],[14.876658341489325,41.04715425052795],[14.876526258823633,41.0474310672384],[14.876265253795207,41.047962010990794]]]}}]}
