{"type":"FeatureCollection","metadata":{"code":"064095","referenceDate":"2026-01-01","sourceDbfExportDate":"2026-02-18","upstreamArchiveUrl":"https://www.istat.it/storage/cartografia/confini_amministrativi/non_generalizzati/2026/Limiti01012026.zip","sourceManifestSha256":"70ac8256c4785dc6ed2814c32b6965ae76f9161b51abaa1660059e1c6cbd8ca6","license":"https://creativecommons.org/licenses/by/4.0/","attribution":"Istat, Confini delle unità amministrative a fini statistici al 1° gennaio 2026, versione non generalizzata.","modifications":["Converted from WGS 84 / UTM zone 32N (EPSG:32632) to RFC 7946 WGS 84 geographic coordinates.","Converted from shapefile to per-municipality GeoJSON without geometry simplification."]},"features":[{"type":"Feature","id":"064095","properties":{"code":"064095","name":"Santo Stefano del Sole","alternativeName":null,"regionCode":"15","regionName":"Campania","territorialUnitCode":"064","territorialUnitName":"Avellino"},"geometry":{"type":"Polygon","coordinates":[[[14.877308749261308,40.9083301663743],[14.876454569969052,40.90853580350307],[14.876371168738446,40.90846409702593],[14.876287848056393,40.908391371880064],[14.876014360052185,40.90837388815593],[14.875577556772907,40.90842736214212],[14.875004854953028,40.90849747235482],[14.873686775351223,40.90849693133636],[14.872443485382489,40.90856088039715],[14.87228702032953,40.90856887753068],[14.871098546101809,40.90847656949069],[14.870529820147445,40.90809606858721],[14.869569449704851,40.90751050816605],[14.868383358131213,40.90690496189645],[14.86782446501525,40.906577977420746],[14.866817677738489,40.9066815410353],[14.866174439163448,40.9067477039059],[14.865070976645033,40.9069480616267],[14.864428646061778,40.90743991705678],[14.864048521804987,40.90758533763418],[14.863688686716959,40.90743348912786],[14.86357272811237,40.90738455305464],[14.862962004031857,40.90713119057753],[14.8628964977739,40.90710401409941],[14.862480388018456,40.90682515456114],[14.862384617425837,40.906760973745214],[14.86230362934939,40.90670669946424],[14.86173470712086,40.90601558215113],[14.861347282187046,40.905387231211805],[14.861321575587043,40.90534804103568],[14.860859295524483,40.90486752309717],[14.86022043391242,40.90395042688262],[14.859742947846867,40.903508571211496],[14.859496711601036,40.90328070536197],[14.858608408860619,40.90244382712877],[14.85788521644634,40.901567019940835],[14.85707040945928,40.90128942429547],[14.856770891999718,40.90118739193469],[14.856573657372108,40.901043090159014],[14.856379653133523,40.900901149289744],[14.856142432211412,40.90056667116352],[14.856012485697285,40.9002042366162],[14.855922245847019,40.89977177450624],[14.855694879803682,40.899522794503206],[14.855666041380822,40.899493256619095],[14.85562407739132,40.89945027552833],[14.855350878938722,40.89917126349095],[14.855209420010036,40.8987373864776],[14.854906538367898,40.898461268223336],[14.854840040014274,40.898400644845935],[14.85427290327483,40.898024457241746],[14.853584412793783,40.89760045002523],[14.853205643146632,40.89717416048525],[14.853034029374939,40.89694405564545],[14.852707607303568,40.89650636674299],[14.852357095388124,40.89592334050324],[14.85231903359798,40.895860029810805],[14.852022757818425,40.895218007030124],[14.852005863181228,40.89517739012471],[14.851881568248453,40.89487865297533],[14.851027492985718,40.89429201814336],[14.850463191743113,40.89394955322231],[14.850411726631528,40.89391832028293],[14.849521826579506,40.89338751301054],[14.848786933195145,40.892907305401124],[14.848076744226923,40.89254738056446],[14.847270076434638,40.89216085275475],[14.846084207672188,40.891762083873516],[14.845174826503452,40.891611799883435],[14.844980505978882,40.89157968841583],[14.844315582074977,40.891721605938855],[14.844227593958736,40.89166357933583],[14.844190077111513,40.89163882932842],[14.844030414422923,40.891533484759385],[14.84401984304529,40.89086789672273],[14.844340785865423,40.89014495034995],[14.844592985655558,40.88965953462121],[14.844688434569017,40.889137071168044],[14.845378593719074,40.888669893965314],[14.845273672235301,40.88822065138712],[14.844727856519798,40.88773981436453],[14.844339487830487,40.88724830149101],[14.844266274258684,40.88715564737767],[14.844135164165507,40.88673899190388],[14.844124091308947,40.88670380009031],[14.844167057839488,40.886572874562845],[14.844279993802266,40.8862277797789],[14.844308416816682,40.88620558555391],[14.844755077364448,40.88585705550452],[14.844852947521938,40.88581207131248],[14.844940808799315,40.88577169091028],[14.845492415014675,40.885518043574606],[14.846336158704066,40.885259084103794],[14.8470616806733,40.88498814012783],[14.847359740843372,40.88440136978552],[14.847942723465026,40.88380909868192],[14.848691636891802,40.88344243660083],[14.849106000125277,40.88323231374405],[14.84947512273598,40.882929973919616],[14.849618329195179,40.882621139238005],[14.849796954901072,40.8823689966217],[14.849928587142513,40.882164264902315],[14.849993120505033,40.882124017547135],[14.850392290929742,40.88187512439575],[14.850703504057615,40.88176739453769],[14.851140023207092,40.88168852212564],[14.85170992764902,40.88161452612655],[14.852491356775198,40.88170524236391],[14.85306130182789,40.881941651288614],[14.853774399033831,40.88153638810747],[14.854393070652556,40.88100528052739],[14.855165140027134,40.880691393346474],[14.855770915725927,40.880466997642586],[14.856127574872819,40.88012477070107],[14.856245893857574,40.88004888370548],[14.856531614007713,40.87986565720108],[14.856715952758963,40.87979749043696],[14.856941384936514,40.879714068001114],[14.857279527252803,40.87958898649217],[14.857849352353279,40.87934390335253],[14.85820924608551,40.87896194650812],[14.85840906603457,40.8785907680588],[14.858423978500376,40.878130931796065],[14.858377024960452,40.87763372863332],[14.858341919058605,40.87720343153786],[14.858412552757294,40.87680376702753],[14.858485388524304,40.87646248591498],[14.858533792209576,40.876230481136496],[14.858759869499679,40.87590389770522],[14.859306300394552,40.87557899509327],[14.859840140109812,40.87543025481448],[14.860304325493171,40.875285151691756],[14.862307622388904,40.87610558738868],[14.863197163047122,40.87678484921013],[14.864133989184616,40.877110608880905],[14.864702316119272,40.87722564463465],[14.864846888389705,40.87753563166349],[14.864986209220545,40.87744381323459],[14.865232540358264,40.877379107465565],[14.86560695035748,40.87749328775957],[14.865767399876086,40.87755034177469],[14.865978294510859,40.87757291192885],[14.866227546168835,40.87759958664676],[14.866389150623844,40.87762849111723],[14.866730455156299,40.877689538088],[14.866998508463132,40.877781464990946],[14.867364729863562,40.877907074549796],[14.86780018254475,40.878056418174275],[14.867878279400008,40.878101211166474],[14.868666234114256,40.878553016620074],[14.869745270196479,40.87962670474363],[14.870368124344267,40.8802589889794],[14.87045821190612,40.88035044442555],[14.872112895598239,40.88091142574154],[14.873097289806362,40.88150473748426],[14.87410450065794,40.8821463924035],[14.875374396531234,40.882590071704776],[14.876311811255103,40.88310473522678],[14.876668910089952,40.88323015941077],[14.87790024401596,40.88366261854573],[14.879335319250595,40.88430483289671],[14.881163907073228,40.88323461498439],[14.882400361951177,40.882725759167364],[14.883410449585922,40.882372512413816],[14.884538192641319,40.88195020180971],[14.885145186522271,40.88159056914538],[14.88577436903844,40.88123879509711],[14.886250452560924,40.88055729144785],[14.886535666399626,40.87975505901756],[14.886941117088702,40.87927971767246],[14.887724952049375,40.87921705737942],[14.888626805272896,40.87897282255218],[14.889647794765725,40.878776473773634],[14.890431258093688,40.87899286502258],[14.891024017583455,40.879057001110745],[14.89155866513015,40.87875955755324],[14.892223063977339,40.87855445589968],[14.893161832024814,40.87859184470451],[14.894194133801532,40.8785479045964],[14.895001353077568,40.878339979505505],[14.895795896524152,40.878114687712895],[14.898052042291797,40.87753086042693],[14.898884461592223,40.87729010946268],[14.900355951586956,40.87708406899234],[14.900748245557597,40.876839525687814],[14.901389217908568,40.87678797823887],[14.901721428003869,40.8766899156507],[14.901898090810034,40.87640892495605],[14.903122182003997,40.876635956791006],[14.904320087724656,40.87706949812554],[14.905352360879379,40.87745754021562],[14.906512625517841,40.87793344873911],[14.906856563467258,40.87814406090853],[14.907177392065076,40.878340413056925],[14.907545863596276,40.87884805364493],[14.90812544684416,40.87985429121161],[14.908350555526873,40.880323450852984],[14.908374873659985,40.88045446893819],[14.908527618550048,40.88127751759018],[14.908633289981134,40.88204620955447],[14.908584457551356,40.88251228853375],[14.907931659756796,40.882631368690475],[14.908141181550114,40.883274214123276],[14.908178859613798,40.88338984407621],[14.908298109151028,40.88375573170676],[14.90841676343023,40.884262717072424],[14.908313859988505,40.88426369369738],[14.9082019752075,40.88426474487234],[14.907040193398807,40.88427946464494],[14.906323636846096,40.884377070316766],[14.903968481215173,40.884697830223836],[14.903644100548949,40.884742004984695],[14.903263725726045,40.8848333922743],[14.902821657190707,40.88493959681831],[14.900236706603183,40.88556059432112],[14.899486254891308,40.885885005802834],[14.898180939659529,40.886449259766565],[14.89735076180387,40.88665838696738],[14.898227062565017,40.88720813356247],[14.89811966985172,40.88828819103924],[14.898462198872007,40.888256079622245],[14.899353302203028,40.88817253500446],[14.898970383870042,40.88927393528735],[14.898947150576932,40.88934054601016],[14.899084160916665,40.88949940659542],[14.89912165273988,40.889542934826636],[14.899370709927764,40.88983165002782],[14.89967443647105,40.88966037712175],[14.900048949350403,40.88944918762772],[14.900587006071056,40.889145769414824],[14.900515120536664,40.890092082696555],[14.899410482238624,40.89054934633429],[14.898246250965483,40.89103668887763],[14.897318645382079,40.891475855197754],[14.896534438870406,40.89206942462625],[14.896037377069327,40.890880033196055],[14.893330421623345,40.891338377767354],[14.893223177971501,40.89180746630009],[14.893128093815948,40.892437938630415],[14.892851525955084,40.893145245001044],[14.892745848332424,40.893740255653185],[14.892542331130182,40.894443815755594],[14.892494630743736,40.894932340432504],[14.891708191677255,40.896120083745934],[14.891293285115733,40.89575904608964],[14.89087884405133,40.89537073599727],[14.890487338200295,40.89483721390615],[14.89012024593617,40.894477960764334],[14.889538145811821,40.89429634317232],[14.888944661275755,40.89455621875413],[14.88863560059326,40.89521566376799],[14.888384438908194,40.8958091301451],[14.888205813291012,40.896376369288205],[14.888216198400514,40.897167978117054],[14.88774037550065,40.89769193198492],[14.886873763271282,40.897799320182564],[14.885900232872377,40.89776372024426],[14.885033299497834,40.89806914229611],[14.88441608199815,40.898582329946294],[14.88406706084339,40.898834107699216],[14.883784363465228,40.89903774442387],[14.883238724416927,40.899263710796184],[14.882264501658634,40.89930908257377],[14.8817074218393,40.89942311586697],[14.881444280514202,40.89989115845704],[14.881289837371762,40.900722711271335],[14.88099093294777,40.90131410708749],[14.880467852829232,40.902060989642834],[14.880038300458637,40.90271758344836],[14.879906830416289,40.903223903893796],[14.87988239591656,40.90385525095092],[14.879754481378917,40.90437370361263],[14.87970225099515,40.90458460186525],[14.87938067012279,40.90509615112175],[14.878940501946483,40.90560025288302],[14.878346450704555,40.906058209256315],[14.877753494120707,40.90628657010516],[14.877514685128679,40.90652832067915],[14.877537771108457,40.907130247588746],[14.87751136799767,40.90795974587679],[14.877308749261308,40.9083301663743]]]}}]}
