{"type":"FeatureCollection","metadata":{"code":"065025","referenceDate":"2026-01-01","sourceDbfExportDate":"2026-02-18","upstreamArchiveUrl":"https://www.istat.it/storage/cartografia/confini_amministrativi/non_generalizzati/2026/Limiti01012026.zip","sourceManifestSha256":"70ac8256c4785dc6ed2814c32b6965ae76f9161b51abaa1660059e1c6cbd8ca6","license":"https://creativecommons.org/licenses/by/4.0/","attribution":"Istat, Confini delle unità amministrative a fini statistici al 1° gennaio 2026, versione non generalizzata.","modifications":["Converted from WGS 84 / UTM zone 32N (EPSG:32632) to RFC 7946 WGS 84 geographic coordinates.","Converted from shapefile to per-municipality GeoJSON without geometry simplification."]},"features":[{"type":"Feature","id":"065025","properties":{"code":"065025","name":"Capaccio Paestum","alternativeName":null,"regionCode":"15","regionName":"Campania","territorialUnitCode":"065","territorialUnitName":"Salerno"},"geometry":{"type":"Polygon","coordinates":[[[15.029774021179744,40.49877597607552],[15.02971919759892,40.49938587215312],[15.029455615694758,40.50075740311584],[15.02943540858954,40.50081256679964],[15.0289631704654,40.50138195720964],[15.0280201394822,40.501975903955326],[15.027047656099237,40.5026085357627],[15.026981962699892,40.50265132075071],[15.026097334478173,40.50325568890044],[15.026013787491896,40.50346903076967],[15.025789815606256,40.504041381493],[15.025672346770138,40.50476759442011],[15.025661638246948,40.50484652416563],[15.02564744760013,40.504951686642436],[15.025622820548604,40.50513420110553],[15.025618159886383,40.50516873885305],[15.025599586953097,40.505306642260216],[15.025555463435948,40.50563336251907],[15.025366657945842,40.50625531974855],[15.024989782979093,40.5069501280453],[15.024692542527353,40.507642046432004],[15.024614121065188,40.50782485258898],[15.024479661322124,40.508137866745614],[15.023631098906371,40.50784021642939],[15.022672079867752,40.50746061052045],[15.022496268977777,40.507391018953285],[15.021695269312273,40.50674433485815],[15.021352443115537,40.50607816449975],[15.02094513576324,40.50558795411007],[15.020904453007137,40.50553878969657],[15.020797150508136,40.50540962683878],[15.020723564036054,40.50535154617498],[15.020611102457803,40.505262728296096],[15.020064252644556,40.50483135421146],[15.0197591488676,40.50470123392779],[15.019722963404837,40.504685797481265],[15.019414524005489,40.504554116103606],[15.019218149753002,40.504470519919444],[15.018932866510713,40.50434593660447],[15.018803399973864,40.50423452422383],[15.018621268672566,40.504077790701864],[15.018306703570998,40.503807087821315],[15.018288735286859,40.50378415657617],[15.018030983772805,40.50345519029185],[15.017935846624917,40.50333376530319],[15.01778631026776,40.50314290959166],[15.017727433556546,40.503067762206896],[15.017607640705455,40.5028833664279],[15.017440661871387,40.50262633271699],[15.01731504139741,40.502432963563066],[15.017013753909128,40.501969180762586],[15.01697243468995,40.5019055749819],[15.016937819835224,40.501532129262536],[15.016906361059709,40.501192738707374],[15.016892267425604,40.50104074894476],[15.016859082631031,40.500682825851044],[15.016867771838704,40.50051007318367],[15.016878149038652,40.500303797112565],[15.016641165670022,40.499789600482785],[15.016405091953796,40.49920335194453],[15.016217315935839,40.4989852460118],[15.016180716349208,40.49894273619788],[15.015908245834327,40.49862624971263],[15.015867717677391,40.49846180776395],[15.015847346262655,40.49837915132891],[15.015768072201698,40.4980574967755],[15.015707385130616,40.49792881056413],[15.015668719802163,40.49784682002355],[15.015634017488209,40.49777323303319],[15.015494908195311,40.49747836955306],[15.015424134371344,40.49732835416189],[15.015079035254342,40.49716230667392],[15.015044456028996,40.49714566948179],[15.014942821679016,40.49709696485149],[15.014654295978794,40.49702796480936],[15.014488944204668,40.496988421817136],[15.014300082118789,40.49694325572974],[15.013999995364193,40.49687168852775],[15.013898865280513,40.49684789823006],[15.013843404582289,40.4968348509431],[15.013308781582065,40.49668755729272],[15.012910139276158,40.496577725479796],[15.012718699639674,40.49652498084315],[15.012662432159324,40.49650947724859],[15.012128624463525,40.496367501958005],[15.011538551698367,40.49621055902],[15.01122609940972,40.496127453063096],[15.011106553921719,40.49609565726748],[15.010948481278847,40.4960511897121],[15.010569030699703,40.49594444418547],[15.010451301647324,40.49591129269426],[15.010358371803378,40.495885179094536],[15.010202426611196,40.4958413105392],[15.009818578064372,40.495735328508324],[15.009768352662984,40.495717511620754],[15.0096545904941,40.49567715465285],[15.00917828375957,40.49550818660024],[15.008588218337774,40.49529885917792],[15.008401622001784,40.49523246861987],[15.007998158755687,40.49510886309285],[15.007408103289796,40.494927713744964],[15.007187540987843,40.49485999948651],[15.006818062208083,40.49486361149603],[15.0062280310995,40.49486937907122],[15.005637998266145,40.49487514278718],[15.005170616010817,40.49487970703646],[15.005047965055036,40.494900129336315],[15.004457939300558,40.49499836949233],[15.003871589428174,40.49509593969709],[15.003562421678598,40.49522705481843],[15.003277887747634,40.49534759367823],[15.00291485214673,40.495501385902784],[15.002686344125818,40.495673976158805],[15.002094729057392,40.49612072210458],[15.002031257792085,40.49616852491641],[15.001711918251399,40.496578440649174],[15.001581752582181,40.49674552485416],[15.001507809748682,40.49691122947137],[15.001455303932216,40.49702889204854],[15.001254293230124,40.4974793424708],[15.00124042193278,40.49751042862394],[15.001055456798014,40.497929792692624],[15.000965043275734,40.49813477928573],[15.000917777239534,40.49824194939339],[15.000886903297403,40.4983119512333],[15.00088093842174,40.4983802399496],[15.000841594105145,40.498830688596485],[15.000826088284592,40.499008222007475],[15.000864075309144,40.49928009257457],[15.000870322821765,40.49932297414115],[15.000880941637515,40.499393941495306],[15.000969041655512,40.50001341585945],[15.001144627886084,40.50042731875958],[15.001498234522696,40.50068343290476],[15.001452875963988,40.50070874949702],[15.001315137079366,40.50078563107905],[15.001275908348223,40.50080752716513],[15.000907880448699,40.50099984830995],[15.000402863253822,40.501618132623534],[15.000120007075525,40.50201542550438],[14.999943823915148,40.50229821096517],[14.999694002701824,40.50269919666472],[14.99925754643966,40.50355455116222],[14.998998439377656,40.504184649011165],[14.99878671930872,40.50511379355102],[14.998634945576997,40.50560046072563],[14.998548445000612,40.50587782308126],[14.998444919351888,40.5060375781708],[14.998219427744564,40.506385524350584],[14.998194741286047,40.50648832178761],[14.998176451908709,40.50656465785794],[14.998160517327754,40.50663106072382],[14.998099151704887,40.5068868622557],[14.998418716970304,40.50732027458011],[14.998308151220634,40.5081542355097],[14.998300305550002,40.50821306995773],[14.997816407156636,40.50857133487203],[14.99700406418664,40.50868111971178],[14.995860335842123,40.50838517610527],[14.994938191966355,40.50767258575019],[14.994347130302446,40.50719478585568],[14.993816604802745,40.50691039336474],[14.993737132844911,40.50686697997801],[14.993684991087672,40.50683914465466],[14.993526468991481,40.50675452620513],[14.993437269187046,40.50670659443555],[14.992929956369963,40.50642962345711],[14.992535581519762,40.50621431648882],[14.992353489060662,40.50611490071264],[14.991455212118328,40.50527501932137],[14.991423333341904,40.505241149894864],[14.990760615199463,40.50453705718031],[14.989615033339717,40.50359302345022],[14.988930419713014,40.50276001614151],[14.988294206367456,40.501816460439706],[14.988390440358462,40.500722617015256],[14.988394358820699,40.5006816470742],[14.98841694789052,40.500641743125094],[14.988812564373903,40.499953251230984],[14.988862957700793,40.49988041350876],[14.989011287440837,40.49966648882793],[14.989132944338413,40.49949102511813],[14.989486886253692,40.498995555858976],[14.989570511888472,40.49891354602069],[14.989655450371142,40.49883024905311],[14.98970652099911,40.49878016893594],[14.989888707688923,40.49860150631168],[14.990029684000932,40.49846325008976],[14.99005242786932,40.49842316947301],[14.990077010190973,40.49837984184708],[14.990296704520672,40.49799260725062],[14.9903325556142,40.497929416087075],[14.990442752271417,40.497735181847986],[14.99059114299767,40.49747931403407],[14.990628433965318,40.497415311569284],[14.990853025527846,40.49702870067438],[14.990887117556715,40.49697001242901],[14.99092519939646,40.49690445380712],[14.991008197840012,40.496578128250164],[14.991122762955502,40.49612768816156],[14.991163008578601,40.49596944992914],[14.991128323838026,40.495677242377255],[14.991125016483773,40.49564937441915],[14.991074828088212,40.49522678903003],[14.991034475422842,40.49488700546871],[14.990970987090996,40.49477633294458],[14.990942592003607,40.49472683305972],[14.990878447363292,40.49461309726765],[14.990727097606403,40.49434940768275],[14.99065555279625,40.49432586121932],[14.990297249471308,40.494207931516875],[14.989900684459332,40.49407740883658],[14.989707236160726,40.494113661868575],[14.989601939105755,40.49413339446385],[14.989117191894064,40.49422310443008],[14.988790009040846,40.49428365269761],[14.98871818562837,40.49432576352836],[14.988527405637473,40.494437614845666],[14.988166938451764,40.49464892298284],[14.987941817500031,40.49478080761737],[14.987787553621205,40.49487127004507],[14.987347302649685,40.49517176369042],[14.987266864863566,40.49522664799428],[14.987099731898745,40.495340676274886],[14.987009229674856,40.495402399939735],[14.98689654907028,40.49547456783594],[14.986756818711543,40.49556406085708],[14.986580788701431,40.49567680292142],[14.986206185174693,40.49591672171383],[14.986166703091543,40.4959306632277],[14.985582462926262,40.496136772058826],[14.985085255420657,40.49631252853326],[14.984986530957297,40.4963229328948],[14.984396470394028,40.49638511514679],[14.983905452135318,40.49643685650105],[14.983806404529505,40.49646446831457],[14.98340170156363,40.496577285146536],[14.983216317197966,40.49662896333204],[14.982626224459176,40.49679345743433],[14.982476689948708,40.49683514090754],[14.98203457826428,40.4970184139124],[14.981705424937289,40.49715480180014],[14.981445990047817,40.49726233822642],[14.981284874001812,40.497329120765656],[14.981028467795984,40.49747781066226],[14.9808558456188,40.497577912890286],[14.98030453680411,40.49789761108291],[14.980264905003121,40.4979262665926],[14.97981964998274,40.49824783205432],[14.979675499208032,40.49835194662713],[14.97963877570183,40.49837847060189],[14.97941829516129,40.498537709671446],[14.979085316357006,40.498732238748595],[14.978920047756322,40.4988287878494],[14.978495139597404,40.4990770190602],[14.978462822176658,40.49909589858639],[14.97821562283552,40.499279105285886],[14.977904927306517,40.49950936713675],[14.97761387632962,40.49972543398594],[14.97731471774222,40.499913237249466],[14.97689100855919,40.5001797434754],[14.976857388674507,40.50020089010587],[14.976724522323508,40.50025290057005],[14.976134359933695,40.50048392083621],[14.976009024221606,40.50053298325953],[14.975651794370005,40.50062993617367],[14.975544213678736,40.50065913330438],[14.975312041866166,40.50072214285638],[14.97495411004884,40.500714634944316],[14.97436403021487,40.5007022520719],[14.973773939805087,40.50068985499116],[14.97321255212741,40.500678070439776],[14.973183866128657,40.500662583715965],[14.973122329537876,40.50062936080239],[14.9728094460337,40.500460436106664],[14.972645886877386,40.50030298138761],[14.972535549438712,40.500196759760534],[14.972410197060798,40.50007609997902],[14.972235229593428,40.499742062250895],[14.972192877033997,40.49966204661078],[14.972087382001645,40.499455108092604],[14.972070687953652,40.49927776284757],[14.972027745286482,40.49882675986829],[14.972019436278467,40.49874161200776],[14.972053638621855,40.49837686390958],[14.972090238333356,40.497977366775835],[14.972095734442165,40.497926425576004],[14.972144330823012,40.49747599034599],[14.972174225618387,40.497198902324634],[14.97215982376236,40.49702554643757],[14.972122402270912,40.496575089769344],[14.972091205343444,40.49619955186462],[14.972104606937211,40.49612463775844],[14.972185183226054,40.49567420921169],[14.972268224562798,40.4952099913936],[14.972294039595123,40.494773340546686],[14.972316499874221,40.494392109642725],[14.972297583016228,40.49432289353062],[14.972174468516021,40.49387241390511],[14.972051356343249,40.49342193759858],[14.972006768806468,40.493258787596204],[14.971963571470347,40.49310072416395],[14.971919556308176,40.49297145712354],[14.971766167557043,40.49252097177759],[14.971644335520308,40.492163157145846],[14.971540352225697,40.49207046869427],[14.971417298756984,40.49196077980022],[14.971020612921224,40.49160732359669],[14.970827493954545,40.49149306594686],[14.970503946283763,40.49130256789977],[14.970463791371655,40.49127893290848],[14.970277498961877,40.491169254007595],[14.970237643459932,40.491145788838935],[14.969747644836557,40.49085729777074],[14.969647801813167,40.49079757286705],[14.969515796607762,40.49071860763346],[14.969057964317942,40.49044473220769],[14.968762458842216,40.49026795809457],[14.968660631420697,40.490207044352836],[14.968468143039164,40.490076713909524],[14.968085045420406,40.48981732462885],[14.967878341984067,40.489677366569765],[14.967419507716862,40.48936668996252],[14.967288547887355,40.48927801569167],[14.967079983711967,40.48913679513831],[14.966825407596161,40.48891607358457],[14.966698797743723,40.48880629898851],[14.966305703931754,40.48846547455993],[14.966100788434938,40.48828742653068],[14.965884392481456,40.48801490198433],[14.965525186023786,40.48756170639786],[14.965170329260898,40.487113792229394],[14.96511028719896,40.487038020503796],[14.964929867311406,40.486860940911704],[14.964728409930132,40.4866632096172],[14.964340212281666,40.48628218881232],[14.964273805710308,40.48621695203375],[14.96375048720111,40.485849227326945],[14.963626351218334,40.48576197122312],[14.963160759399127,40.48543470125854],[14.963057437641117,40.48536207413765],[14.962961558844002,40.485311311175735],[14.96257099257705,40.485104525242775],[14.962110261008824,40.48486058616982],[14.961981220510935,40.48479226453195],[14.961524266158738,40.48455032110244],[14.961391462314023,40.48446728457275],[14.961299635619417,40.484409869900645],[14.960801734615151,40.48409855125888],[14.960578833242673,40.483959177460896],[14.960212013290707,40.483729814448004],[14.960121628849242,40.48367329809757],[14.959820110091178,40.483508466983814],[14.959622274416345,40.483400316110576],[14.959024074572227,40.483072594545526],[14.958983552733411,40.48305772460494],[14.958442747800914,40.482851077488895],[14.95795511050447,40.48266474319588],[14.95784795228973,40.48262447890122],[14.95780054919171,40.48260685004447],[14.957596151652508,40.482530287925975],[14.957263168449972,40.482414306196446],[14.956673376440515,40.48220887127718],[14.95652138059191,40.48215592675434],[14.956083588933316,40.482003433010064],[14.955649858258914,40.48185235048873],[14.955493792929856,40.48181457807816],[14.955040683198613,40.481704910831674],[14.954903969722974,40.48167182220739],[14.954730522501832,40.48162984193192],[14.954314123342307,40.48156635822242],[14.953724267279647,40.48147642630804],[14.95336375949659,40.48142145977695],[14.95313442960715,40.48136522450377],[14.952678899197103,40.48125352064537],[14.952544616084683,40.48122059067744],[14.952166262300086,40.48112780871467],[14.95195478531887,40.48110438024924],[14.9518061183543,40.48108791109114],[14.95136488835535,40.481083362948986],[14.950862208238476,40.48107817905508],[14.950794907463838,40.48107952426376],[14.95054009184607,40.481084610463334],[14.95015456438933,40.48109230364105],[14.950093140716547,40.48109738102363],[14.949595109496817,40.481139118857875],[14.949173721224856,40.48117443338458],[14.949087815001217,40.48118469688908],[14.94900515380304,40.481194571264936],[14.948913904781138,40.481205470691236],[14.948865137079116,40.48121129517603],[14.948709549487422,40.48122991420034],[14.947863539040451,40.48132762642488],[14.946814569819809,40.48146280204519],[14.94607047745782,40.4815904536063],[14.945961076570539,40.48160921991181],[14.945763674720618,40.48164308374496],[14.945507910865519,40.48170921318779],[14.944654436299485,40.48192987964696],[14.944129922146727,40.48208299361775],[14.943837664619577,40.482169605381436],[14.943668849323121,40.482073220923255],[14.943507184187663,40.48197606302595],[14.943253045898054,40.481949469688644],[14.942964198582397,40.48198463458445],[14.942132890699579,40.481853481596225],[14.942513175909488,40.481318810704686],[14.944896989982288,40.477965593836764],[14.945069416164452,40.47782664374507],[14.945139654532179,40.477770541274154],[14.945203037765538,40.47768735084837],[14.9452783237138,40.477586433287314],[14.945544285244367,40.47726002989403],[14.94574157109558,40.476996793453026],[14.945844981700567,40.47681008994152],[14.945910275098607,40.476704264532515],[14.945960665389988,40.47661598811415],[14.94599549800502,40.47639536921186],[14.946180570908528,40.47608657985804],[14.94629720620459,40.47593484068252],[14.94635618807346,40.47585770176097],[14.946400819544237,40.47579847941248],[14.946451236173614,40.47569906486334],[14.946492981262496,40.47561567232882],[14.94655069494947,40.475499880009224],[14.946666422831905,40.47520870015707],[14.946733659114388,40.4751573956389],[14.946886034822215,40.47504112499138],[14.946921213608304,40.47500649551706],[14.946992895182163,40.47493692152992],[14.947064531592407,40.47486731832777],[14.947095453441174,40.47483854172463],[14.94714675661503,40.47479468299931],[14.947336867740278,40.47463537788914],[14.947389308791246,40.47458383338276],[14.947460869663942,40.47451293314038],[14.947532549979485,40.47444101402613],[14.94758024935301,40.47435927415388],[14.94762673100735,40.47427854590236],[14.94765217086319,40.474240300110786],[14.94779375142589,40.47386025236987],[14.947811118835988,40.47381485413909],[14.947917241300217,40.473646997432624],[14.948007763975866,40.47345753453965],[14.948285214031435,40.473157593906414],[14.948343129337166,40.47297230109987],[14.948493392640344,40.47282233357664],[14.948782479654396,40.472434152825066],[14.94897912104571,40.47208123812708],[14.94930285513764,40.47165778927249],[14.949568837484899,40.47125193953862],[14.949684519051539,40.47102693973555],[14.949788644508358,40.47080637234325],[14.949927858151419,40.47069186166698],[14.949941348831207,40.470667934715905],[14.94998144643705,40.4705954800885],[14.950020667428321,40.47052428052953],[14.950079721782357,40.470460323208584],[14.950269346733407,40.47026220564016],[14.950297577754872,40.47023317389706],[14.950341844056338,40.47019277749945],[14.950528459993599,40.47002124768654],[14.950782849297747,40.46966835027767],[14.951037177893108,40.4693507572858],[14.95121063204871,40.469094897059435],[14.951488222675733,40.46856992977343],[14.951684813987166,40.468216993699116],[14.95181207795562,40.46795229484961],[14.952031672878768,40.46775823728402],[14.952181893430415,40.467652402380175],[14.952436203071782,40.46735245031714],[14.952621147390689,40.46714954736386],[14.95274825275801,40.46707899034773],[14.952898641664724,40.46675253540907],[14.95304895736197,40.466518718610786],[14.95323394585875,40.466227566134094],[14.953407419853418,40.46593641809844],[14.953551360639718,40.46566392258456],[14.953623420887723,40.46542165185354],[14.95384616399872,40.465167111610846],[14.954104720390367,40.46495120340027],[14.954282772476725,40.4647079696827],[14.954412016908215,40.46440424825036],[14.954472941160688,40.464194056859846],[14.954661018242673,40.46402231025596],[14.955108357530051,40.46376604531362],[14.955190325218009,40.463445863702916],[14.955273833314486,40.46315800029287],[14.95786169362202,40.45953037362413],[14.959869988959538,40.45671488971804],[14.966188572688791,40.447813920387844],[14.971391901806026,40.441113911807854],[14.97546584313059,40.43504386687863],[14.978374057566747,40.431363103892735],[14.978380676634107,40.431320523318306],[14.978759316720698,40.43064376991003],[14.981163884648444,40.42604136416875],[14.98445528952785,40.420476074763435],[14.986703819498503,40.41619321386891],[14.987251272216314,40.415150381983175],[14.987602145302354,40.41448199322525],[14.990906464753735,40.408022767989614],[14.99228589447094,40.40515197433208],[14.993905140961925,40.40178179894198],[14.995470010883105,40.39785470113225],[14.997151497580091,40.393634498207355],[14.998865274630973,40.38839507394901],[14.998875242009412,40.388355259833276],[15.000889123379991,40.380310393177616],[15.000879855610332,40.37984280625846],[15.000956464770999,40.37924924461834],[15.0010981453733,40.379336306939145],[15.001521588704719,40.37959786410652],[15.001664690424178,40.379734419047296],[15.001991797079464,40.38012489418531],[15.002217816324844,40.38039421047653],[15.002522486192165,40.38133696711651],[15.002630306790701,40.381655391616974],[15.002816680445632,40.3821947518902],[15.003501749390269,40.3832121987769],[15.003666791989737,40.383507168924396],[15.003861543470324,40.383836175461184],[15.00403082832238,40.384129759198615],[15.004571928003404,40.384974776523435],[15.004666699316072,40.38512277900866],[15.005975747501502,40.38594240338443],[15.006049253148786,40.385963377343806],[15.007748279142577,40.386446582975154],[15.008681699726345,40.38636002235994],[15.010229654989612,40.38661945217641],[15.01091123411182,40.386769739614856],[15.011715375930093,40.386947062092695],[15.0123137782981,40.38707900689915],[15.01376797826905,40.387365936809516],[15.015112729425105,40.38725748356283],[15.015793568977811,40.387422225333935],[15.015902342393947,40.38744852715568],[15.016024402896619,40.38747804970857],[15.016072305067329,40.387487592977465],[15.016113267950667,40.3874995490624],[15.017026593921216,40.38739879873095],[15.017404209690932,40.38671748548539],[15.017729559710613,40.38624149835399],[15.017921053631165,40.38599316221588],[15.019066046262507,40.38641917784755],[15.019396626897286,40.387311033854665],[15.020113615975603,40.38834470012456],[15.02077396331153,40.388958290419595],[15.022269168779815,40.38919066780041],[15.024098448014964,40.38947308330549],[15.024636867629388,40.38960637433567],[15.024958641764162,40.38968572017498],[15.02509751313414,40.3897199110956],[15.025558002518112,40.389833317313354],[15.025846464554517,40.38999824204385],[15.026606614126283,40.39043554143417],[15.02748991678377,40.391163427359636],[15.02811747339541,40.39173037667137],[15.028197553356366,40.391802720319376],[15.028827781146271,40.39224990047408],[15.029437028092946,40.39203817179806],[15.029551318376205,40.39203746954016],[15.031098731032793,40.392028111212085],[15.03264088042376,40.392090977560464],[15.033970779236121,40.39216084068275],[15.034960304277185,40.39218123480889],[15.036174417179632,40.39214441271601],[15.036939592344902,40.39204580803922],[15.037228236675283,40.39161283263567],[15.03737877463916,40.39138702226002],[15.037445494189095,40.391286940330005],[15.037858840884477,40.39080949015101],[15.038115627413362,40.39061992194091],[15.038529128239905,40.39031466050526],[15.038554444717567,40.39029597026167],[15.039177050693818,40.38989647805228],[15.03929599797362,40.3898352815402],[15.03995629312292,40.38932236946563],[15.040370969768349,40.38891701707006],[15.0404622700123,40.388827799949084],[15.041449110854398,40.38851050921074],[15.042322989159192,40.388311674661786],[15.042745276541817,40.38812153632898],[15.043006079618653,40.38798777746024],[15.043448428220449,40.38782430706303],[15.04385284306355,40.38768354571473],[15.043900064787108,40.387659590744626],[15.044329857612537,40.38759606765521],[15.044511556805421,40.38756921204583],[15.044713931405271,40.387539353213725],[15.04559950157906,40.387270107997544],[15.046716736688412,40.38747165505785],[15.046904120776675,40.38742958235807],[15.04741408926001,40.38731506679883],[15.04771878133287,40.387246644579996],[15.047923927438246,40.38680192483644],[15.047976802629702,40.38668729884332],[15.048116820928502,40.38633692389994],[15.048356828535452,40.386412432770065],[15.048732280150166,40.386530552495046],[15.048903886203414,40.386584539071904],[15.04950937404939,40.38621058135674],[15.049810074453196,40.38601180686997],[15.050196377648914,40.38575634300788],[15.050295642387406,40.38569070079994],[15.050398935077496,40.385698559261314],[15.051228648333657,40.38576168572987],[15.051514722274364,40.38585186872778],[15.051812198819452,40.38594564476305],[15.052557551965052,40.385453358024826],[15.053330482679298,40.38532041077767],[15.053707141576572,40.38554024555446],[15.054104272207809,40.38575232981894],[15.05480835376899,40.38541608563522],[15.056458281800479,40.38514361655198],[15.057694665074157,40.38499309662407],[15.058429747326436,40.38495156393075],[15.05853211326886,40.38494578474265],[15.05943037788342,40.38494682208589],[15.05998027449201,40.385007892908305],[15.060147305822953,40.385098135546365],[15.060311413577379,40.38518852091979],[15.060605764161513,40.385573576292856],[15.06069999703515,40.3856621191959],[15.06107749794317,40.38601682079659],[15.061489985275223,40.38598160650981],[15.06186683445049,40.38566474838025],[15.062104272808917,40.38571976059354],[15.062492754253848,40.386014357823726],[15.063059371814305,40.38672712157917],[15.063218940725752,40.3871475463137],[15.063295614674368,40.38734925600699],[15.063660878922539,40.38820312709847],[15.06394389682412,40.388764297041284],[15.064500469409058,40.38920062613064],[15.064734701064506,40.38938425099887],[15.06534771953344,40.389941537971424],[15.065760524632635,40.390473380492445],[15.066089061900582,40.39088364023829],[15.066244667289377,40.39107794750762],[15.066798912981087,40.39148081940653],[15.067176084995008,40.391994460431626],[15.06723497648254,40.39207442027237],[15.067728698274037,40.39294851756482],[15.067767499272206,40.39298001204549],[15.068251715267703,40.39337304255194],[15.068289293658832,40.393403544516225],[15.068520158639155,40.393590929928386],[15.068796012397243,40.393772513625784],[15.069143619983473,40.39400134373534],[15.06954559700711,40.3942659634753],[15.070736537870568,40.39510332843734],[15.071584469507227,40.395675732087234],[15.071892954617926,40.39588397222035],[15.072000314914272,40.39595632872325],[15.07301181834085,40.39663957658522],[15.073357441875189,40.396872950743486],[15.074544486303363,40.39767490907218],[15.075713303502127,40.398396366749886],[15.076651565358144,40.399213780534126],[15.07717332538255,40.399669499722314],[15.078283712202973,40.400493003634395],[15.078916361478836,40.400979376231994],[15.079571051434788,40.40148268490349],[15.080868022924328,40.402480857046456],[15.081012584818568,40.40265005835043],[15.0812465874291,40.40292441487504],[15.081398070343193,40.40333046566075],[15.081752412344924,40.403896834816244],[15.082061223157472,40.40457809326394],[15.08216826756332,40.40477518975901],[15.08243903449755,40.40527371942995],[15.08267399150188,40.4058868715282],[15.083749348346084,40.40742776328356],[15.083886083513612,40.407637018317516],[15.083926774865404,40.40769742212437],[15.084175267585671,40.40800383279849],[15.084540838044303,40.40833556153155],[15.084941581561601,40.408795944743886],[15.085448654461432,40.40939021759925],[15.08617043331055,40.410028676881524],[15.08674519300077,40.41047834298623],[15.087476448927848,40.410979760993136],[15.088019890475692,40.41132458567289],[15.088336346101658,40.411449396754655],[15.08856327468011,40.411538899769326],[15.088894103727478,40.41167516935535],[15.089434755535027,40.41189786230261],[15.08980456254026,40.4120447816696],[15.090473066195043,40.41231101701026],[15.090823291177898,40.41256181897372],[15.090888251573684,40.41260833983959],[15.09134506338222,40.41293547923168],[15.091678934050133,40.413574884484476],[15.091864885436857,40.41388908271136],[15.092281323870589,40.41420460154043],[15.093316447252816,40.41458190273377],[15.094520832997596,40.414788203489245],[15.09542583601518,40.41511835820913],[15.09621860549179,40.41551745303868],[15.096931706248501,40.41572054008926],[15.097035895128368,40.41574998241073],[15.097125195348926,40.41577548720879],[15.097593610100052,40.415910163422076],[15.097835011987524,40.415982247355814],[15.097914499409706,40.41600598295396],[15.098544749365798,40.416420074654816],[15.098659544437034,40.41649534164433],[15.09925980862352,40.41701693660049],[15.099340841570914,40.41704937524286],[15.09943181276629,40.41708573676111],[15.09952278833587,40.41712209347277],[15.100073015381524,40.41734309240589],[15.100262792440315,40.417423054608925],[15.10064193810209,40.41819506183075],[15.100907297342262,40.418877219359096],[15.101125663867768,40.419438562064066],[15.100990398206994,40.420249602071024],[15.100961382122588,40.420419377334944],[15.100999512609764,40.42112393146656],[15.101038006577706,40.42211649668285],[15.101155521949424,40.42317687798543],[15.101155570479188,40.423923948552854],[15.101101113002839,40.42488993391831],[15.100948837038375,40.42573510528259],[15.100784822714557,40.42662137776204],[15.100620099258663,40.427305173378556],[15.10047799306723,40.427871861827725],[15.100455696716166,40.42818696832218],[15.101375862940257,40.42817874255717],[15.10229565016395,40.42808499625937],[15.10290723619712,40.428075098012364],[15.10422825145787,40.427933088215575],[15.104451238996097,40.4282813025931],[15.104494449346545,40.42838323972404],[15.104676999097666,40.42881389414615],[15.10494899488861,40.42935302822446],[15.105340698372382,40.43016485123572],[15.105589502645508,40.43089425516801],[15.105885905002875,40.431661614437076],[15.106263653028787,40.432586695468764],[15.106758779792742,40.43368555638381],[15.107081407713103,40.434676544307166],[15.107436479877943,40.435602822402956],[15.10765637229277,40.43643728400708],[15.107683517925246,40.43653930841586],[15.10802662662749,40.43739871388426],[15.108230289556968,40.43827900759285],[15.108330813607116,40.43860659659153],[15.10854827835591,40.43931525346019],[15.108954033895724,40.440349293710796],[15.109046508005319,40.4405849513494],[15.109296359816641,40.441422292559],[15.109627889061429,40.44241279980822],[15.109730315073561,40.44269926072621],[15.109971633959095,40.44337567098971],[15.110372297866522,40.444349015265395],[15.110703862468613,40.44533951699111],[15.11087274823364,40.445933621537094],[15.110965002882505,40.44636527705655],[15.11107283559772,40.44693561521551],[15.111203372696778,40.447464247448835],[15.111429824286953,40.44830280867445],[15.111736994497692,40.4490245809713],[15.112138375445959,40.449745851690345],[15.112382118589982,40.45022347685879],[15.11252878651827,40.45050822025576],[15.112825208021489,40.451176548317456],[15.113014207280246,40.4516466699936],[15.113250594824915,40.45223473795517],[15.113335377882795,40.45244560964045],[15.11258011860403,40.45256220276767],[15.111743892217575,40.45272810489014],[15.110757548930204,40.452947284316245],[15.110658352543131,40.452970244055614],[15.110292535976377,40.453116116526445],[15.108701352759622,40.453056064148875],[15.10764918367017,40.4526933327099],[15.106788132868541,40.452423961201234],[15.105935759798589,40.452513187404186],[15.105655991179116,40.45254250360519],[15.104714545267063,40.4525879169616],[15.103910581231952,40.45226600325086],[15.103702148302798,40.45209341271976],[15.103369097899977,40.451817651702235],[15.10242540813601,40.45177315276682],[15.101353032387715,40.451771465524835],[15.100196062656416,40.45173824784266],[15.09916013946331,40.451919133125806],[15.098523059322353,40.45213739777064],[15.097543944699016,40.452027229308996],[15.097055486850232,40.45219419269378],[15.096752632858065,40.452298648473715],[15.096244634419604,40.45231652883244],[15.095799352782718,40.451921555443654],[15.095550957313742,40.451840227565874],[15.09521952627734,40.4517317210749],[15.094488980415914,40.451869412895164],[15.093720617699372,40.45167153809393],[15.093497193080767,40.45190388720016],[15.093758099503624,40.45234462690371],[15.094065476651059,40.452939808745064],[15.09401774734006,40.453226484376756],[15.092921933058157,40.45335647222555],[15.092775804058926,40.453270930084585],[15.092626385548783,40.45318308649157],[15.092419799548463,40.4529523454788],[15.092274458988644,40.45278947873593],[15.092027333481953,40.45233246973268],[15.091977381451565,40.45223997366248],[15.091718434912663,40.45174596480041],[15.09102076765412,40.45162085186447],[15.089700768637888,40.451519649322975],[15.089217185964861,40.451684729366114],[15.089029883204043,40.452234694458085],[15.088783410766077,40.45268428082435],[15.08787454863583,40.45285383063106],[15.087248484087175,40.45316146432708],[15.086717729145356,40.45351355235635],[15.086587801389516,40.45344728304932],[15.08611857060421,40.45320767385518],[15.08585951284576,40.453141697703714],[15.085621042679236,40.453080964376376],[15.085240384174172,40.453263066460714],[15.085169814518217,40.45329681942389],[15.084997055004242,40.45337945622533],[15.084547539474558,40.453164689429],[15.084346197619436,40.45256775947257],[15.083946389043664,40.45229183623943],[15.083095854667947,40.45195872170271],[15.082446610337337,40.451497967930486],[15.08212953160998,40.451249190376146],[15.081857145762381,40.45103855203446],[15.081466809433799,40.45092413552641],[15.080737813832238,40.450778123415795],[15.080087102691737,40.45035791466145],[15.079153465377967,40.45003367405546],[15.078987137982987,40.44990670651879],[15.078552316950864,40.44957484096707],[15.078224170600441,40.449016095703996],[15.077167990787201,40.44889182682297],[15.07654559302657,40.44881664545877],[15.075735139748353,40.448746903058556],[15.075304327407835,40.44877271064575],[15.075110403276078,40.44878435911547],[15.074492543747342,40.449028481708446],[15.074377050059255,40.44907057519592],[15.073882146040338,40.4494612127929],[15.073494354785455,40.44934215539362],[15.07333864152551,40.4487922938217],[15.073215382985456,40.44864708466019],[15.073009062248063,40.44840463923789],[15.072773947339225,40.44860606059142],[15.072743523268468,40.448707373787826],[15.072622040823761,40.449109120104765],[15.072505348828251,40.44956982214969],[15.072280921127195,40.45012621765593],[15.0721159948741,40.450778485121354],[15.071928274642259,40.451251946324305],[15.07174010726097,40.45180193132681],[15.071633991630124,40.45238809071637],[15.071433379209077,40.45302874622307],[15.071186018626488,40.45355934298893],[15.070763026661215,40.4537031593961],[15.06989116279821,40.45344307433015],[15.069322280428906,40.45311302016729],[15.068321014659602,40.45298575822418],[15.067648130975106,40.45310223075185],[15.067753983570976,40.45339368357854],[15.067643182923526,40.4535699604309],[15.067602041120479,40.453635710227346],[15.0674621091631,40.453652097352816],[15.067156299086578,40.45369069807678],[15.067042458197323,40.45378944132223],[15.06690769341499,40.453906337589274],[15.06681144914167,40.45427594358145],[15.066875031795462,40.45450048098211],[15.066967149983695,40.45482579666248],[15.067088720074755,40.45516346558916],[15.067108677682166,40.45521889534024],[15.067805777891143,40.45540269453847],[15.068407119002972,40.45553752417703],[15.068819222717677,40.45605587254238],[15.068759497764766,40.45679710487385],[15.068730689479294,40.456914209140116],[15.06864514446495,40.45726193450127],[15.068595710121294,40.457462796500884],[15.06816159453693,40.458201267022496],[15.068138168590632,40.45872455589753],[15.06818679292717,40.45896953097872],[15.06826984244245,40.45929369045444],[15.068371026424899,40.45972335056522],[15.068399999265818,40.45981473614204],[15.068447076835973,40.459959438147045],[15.068540820075285,40.46024702666472],[15.068558202839528,40.46032162558148],[15.068646199945338,40.46069603741354],[15.068765606963353,40.46094175831603],[15.069236092426571,40.461551539644844],[15.069522299227657,40.462265542537885],[15.069794617082527,40.4632008059745],[15.069838877066285,40.46334426605058],[15.069964364953705,40.46374817207711],[15.069990133588945,40.46383177358678],[15.070077645188924,40.464114017501906],[15.070373498220768,40.46517301298269],[15.070361429286804,40.46582173712671],[15.070243991854843,40.46648063867333],[15.070895507443591,40.467004206738956],[15.071907550916968,40.467639435067326],[15.072147994822267,40.46775301881185],[15.072928577955214,40.468121756301066],[15.072962214467323,40.46813654083573],[15.073403922817384,40.46839571903589],[15.074021690726742,40.46875657102765],[15.075003589931102,40.469163838866976],[15.076097971703373,40.46943013093738],[15.07716869656551,40.46963015616218],[15.077868815397625,40.4697642179476],[15.078422602198085,40.469852005792276],[15.078719138778299,40.47030439338518],[15.07898939000575,40.47055566913172],[15.079511300924485,40.47069013260142],[15.08017092886312,40.470718311748136],[15.080523883993878,40.47090668894692],[15.080831953683177,40.471119943461176],[15.08146987573426,40.471689330472714],[15.080703572626772,40.47183331162081],[15.08010236672583,40.472002473947526],[15.079974600360455,40.47203838999899],[15.079877072683018,40.47206657057383],[15.079699310528806,40.47211586798104],[15.079572724954193,40.472142295296564],[15.079475109998706,40.47216253667202],[15.079364582287932,40.47218560825936],[15.07925531364074,40.4722084494498],[15.079144785835405,40.472231521732226],[15.0790328283962,40.47225493401505],[15.078543230964728,40.472356910353014],[15.077945096671733,40.472528011922606],[15.07743624415213,40.472635869515564],[15.077194904375647,40.47276165617432],[15.077107733225969,40.47280645295241],[15.07706905635723,40.472815379986514],[15.076985448875165,40.47283866768155],[15.076900874294246,40.47286223588214],[15.076767447914147,40.47290182252218],[15.076658696174755,40.47293408604874],[15.076574526306567,40.472959172743934],[15.076440864740123,40.472996750671975],[15.076331366206118,40.473027498809536],[15.076221868571372,40.47305824499625],[15.07611236823567,40.47308898852203],[15.076002868718192,40.473119729201144],[15.075894117207186,40.473150388003276],[15.07578461455349,40.47318112234151],[15.075675108187923,40.473211855872314],[15.075565601629657,40.473242588410024],[15.075456129110442,40.47327338565682],[15.07538213089994,40.473294598107614],[15.075347528504953,40.473306929842494],[15.075241138092638,40.473343617520555],[15.075135287291273,40.47338059077135],[15.075076910831788,40.47340116516999],[15.075039126524013,40.4734128257813],[15.074941690886064,40.47344290379562],[15.074412131394016,40.47360508664215],[15.074119802758185,40.473717893904386],[15.073769996548883,40.47383520928569],[15.0733826867924,40.473969708170486],[15.073034545013455,40.47409718133032],[15.072048372548215,40.47443250375458],[15.071757514868741,40.474533741216455],[15.071467824194821,40.47463457257866],[15.071249615455084,40.474705970371495],[15.070744038325698,40.474885076857],[15.070567450812648,40.47494373425974],[15.070006882965027,40.4751394147018],[15.069727023474156,40.47523756323263],[15.06931971883723,40.47538097408715],[15.068928252761411,40.47553647257217],[15.068694183351843,40.47558814744494],[15.068430912311232,40.475625212764406],[15.068091973318031,40.47568242024781],[15.067923614587599,40.475758491947275],[15.067738792594701,40.47591386137679],[15.067194318945566,40.476383772820576],[15.067098641265526,40.47645694269291],[15.06702946673789,40.47650985150886],[15.066841206225162,40.47665059927424],[15.066732205761566,40.476732091148655],[15.066422474109999,40.47697024577138],[15.066156817399548,40.47711993503513],[15.065978591701638,40.477207854407986],[15.065791893778576,40.47726388143176],[15.065542077820929,40.477322633484135],[15.065395406089431,40.47730744613283],[15.06509866823951,40.47721597440844],[15.064866951843664,40.47712703060546],[15.064714210957556,40.477069789170486],[15.064466851719532,40.47697708863811],[15.064198463853266,40.476889429404174],[15.064053451124705,40.47687041026051],[15.064030727628527,40.4770654608826],[15.064028113800607,40.47715920768686],[15.064010643854564,40.47761990682233],[15.063993343441535,40.47807915325324],[15.064041566502386,40.478711190474826],[15.064088193728786,40.47971684552277],[15.064057774254401,40.47999329823768],[15.064011545458207,40.480412473898575],[15.063982927587494,40.48067200679923],[15.063932548833185,40.481182226113035],[15.063890674828084,40.481608473255704],[15.064432388769946,40.48212450752851],[15.064856718239344,40.482352371181584],[15.065401828949849,40.482645010585664],[15.065838991146412,40.483373579378714],[15.065379528919763,40.483996340586216],[15.064308281507957,40.484354310204544],[15.064212338524856,40.48438635400551],[15.063468729034733,40.48389361547049],[15.063325206022684,40.48379851338615],[15.062993133706394,40.48351134920894],[15.062545207782824,40.48312399208008],[15.062363983963683,40.48302789703584],[15.061846774304346,40.48275635975239],[15.060600355819387,40.48289784215425],[15.059817629846133,40.483210603164544],[15.059670108005594,40.48326954549511],[15.059419904957624,40.48336951862894],[15.058333100472316,40.48337719265588],[15.057143830489883,40.483849313664464],[15.05649367366404,40.48407521133157],[15.056105833728331,40.48420995760957],[15.055290027757238,40.48420784637807],[15.05473703942411,40.48475900214221],[15.053451698159458,40.48506510434349],[15.052578407770277,40.48574109458778],[15.051962971735696,40.48598161143822],[15.051821165014061,40.48603742882122],[15.051351526310327,40.485535538013856],[15.051294010147227,40.48546689694962],[15.050889179270644,40.48498376450873],[15.050277456454094,40.484867402797114],[15.050141613572212,40.48485086378822],[15.049657664983018,40.484791944481756],[15.048850556712491,40.484690338089635],[15.048259812557955,40.48426679891793],[15.047303519022947,40.48332692421078],[15.04674826503153,40.483608098782085],[15.046240093735193,40.4841748535771],[15.04604198637714,40.48515738670704],[15.045975831980066,40.48554276716511],[15.045900884776277,40.48597939038186],[15.045924549982846,40.48662895169373],[15.045925539903793,40.48665601579495],[15.045934940670197,40.48691371316649],[15.045807767329805,40.48782501540317],[15.045241098223837,40.48824181420735],[15.044214170223276,40.4883587346825],[15.042881574646563,40.48841966404034],[15.042079672269535,40.489006314425374],[15.041940284762582,40.48918869643508],[15.041417987867808,40.48987367606617],[15.040910696217273,40.49055738292034],[15.040371387090381,40.49127877035904],[15.040137208608606,40.49158858347366],[15.040083074066576,40.49165983777136],[15.039791781774724,40.49204531566591],[15.039744804426467,40.49210695555323],[15.039697798788902,40.4921687274243],[15.039671387978153,40.49220332811468],[15.039058481064444,40.49301386396744],[15.039004624135638,40.493084938516574],[15.038967329994678,40.49313457750635],[15.038530635756038,40.49398108810708],[15.038474333928264,40.49405899475304],[15.038421438473826,40.49411519184228],[15.038449125687524,40.49437806931811],[15.038368472629628,40.49459221170341],[15.038332284545584,40.49468834315819],[15.038112165629986,40.495140557851876],[15.037644053539568,40.49545616549644],[15.037327404855834,40.49570861793147],[15.036666594649681,40.496318712546596],[15.036255470993362,40.49658792309553],[15.036184693595573,40.49663429122959],[15.035468651938782,40.49702357292396],[15.035274153754676,40.497105847042256],[15.034709880830444,40.497344520261244],[15.034282021014947,40.497579652106744],[15.034235399303023,40.49760541580522],[15.034098456398972,40.497681140455434],[15.033230926928196,40.49811250703787],[15.032514744394767,40.49827042694657],[15.032000166170969,40.49840505317873],[15.031233908281799,40.49837602626292],[15.029815088426265,40.49818713418485],[15.029774021179744,40.49877597607552]]]}}]}
