{"type":"FeatureCollection","metadata":{"code":"066026","referenceDate":"2026-01-01","sourceDbfExportDate":"2026-02-18","upstreamArchiveUrl":"https://www.istat.it/storage/cartografia/confini_amministrativi/non_generalizzati/2026/Limiti01012026.zip","sourceManifestSha256":"70ac8256c4785dc6ed2814c32b6965ae76f9161b51abaa1660059e1c6cbd8ca6","license":"https://creativecommons.org/licenses/by/4.0/","attribution":"Istat, Confini delle unità amministrative a fini statistici al 1° gennaio 2026, versione non generalizzata.","modifications":["Converted from WGS 84 / UTM zone 32N (EPSG:32632) to RFC 7946 WGS 84 geographic coordinates.","Converted from shapefile to per-municipality GeoJSON without geometry simplification."]},"features":[{"type":"Feature","id":"066026","properties":{"code":"066026","name":"Castel del Monte","alternativeName":null,"regionCode":"13","regionName":"Abruzzo","territorialUnitCode":"066","territorialUnitName":"L'Aquila"},"geometry":{"type":"Polygon","coordinates":[[[13.701963383152343,42.444232619864785],[13.70158568744255,42.444261651971914],[13.701283404671658,42.44416153915408],[13.700787222268143,42.444109909047086],[13.700174890789997,42.444211602056235],[13.699655144667037,42.44416993864595],[13.698996759419542,42.4436568009165],[13.69839390791543,42.443316939674936],[13.697142704905836,42.4431657623288],[13.697414869414958,42.44188963617718],[13.697600437370111,42.44120227365288],[13.697661467395713,42.440434496069955],[13.69795277713129,42.43933314493466],[13.698105362706965,42.43853009487909],[13.698249234920814,42.43740778945584],[13.698353697235165,42.43648967435919],[13.698465538857088,42.43575132034753],[13.69854475028911,42.43486125213122],[13.698660981584904,42.43397866625871],[13.698831699753882,42.43337744186059],[13.698917946038783,42.43270316083824],[13.69907925149849,42.43197627799053],[13.699409156701334,42.431350506771494],[13.699839708088945,42.4305270296779],[13.699993559843618,42.430106560121146],[13.700177056566096,42.430050852980514],[13.700370844855307,42.429992020722075],[13.700731832473208,42.429619307888586],[13.700665733522818,42.429304662173415],[13.700104428587533,42.42882805311057],[13.699883931422574,42.42864666071535],[13.699783902440574,42.42856437662268],[13.699886427650782,42.42814826705867],[13.700308908362517,42.42705502465837],[13.700552614912251,42.42653632832436],[13.700715863612295,42.42624151732698],[13.700999203188033,42.426170360457114],[13.701058796444308,42.42615539654009],[13.701423926159404,42.42620341038446],[13.701812284614304,42.426155934789136],[13.702009161061364,42.42606681285368],[13.702310537846456,42.4258716124329],[13.702736434811001,42.425595754979355],[13.703005027561558,42.424963490433946],[13.70318712324791,42.42443381798903],[13.703512571545364,42.42391175423405],[13.703974647929043,42.423226515240096],[13.704377488774018,42.42256171735566],[13.704753727763103,42.42210958629089],[13.705055262027365,42.42155248977724],[13.705444956679571,42.42095575257796],[13.705589337054667,42.42036910680958],[13.705773761376811,42.41966827347967],[13.70596759932252,42.41913361199677],[13.70601539474254,42.41871749901257],[13.706056118217404,42.41845022901188],[13.706166857534258,42.41737429333396],[13.707273740810603,42.408231019858],[13.70732085181815,42.40784644490146],[13.707543914143201,42.40745913105066],[13.710327466787977,42.405170262795664],[13.711227689201102,42.40445794720529],[13.711374517596312,42.404293472640745],[13.711563716096444,42.40408729162984],[13.711602289229585,42.40404571294628],[13.711926042448656,42.403645903349506],[13.712131742870394,42.403351577624214],[13.706734366556944,42.40192397036323],[13.706343158216402,42.40148540672119],[13.705585963126918,42.401025885324806],[13.704511543195443,42.40079098150243],[13.70365139662217,42.400700311207935],[13.702922785176213,42.400581718204705],[13.702318645435259,42.400421990477966],[13.70213027654134,42.400339702251095],[13.701003061657778,42.40012944447631],[13.69986342050553,42.39983415489116],[13.698544488911946,42.399577730045834],[13.697614412203825,42.39940435609318],[13.696407538800562,42.39902176080727],[13.695011922108632,42.39883596698083],[13.693704769845686,42.3986960440478],[13.692334726077242,42.398527174483235],[13.690721162712055,42.398309754294615],[13.689331305013882,42.39807863881034],[13.688432535078292,42.39795792484425],[13.687981088419141,42.39516292138293],[13.687436826837983,42.391082007131246],[13.687992361194645,42.38998110523604],[13.688287268525302,42.389212747143674],[13.68868002338551,42.38849439842442],[13.688712291623562,42.388072174299325],[13.688554267179734,42.38745968001573],[13.688379022750263,42.386575543229],[13.68827676610327,42.385692917288814],[13.688267787788249,42.38540968310327],[13.68826380132349,42.385274797881],[13.688254489900487,42.38498707658884],[13.68819861487271,42.384197082401165],[13.688051529457226,42.38360889792036],[13.687809263274728,42.38304712112102],[13.687646944874,42.382743161602704],[13.688138641073106,42.38176416791644],[13.688374211302486,42.38040402876576],[13.688626211461022,42.37869434039029],[13.687912106422552,42.377253749089064],[13.687452055476047,42.37632561457385],[13.687357759854663,42.37613538693088],[13.687516459971977,42.37488418683392],[13.6876373688622,42.374388556630734],[13.687657038279793,42.37396009714779],[13.687581522902825,42.373598560323316],[13.68737087742613,42.37313452258194],[13.687216951126555,42.3729427586352],[13.686979446157762,42.37281068862486],[13.687171179144412,42.37220636819059],[13.68725443605749,42.37169427443082],[13.687452448264274,42.370929889318546],[13.687614812515726,42.37017596701983],[13.68771733610568,42.36939298594758],[13.687753204755758,42.368815309727715],[13.687886575142931,42.368242640417165],[13.687898744919242,42.36808008483704],[13.687920374144742,42.36780009858553],[13.68794870695512,42.367569354923305],[13.688367729103167,42.36732710104204],[13.688937970265739,42.36728122112876],[13.689669986052127,42.36708465458531],[13.690406083502305,42.366739362342564],[13.690850999614549,42.36643751715581],[13.691246853677894,42.366047650945546],[13.69136365135714,42.36566022338396],[13.691373913449882,42.365146618536706],[13.691372894809044,42.36468524440584],[13.691419620999323,42.364212908976036],[13.691756267773476,42.36388398972447],[13.692004131855349,42.36362623481581],[13.692188311520857,42.36328781179078],[13.69210422689389,42.36289286692359],[13.692169549680832,42.36258857956762],[13.69234445541065,42.362329314720625],[13.692784553395791,42.362248239081346],[13.69315939652066,42.362268875187155],[13.693417291792652,42.36214575354856],[13.693860475360522,42.3618619754931],[13.694701347054087,42.36162039582548],[13.695285966022924,42.36164592005197],[13.695707843271595,42.361768153549576],[13.696018072650153,42.362021013964714],[13.696713683003876,42.36186641202063],[13.696988771131856,42.36152649993152],[13.697023184414544,42.361052417194564],[13.697236079096243,42.360692549811226],[13.697536044058317,42.3603201034363],[13.697597622448757,42.36008799243199],[13.697033713315484,42.35806291240882],[13.696794681970564,42.35674875968408],[13.696701012598517,42.35624867228579],[13.696641477896003,42.35593849736696],[13.696555046412112,42.35547162746724],[13.696217954610088,42.35522437164373],[13.696105414892513,42.354976901496215],[13.696205990330723,42.3547386887083],[13.696752910487081,42.354707231976064],[13.697456802795143,42.354705340480955],[13.697968778956511,42.35461229141688],[13.698299596648143,42.354409637170946],[13.69864862386756,42.353963147563114],[13.698761614644347,42.35376943829963],[13.699140466589522,42.35368185171264],[13.699600302692575,42.35370347657436],[13.700032639329857,42.35343812635864],[13.70019074896311,42.35287343022351],[13.700333367979885,42.35242641236977],[13.700703168353689,42.352177133997756],[13.701082015993006,42.352049025455194],[13.70142829628372,42.351728685745925],[13.701484842729291,42.35134822590903],[13.701646583383358,42.35103546928708],[13.70170446915917,42.35067296090421],[13.701662508108365,42.35039558572523],[13.701485449020412,42.35001572295593],[13.701371223015679,42.34974581907511],[13.701231122488053,42.349454470090635],[13.700970028060029,42.349127577918466],[13.700835452012686,42.34895079263581],[13.701231584516975,42.34885123423329],[13.701525367084443,42.34876263407933],[13.701782177407289,42.348666548477084],[13.701953949875238,42.348569456632205],[13.702114293227366,42.348481837587755],[13.70224842416144,42.34836828490946],[13.70236173032424,42.34817906177204],[13.702366485447248,42.347917772324784],[13.702137623056947,42.34777862642485],[13.701831483606062,42.34749860410501],[13.701644662801034,42.34723168396236],[13.701767722680415,42.34701054809047],[13.701989239648968,42.34688890354448],[13.702550899686624,42.34673076925932],[13.70329304754573,42.34655170729878],[13.704077566366676,42.34620883977866],[13.704383189221884,42.34554804033658],[13.704396406864655,42.344872254538394],[13.704454919146183,42.34468077999231],[13.704503007306256,42.34451224323292],[13.704930971678344,42.34374287342365],[13.705642528261814,42.34331746553466],[13.706457886446579,42.34318489017938],[13.707050449450179,42.34279137779636],[13.70773290382209,42.34242342502141],[13.707799953788426,42.34238690262831],[13.708874434816238,42.341987053662244],[13.709649458831475,42.34159952358089],[13.710694020022618,42.34096230464863],[13.711058015938383,42.34075169354818],[13.71167403165545,42.34039525854513],[13.71281859921033,42.3397773453651],[13.712901706117501,42.339732470641025],[13.713455210460134,42.339426065746274],[13.713896463618564,42.3391602965826],[13.714172029026077,42.33939653074646],[13.715241710371544,42.33933894255474],[13.715917187700937,42.339000488698666],[13.716718683125235,42.33888641756742],[13.717548410811661,42.33877099657857],[13.717730546063327,42.33874565946146],[13.718320303871367,42.33831619265364],[13.718427522900425,42.33818862454959],[13.718657344682239,42.3379151530756],[13.719021588084066,42.33726990436189],[13.71909179566896,42.33683035246922],[13.720846427131141,42.337800352994044],[13.721155860404325,42.33797141128258],[13.723532279698471,42.33928503768121],[13.723821992419454,42.339507158232585],[13.724124198921547,42.340138408734646],[13.724594789913848,42.34083022829291],[13.724993131172102,42.34148901760661],[13.725479869890016,42.342153156527765],[13.72626163810726,42.34250349808572],[13.726766469977346,42.342761739945],[13.727113332512799,42.34293647508593],[13.727432022192396,42.34338246892482],[13.728177864907964,42.34377929799946],[13.729027285424637,42.34442392950425],[13.729978514066037,42.34488878232381],[13.730636534604699,42.34532356357394],[13.730754331505738,42.3454013964974],[13.730984371969896,42.34599959890526],[13.730856275130424,42.34647531350375],[13.731609754311108,42.3469325740092],[13.733268288968796,42.34772376863749],[13.734892564147184,42.34846233710369],[13.735195414444771,42.34861788302269],[13.736086435032162,42.34907552439116],[13.736287643954764,42.3491788607869],[13.737317410621387,42.349919498774845],[13.73864442070707,42.35089990362232],[13.739578102458392,42.351612990157506],[13.740208911523881,42.3522125735784],[13.740599399015071,42.3528041069127],[13.742094376260711,42.35331384671285],[13.743542608285882,42.353726469227674],[13.744137703980952,42.353865189756796],[13.74524765447452,42.354123918946335],[13.746430007935325,42.354471007129064],[13.747162701633364,42.354675487405416],[13.748072936848764,42.354929511689825],[13.74948559173839,42.35531202410218],[13.750041613797,42.35540147735294],[13.751148481453763,42.35535100888752],[13.752606891405778,42.35521389925272],[13.753385682275965,42.35515903316138],[13.753642558651114,42.35516853439314],[13.754417303695426,42.35519718945895],[13.75515653190226,42.355301510391556],[13.755591485908822,42.3554964351704],[13.755781593578288,42.35558163345288],[13.75634126227852,42.356080546941435],[13.75667041860347,42.356426441741796],[13.756730286863647,42.35648977046589],[13.756891581934246,42.35665637384956],[13.75722067408409,42.35715586843848],[13.757274787846724,42.357389951117256],[13.756926403188068,42.35791987035892],[13.757364808698057,42.3589820178828],[13.75820485264115,42.35897408794387],[13.758711491569755,42.35905204678985],[13.759628974905102,42.359115250630175],[13.759974486773583,42.35913904782148],[13.760800978813753,42.358992113462605],[13.762012167616327,42.35859507725527],[13.763102299116461,42.358162555323],[13.764360500328,42.357745530388115],[13.76499525476859,42.35747150476594],[13.765512055108374,42.357242903186126],[13.765635415076202,42.35738127453017],[13.765976366304349,42.35776374830879],[13.766052744255115,42.35785059745338],[13.768028879285332,42.360100059908724],[13.769250018522584,42.361476151670686],[13.768820470947654,42.361935213882084],[13.768174433473328,42.362020665537315],[13.767737907375908,42.36258805235724],[13.767333625159772,42.36273995018362],[13.767097885894573,42.3630333732973],[13.766934641018308,42.3633293308251],[13.766884411062613,42.36342040193792],[13.7655684642877,42.36403793023452],[13.764334486648586,42.36461601664861],[13.763357156802464,42.364976330669435],[13.762500807495801,42.36529108506023],[13.761948579964479,42.36545362502384],[13.761370387270238,42.365954860431444],[13.760875238166685,42.36647064319749],[13.76036433348833,42.3670591044372],[13.76008766191471,42.36737107080245],[13.759779845194307,42.367718149488525],[13.759186886798116,42.368305518205936],[13.758604943047047,42.36879789271861],[13.758237645022316,42.36925043775624],[13.758207902019931,42.369287074755285],[13.757686768974626,42.369740903136545],[13.756720489477846,42.37020873925583],[13.755773084889402,42.370765813935094],[13.755180629388102,42.371200088216725],[13.754610500910793,42.371849506257924],[13.75389633779417,42.37232034404393],[13.75279705486132,42.37259560548467],[13.751650023282368,42.37288184307692],[13.750799125562882,42.373592422855076],[13.749781655421241,42.374670040715124],[13.749222527147849,42.375305471636835],[13.74859044673589,42.37597994040563],[13.746937781027924,42.3771694312594],[13.746408731967179,42.377560514847616],[13.74580698104221,42.37783306955744],[13.74534538304963,42.37799176904717],[13.74585147420267,42.379267228138104],[13.746008837114912,42.37986391055635],[13.746118877765204,42.38031625543504],[13.744952630247711,42.381154667846566],[13.744700964430555,42.38280818423253],[13.743649872700686,42.38372508604912],[13.743250588775421,42.384831026558494],[13.742355178084747,42.38579998111704],[13.741484095618302,42.38636727986918],[13.740383437088523,42.387232188303344],[13.738962715246046,42.38840294956431],[13.737266335979466,42.387608914840925],[13.736694222941004,42.3883168494298],[13.735926368244833,42.389046389729955],[13.73540429979208,42.389653210295116],[13.734848714063018,42.39058102839976],[13.734707851638182,42.39161322085274],[13.734772164219976,42.392668430777825],[13.73503737560564,42.39397191490034],[13.735272844212965,42.394880490534725],[13.735582358527823,42.395885033858264],[13.735722004106998,42.39685159404813],[13.735887482700305,42.3976370214115],[13.736088616282785,42.3984119680008],[13.736324610696995,42.398883865781265],[13.736497287117722,42.39916031471114],[13.736437930884094,42.399298495525585],[13.735986498731126,42.400349275138765],[13.735624053953124,42.40119292351627],[13.737821730614705,42.40246814162169],[13.738781363933239,42.402991084505096],[13.739573823510101,42.40351194327272],[13.74033968434397,42.40396187382039],[13.741109939447814,42.40442962342555],[13.74168341323513,42.40490552565142],[13.742077484593596,42.405177288934134],[13.742362754939247,42.40517446463459],[13.742123745050637,42.404864762326554],[13.741824016636347,42.40455532592175],[13.741958396094756,42.403881270530306],[13.74203459524162,42.403241138385475],[13.741936553959352,42.40262623552222],[13.741989907531408,42.4023674342449],[13.743079592478173,42.40195762350773],[13.743865168166126,42.40154241014968],[13.744547962214824,42.40081184308174],[13.74527818840409,42.400709524666375],[13.745866733437904,42.40050054091477],[13.746434305113752,42.40009435532892],[13.746403818424522,42.39973099250396],[13.746355777175065,42.39925581959],[13.746903571396095,42.398990000634676],[13.747882586526032,42.39872428649839],[13.74842327143802,42.398404737871225],[13.748612525510508,42.397935469328935],[13.748236346992528,42.397458164096086],[13.748018631468517,42.39724987748832],[13.74794186084151,42.39717778559872],[13.748523739956482,42.396791280231945],[13.748664741346927,42.39669761891478],[13.74933038356657,42.39614329697923],[13.749812431152455,42.395691129218406],[13.750196665551226,42.395351058521356],[13.750434579412959,42.39500355964367],[13.750759569912788,42.39460292591099],[13.751339111989253,42.39411519113123],[13.751818550294104,42.39382968126405],[13.752336939485371,42.393457021371],[13.752449514953092,42.39305845576457],[13.752068438912433,42.39279744209796],[13.751296122392633,42.39266296807477],[13.750862147796324,42.39250543300697],[13.750435327717579,42.391960464070834],[13.749947273410323,42.39136851859969],[13.749156203354092,42.39078465090184],[13.74848372941059,42.39052447025698],[13.748035319742176,42.39037652579461],[13.747582627733461,42.39009146074892],[13.747887687955402,42.389266263425796],[13.748193370950299,42.38865036273519],[13.748519581968981,42.388065120355755],[13.749182916571483,42.38772246961774],[13.7498124662458,42.38741498009982],[13.74997939313268,42.38733377257952],[13.750873077365968,42.38698604784598],[13.75164469516061,42.38667039669558],[13.752370823930285,42.38623508769534],[13.753145653733307,42.385721223899125],[13.753806955909099,42.38543264946862],[13.754456796344474,42.3851130372741],[13.754822021009945,42.38488403112709],[13.75516976245327,42.384664753861465],[13.755773763892678,42.38422099564512],[13.755976316117458,42.38406094255599],[13.756381095023562,42.383741083838146],[13.756591814629271,42.38355003408519],[13.75687544619285,42.38329287613641],[13.757174402245008,42.382830285688335],[13.757297988055814,42.38254604771947],[13.757365760316047,42.38239017606826],[13.75739454683224,42.38220891528123],[13.758264296339664,42.38238881269204],[13.759074201962278,42.38258019740724],[13.759425366725353,42.38289557770843],[13.759481381255958,42.38294588880265],[13.760405024589149,42.384077860116456],[13.760803520440339,42.384513385813534],[13.761023994495075,42.38475434281844],[13.761857654486551,42.38557943987025],[13.762392529725458,42.385969928193596],[13.762709328860263,42.38620120911485],[13.763270381472392,42.38659531280617],[13.76329617679669,42.386613423546166],[13.765205006293975,42.386601439452015],[13.76672234675183,42.386551720426134],[13.76877610345895,42.38652913421027],[13.770356689794397,42.3865127418305],[13.771926411874707,42.386393244824895],[13.77389657113486,42.38618949093665],[13.775784955092236,42.38594860305016],[13.77676921092224,42.38587599094979],[13.777330136678641,42.385866068213986],[13.77791902130671,42.38558488165811],[13.778722257805429,42.38480856799716],[13.779323529098535,42.38449084401081],[13.78002275233259,42.38426355704497],[13.780448066640949,42.38418726155268],[13.780653269723206,42.38425070978309],[13.780869625943785,42.38406160386809],[13.778886576002831,42.38297632032478],[13.779451333023555,42.38233825981048],[13.78025651445751,42.38154834961948],[13.780936071944506,42.38090323333779],[13.781882400546733,42.38037300459059],[13.78299749553346,42.379826707038134],[13.783900726060867,42.37956835785976],[13.784881660761748,42.37905466262761],[13.785512575295398,42.37856910928999],[13.786051325124062,42.37834849873762],[13.786687241026353,42.37868651430317],[13.787525086792929,42.37944372238163],[13.78804148693285,42.37964718493501],[13.788453875566072,42.379760466008136],[13.78891019980491,42.38005196890884],[13.789503479514485,42.380148669324626],[13.790368178693173,42.38002242676283],[13.791374334092739,42.38007931727598],[13.792215836626928,42.380485216494804],[13.79305813889865,42.38098110587796],[13.79371482952848,42.38147126417768],[13.794329632172067,42.381810121227616],[13.794593416891626,42.38192510694491],[13.795087576077005,42.38155777217731],[13.795959553309121,42.38108906394903],[13.796467472234886,42.380464557631726],[13.79669617154203,42.38000031031771],[13.797166072466831,42.38011114870974],[13.797795748108689,42.37976962893987],[13.798725859557855,42.37930746452235],[13.80017644002069,42.379062032921105],[13.80139501815829,42.37887022231371],[13.801835913661984,42.37880081899268],[13.801892272087017,42.378791943701614],[13.802942819264178,42.37863529566768],[13.804051645895058,42.37832763885254],[13.80442552923711,42.37785727860123],[13.804496809781254,42.37739962815349],[13.805333816038006,42.37679276976161],[13.80625928892318,42.376668355420726],[13.806792538115797,42.37665495041505],[13.80710206295722,42.376335836608206],[13.807112057513836,42.37583124379466],[13.80748431164248,42.375419461889244],[13.807902697008357,42.37505525714257],[13.808252669418735,42.37459039128101],[13.808431304856516,42.374107968525216],[13.808343668618658,42.37363673921334],[13.808329699620339,42.37345404179516],[13.80831484971661,42.3732598213392],[13.808585609021792,42.37310889088743],[13.808758326537433,42.37282703504912],[13.808563043825096,42.37253589222367],[13.808612001955854,42.372342518580304],[13.80898822020546,42.372340205698514],[13.809284709234833,42.37252580784217],[13.808961206770727,42.37313811521928],[13.808886311437993,42.373589149850105],[13.808865599659212,42.37371383123881],[13.809307277933373,42.37472611455117],[13.80953568943457,42.37545026199979],[13.80929668996127,42.37657219288645],[13.808916307253645,42.3780286811865],[13.808588566192244,42.378744700367456],[13.807652677323308,42.379328729404],[13.806536294515823,42.379974354798215],[13.798439694911815,42.3841496326736],[13.797186126042646,42.38483012818402],[13.797136576987114,42.38485701905417],[13.797887485651836,42.388251201054345],[13.797812666431803,42.388281493077564],[13.796126241235234,42.38896428902073],[13.794399738728996,42.38955017972558],[13.793236349378367,42.38996773857334],[13.791443102203443,42.39046151900035],[13.790930283634015,42.390574697821876],[13.789806718774857,42.39082265981009],[13.788456383886084,42.3910727680536],[13.7876341022548,42.39135927725981],[13.787103075494164,42.39247988376015],[13.786761358977973,42.39385365395169],[13.786246412569078,42.39522567090499],[13.786087005525914,42.39549120714528],[13.785570039473098,42.39635235171234],[13.784525126312957,42.397584477586754],[13.783449323602056,42.398610814585425],[13.782991929370358,42.39899932274531],[13.782506792394416,42.39941138005768],[13.782471406080635,42.399436812661826],[13.78195367698492,42.39990678305216],[13.783316031388397,42.40168644900794],[13.783159460649998,42.40177976955668],[13.782353837425303,42.40225994904481],[13.782019739125857,42.40245907673499],[13.781578635882962,42.40272198004186],[13.781198526033833,42.40294852502929],[13.779761892451289,42.40380473650029],[13.77938295461792,42.40403056930424],[13.77849924778055,42.404557218071325],[13.779291886203257,42.406315222617586],[13.780282235574095,42.4085116021189],[13.779805884157335,42.40911671281855],[13.778859899221858,42.409736944637864],[13.777853741793626,42.410724307746335],[13.777351480422023,42.411668107488936],[13.777099235235571,42.41266448405233],[13.776409529280972,42.413899707315196],[13.775476060460358,42.41436633575856],[13.774657297907602,42.41514327685121],[13.77416928811098,42.41595592274965],[13.773608383188757,42.41656903926156],[13.77275405566182,42.41683877496018],[13.771910127519991,42.41708556333704],[13.771620065236675,42.41738576545968],[13.771402890530219,42.417565885569736],[13.77120618980739,42.417695633629435],[13.770762029217568,42.418006762713006],[13.769778041261752,42.41852947157336],[13.76872661809074,42.418924438438786],[13.7674544658895,42.419333097510254],[13.765802938608116,42.419946618636466],[13.765261422260702,42.4201442934328],[13.76482277846405,42.420320573859016],[13.763844237547733,42.42063593251132],[13.763146595790113,42.420890068004674],[13.762477845747165,42.421485114051265],[13.76184311164199,42.42212825757393],[13.761537501900325,42.42282521886291],[13.761431655714148,42.42339232075998],[13.76142070917692,42.4239689765479],[13.761513889346594,42.42471685780844],[13.761623672710652,42.42520295682907],[13.76162773211394,42.42561693210165],[13.761336839211518,42.42622774980085],[13.760845687700947,42.42720252756008],[13.760250900746462,42.42781248851896],[13.759769251595356,42.428111631982404],[13.759082637882447,42.42839229298069],[13.758016581037422,42.428877802542466],[13.756679041753241,42.42950964082068],[13.75573177724419,42.43003970610179],[13.754342822630326,42.43083571105111],[13.752906271824658,42.431485126265585],[13.751519227566705,42.432226999513375],[13.751008432008799,42.4328244203602],[13.750196065651215,42.43341185781793],[13.749184793537575,42.434021054235174],[13.74813166767947,42.43447892581839],[13.746833151760848,42.434906459418094],[13.745385992776166,42.435016032251134],[13.743424574127255,42.43515592186948],[13.742299294559144,42.43550419323587],[13.741625626092237,42.43575720362354],[13.740594653431407,42.43626810689491],[13.73905436925638,42.43667406227278],[13.73894753454477,42.436692435105336],[13.737674527689036,42.436911294643885],[13.736015371101152,42.43727261655366],[13.734796534473295,42.43752274233596],[13.734477343527406,42.43758838562842],[13.733033256131577,42.438021789026315],[13.731890781450906,42.43858674541936],[13.730865335970046,42.43897368339275],[13.73073847506625,42.439021551320415],[13.73065095818891,42.43905666462736],[13.729599959333743,42.439478284329944],[13.72853343967209,42.439882510775135],[13.727866158502806,42.44042327781734],[13.727607979923722,42.44065165562414],[13.727273585263974,42.44094744822955],[13.727166060002059,42.441006668258474],[13.726809663734361,42.44120295592361],[13.726244052471863,42.44135912880515],[13.725077844903726,42.44177194441943],[13.724092769247319,42.44237083501107],[13.722979008431928,42.44267342598857],[13.722024017644932,42.442582314663994],[13.72153618061785,42.44266924144588],[13.721070436566835,42.44275222907059],[13.72094964091325,42.44271402690615],[13.720214369119125,42.442481456809745],[13.719367222989774,42.442456222477546],[13.719264107836944,42.4424531497148],[13.71889202937639,42.44251345473643],[13.718630624599474,42.44255581448894],[13.718403055977209,42.44230574808193],[13.717954895130854,42.441773407780595],[13.717578461861594,42.44145438816066],[13.717286288641986,42.4412067790125],[13.716161636642333,42.440879531231666],[13.715230285706829,42.441102498480426],[13.714198318029062,42.44160420260642],[13.713042752966155,42.44171485091909],[13.712181017866142,42.441570295886514],[13.711933972281129,42.4418415665395],[13.710951444206348,42.44231419487388],[13.709998174501077,42.44261004840959],[13.708020901599477,42.442785995173956],[13.706426686641572,42.44300466527111],[13.704890694124655,42.44322992034851],[13.703433450641834,42.443654488544624],[13.701963383152343,42.444232619864785]]]}}]}
