{"type":"FeatureCollection","metadata":{"code":"069050","referenceDate":"2026-01-01","sourceDbfExportDate":"2026-02-18","upstreamArchiveUrl":"https://www.istat.it/storage/cartografia/confini_amministrativi/non_generalizzati/2026/Limiti01012026.zip","sourceManifestSha256":"70ac8256c4785dc6ed2814c32b6965ae76f9161b51abaa1660059e1c6cbd8ca6","license":"https://creativecommons.org/licenses/by/4.0/","attribution":"Istat, Confini delle unità amministrative a fini statistici al 1° gennaio 2026, versione non generalizzata.","modifications":["Converted from WGS 84 / UTM zone 32N (EPSG:32632) to RFC 7946 WGS 84 geographic coordinates.","Converted from shapefile to per-municipality GeoJSON without geometry simplification."]},"features":[{"type":"Feature","id":"069050","properties":{"code":"069050","name":"Miglianico","alternativeName":null,"regionCode":"13","regionName":"Abruzzo","territorialUnitCode":"069","territorialUnitName":"Chieti"},"geometry":{"type":"Polygon","coordinates":[[[14.301781163407204,42.3944285525049],[14.30154109570659,42.39442618322718],[14.300591030593596,42.39442972894705],[14.298974061745962,42.39433814807445],[14.298879538772773,42.39433252316579],[14.298521210811268,42.394311301519075],[14.297652726476462,42.394259835781185],[14.297524184659768,42.394247787464835],[14.297154098529365,42.394221756160654],[14.296558222112905,42.39417851407794],[14.29601079022477,42.394167867148184],[14.295911214388124,42.39417515214612],[14.29566748262926,42.39419422222251],[14.295403974644133,42.39420192746935],[14.29529846182511,42.39419546636598],[14.294987910794218,42.39417852841186],[14.294833480777996,42.3941698376531],[14.293654690456368,42.39408939301062],[14.292150387642666,42.39407351970901],[14.289818893272768,42.39396987194061],[14.288938456523521,42.39390181647239],[14.288572905481521,42.39387356047463],[14.284864843152253,42.393586844511155],[14.284618083560861,42.39296357608319],[14.284424232449963,42.3925262716336],[14.284390022429807,42.392449512639615],[14.284148753351547,42.39193815230219],[14.284060682015408,42.39175149922836],[14.283924399696977,42.3914283160283],[14.283753472638153,42.39102299289767],[14.283740909031685,42.39097180879811],[14.283531743964485,42.390119487091646],[14.283527232820251,42.39007003830499],[14.283461335053861,42.38934688882301],[14.283452910750771,42.38925438963818],[14.283446122970211,42.38917368110707],[14.283187362381295,42.38826288427473],[14.28246970762701,42.38727426452802],[14.2817758339117,42.3865321102843],[14.280873327167308,42.38572756861305],[14.280660960608422,42.38551432955417],[14.280067612317836,42.384918543777445],[14.279550809769692,42.3842304400346],[14.279146733161046,42.38375023569928],[14.27910818376262,42.38372500807467],[14.278688309765142,42.383424807061395],[14.278123206454888,42.383113431334294],[14.278051395727012,42.38307386741382],[14.277847027221824,42.38296125629893],[14.277746112803849,42.382905651796705],[14.277221983942573,42.38252886669986],[14.277080139252979,42.3824269079152],[14.277022412227572,42.38238540586922],[14.276998454678568,42.382317597859235],[14.276751638081919,42.3816191871459],[14.276110178421089,42.381644292238626],[14.275235520684838,42.38160363330751],[14.274316473717668,42.38157056021511],[14.274248976268119,42.38156812857737],[14.272904165125173,42.38135108571215],[14.271997086801758,42.38110483938469],[14.270808048143307,42.380826572576346],[14.270361989584083,42.38066762682708],[14.269756648517019,42.3804519230095],[14.269831884375868,42.3802634076855],[14.2699799024935,42.379892477622015],[14.269975610527226,42.3793345193621],[14.269960649066526,42.3791285914728],[14.26985874935871,42.377726473533826],[14.269788874083615,42.37676484079397],[14.26977837129654,42.376620348079676],[14.271238609687241,42.376224436758186],[14.271968982236162,42.37609528767661],[14.272650391659978,42.37597478481596],[14.27374688591784,42.37587469492108],[14.274861492795168,42.37584577946261],[14.275494049649746,42.37572834003583],[14.27556122350902,42.375716533031095],[14.275958413175035,42.375642139605425],[14.276690642754584,42.37525274588427],[14.27668086010949,42.374933585902475],[14.276674932484884,42.374740321061694],[14.276657444709011,42.37462240303552],[14.276548987585654,42.373890895711014],[14.276374607215597,42.37322375542821],[14.276103126192979,42.37248457491878],[14.276089447364088,42.372454118459956],[14.275879181846635,42.371986260803965],[14.275724721585629,42.371625159460955],[14.275701701341239,42.371571332982754],[14.275529124430113,42.371162477696515],[14.275950961218829,42.37099717345632],[14.276850485241665,42.370829622883996],[14.277514277298218,42.37068010601687],[14.277654774657302,42.37064846267585],[14.278326070196577,42.370329391193756],[14.278780870320327,42.36981775582546],[14.278854801516408,42.36965004241901],[14.279020253483926,42.36927104372487],[14.279235555854276,42.36895262144178],[14.279365824272174,42.36875994835984],[14.279879178620162,42.36825910873706],[14.280352578904813,42.367866862971155],[14.280506279874276,42.367739509400906],[14.280595266741546,42.36747252669194],[14.280719602201483,42.36709948128626],[14.280833865354618,42.36661707042434],[14.280867398920087,42.36640175165711],[14.280911717494801,42.36609813886017],[14.28073168292167,42.36574419979774],[14.28066452624412,42.365612168443],[14.280096263166493,42.36531432390205],[14.279602056789223,42.365067072128205],[14.279365560446285,42.364927768726744],[14.279311512871173,42.36489593760984],[14.279192138118706,42.364775414578006],[14.27887426098696,42.36500165195771],[14.278741485837557,42.364862344808586],[14.278676372044117,42.364794030013286],[14.278538045871446,42.364648064928076],[14.277927410831554,42.36421993208593],[14.277899562840911,42.36420040818409],[14.277842265106175,42.36419562881619],[14.277519934776695,42.36417675117857],[14.27681954946063,42.364133179188094],[14.275970048239156,42.36417238498829],[14.275079321897845,42.36429901021688],[14.274375651438572,42.36441249794701],[14.274010660138094,42.364512369898826],[14.273320010641745,42.363513679098936],[14.276389793467835,42.36179660631549],[14.275874762616132,42.361264469525416],[14.276563988191386,42.36076228123803],[14.27631951242667,42.36023566383576],[14.276322487957916,42.35986311110189],[14.276323070452255,42.35979023528631],[14.27632347027754,42.35974034160242],[14.276344267927913,42.35969886926322],[14.276359963203026,42.35966889282861],[14.27646035359709,42.35949096361726],[14.276558278214885,42.35931989285822],[14.276645615695392,42.35916731761062],[14.277048789318787,42.359162214413054],[14.277409269237374,42.359154579186225],[14.277877484925892,42.359183023069335],[14.278333868829433,42.35921543493833],[14.278692402483042,42.35915830646029],[14.278761610849589,42.35914728064229],[14.27915799167451,42.35927196054437],[14.279566344278496,42.359617706402666],[14.27973253598339,42.35982609210495],[14.279870865812573,42.35981957621879],[14.279967946000237,42.35981071681552],[14.28053775887809,42.359802405851255],[14.281050868647522,42.35987773263446],[14.280791638014792,42.35866986745663],[14.280726880873997,42.35853736511234],[14.280412456912899,42.3579131045172],[14.279992066075005,42.35742387804325],[14.279924548663644,42.357053392466376],[14.278953941995324,42.356841640500036],[14.27895727490704,42.356693308576816],[14.27897695763908,42.355814298506566],[14.278829144916074,42.35492087284406],[14.278837690373603,42.35422728465351],[14.27882467944463,42.353661809122656],[14.278822799682745,42.35357979593574],[14.278692961539365,42.353189680373234],[14.278540110456452,42.35270609995028],[14.278498343887364,42.35220838919227],[14.27800663562271,42.35162792105646],[14.277307110484585,42.35113806540832],[14.276608348505883,42.35065717361561],[14.276361443262513,42.350404043253185],[14.2760705628059,42.350105823852914],[14.275325398946334,42.34950553112032],[14.275041715874668,42.349295177102334],[14.27454246379388,42.34892498011573],[14.27403489419126,42.34848026387324],[14.273677653789719,42.348127639191674],[14.273591640189302,42.34804159944691],[14.273303426347962,42.34775329032175],[14.273183992209944,42.34761195826338],[14.273050817051352,42.34745435382085],[14.272945505382092,42.34724765143884],[14.272900734757124,42.34725646809524],[14.27273970124353,42.34729095441633],[14.272204503391771,42.347405576528416],[14.271923117602029,42.347465842760606],[14.271630240893925,42.3476638988857],[14.270885490304526,42.34793680109874],[14.27038708563085,42.34814432866504],[14.270352128753329,42.348161693654724],[14.270308076374475,42.348183268882075],[14.270215149261402,42.34822877518303],[14.269922282229652,42.34839081614384],[14.269546076126359,42.34859661394705],[14.269501607610037,42.348623602402775],[14.269439996107474,42.348658022130124],[14.269338121789602,42.34871556873247],[14.269051610276485,42.34886306617213],[14.268810135005772,42.34898672558396],[14.26765552097195,42.34911194699415],[14.26658947874477,42.34891798946201],[14.265375828461073,42.348780882092434],[14.265061006687024,42.34874531614547],[14.264537351290492,42.34879643724746],[14.264196626739583,42.34882246904861],[14.26379570150469,42.34885308986014],[14.263248571026756,42.34898630833031],[14.262273194629591,42.34944081929864],[14.261308439994776,42.349804808057876],[14.26062748508232,42.35004319978674],[14.260200066840238,42.35022941179422],[14.25948187145303,42.35020393478406],[14.258902010409534,42.35009106806843],[14.258124936873607,42.3499782652921],[14.257729260101856,42.349879513339104],[14.257591948542643,42.34984523914257],[14.257545485791951,42.34983387171121],[14.257278414659265,42.34951649520321],[14.257147985604506,42.34936151383715],[14.256971454304663,42.34895551376495],[14.256637033301747,42.3485117593203],[14.256081474187814,42.34825371978507],[14.255376740842008,42.3480270662596],[14.25523653804753,42.3479819712728],[14.255139996974481,42.347947130939],[14.254473215698289,42.347706465849946],[14.254048251863333,42.3476314678027],[14.253661779472694,42.34761771788902],[14.253431292079647,42.34765531058574],[14.253565872737036,42.347463558745645],[14.253911215589468,42.34697156372156],[14.254101743794145,42.34642169280986],[14.254141025664088,42.34630831916819],[14.25416481865774,42.34577026819951],[14.254172530971607,42.345595667202495],[14.254422688711482,42.34499450453578],[14.25495129419754,42.34434903623624],[14.2555648876298,42.34370415959026],[14.256134709597529,42.3429712666092],[14.256147899574211,42.342877529997864],[14.25627937504922,42.34194283008084],[14.256252935932439,42.341753713052434],[14.256151218575333,42.34102596388404],[14.256139598962752,42.340939280663704],[14.256111014847088,42.340726226102646],[14.256182763053257,42.34047723295757],[14.256198690966102,42.340425796215996],[14.2562761206141,42.34016047847221],[14.256464953655547,42.33995149119931],[14.25653405003442,42.33987293217993],[14.256571048299383,42.339833784889805],[14.256767581826011,42.339615737587216],[14.256977239579385,42.339202541795714],[14.257030094664582,42.33909835602923],[14.257179139015687,42.33880459177709],[14.257836614811566,42.33850428387601],[14.258555998066521,42.33825513991954],[14.259225220679404,42.33836548368171],[14.259260397915565,42.33837128382679],[14.259270060670888,42.33839790123687],[14.259324337326008,42.33854732202421],[14.259339198062975,42.33858822155484],[14.25930219500352,42.33862750048378],[14.259046619689135,42.338898763333155],[14.258578875202085,42.33931908819302],[14.25855563410023,42.33933996280748],[14.258356381750229,42.33960569899177],[14.259104410064142,42.34002592350707],[14.259610045297283,42.3401176011892],[14.26035195817889,42.34025211446409],[14.26173117822764,42.34074681024859],[14.262080570583386,42.3408689195896],[14.262493691166187,42.34101330208353],[14.263464092166124,42.341081166146715],[14.263875429831138,42.34113875138224],[14.26387987371488,42.34102942438879],[14.263892296426556,42.34072385673192],[14.263913162365212,42.340629630004166],[14.263996089793135,42.34025519555857],[14.264022212802614,42.34013721197557],[14.263918659442913,42.33958832344443],[14.263514519239347,42.338891227124165],[14.262874215067399,42.3384702507277],[14.262573956319416,42.338272835157895],[14.261485597388509,42.33784578887611],[14.260424121517596,42.337340973031324],[14.259390452142217,42.336515277969205],[14.258593417341617,42.336016285200614],[14.258028227550268,42.335641664854954],[14.25771572986542,42.33527792735706],[14.257646314314226,42.33508882509618],[14.25757435677721,42.33489281762876],[14.257497269898968,42.334405723946126],[14.257482643624598,42.3342306122444],[14.257476296117177,42.334154616817465],[14.257112631870838,42.332996505616244],[14.256639427639072,42.33187043678341],[14.256220183060972,42.33135405815572],[14.256104928582872,42.330918231348676],[14.256457130852183,42.33059413612198],[14.256733072317667,42.330340200270086],[14.256877571871597,42.32991779996101],[14.256900295727707,42.32985137192787],[14.256920807478842,42.32979142124573],[14.256744397766592,42.32931339353234],[14.256677598526451,42.3292574801826],[14.256487704598243,42.32909854323125],[14.255938925395785,42.32863922229404],[14.255811663333999,42.32845970070198],[14.255790317115007,42.32842057518501],[14.255663886637093,42.328251251176376],[14.255595168184605,42.32771875725445],[14.25527601675827,42.32723828420293],[14.255026018901551,42.326714122120215],[14.255034803804824,42.32664104921762],[14.255070655526028,42.32612240433097],[14.255048683019519,42.32604476721335],[14.254988922033471,42.32583357710915],[14.255111867509877,42.325562352191845],[14.255683406515967,42.325360532078136],[14.255556870501092,42.324898212466856],[14.255272870795187,42.32440262146913],[14.255176005302545,42.32415050119997],[14.25517520000059,42.32410015052639],[14.255167768189178,42.323636950591364],[14.255156537535376,42.32293605160767],[14.25487239787488,42.32214788241209],[14.254335899743607,42.3214973454056],[14.253828564246911,42.321232575174925],[14.253052693090082,42.321020651026146],[14.252303297638608,42.32076249230094],[14.252120813938667,42.32073460336873],[14.252002139760549,42.32071645820934],[14.250948280329302,42.3205553592614],[14.25089943507226,42.320547886606064],[14.250930545453146,42.320525877101815],[14.251240476925515,42.320306619567404],[14.25169556665658,42.31998467348834],[14.2519033655854,42.319858096466355],[14.252037909282556,42.31972588106883],[14.252590347267597,42.31929539076793],[14.253055887107514,42.31891390300313],[14.253236718847306,42.31883553003754],[14.253799301885028,42.318591667719765],[14.254590240027563,42.31833026043095],[14.255333638054015,42.318008015108454],[14.256012466008057,42.31767423871502],[14.256091037959264,42.31763560695931],[14.256709257596826,42.31728804750068],[14.25694555460699,42.3171551999033],[14.257581320812907,42.31681538161051],[14.258217506693049,42.31640802176175],[14.258916425553858,42.315916749776086],[14.259771671941577,42.31540928133717],[14.259977585017792,42.31528039087081],[14.260454664092638,42.314981751004126],[14.261011787411153,42.314549267569],[14.263768964845955,42.31240880842304],[14.264059111028534,42.31218354940921],[14.2640911877718,42.312158647964914],[14.264110015647365,42.312238805659035],[14.264161604886787,42.3124569929966],[14.264374281662787,42.31289732834194],[14.26473266136926,42.313411978625176],[14.265031276045177,42.31375165172413],[14.265085831612636,42.31381371463761],[14.26521185736633,42.31395707436066],[14.26597295689046,42.31441989401473],[14.266016956761497,42.3144466490893],[14.266972026242666,42.314843785594626],[14.267493711273605,42.31509883352553],[14.267753629392537,42.31552348301092],[14.267796295561107,42.31599809579175],[14.268157994582666,42.31626106611942],[14.26824843015921,42.31635032778223],[14.268303882099067,42.31640505658595],[14.268445566034009,42.31654490037576],[14.268339683091465,42.31667151111022],[14.268175398433394,42.31686793585729],[14.267867168826571,42.31729185011415],[14.267829996816275,42.31734297789301],[14.267815348900063,42.31740867133729],[14.267701267323547,42.317943075847516],[14.267852820284638,42.3183772174063],[14.267975987675353,42.31851695239651],[14.26840567281878,42.31900443047318],[14.268837084348727,42.31937616271916],[14.268894996202839,42.319814618387035],[14.268911847301794,42.3198995998475],[14.26897370264949,42.32021160409482],[14.26868014406407,42.32047270044754],[14.268420585733125,42.320705221716125],[14.268447383907384,42.32078527154886],[14.268537834241256,42.321055419801745],[14.269275224230952,42.32127801360741],[14.269970713144655,42.3214434613241],[14.2701353567007,42.32148144072446],[14.27139608869806,42.32183294143658],[14.272447371541734,42.32192851092274],[14.27261011871309,42.32187151118647],[14.273083791125535,42.32170560993215],[14.273183284050564,42.321336419133026],[14.273644761534895,42.321306133172236],[14.274396605739406,42.32133897413616],[14.275340952908476,42.32156998709059],[14.276382813613926,42.322059814814615],[14.276470674796807,42.32210817270024],[14.27694235884148,42.322765446369644],[14.277044042255895,42.32343594291938],[14.277415471234923,42.32385092166988],[14.27808396611073,42.323685027324956],[14.278701374471332,42.3237780604829],[14.278861957865345,42.32388555523317],[14.279148010964299,42.32407702906658],[14.279384485729542,42.32420239136628],[14.27994468527758,42.324499372310925],[14.28209475826579,42.32637612023409],[14.282948381925063,42.325994588154174],[14.283685743935099,42.32704533733454],[14.284260936205357,42.327864974387296],[14.284258962796672,42.32805915049993],[14.284254714744774,42.3284774322308],[14.28427128575014,42.32857699930835],[14.28434985940535,42.32904909697031],[14.284413816154188,42.329433347692444],[14.284489292689587,42.32975362565556],[14.284635244997606,42.33037287834899],[14.284708098446588,42.33063499555019],[14.284878605662247,42.331248377616596],[14.285346013715897,42.33186595079823],[14.28547929100785,42.33204434115784],[14.286029037321848,42.332703117224476],[14.287428077709137,42.33404732097607],[14.28788763087019,42.33453470998974],[14.287952111637482,42.33459438495015],[14.288443500215854,42.33504915038993],[14.288498132569613,42.33510712982549],[14.289075264521935,42.33571966502776],[14.289126247423066,42.335773779811596],[14.289796916750358,42.336534973147074],[14.2901537475927,42.33713513496376],[14.290290983383292,42.337328271545054],[14.290525329545941,42.337658091163995],[14.290565441061279,42.33770827003361],[14.290966038662246,42.33820935715725],[14.291422229163864,42.338836424962786],[14.291804423515233,42.33926886171821],[14.292119419561574,42.33947934497011],[14.292226028555751,42.33949602476812],[14.292519051856143,42.33954186851955],[14.292881299444188,42.33952059865823],[14.293410042388674,42.33949612087963],[14.293609570906167,42.33948688230994],[14.293743226062906,42.33999383704467],[14.293929798952503,42.34022826529032],[14.29448502065214,42.340697693181845],[14.295158105110191,42.341161659851466],[14.295977756901438,42.341708858359006],[14.29686993968875,42.342432740144574],[14.297104672507613,42.34272574596682],[14.297276760846978,42.34294055949681],[14.297798769433323,42.343558576272194],[14.29781698214684,42.34358111652655],[14.297852778714063,42.343620543747605],[14.298490971127578,42.34424590055181],[14.298656235625185,42.344407037971145],[14.299688256884014,42.34527745885288],[14.300470225107922,42.34616846528956],[14.300667420216117,42.34685251390027],[14.30095743445941,42.34713143509612],[14.301136257248675,42.347303428312024],[14.301507618328625,42.347749837367246],[14.301443777642946,42.348036375423085],[14.30125413811214,42.348630330278],[14.30121183448432,42.34928047046151],[14.301497825445045,42.34964981560697],[14.30201541122534,42.3501389546507],[14.30261574857692,42.35081780736083],[14.303348327069438,42.351445510868885],[14.30384213714523,42.35186822590618],[14.304182177827498,42.35215853493267],[14.304287208998709,42.35225268392395],[14.30445724235068,42.35246986264496],[14.30453847813434,42.352569622072835],[14.304922366763364,42.353055948743],[14.305484239136309,42.35385360271887],[14.305534533080099,42.35405385770992],[14.305668709720512,42.354565282234866],[14.306487853371538,42.3548873639377],[14.306613672758969,42.35494003976698],[14.306414233255998,42.35541742550987],[14.305746327647656,42.356312661707285],[14.305193244982537,42.35698650578221],[14.305319116781071,42.357579329962846],[14.305853475668442,42.35794313814902],[14.30611749367071,42.358122877048736],[14.306231296110024,42.358241608099874],[14.306716489427362,42.3587478150415],[14.30639835471871,42.359018132107906],[14.306189822028378,42.35919537511766],[14.304944490919288,42.35975730654587],[14.304932415168544,42.359937916064254],[14.304922644462371,42.36054153485194],[14.304918323466238,42.36098000016253],[14.304914402243359,42.361379142688804],[14.305051639279387,42.3621784956095],[14.30508985056168,42.362631359330294],[14.305102585178046,42.36278228220473],[14.305145483604617,42.3632907135885],[14.305149244706362,42.3633352907298],[14.3048462734296,42.36420458413967],[14.305012576105726,42.364592975975576],[14.304862966391157,42.36490600296478],[14.304870037290657,42.3649623270053],[14.30491855720597,42.36534904602687],[14.30499877389561,42.36537841358337],[14.305573077081606,42.36558874710762],[14.307103520356247,42.36567075352302],[14.308209180914256,42.365466379192014],[14.30943991797272,42.365305699493504],[14.309490269982657,42.36530336106667],[14.310821439852885,42.36524152955272],[14.311016672559456,42.36525053454272],[14.311695865263472,42.36528192802512],[14.312006635979255,42.365377775325975],[14.313877153821313,42.36595477277469],[14.313918108860117,42.36654703206018],[14.313935646869433,42.36718539154934],[14.31379336605827,42.367943710319445],[14.313812394475983,42.36849197607889],[14.31377931474265,42.36921371111037],[14.313944639066793,42.3698390309925],[14.313953264864352,42.36987174677834],[14.31451875742718,42.37042161712931],[14.315422295946172,42.370900845934045],[14.31572090002015,42.371060255366444],[14.31658120608223,42.37142248860474],[14.316632714345234,42.37144414436174],[14.316494925706339,42.371685601116134],[14.316376501139525,42.37191216098283],[14.31606357454305,42.372362960094286],[14.316028703986104,42.372412984607564],[14.3154506470267,42.37300701806462],[14.31503420683302,42.37334955007751],[14.314922801763979,42.37344117176445],[14.31489250006234,42.373461449820034],[14.314859199531645,42.37348373891066],[14.314567181004426,42.37367916482432],[14.314533317745433,42.37370182297785],[14.314494052767836,42.37372809917922],[14.314250582188947,42.37389103692629],[14.313959448573545,42.37413373659656],[14.313564400546216,42.37446307955809],[14.31306035520575,42.37496363763394],[14.312678405307818,42.37558005120525],[14.312583240292636,42.37605556821839],[14.312573838970806,42.37610255271501],[14.312579289965981,42.376777484195735],[14.312486841560112,42.3774074511354],[14.312190982707929,42.377749789151544],[14.31206666051687,42.377859095173285],[14.31202246634968,42.377896608793094],[14.311774934889982,42.37810671435237],[14.311758423365259,42.37862962415645],[14.311820964725825,42.37940543132757],[14.311977523079598,42.379749253043386],[14.312628112889813,42.380191649623576],[14.313571219824178,42.38046740442479],[14.313949134404584,42.38074043474196],[14.314127323941797,42.380869171225555],[14.314226885490001,42.38143619940592],[14.314370638587627,42.38187963985841],[14.314509488258363,42.38240462703018],[14.314544692076701,42.38253773045128],[14.314733100719758,42.38315014069835],[14.314907477724883,42.38328759022068],[14.314938041016697,42.3833116815402],[14.315188705652758,42.38351158496186],[14.315509932555779,42.38378694660706],[14.315649439084218,42.383905006233825],[14.315756191066999,42.38393201214464],[14.316273401538583,42.38406285660853],[14.316518636892154,42.384124902611866],[14.3175055176948,42.38394846546573],[14.318327423805874,42.384333378201305],[14.318494241616001,42.384564771249046],[14.318820026090386,42.385016661501034],[14.318862773117186,42.38509129041084],[14.318463842914246,42.38584931018023],[14.318462006408117,42.386568740667684],[14.318829662509824,42.3872537908938],[14.319627027882486,42.38767131196187],[14.320214380354326,42.38773715278928],[14.320733519010817,42.38779535439895],[14.321179645134913,42.387936668662576],[14.32128002946559,42.38815699147096],[14.321465611795707,42.38856431960086],[14.321171851861731,42.38865299120312],[14.321099439489062,42.38867410579694],[14.320661353019677,42.38877101813483],[14.320185091661134,42.38888320921783],[14.319590520372184,42.389032411755686],[14.31889501129336,42.38917280479396],[14.318128045058494,42.389294011583914],[14.317495645019013,42.38939094880781],[14.316899531623719,42.38948619482514],[14.31608456128677,42.389650131945],[14.314792197352812,42.390020809287456],[14.31414504635452,42.39026450863624],[14.314042420480416,42.390299450372474],[14.313945701801185,42.39033224129615],[14.313873649259886,42.39036514141437],[14.313789163597372,42.39040290012334],[14.313566163894297,42.39050314692347],[14.313486863032002,42.39054635491472],[14.313241579078086,42.39070580942965],[14.313166120942281,42.39075359103363],[14.312777959335648,42.39101020647575],[14.312091545379898,42.39140220371673],[14.311556302297353,42.391643134273586],[14.310787072159465,42.39198945864024],[14.309747585717826,42.392586896442886],[14.308853605998527,42.39307403935888],[14.308282035462785,42.393280631613564],[14.30782153827246,42.39311296244604],[14.3073013196724,42.39299307675549],[14.306626126718676,42.3930728669703],[14.306423456568337,42.393096793251885],[14.305288252073707,42.393640118229484],[14.305166590710199,42.393701320818025],[14.304370826109198,42.39410136079502],[14.303544793042972,42.394279224984544],[14.302572429980767,42.394306328101045],[14.301781163407204,42.3944285525049]]]}}]}
