{"type":"FeatureCollection","metadata":{"code":"070048","referenceDate":"2026-01-01","sourceDbfExportDate":"2026-02-18","upstreamArchiveUrl":"https://www.istat.it/storage/cartografia/confini_amministrativi/non_generalizzati/2026/Limiti01012026.zip","sourceManifestSha256":"70ac8256c4785dc6ed2814c32b6965ae76f9161b51abaa1660059e1c6cbd8ca6","license":"https://creativecommons.org/licenses/by/4.0/","attribution":"Istat, Confini delle unità amministrative a fini statistici al 1° gennaio 2026, versione non generalizzata.","modifications":["Converted from WGS 84 / UTM zone 32N (EPSG:32632) to RFC 7946 WGS 84 geographic coordinates.","Converted from shapefile to per-municipality GeoJSON without geometry simplification."]},"features":[{"type":"Feature","id":"070048","properties":{"code":"070048","name":"Morrone del Sannio","alternativeName":null,"regionCode":"14","regionName":"Molise","territorialUnitCode":"070","territorialUnitName":"Campobasso"},"geometry":{"type":"Polygon","coordinates":[[[14.788111575487571,41.764304441598256],[14.787931147597742,41.76440358087466],[14.786990020772635,41.764833726748506],[14.786784350032661,41.765019656945995],[14.786614659349128,41.76527128162487],[14.78660177437329,41.76529894922617],[14.786483705193833,41.765552454141776],[14.786337710188857,41.76576687434052],[14.786275501822809,41.76597705938024],[14.786310901952458,41.766236322162115],[14.786263577886116,41.76637824185167],[14.786227491003695,41.766578104960345],[14.786058214199604,41.7666676759898],[14.785829255529931,41.76672875598519],[14.785611054007836,41.76677578826269],[14.785346424823429,41.76687467719034],[14.785263667360095,41.7670904018424],[14.785441650542372,41.76729745223067],[14.785573701935512,41.76746181381595],[14.785802887737521,41.767603263261954],[14.786042263761313,41.76775770100887],[14.786439011566541,41.768057214554524],[14.786599908923433,41.76818712074631],[14.786727557166738,41.76829018193719],[14.787001142577983,41.76852390377008],[14.787350992508197,41.76880328050532],[14.787626121180423,41.768987413366695],[14.787829681623633,41.76914381242457],[14.787939423271622,41.769228127170955],[14.788237359973031,41.76946511590399],[14.788504403524376,41.769726170311436],[14.788743467480023,41.76994363016997],[14.788980505019673,41.770305220108405],[14.789004601344429,41.770439028994204],[14.788992944883375,41.770709672691495],[14.788990421142625,41.77111488092275],[14.788990735005676,41.77138491850943],[14.789074109910258,41.77170926871076],[14.789048866789399,41.771962595614795],[14.789060667955722,41.77216003832538],[14.789023050104623,41.77240948995944],[14.788901155997054,41.7725911875516],[14.788745171167719,41.772765647205034],[14.788707275081904,41.772808031948244],[14.788551489969093,41.773013947297805],[14.78836933629927,41.77319419077437],[14.788067477383764,41.773380484434966],[14.787863564265571,41.77355282523186],[14.78769301537743,41.773678452696686],[14.787646467952237,41.77371232835021],[14.786973305203393,41.77338178196023],[14.786409412514992,41.77316273195654],[14.786268490854756,41.77311310760439],[14.786074085833121,41.77304465062961],[14.785617274635479,41.77294620979658],[14.78524321067715,41.77279857769937],[14.784977690368681,41.77265446218113],[14.78491020044451,41.772606111242204],[14.784726896716421,41.77247359448911],[14.784524571327898,41.772096738992026],[14.78446672000999,41.771921877216656],[14.78442548432488,41.77179793500723],[14.784404665752854,41.77173372311682],[14.784261131587067,41.771475421486905],[14.784186833697616,41.771347590746835],[14.784118811443824,41.77123056025361],[14.783867879332838,41.77091467024956],[14.783516653686961,41.7706533568914],[14.783265634321724,41.77043648969978],[14.783038793646417,41.77025440827469],[14.782857008506085,41.77003854516157],[14.782868905832359,41.76997043016529],[14.782896835222909,41.76977998184869],[14.782923426569539,41.76964118909386],[14.782943858092056,41.76953455790188],[14.78304201246041,41.76915602507765],[14.782971687541906,41.76887602034137],[14.78288249924247,41.76877620203431],[14.782631305732583,41.768495065075136],[14.782563810759688,41.76841952363408],[14.782274876059137,41.768182065101975],[14.781928042675155,41.76790252009148],[14.781544495855247,41.76761582588468],[14.781220563149043,41.76729011378114],[14.780967239425971,41.76694733210049],[14.780775214576492,41.76665096546206],[14.780738147780948,41.76657260210821],[14.780671250161554,41.7664311697323],[14.78056089694952,41.76620719458926],[14.780428250359632,41.765835814540445],[14.7803958677871,41.76557639729296],[14.780312548885098,41.765323275488804],[14.780154961579457,41.765070954626836],[14.779819688506604,41.76495285236567],[14.779448172684221,41.76489959074816],[14.778833642406338,41.76481808431908],[14.778721254298425,41.764812602117075],[14.778426052715043,41.76479814655379],[14.778166400358927,41.76475445584567],[14.777788159067237,41.764690808702476],[14.77765265755512,41.76465095226272],[14.777485946132133,41.76460186184829],[14.77734375560241,41.764559874223636],[14.77724935185417,41.76451545555076],[14.77675318047543,41.76427943651415],[14.776441789903224,41.76409260506864],[14.776154510314534,41.76387304983999],[14.776083013782111,41.76357959665877],[14.77612189084305,41.76334358807662],[14.776059202269094,41.76308119718675],[14.776030224203787,41.76302639711605],[14.77589414174192,41.762783461682766],[14.775567738269224,41.76252987169607],[14.775208382410788,41.762242518485905],[14.774958844292632,41.76204297794635],[14.774733908398824,41.76177024303937],[14.774705810276942,41.761736175509476],[14.774333372594423,41.761304866391505],[14.774083227152438,41.76109693590166],[14.773867255252476,41.76073425120134],[14.773723902063777,41.76037690632677],[14.773581638384657,41.75989798068791],[14.773460339188974,41.75947103429297],[14.77342545001894,41.759387116947096],[14.773383968512789,41.75928734025873],[14.773359014412467,41.75922731801124],[14.773309037145987,41.75910606262412],[14.773141815097535,41.758817433719216],[14.773047926234936,41.758627512961276],[14.772998531107726,41.758527597684115],[14.77283072040666,41.75826598475834],[14.772807779987048,41.75824465544644],[14.772517489079409,41.757957729005774],[14.772362301115995,41.75773600556472],[14.772195663577284,41.757420340902996],[14.771990991296766,41.756949059936],[14.771896222525333,41.75669728543089],[14.771845817248057,41.756537792835374],[14.7717776037658,41.75631393585528],[14.771755594759238,41.75623627858133],[14.771734247869086,41.75617338075355],[14.771682002261594,41.75601944319059],[14.771633390096273,41.755884402892384],[14.771565832209529,41.755696732775476],[14.77132285345267,41.75543442318956],[14.771047197103806,41.75520976847626],[14.770748469919772,41.75506279102377],[14.7702448583507,41.754876626886556],[14.76984550069602,41.754847240787996],[14.769523302030542,41.75477345707627],[14.769232804717223,41.75468457329599],[14.768969236292381,41.754594331185885],[14.768668069840725,41.7544935095111],[14.768559681279507,41.75445705331636],[14.768453866582128,41.75441100185146],[14.768255527094203,41.754325369471545],[14.768113062185892,41.75426388742532],[14.767925500167323,41.754183317057695],[14.767636739307298,41.754013324490614],[14.767336817424068,41.753852895211956],[14.767077225089068,41.75373994450462],[14.767023949928186,41.75371562187553],[14.766712464677711,41.75356027423032],[14.7662921924805,41.75329788088789],[14.76605108094476,41.753089477989185],[14.765717700316172,41.752723686937806],[14.76532230019018,41.75237001842314],[14.764984954310414,41.75202692954753],[14.764735002231253,41.751719947765594],[14.764543229046316,41.75132451937748],[14.764459560944603,41.75119595481068],[14.764351733058643,41.75103259779786],[14.763930859409964,41.750729717953575],[14.763728079329738,41.750546385335696],[14.76352396614812,41.75044863673841],[14.763320834661831,41.750328334468136],[14.76304371627622,41.75022075641514],[14.7628864432852,41.750075640620224],[14.762792396530141,41.74993184282187],[14.762456558750886,41.749705694246586],[14.762387451390868,41.74967190029781],[14.762214539443447,41.749587345945],[14.762033298673911,41.74954599653254],[14.761883196994939,41.74951174976063],[14.76183093237644,41.749498627079696],[14.761568197436459,41.74941732738662],[14.761094725952896,41.74916434231438],[14.760990575206886,41.7491088200093],[14.760666232246123,41.74890904937069],[14.760607199918741,41.74886729389129],[14.760512082889118,41.748799823037984],[14.760258818339583,41.74855601106947],[14.760091954224833,41.748370865084524],[14.75999488232593,41.74815970351444],[14.759911205417405,41.74799737866899],[14.759806141047573,41.74776411413172],[14.759661428539939,41.74759135616908],[14.759552436139872,41.74744830727216],[14.759285999447822,41.74731321461299],[14.759180945186712,41.747259949606146],[14.758940907453441,41.747096485764075],[14.758631661367852,41.74693200078863],[14.758568616624737,41.746899163449704],[14.758491727976505,41.746859272480165],[14.758149445698363,41.74668169327616],[14.757872752758699,41.74657858187668],[14.757537571930007,41.74639289306309],[14.757472279634968,41.74632432513454],[14.757416093190768,41.746265335600945],[14.757345183573728,41.746191022327466],[14.75720298682452,41.745878606559295],[14.757190314030291,41.74570370701003],[14.757211886949433,41.74562676859791],[14.757263148123666,41.74544349305693],[14.757314141112227,41.74534190816031],[14.757354993268995,41.745259920770394],[14.757385450081625,41.745198794060734],[14.757408972345333,41.74515204009069],[14.757507933543758,41.74492257997736],[14.757592953495008,41.74469775997058],[14.757654041071218,41.74447414319755],[14.757641414188983,41.74439520553443],[14.757606189675728,41.744174987268146],[14.757569986607914,41.74400577179],[14.757485878925946,41.74377145216373],[14.757365556076316,41.743669479358005],[14.75728311597804,41.74363074610563],[14.75711459587921,41.74355156930403],[14.756815773630914,41.743436065671105],[14.756637797275213,41.74340135774568],[14.756393721393678,41.7433537606337],[14.756069625762656,41.7433250428561],[14.755983119467349,41.74332715223842],[14.755721818296085,41.74333352366098],[14.755443215194724,41.74334302534679],[14.754949850841232,41.74340382799341],[14.754620096005993,41.74347290659842],[14.754551428231336,41.74348461292662],[14.754490695096585,41.74349350707529],[14.754340845077154,41.743515450029314],[14.754239939601545,41.74352952234896],[14.753927005202279,41.743491235690925],[14.753723367814043,41.74346546057783],[14.75329015614345,41.743392706590754],[14.75284716829011,41.743311440123556],[14.752475172541846,41.74321760476528],[14.751969987154231,41.74317996790451],[14.751583071280217,41.74315439263727],[14.751327980053114,41.74312444511083],[14.751091238990739,41.74309807732139],[14.750609767410943,41.74302323661189],[14.750214462850495,41.74297107209809],[14.750072204614112,41.74295006885084],[14.749827733238007,41.742913974687276],[14.749433450070963,41.74290676495767],[14.749036575313289,41.742904185833986],[14.748697742371089,41.74291219457512],[14.748374667248175,41.74292841235845],[14.747688024638775,41.742944874537216],[14.74744688897577,41.74290296629379],[14.7469671186412,41.74261197892255],[14.746655889336507,41.742357541674956],[14.746487877876987,41.74215892967912],[14.74621673632346,41.741899103838385],[14.746081552478326,41.74177400394513],[14.74601789690402,41.74170998040045],[14.745984950651872,41.74164548359782],[14.745960378472061,41.74159590322982],[14.74592686611734,41.74152992698723],[14.745745441060093,41.74135000696124],[14.745531578062629,41.7411761988653],[14.745351022243005,41.74100522031639],[14.745148353845657,41.74088936160103],[14.744900243744347,41.74083654529416],[14.744607097682014,41.74077473246176],[14.744107050648783,41.74066929156509],[14.743751839980028,41.74059483886372],[14.743367131341138,41.74056012272703],[14.743043050494094,41.74053136680152],[14.742810173544655,41.740567225351235],[14.74269626623919,41.74058476511244],[14.74266000883725,41.74060595008421],[14.742599184683177,41.74064143239392],[14.74252486749936,41.74068354066963],[14.742285356713365,41.74086193015476],[14.742140031516524,41.741017748403664],[14.742030414810904,41.74120328197052],[14.741945717750943,41.74136506198933],[14.741789439854077,41.741566437850075],[14.741718393625185,41.741717220639835],[14.74168083505831,41.741796930137625],[14.74165358714878,41.74199633746763],[14.741652672754105,41.74222143036087],[14.741617414386235,41.742331220670515],[14.741315654475086,41.74228333689831],[14.741052006014396,41.74229205351983],[14.740801501962855,41.742246099768934],[14.740366871266072,41.74205634372876],[14.740234035194474,41.742015741946666],[14.74010418961932,41.741974991012185],[14.739864051463456,41.741910510777174],[14.739687792216719,41.741842520557086],[14.739636869222526,41.74182287668894],[14.739453946421913,41.74169251603837],[14.739371548219987,41.741570629941414],[14.739277362995338,41.74143130898486],[14.739201331770426,41.74128658886788],[14.739121907887833,41.741137536839716],[14.739097699368285,41.740900200852224],[14.739050971914134,41.740713503252806],[14.739038926076349,41.740474914982556],[14.739075782221484,41.74035218516131],[14.739109204820362,41.74028390650967],[14.7391367657389,41.740227602548565],[14.7391734190649,41.74009974004527],[14.73922361569715,41.73992168712996],[14.739233724747098,41.73973214118653],[14.73918878854915,41.739531850930724],[14.739195148466571,41.73946851939383],[14.739203289424083,41.73940472861862],[14.739191950749039,41.73937892472408],[14.739173192202388,41.739326005197164],[14.739153842602313,41.7392713932128],[14.739141422508125,41.73923715646166],[14.739104493020395,41.73912648359289],[14.739069354118726,41.73900221803911],[14.738997369985515,41.738852815552825],[14.73885543186813,41.73855834576119],[14.73850856242374,41.73820668870651],[14.738410984590447,41.73812377218911],[14.738231456574994,41.73796398293209],[14.738016613925716,41.73774519958333],[14.73798149863473,41.737688447176936],[14.737871961241582,41.73750489605645],[14.737572967358163,41.73728582708043],[14.737355767970943,41.73717518403704],[14.736984227135528,41.73708577452682],[14.73678355364948,41.73711217925147],[14.736708043847866,41.737122114635596],[14.736455388927375,41.73715277454187],[14.736250195017663,41.737176556540525],[14.735865317343174,41.73717332913924],[14.735814920684726,41.7371799599746],[14.735589132748073,41.73720966660643],[14.735299591481601,41.73726467624865],[14.734904520992593,41.737180940171086],[14.734652440379179,41.737117047578074],[14.734400534116126,41.73695412495721],[14.734243740982084,41.736745930508945],[14.734174301595754,41.736573869954654],[14.734126376880003,41.73630621325701],[14.734114554056761,41.73607275588411],[14.73423613590505,41.73581911591956],[14.734368898248832,41.73562342878851],[14.73455031736907,41.73543430616062],[14.73470761573208,41.73527789889011],[14.735034590441956,41.735036476884375],[14.735263081818445,41.73490350864637],[14.735429959242763,41.734787128636185],[14.735520674960506,41.734726323152785],[14.735671004600809,41.73462652498505],[14.73581593247959,41.73446623391244],[14.735888864984483,41.734273541642565],[14.735869240601424,41.7340944978569],[14.735856482634675,41.733978101405796],[14.735761670015547,41.7336227741866],[14.735718768377135,41.73351239921403],[14.735607019786254,41.733202930783506],[14.735464318758147,41.73271497307837],[14.735343599986935,41.73240595269324],[14.735306563727336,41.73234333899653],[14.735141917708543,41.7320649797502],[14.73495119251872,41.73167844790149],[14.734736943004393,41.73129759466078],[14.734496369252685,41.73089105320654],[14.734281933369502,41.730541714356946],[14.734090450047326,41.73028124554183],[14.733864869827308,41.73000898055753],[14.733599433638547,41.72982872924952],[14.733215132571926,41.72952840118841],[14.732926778046371,41.72939430451637],[14.732821667015747,41.729260035625586],[14.732726123029646,41.7290982827313],[14.73271391102661,41.728860343628845],[14.73283467354048,41.728530230439155],[14.732907803290843,41.72830602328952],[14.73296468578898,41.72815435800178],[14.733043712276732,41.72794364481049],[14.733091315357129,41.727702712360134],[14.733019286388412,41.72746776768973],[14.732913559692344,41.727225507836714],[14.73278291639876,41.72700700094181],[14.732720118512567,41.726912410890264],[14.732592043790193,41.72671949291467],[14.732399588780474,41.7264815736849],[14.732869617100082,41.726047069523425],[14.733037898332103,41.72589150493278],[14.733328134780916,41.72557541158333],[14.733545228039839,41.72541601187334],[14.733678966656196,41.7251977719961],[14.733847806761474,41.72503628649115],[14.734138657600004,41.72482818401427],[14.734319058583578,41.72466161802106],[14.734572818756178,41.72444186863273],[14.734729276832038,41.72420898703315],[14.734884935449577,41.7239671432991],[14.73495986129844,41.72379685593803],[14.734911547847533,41.723524717976815],[14.734829747315597,41.723281261819544],[14.734710077867705,41.723084711633426],[14.734589800786614,41.72284768288929],[14.734472707713264,41.72257898859927],[14.734339983947974,41.72232486240807],[14.73431693188453,41.72228072411281],[14.734221781735439,41.72205593980638],[14.73415034970963,41.721793960936814],[14.734031483755055,41.72160637171361],[14.734006200626292,41.721585143433344],[14.733813478745285,41.721423248846115],[14.733673335911417,41.721228219383235],[14.733551882864193,41.72104526013011],[14.733516561612689,41.720884993858185],[14.733461841584573,41.720711537707345],[14.73344534093198,41.72065901178576],[14.733372728820804,41.72045110235469],[14.733353789627957,41.72026752180902],[14.733350554688013,41.72023616695945],[14.733398477337257,41.72009478203873],[14.733410130638733,41.72006214805817],[14.733568182781909,41.719847192274045],[14.733870781882166,41.71967000860893],[14.73413430957269,41.719526287239084],[14.734375305381342,41.719365689493195],[14.734618476298667,41.71912846652866],[14.734845908834687,41.7189505430151],[14.734979247118488,41.71879533473606],[14.735089653372972,41.718618770624786],[14.735094906079167,41.71855495281864],[14.735112715258877,41.71833855666872],[14.735119018928536,41.718266344113374],[14.735137968077012,41.71804923193329],[14.735098098054566,41.71780587987456],[14.735091454597047,41.71776350182176],[14.73501025533871,41.717493010606134],[14.73493743570255,41.717249104722775],[14.734818384960771,41.71709303237955],[14.734775799191167,41.717045664739935],[14.734698342834895,41.71695951355929],[14.73444569816193,41.716775124927985],[14.73438670315882,41.71673206699472],[14.734252635035158,41.71662176656571],[14.734159796754104,41.71654538620268],[14.73396045053385,41.71629728292531],[14.733919913346863,41.7162468309368],[14.733681449704237,41.716065228741314],[14.733537684136106,41.71590139030172],[14.733394704210674,41.7156789995478],[14.733323697963543,41.715489013560564],[14.733503585230581,41.715194899888154],[14.733528165562833,41.71515470976086],[14.734186011469138,41.71465593185587],[14.734214619690949,41.714634239711366],[14.734479905618342,41.714409412982114],[14.734625803989758,41.71429408520071],[14.7346905949665,41.714248399508094],[14.735227938879374,41.71387235084134],[14.735613638190067,41.71371800752488],[14.735841465268603,41.71361207734762],[14.73604656954965,41.71352078858901],[14.73617931886729,41.713460128292574],[14.736325020040507,41.71337631514248],[14.736492819043002,41.71316986851],[14.736613573309224,41.71297478087062],[14.736773199681043,41.712777746057824],[14.736903322489294,41.71258668895144],[14.73708547695183,41.712406529213446],[14.737267037816347,41.71225340391585],[14.73745935994829,41.71208623631428],[14.737557597830362,41.711941785570104],[14.737568689548686,41.71166217183323],[14.737487107630058,41.7114547144192],[14.737331767414334,41.71122844687233],[14.73735544510674,41.711056225306],[14.73747678587074,41.71083410156909],[14.737802052809593,41.71064226962314],[14.737994195049533,41.710574130869034],[14.73815250904087,41.710448971331274],[14.738176548552811,41.71042996646006],[14.738561211312506,41.710230655623874],[14.738804952806573,41.7100676619013],[14.73907920168103,41.709943646005286],[14.739416437687945,41.70981872448469],[14.740103456678995,41.70954124289794],[14.740416178647386,41.70944455290994],[14.740776488550022,41.709174440562514],[14.741042359698257,41.70905759141013],[14.741283089971844,41.70886098611777],[14.74145368300294,41.708753413945914],[14.741704791175724,41.708605797399066],[14.741956887725207,41.70843562587791],[14.7421752940327,41.70825814094361],[14.742487962798899,41.70802641965528],[14.742668910572512,41.70790032264014],[14.742899083531537,41.707753753215606],[14.743055731792852,41.707691886780275],[14.743643481489181,41.70751388237707],[14.743897003747579,41.707460659621006],[14.744100099732755,41.70741446628168],[14.744259147134674,41.70737948373762],[14.744426576540423,41.707371086419705],[14.744581246084309,41.70735432689745],[14.744750864666008,41.70733681735345],[14.745028891879587,41.70725535712827],[14.74519728357441,41.70715689183656],[14.745342557926692,41.707068586988896],[14.745425021282388,41.70691591911406],[14.745378499407018,41.706697707813426],[14.745366866792438,41.70650024940563],[14.745330327762002,41.70632654614361],[14.745309138101344,41.70615657387727],[14.74529750486774,41.70595911638977],[14.745295855015044,41.70580616694631],[14.745345242081697,41.70568666514565],[14.745466382809205,41.70556356390501],[14.745891121883108,41.70500664434303],[14.746191939970648,41.70460897355468],[14.746350289982601,41.70433097244736],[14.746410594082194,41.704098399083016],[14.746508749937634,41.70381891774704],[14.74659238254262,41.70361217877861],[14.746623130190047,41.70349938552331],[14.746642140735114,41.70342964513135],[14.74668909763351,41.70321574521168],[14.746713924816504,41.70298945270592],[14.746789387869683,41.70279212636085],[14.746908306120668,41.70261062256092],[14.747089390522364,41.702385491468576],[14.74726086545346,41.70205281987223],[14.747320204369549,41.70191031306299],[14.747417765177593,41.70165786582408],[14.747454549142859,41.701430973201994],[14.747527819743286,41.7012427583804],[14.747646546431556,41.70109277028452],[14.747839848831493,41.701038060069784],[14.749054754876768,41.70092307235479],[14.749836640423812,41.70096934081599],[14.75005249877637,41.70099901204201],[14.750376193204877,41.701059276623845],[14.750520489475884,41.701061033906996],[14.750761435363756,41.70103543346921],[14.751013752983757,41.701036266440056],[14.75120683645114,41.700945554682136],[14.751410491415394,41.700872314726155],[14.751639632702682,41.70074828481338],[14.75186775610111,41.70057929588909],[14.752095323653677,41.7005048538571],[14.752302582147701,41.70047194006626],[14.752493907016303,41.700462330998526],[14.752940928429647,41.700021292300214],[14.752965518390273,41.699759002903804],[14.753000862713947,41.699482671324745],[14.752980578487858,41.69915512230009],[14.752931604025584,41.69884251723237],[14.75283920761237,41.6985816028506],[14.752803024762025,41.6983448707634],[14.752876646049499,41.698093622485665],[14.75303399880057,41.69790568116022],[14.753152891238713,41.69772417336049],[14.753575176024103,41.69727537214815],[14.753648208406375,41.69705115790455],[14.753649466417103,41.69676303557185],[14.753566407690018,41.69643864008303],[14.753506308949635,41.69620310960963],[14.753485256750235,41.695934111835946],[14.753497886614149,41.6956724231578],[14.753498932811604,41.69543317124908],[14.753499145965554,41.69538430075175],[14.753548047195762,41.69512529103109],[14.753741630804932,41.69487251623294],[14.75417505006809,41.69441415271641],[14.75435857865879,41.69398184524891],[14.754453547890904,41.69380153722174],[14.754549318185072,41.693630191706525],[14.754769677778983,41.693542603912384],[14.754983290114309,41.693513867261146],[14.75520204681187,41.69340835621982],[14.75542834936477,41.69325295498383],[14.755528691547902,41.69316200383116],[14.755575549186162,41.69311953213307],[14.755790477635909,41.69293769596583],[14.755936655720163,41.69275931436886],[14.756031469784368,41.692678034109825],[14.75636916545974,41.692526034959556],[14.757715476275623,41.69253938075784],[14.757775112844751,41.69226632691979],[14.757794531736836,41.692019693607946],[14.757803218932452,41.691909340700924],[14.757911152350275,41.69177338876497],[14.758030239481835,41.69162787319313],[14.7580813816455,41.69149477517853],[14.758190042006229,41.69123275950895],[14.758356915330543,41.69101732772577],[14.758443485816546,41.69081043393228],[14.758504977515987,41.6906588115751],[14.758626612893138,41.690441152819396],[14.75876818490347,41.69024499548367],[14.758853368242415,41.69005617499707],[14.758963628734556,41.689812082052896],[14.75899876423989,41.6895672653376],[14.759024751988985,41.68935441529315],[14.759096556079639,41.68911675678023],[14.759206776238251,41.688805152142436],[14.759279600284456,41.68861245185732],[14.75931557464504,41.68844410832795],[14.759366893085634,41.68827949511048],[14.759343490895091,41.688118638133375],[14.75932045167018,41.68789475034376],[14.759320522733118,41.6876606994928],[14.75935747946269,41.68746980175752],[14.759357186532197,41.68729878176591],[14.759393668171057,41.686968379919485],[14.759361407392142,41.68664143461442],[14.759214373074562,41.68630675739314],[14.758976729932161,41.68606665492915],[14.758724764206876,41.6858677797912],[14.758532793532103,41.68570189554406],[14.758342463074834,41.68562144587857],[14.758464749923618,41.685142700672706],[14.758742772186933,41.684894674802564],[14.75871780619375,41.684783406862444],[14.758670279884296,41.684587755785195],[14.758574533959091,41.684390027971475],[14.758238128321421,41.684253909339894],[14.758107210802779,41.68423348497198],[14.758059326829818,41.68422536347705],[14.757963937841504,41.68420918149321],[14.757829813919008,41.68415291118867],[14.757736037969751,41.68397379860219],[14.757771468869652,41.68383627844808],[14.757856500800267,41.6837464857647],[14.758015411164331,41.683576464626434],[14.758281297796957,41.68299148055484],[14.758246242256437,41.68263316860186],[14.758368089311606,41.68208243118395],[14.758478487531452,41.681739311680154],[14.758501670894264,41.681495096030076],[14.75844459957265,41.681326930453864],[14.75827432954931,41.68110144212083],[14.758059268892671,41.680945719571874],[14.757879670851748,41.68078371300671],[14.757712611724386,41.680594070083046],[14.757507504442952,41.680415341315],[14.757399850877967,41.68028572446344],[14.757208668100333,41.68006128650421],[14.757018289248721,41.67984580882685],[14.756924378020534,41.67970199791528],[14.756958935896597,41.67948421661632],[14.75730844816814,41.67919659460228],[14.757440088450242,41.67909095673854],[14.757633316601689,41.67903623544427],[14.757826763024612,41.67901750875247],[14.758054649581702,41.6789475416727],[14.758127286202107,41.678786357483666],[14.758188370756233,41.67863025494262],[14.75809110337329,41.67854962719147],[14.758105540893215,41.67834185896512],[14.75820365135835,41.67812988449284],[14.758311929946943,41.67793090166518],[14.758369441341623,41.67780198444188],[14.758407383123899,41.677588533625304],[14.758443974286585,41.677460668072804],[14.758409359921966,41.677174349357124],[14.758363480513752,41.67706413265306],[14.758289103094233,41.67693734470664],[14.758232186268454,41.67667015093553],[14.758245455843152,41.67651645206003],[14.758292179652525,41.676334066543696],[14.7584266613116,41.675958229784996],[14.75857152774507,41.67563138139111],[14.758766608553728,41.67532901319234],[14.758897767007472,41.67508386999289],[14.758985357021778,41.67495569075259],[14.75903333433393,41.674888015563866],[14.75907925364017,41.6746966682936],[14.759128343722304,41.6744736548602],[14.759141829301758,41.674355952742935],[14.759190771517526,41.67423196696806],[14.759622932569908,41.673962686764355],[14.759769609702293,41.67368975656092],[14.759781054258141,41.673482138702504],[14.759937896795021,41.673222200035205],[14.760178879681861,41.67309755891923],[14.760300117999709,41.672942931382636],[14.760385643925238,41.67269107943355],[14.760444859254243,41.67241354570589],[14.760518868889447,41.67223428727343],[14.760591493529914,41.672073103189476],[14.760748730719746,41.671817644602115],[14.760916572397814,41.67164716981414],[14.76106407835391,41.67145071270524],[14.761134659544643,41.67119961188933],[14.761160238682072,41.67098228113956],[14.761149741033783,41.6707307571946],[14.761135528754465,41.670605446036205],[14.761104079638576,41.670287462339594],[14.761139824298363,41.67008312320755],[14.761176916578975,41.66979319896168],[14.76128677786154,41.66961213693451],[14.761408189724978,41.66942599379259],[14.761550114693993,41.66923431780287],[14.76161078336902,41.66907373360577],[14.76156344603031,41.66884656749001],[14.761468159387885,41.66872083327746],[14.761409711049225,41.668570742244775],[14.76137338107406,41.66843304068448],[14.76148374763922,41.66808992036523],[14.761592841014611,41.66796740918088],[14.761682929708348,41.66785531483036],[14.761773788474846,41.667742263482424],[14.761844438926577,41.667626186692246],[14.761881821426075,41.66750728230764],[14.761770394507609,41.66736885822025],[14.761594582141147,41.66714815428049],[14.761258848406438,41.6669850039738],[14.760968953289124,41.666864556918945],[14.760923846319624,41.66685181025168],[14.760657962849434,41.666776675809395],[14.760432819720823,41.66667547488129],[14.760193685540672,41.66648495874441],[14.760216334855828,41.66631726627747],[14.760229797738106,41.66621758886619],[14.760337617616495,41.665946612154684],[14.760374276976258,41.665584694567],[14.760376391226558,41.665440559327614],[14.760304577738754,41.665241629188046],[14.760160475544591,41.66507333982217],[14.76001815971014,41.66489145665791],[14.759962418563942,41.6647998752797],[14.759898543714469,41.664694929917815],[14.759864772336082,41.66448508468639],[14.759828414185511,41.66427987047071],[14.759828125835025,41.664108850271134],[14.759887375781272,41.66389882867408],[14.759912191207288,41.66374004817754],[14.759865520184265,41.663620870776334],[14.75980609704611,41.66349333173025],[14.75980682912291,41.663367268926216],[14.759807927324815,41.663178175166024],[14.75966281151819,41.66296492645341],[14.759544403949052,41.662781841403586],[14.759857167806786,41.66248705771774],[14.760194631479674,41.66220003310646],[14.760473471182085,41.66179443146354],[14.76083614457618,41.66135310557833],[14.761003742481751,41.66114663650175],[14.761137564491085,41.66109939765654],[14.761340099872754,41.66104870276467],[14.761522488336436,41.660940509265096],[14.762099997480469,41.66075392864511],[14.76238141483745,41.66052225845298],[14.762449392426499,41.66046629742685],[14.762616984006119,41.66025982548566],[14.762809713661232,41.660133105924686],[14.763097786947318,41.65989806823984],[14.763240339550462,41.65974735812147],[14.763303410052874,41.659680680953535],[14.763507685813305,41.659548878388314],[14.76369006618694,41.65944068101861],[14.763904725282579,41.65935786584736],[14.764231523769343,41.65928741044173],[14.764544470713433,41.65902861278866],[14.764843538035098,41.6588830357969],[14.765094223888592,41.658766897781156],[14.765169655731713,41.65873397310182],[14.765420578028802,41.65862444698778],[14.765745766740357,41.65853606539673],[14.765999797440372,41.65835674459783],[14.766098039377901,41.65811325074007],[14.766229142352449,41.65786810268758],[14.766336605629403,41.65772766552605],[14.766604185479181,41.65756566522057],[14.766854641704187,41.657413528255525],[14.767106963993989,41.657382821662644],[14.767262307512462,41.65737500085489],[14.767493539241238,41.657376861904744],[14.768537376262922,41.65740531740256],[14.768895280644195,41.65741429861223],[14.76906475823405,41.65739676164148],[14.769113449111796,41.65723677704909],[14.769126471336092,41.65704708303402],[14.769294476594789,41.65691259603404],[14.769453162967185,41.656841590566174],[14.769642523955644,41.65677804270875],[14.769801566552797,41.656644006401464],[14.769944245047808,41.65646128366551],[14.770019016767218,41.65629098404404],[14.770031812322593,41.65606529376978],[14.769984639956771,41.65580661645796],[14.769793186274171,41.65571273874789],[14.769611676208747,41.655595856028164],[14.769602181147414,41.65538929228346],[14.769768799101236,41.6552728783303],[14.769802132882058,41.655225873003495],[14.76987803527864,41.655118845825285],[14.76990121981024,41.65494214185087],[14.770416454355054,41.655267260493716],[14.770860665626058,41.65540241473839],[14.7711490936103,41.655473400444485],[14.771473415728927,41.655610092126516],[14.771651717877974,41.65569112675884],[14.771868901709743,41.655837715359766],[14.772073157081067,41.65600745971915],[14.77220388817492,41.65612689805381],[14.772358919675234,41.656249611773866],[14.772611152045839,41.656385431794085],[14.772935481546346,41.656522117932504],[14.773235688948038,41.65662401125567],[14.773331267096463,41.65631763340696],[14.773526146914298,41.656181785834136],[14.77386139816283,41.65627291027532],[14.7744243597215,41.65646057630298],[14.775000254050441,41.656625083676616],[14.77550347613479,41.656815755955776],[14.776007050684441,41.65694339585393],[14.77615958202208,41.65696682604871],[14.776536484115066,41.6570247200482],[14.77698222147116,41.65704275031733],[14.777327140862008,41.65700735038498],[14.777869972778738,41.65690345568236],[14.778327309765592,41.65698390791926],[14.778530674010838,41.65700965606237],[14.778758566709875,41.657074674948106],[14.778985306962893,41.657193762828875],[14.779220499525985,41.65728794679099],[14.779274783106503,41.65730968424393],[14.77954897510995,41.65748938925178],[14.779802258408624,41.657670148554274],[14.780018085717588,41.65783479347064],[14.780208465074297,41.65805023242858],[14.780387241430722,41.65820324336911],[14.78065167412057,41.65837443621336],[14.78083045252311,41.65852744722851],[14.781058465290267,41.658727481783714],[14.781357946423656,41.65888790223938],[14.78156355753782,41.65897204369376],[14.781742455039371,41.65902602651777],[14.782043662645384,41.659105341957215],[14.782305402530772,41.65914614040535],[14.7824984337392,41.6591904075957],[14.782714559910492,41.65922450579454],[14.782919829821743,41.65937167423822],[14.783026859737943,41.65946078972595],[14.783194844958881,41.6595603305296],[14.783433894616529,41.65961577470885],[14.783577119013056,41.65964005000491],[14.783866783917757,41.659724444272776],[14.78405843820606,41.65978678115546],[14.784213672628852,41.659877962383405],[14.784490645032681,41.66002150724652],[14.784706835115735,41.66012311245045],[14.784994954604135,41.66025709125461],[14.785256993056652,41.660401388405845],[14.785495939095242,41.660555853139435],[14.785628715732473,41.66069767696389],[14.785747532068699,41.66081770016291],[14.786106953451203,41.660943574625094],[14.7865145768275,41.661071513012345],[14.786959768384818,41.66111653603591],[14.787056128525714,41.661287202601606],[14.78734381225623,41.661583230120975],[14.78773756698622,41.661990920018695],[14.788181645388784,41.662324051544175],[14.788541039830951,41.66261645228135],[14.788766739873765,41.66285709705829],[14.789043398553886,41.66306365856288],[14.788910195008947,41.66331793998232],[14.788824557699012,41.66353380995374],[14.788837003682838,41.663839241813186],[14.788883857889452,41.66409342539768],[14.788858543233893,41.66427924123945],[14.788785154426776,41.664598012787664],[14.788567619545372,41.66498258091968],[14.78837690625684,41.66529827927102],[14.788061048564122,41.665557289700004],[14.787904508458297,41.66578574365169],[14.787795366478196,41.66600730153774],[14.787604179996661,41.666251008522075],[14.787508195096802,41.66648540418043],[14.787349765836154,41.666826475368495],[14.787242866857211,41.66710643071199],[14.786520430696747,41.66734997060437],[14.786470847753195,41.6673659781947],[14.786327329690454,41.66747224788017],[14.786098204811793,41.66762785109469],[14.785870858967334,41.66776986118833],[14.785651500323343,41.66793397209619],[14.785530736664585,41.668093102738474],[14.785317011141318,41.66831994073129],[14.785267318803466,41.668434973064116],[14.785207113678728,41.66860004755108],[14.78513432336818,41.66872524828897],[14.785094313938611,41.668764715872435],[14.784927545561725,41.668929230007684],[14.78463986266296,41.66910129057999],[14.784364239185678,41.66917372171314],[14.783892052658118,41.66929658525364],[14.783702903260963,41.66939615487979],[14.783402570678664,41.66946082946209],[14.783113785341811,41.66952041932563],[14.782703533025101,41.669631149177214],[14.782425549835626,41.669744203255604],[14.78214843514766,41.67016777412006],[14.781978592071894,41.67048240882334],[14.781749564068276,41.67077302598013],[14.78157224626778,41.6709710147494],[14.781490375284923,41.67106491568093],[14.781330054954767,41.67124879269373],[14.781062465812662,41.67164487556078],[14.780797974968472,41.67194178165769],[14.780688569702043,41.67212733892354],[14.780641107817537,41.672300769059305],[14.780495270660815,41.67251517039092],[14.780134181878166,41.67283945364053],[14.779905654692936,41.67303552313139],[14.779839974187432,41.673106349702216],[14.77967557400731,41.67328118003788],[14.779699359944559,41.67361304690314],[14.779637699256272,41.67396272808829],[14.77960057583132,41.67435167874173],[14.779671770311401,41.674676652528554],[14.779729174632442,41.6749483107877],[14.77979077447971,41.67523326103557],[14.780004368135172,41.67550603965886],[14.780148719550542,41.67587683093101],[14.780230263042585,41.676183278300755],[14.780219648351375,41.67646442970711],[14.780216818100346,41.67653502758258],[14.780085224297396,41.67687473524769],[14.779771231629717,41.67708861936039],[14.779336961440125,41.67736708368429],[14.779050606257112,41.67752106092192],[14.778904295034424,41.67766346925642],[14.778929521883784,41.677810726736325],[14.778975951552582,41.67806043526494],[14.779081343236303,41.67829816612933],[14.779285003618444,41.67859395190472],[14.779560902234472,41.67879157339219],[14.779885132833181,41.678892235512876],[14.780329873132327,41.67896431141346],[14.780750477178941,41.67900159615605],[14.781133441616921,41.67905428191946],[14.78147020289343,41.67912730227011],[14.78178110565366,41.6792466354091],[14.782095460274398,41.67943780848149],[14.782267710881525,41.679550647413954],[14.782357003701508,41.679609142040576],[14.782621414576246,41.67964530290916],[14.78283795140917,41.67961636699913],[14.78293290695869,41.67997164540755],[14.78297452583875,41.680124119917735],[14.782991076145738,41.68018475095069],[14.783398619052067,41.68074479059475],[14.783482818495582,41.68088006645224],[14.783709905187685,41.681269179886776],[14.78395986356592,41.68161212938075],[14.784222708721952,41.6820984557526],[14.784347514923985,41.68238370038295],[14.784415383846405,41.682538814871016],[14.784389670613775,41.68295419618877],[14.784380147250502,41.683093449174926],[14.784363724676751,41.68333358264783],[14.784374677826044,41.68375611413535],[14.784408537640664,41.68408395028286],[14.784420922682068,41.68420386895274],[14.784454471917893,41.68471077620712],[14.784417547627688,41.68506821242594],[14.784354933687109,41.68544044793015],[14.784295351811858,41.685645998250926],[14.784331870066232,41.685918708591],[14.784341894891044,41.68619725782355],[14.784426338951402,41.686368528923694],[14.784664347055932,41.686478032189605],[14.78488194514984,41.686494047885546],[14.785268685601315,41.68648801619195],[14.785554385050274,41.686460082337824],[14.785893813729999,41.68636191956161],[14.786335519817099,41.68653314419923],[14.786538642033774,41.6866219021154],[14.78659811814549,41.686849555001125],[14.78662104184843,41.686937302956096],[14.786643544720723,41.68707780064072],[14.78666895450808,41.68723644236183],[14.786679897709906,41.68742492702471],[14.78692445846022,41.687575629042605],[14.78695643057566,41.687595492122654],[14.787159859094317,41.687787754032996],[14.787242949804604,41.687886880078686],[14.787459292968625,41.68814619736322],[14.787637842298164,41.68836222018961],[14.787784086547548,41.688552869568234],[14.787998333969634,41.68879859352647],[14.788323165773319,41.689038729369976],[14.788560620648022,41.68917525783336],[14.788981666021938,41.689383522605965],[14.789234165911372,41.689420269545124],[14.78977516771803,41.68962696984306],[14.790181943878375,41.68970992615137],[14.790543248392026,41.68975467241153],[14.790517437235453,41.69003503340868],[14.790608809208067,41.690177033592356],[14.79067451092856,41.69027914080456],[14.790877127612413,41.69062896951068],[14.791018689637879,41.69090086716451],[14.791282629076196,41.69119808335278],[14.791655688098801,41.69160680352226],[14.79205064529588,41.69199191124264],[14.792385354043574,41.692308050529334],[14.792756812242217,41.69269884414764],[14.793271009441325,41.69314092870826],[14.793668496698407,41.69345388859956],[14.793860173473004,41.6936152259765],[14.794169465772702,41.693815622244664],[14.794542333648529,41.69402180214226],[14.794902844570348,41.6942241059727],[14.795083706116884,41.69433197727529],[14.79514247104398,41.69439912475769],[14.795321344855921,41.694603509748674],[14.79535736387388,41.69473671325208],[14.795547483333847,41.69497304174193],[14.795597428126491,41.69503512705555],[14.795864602297081,41.695330165518406],[14.795897514773703,41.69536651032233],[14.796184609904964,41.69548700749872],[14.796711873595855,41.695640357955504],[14.797191881983295,41.69576909228518],[14.797660496300379,41.69603792827763],[14.797925138899979,41.69620906773497],[14.798152540588813,41.69640009560068],[14.798548699174285,41.69673110883152],[14.798703397232535,41.696948320154874],[14.798882250862462,41.697200316524416],[14.79899017682891,41.69746490483607],[14.799159743274751,41.6977803830329],[14.799288755973258,41.69801239683875],[14.799709086304974,41.6982116559387],[14.800032232440067,41.69846534438514],[14.800295518270445,41.698654550523464],[14.800511222168133,41.698882172394946],[14.800680313337962,41.69912565836237],[14.800870870987978,41.699376694066096],[14.801085158074732,41.69985229924902],[14.801122005293262,41.70016099482428],[14.801204255928594,41.70044038413464],[14.801373034230403,41.70074689686756],[14.80150311355702,41.70102386319132],[14.801726843417285,41.70118818553667],[14.801767585947744,41.70121716807944],[14.802032942475718,41.701271576760384],[14.80258231808732,41.70136976792126],[14.803002436024409,41.70153301781168],[14.803460851231323,41.7017213301231],[14.80394052446756,41.70201208444985],[14.804273918407786,41.702194614392035],[14.804468030441473,41.702300412450356],[14.804744919724968,41.702506922146405],[14.805078447413017,41.7027420658497],[14.8055224233446,41.70300311626728],[14.80578720215338,41.70324174277722],[14.806062481932422,41.70343032707044],[14.806374443028036,41.703626052816055],[14.806448909774412,41.703419737835524],[14.806770641490479,41.70320401790121],[14.806819876318054,41.703171382514554],[14.807121362026342,41.70304376561929],[14.807230600343344,41.7029975265856],[14.807520694513077,41.702784777986665],[14.80761601482724,41.7026592342337],[14.807652199981877,41.70261157544143],[14.80783225132729,41.70237740079252],[14.808145289601384,41.70218599171722],[14.80855575473422,41.701976136914624],[14.80898916612109,41.701787622280584],[14.809264147242617,41.70160714144828],[14.809565715367489,41.701488324136285],[14.809733974301412,41.7018218548497],[14.809852290853444,41.70206790231824],[14.81010384629177,41.70239270592653],[14.810379879459783,41.702689262500726],[14.810642899829762,41.70294146943943],[14.81099245463128,41.703220791470486],[14.811243273388136,41.703437609644865],[14.811484316291851,41.70364592147985],[14.811511010579823,41.70368812945848],[14.811613946439927,41.70385088375784],[14.811684602004402,41.70406784133133],[14.81171057169815,41.70413250868583],[14.811746600829746,41.70422222534864],[14.810975826886216,41.704598903527256],[14.810638780309965,41.70472402571693],[14.81049538508233,41.704798813860016],[14.810193895497537,41.7049851435734],[14.810000085742884,41.705066990582544],[14.809781891445828,41.70524459172259],[14.809614919297536,41.70542409589967],[14.80951816499061,41.705649547107285],[14.809348699367257,41.705901191171094],[14.809070400019898,41.70614485269216],[14.808880069503592,41.70629853515083],[14.808625433302616,41.70650498895296],[14.80849383389202,41.70661068279698],[14.80839489406845,41.7068452458029],[14.80827534106307,41.707017841311],[14.808095527963818,41.70728801207308],[14.807925738735463,41.7076026825068],[14.807925043898413,41.7078277618484],[14.808008708212578,41.708089071275644],[14.808140296734948,41.70841546301462],[14.808234863905726,41.70863120923234],[14.808252918229233,41.70872975126325],[14.808282251423448,41.708889857333574],[14.80830500450407,41.70920826582981],[14.808300027964247,41.70924398185652],[14.808257628880124,41.70954823470822],[14.808202522661592,41.71019466615919],[14.808193469976628,41.710300886046404],[14.808181896078478,41.71043875102732],[14.808143957718142,41.71068372197975],[14.808142796831927,41.71090945868195],[14.808009971801336,41.71109559704725],[14.807782130371267,41.71123317657044],[14.807518571192112,41.71134106049228],[14.807505670063241,41.71153075239345],[14.807528083538145,41.71174565808187],[14.807552050643158,41.71207750705899],[14.807981043879163,41.7127413422284],[14.808484268322756,41.71352002070874],[14.808581523066893,41.71379864306713],[14.808469807913937,41.714024852416976],[14.808352176024645,41.714152342462775],[14.808229778311894,41.714293576856875],[14.808144224021632,41.7144104379661],[14.807976507932857,41.714648488870516],[14.807735104366946,41.71493528567642],[14.807276769212143,41.71548063046632],[14.80691461674695,41.71566102655992],[14.80670026713563,41.71576116642581],[14.806396988772976,41.71584930448645],[14.80504122250578,41.716102573672345],[14.804523655009211,41.71619182074464],[14.804397911371309,41.7162336108651],[14.804124151299003,41.716324591104275],[14.803980001616956,41.71645792167333],[14.803953934821605,41.716801310104],[14.804157284150614,41.717124069618144],[14.804290319702472,41.7173333694453],[14.804625477341032,41.71768545397665],[14.8048898469559,41.718018621048074],[14.805103635920732,41.71839035971711],[14.805126540414449,41.71845222146272],[14.805187060737584,41.71861567508],[14.80528248843188,41.71917344824991],[14.805412494946733,41.71964845272688],[14.80559299756178,41.72001737595516],[14.805832901185319,41.72037878648216],[14.806059789262576,41.72069584805255],[14.806309791291248,41.721002734484486],[14.80649333584388,41.72135748517491],[14.80675351064338,41.72185790831611],[14.807099859813539,41.72220041576784],[14.80729312451148,41.72241115856792],[14.80755628655182,41.722564345307816],[14.807903638324124,41.723050827851864],[14.808226950481712,41.72330448259756],[14.808363373342354,41.72346106811309],[14.808538647463758,41.72366224574684],[14.80863299521688,41.72384199603362],[14.80864141843485,41.7239115058448],[14.808692082697451,41.72432959536786],[14.808729181522116,41.724773300835636],[14.808774659021381,41.72507705373482],[14.808844591020245,41.72561811299376],[14.808928166593853,41.72607746359812],[14.808925927768929,41.726617682774005],[14.808996524799824,41.72694142457691],[14.809033679969923,41.72711181423197],[14.809068773975202,41.7272980832455],[14.809079877754032,41.72735701940822],[14.809237065695097,41.72770011440777],[14.809391013996576,41.72800736527928],[14.80954826604433,41.728251437280456],[14.809586381504433,41.72832006178615],[14.809917850552871,41.72891682005866],[14.81019370128384,41.729276396873175],[14.810527899705974,41.729583503217164],[14.810746494102762,41.72977495081313],[14.810924379854718,41.73008098570364],[14.811105875192494,41.73026081238256],[14.811342610629994,41.73058636386238],[14.81148673929026,41.73098412831859],[14.811491154015062,41.7311223488316],[14.811498223702904,41.731343616024084],[14.811690147360192,41.73183797293925],[14.811916496108944,41.73228107494448],[14.812190082745909,41.73284780178529],[14.812236962461686,41.7330007021144],[14.812267996636958,41.73310923820864],[14.812298487333697,41.73321587008582],[14.812621959963913,41.733802568293434],[14.812931044025438,41.73436299132538],[14.813136629748186,41.73477563737286],[14.813326957458067,41.735252069504405],[14.813505678768443,41.73583261063271],[14.81360040971843,41.73638140916799],[14.813671216128707,41.736931422249775],[14.813693816364014,41.737380362599396],[14.813535145119952,41.73768547583423],[14.813331356625486,41.737956872928834],[14.813175213530704,41.738153477144195],[14.812572930278384,41.738440960320645],[14.812235158313575,41.73859313268999],[14.811848774165108,41.738639749384035],[14.81152519761343,41.73868317722837],[14.811199999298813,41.7387086827949],[14.810945869920792,41.738789092893455],[14.810742431765625,41.73889843566392],[14.810609963921591,41.73899517500763],[14.810369822637693,41.73909737862235],[14.810140177718507,41.73914953907878],[14.810067740511618,41.7391775473108],[14.809791800579408,41.73928423783115],[14.809490041958947,41.73933566823646],[14.809430567170256,41.7393615043312],[14.809359985128655,41.739392223872855],[14.809140217163456,41.73948832871267],[14.808829504454387,41.739607611972104],[14.808786974136305,41.73962416696418],[14.808576988538952,41.73970593777892],[14.808248801143005,41.74016367117187],[14.808080375161753,41.74036125174381],[14.807887458205665,41.74058707886611],[14.807668898224739,41.74072868967521],[14.807393508480596,41.740873182227666],[14.807163791078287,41.74102435978152],[14.806997446983333,41.741145317606424],[14.806718344843873,41.7413485087844],[14.806512959019983,41.74150295213982],[14.80634421222691,41.74176355850033],[14.80622291565402,41.74201725684354],[14.806079154391579,41.742321605146344],[14.805861359569649,41.74273772726463],[14.80567812045947,41.7429045490664],[14.805354608628846,41.74301547019238],[14.805299876441909,41.7430294963819],[14.805113789954452,41.74307718814245],[14.80478881314171,41.74313867181115],[14.804438849660905,41.743156412810066],[14.804187188510864,41.74316466825024],[14.804019121899703,41.74320019254241],[14.803966265147192,41.743292332863135],[14.803910092859224,41.74339025476002],[14.80384804606541,41.74366795406146],[14.803849532280118,41.74388392120941],[14.803920156273819,41.744199904418785],[14.803930368833075,41.744379421885114],[14.803882492373788,41.74481393346936],[14.803881055467503,41.74493102938201],[14.803880674992483,41.745093080973625],[14.803807224013223,41.74534435186562],[14.803714081924616,41.74543215612928],[14.803605378298244,41.745534628969835],[14.803580160626828,41.745558400882686],[14.80335082386914,41.745714052683354],[14.80314953933581,41.74583552826398],[14.802951882168319,41.745954814061385],[14.802873058173644,41.74602183234402],[14.802625381222123,41.746232411519664],[14.8025887712428,41.74628076574428],[14.802359603164566,41.746583445938214],[14.802242400014233,41.746782923639465],[14.802096496845694,41.74699735733172],[14.802058914264496,41.74706820318545],[14.80198608447318,41.747205491648174],[14.801890302337295,41.74743932841005],[14.801658240891422,41.747834223895666],[14.801453316075735,41.748060649057145],[14.801154669660232,41.748147794221836],[14.800839852168455,41.74822225414916],[14.800478314055866,41.748411603036324],[14.800416279382976,41.74848435315847],[14.800309842811268,41.74860917495934],[14.800067481697175,41.74888700330926],[14.7999968301919,41.74900310510585],[14.799669246384955,41.7492357400126],[14.799356848104868,41.74933707894693],[14.79921219184831,41.74935243300767],[14.799032397947373,41.74937151528243],[14.798706572925044,41.749424023127595],[14.798372091835153,41.74941395538504],[14.797987001372126,41.74944245755634],[14.797745341425074,41.74949520192018],[14.797540961777885,41.74969458709321],[14.7974915641269,41.74974659831347],[14.7973708612427,41.749874233592685],[14.797082152914351,41.75010489298284],[14.796949725496983,41.75026912883318],[14.796853760754175,41.75040451306759],[14.796758207561759,41.75071090988575],[14.796872324300548,41.751375764893695],[14.796885512275553,41.751555133501796],[14.796885361419825,41.75175318020135],[14.796907532748298,41.752098626583816],[14.796919028430343,41.75235909577424],[14.796892356416745,41.7525629860447],[14.796889353089112,41.752626161893055],[14.796879919114051,41.75282466775101],[14.796843868616754,41.753024531872995],[14.796839185071782,41.753078790924285],[14.796818898698609,41.753313853611694],[14.79663909557635,41.75371903410121],[14.796541677126614,41.753971514992905],[14.796359359959833,41.75428230373957],[14.796226602440782,41.754509567701106],[14.796106620043373,41.75474518671842],[14.79597281578953,41.75509402758936],[14.79579227163256,41.75539122386687],[14.795615761045209,41.75567782577462],[14.795598383563973,41.75570709899394],[14.795369640280054,41.755903213717076],[14.795305932134536,41.756162989346194],[14.795233818439492,41.75656271740013],[14.795184914372488,41.757019782852005],[14.795133421342744,41.757481480252004],[14.7952298337142,41.758183240461214],[14.795069989543117,41.758776446788],[14.794972569964607,41.75936199182617],[14.794964347335545,41.75950542053685],[14.794920040336928,41.76027833202501],[14.794871229697142,41.761135971908516],[14.794849974805567,41.761296041172976],[14.794840859791334,41.76136468887309],[14.794837233874112,41.761391992284366],[14.794821026598104,41.76151208717834],[14.794747188086122,41.7616126705568],[14.794687197284258,41.76169439363594],[14.794470643666289,41.76192589651116],[14.794373073504937,41.762065854812406],[14.794324281384068,41.76213584419194],[14.793929817947955,41.76239435270636],[14.793833980392476,41.762486008017476],[14.793686328938529,41.762627217108836],[14.793215596913328,41.76267353936515],[14.792866571600294,41.76273620704387],[14.792496356703094,41.76276393904966],[14.792169083671714,41.76283450604717],[14.791869464743453,41.76301169388307],[14.791834264421695,41.763060969167476],[14.791709344705035,41.763235837042295],[14.791409802459698,41.763480533831896],[14.791158459068539,41.763659779943204],[14.790829879564088,41.763982458850535],[14.790422447715953,41.76426411604292],[14.789925900194248,41.76442425282376],[14.78956716005752,41.764379380218344],[14.789108868249915,41.764330538786766],[14.7887120392398,41.76429659107099],[14.788352328329665,41.764274267469254],[14.788111575487571,41.764304441598256]]]}}]}
