{"type":"FeatureCollection","metadata":{"code":"071036","referenceDate":"2026-01-01","sourceDbfExportDate":"2026-02-18","upstreamArchiveUrl":"https://www.istat.it/storage/cartografia/confini_amministrativi/non_generalizzati/2026/Limiti01012026.zip","sourceManifestSha256":"70ac8256c4785dc6ed2814c32b6965ae76f9161b51abaa1660059e1c6cbd8ca6","license":"https://creativecommons.org/licenses/by/4.0/","attribution":"Istat, Confini delle unità amministrative a fini statistici al 1° gennaio 2026, versione non generalizzata.","modifications":["Converted from WGS 84 / UTM zone 32N (EPSG:32632) to RFC 7946 WGS 84 geographic coordinates.","Converted from shapefile to per-municipality GeoJSON without geometry simplification."]},"features":[{"type":"Feature","id":"071036","properties":{"code":"071036","name":"Orta Nova","alternativeName":null,"regionCode":"16","regionName":"Puglia","territorialUnitCode":"071","territorialUnitName":"Foggia"},"geometry":{"type":"Polygon","coordinates":[[[15.806469331308385,41.366282324567074],[15.804368986259233,41.36821347439559],[15.80251588857093,41.36991717005784],[15.801851487569447,41.370527977431834],[15.80130929352095,41.371060973827674],[15.801256899888472,41.37111248098119],[15.80093071477404,41.371433125027544],[15.800290095923982,41.371961642917974],[15.800246954631048,41.37198039661438],[15.800175821593205,41.37201131938477],[15.799870245650087,41.37214415483509],[15.799832996207257,41.372160347353784],[15.79964082573231,41.372243884345316],[15.79851016962656,41.37273537076347],[15.798101752785005,41.372912903874145],[15.7960628492138,41.37379914333065],[15.795372333406634,41.374099050211534],[15.795261844689255,41.37414729578738],[15.794910675534071,41.37429992718334],[15.794542984665254,41.37445973664743],[15.78808720738042,41.37726451752875],[15.787931048281788,41.37733317885966],[15.786805616212527,41.37782221157041],[15.786680339518096,41.37787730019629],[15.786621554959668,41.37790218932455],[15.786564281935275,41.37792583239181],[15.784544892435637,41.37731275851945],[15.78450627414405,41.377301223357804],[15.784468209362078,41.37728818033603],[15.778845920925644,41.37557946592241],[15.778184451136223,41.3753753716505],[15.771143421306853,41.37323720609706],[15.769800504189528,41.37282876195546],[15.76798619414474,41.37227684986988],[15.767876629815127,41.37224358879913],[15.76784257803694,41.3722321011329],[15.767771506003772,41.37220930206523],[15.767581855941097,41.37215177621759],[15.763023382225999,41.370768930465374],[15.75972547839535,41.369768333489084],[15.758627577953074,41.36943519840835],[15.757627803751939,41.36913182354554],[15.756716011033463,41.36880762352953],[15.756598324912364,41.36876731651273],[15.756502321186511,41.36873399674325],[15.755840337392875,41.36850420105783],[15.755805860858066,41.36849172498274],[15.755270664746028,41.36828382870966],[15.755227962238987,41.36827480482094],[15.755179230522797,41.36824897653654],[15.755125672272065,41.36822548122747],[15.754616529986713,41.368168320395064],[15.754570812584793,41.36816149540081],[15.754431312249068,41.36814358962059],[15.753610865613476,41.36804127617321],[15.753438223898785,41.36800434640624],[15.753403560764399,41.36799771427298],[15.753221492421014,41.36795587706121],[15.753090429067353,41.36793037584042],[15.753051062664959,41.367930575451425],[15.752800595633447,41.36794587794667],[15.752388773052946,41.36797903647848],[15.752337369699262,41.36798035760626],[15.75220726481543,41.36798473766475],[15.752055461376996,41.36799013293814],[15.751960475211403,41.368001001409084],[15.751837434662795,41.368015563721855],[15.751617107713578,41.36804227984846],[15.751535561813444,41.36805269145152],[15.751234514833728,41.368087755545666],[15.750428639591357,41.368191528222766],[15.75024916105415,41.3682141145411],[15.750061329651004,41.36823523264227],[15.74931378856935,41.36833287880351],[15.749259082983276,41.36833993251065],[15.748829663362939,41.36839636350778],[15.748713990227378,41.36841210114605],[15.748660502876426,41.368419256487925],[15.748299722061109,41.368464553224236],[15.74823784913462,41.36847269828337],[15.748078562528965,41.36849359122634],[15.748040265084555,41.368497486257446],[15.745131807023268,41.36886233455154],[15.744686433297554,41.368919607532824],[15.74454189946021,41.36893570563774],[15.743362537320333,41.36908738530716],[15.742878613201741,41.369149217461114],[15.742772223202346,41.36916306344014],[15.742734652963252,41.36916797586406],[15.74218261017543,41.36923748677478],[15.741593028482344,41.36931145432688],[15.741251232934475,41.36935460882276],[15.74100339333784,41.36938610686709],[15.740413754362368,41.36946094378338],[15.73923448318933,41.36961012568645],[15.739065869370961,41.36963176720635],[15.738644780922737,41.36968535048099],[15.738611345901303,41.369689465686385],[15.738330049551436,41.369725414594136],[15.738204470437008,41.36974140391889],[15.73805518771116,41.36975962442898],[15.737565526058564,41.36982784826143],[15.737465031263996,41.36983871368326],[15.736875639368435,41.369914508672835],[15.736422516673723,41.36997256424539],[15.736286005418094,41.369987497898045],[15.735696591058318,41.37005924178308],[15.735331517954751,41.37010346024305],[15.735280794590402,41.37010929031174],[15.735208076177416,41.370118911102225],[15.735107052890145,41.37013142999621],[15.734783650598775,41.370170608181965],[15.734670246728916,41.370182555024655],[15.73458881968494,41.370189406985475],[15.734547990202945,41.370195034828235],[15.734520280189672,41.37013046188554],[15.734328719702853,41.36965353549365],[15.73433765701584,41.36936501624538],[15.734153097857991,41.36888087851219],[15.734161297094975,41.36855640412114],[15.73406475503501,41.36828758658072],[15.73395143168907,41.36794325753936],[15.733721407590018,41.3675967879212],[15.733091046720245,41.36693185969518],[15.732272272148617,41.366408497617215],[15.73168372574103,41.366060595339874],[15.730794059610131,41.36577538395957],[15.729325134322284,41.36572219132391],[15.727983039635859,41.365567032629606],[15.727471880460193,41.365443946160184],[15.727344987553876,41.36541946956787],[15.726713344469257,41.365245609566585],[15.726194962563532,41.36491155764555],[15.725846010154736,41.36468827975797],[15.725739760265919,41.36462029344812],[15.72563840612399,41.36455458185725],[15.725476957671297,41.364449877585464],[15.72530589799579,41.364338937941625],[15.725225846599505,41.36429220791397],[15.725041623301466,41.364212937275084],[15.724938484529604,41.36416922651989],[15.724474994999271,41.363978176685904],[15.724437142181651,41.3639705024676],[15.724297437330163,41.363942789340534],[15.723623282759284,41.36381156290262],[15.722825680888718,41.36364819745119],[15.722315063552935,41.363471715901305],[15.722256992108644,41.36345076012465],[15.722180612453133,41.363394992537266],[15.721988876312093,41.363254998074545],[15.721325568799722,41.3628195766306],[15.721179491205177,41.36272368316499],[15.719364949915306,41.36153248239705],[15.719076265861586,41.36131091999934],[15.718882501202286,41.36102529210652],[15.718878640909235,41.36067002545984],[15.719065822294993,41.360429551212306],[15.719341076857326,41.3603189072317],[15.719614871821111,41.360136349991514],[15.719728569969027,41.35993618469718],[15.719749839120585,41.35959294392772],[15.719556878737333,41.35940176705462],[15.719533768219382,41.359379987552835],[15.719497322438094,41.35934563442342],[15.719462804842335,41.359310069293066],[15.719440507303231,41.35928709369825],[15.719582331189196,41.35917583749729],[15.719636820521007,41.35913387690879],[15.719759887359613,41.35903801708476],[15.719812698744207,41.35899531065418],[15.720044780312897,41.35881496811433],[15.720190465267248,41.35874184491526],[15.720397645023189,41.358636987489696],[15.720352228290636,41.35859140886686],[15.718862225999645,41.357095803792134],[15.718055393872705,41.356285895620125],[15.717481253647302,41.3558713676122],[15.717400220442133,41.35581758217666],[15.717281589978258,41.35573278537588],[15.717213057991396,41.35568465219005],[15.717155605553849,41.35571119031098],[15.716932045368445,41.355816053585194],[15.716902647246872,41.35582976877137],[15.71680933364103,41.35587297572131],[15.716480391583133,41.35606331680912],[15.71644691491837,41.35608314613784],[15.716317615196099,41.356157259515975],[15.716278132677434,41.35617871979723],[15.715754674709018,41.35646293158735],[15.715348378778797,41.35668313176799],[15.715207726443092,41.35675935929957],[15.715083106217358,41.35682690067994],[15.714642032888957,41.3570658507007],[15.714293450717316,41.35725464047519],[15.709582310092078,41.35980903845884],[15.70909194539062,41.36007420756319],[15.70860578070514,41.36033711087352],[15.708479691061383,41.360405303677375],[15.707849929840933,41.36074323836123],[15.707806061619515,41.36076569688707],[15.707726090834262,41.36067360882469],[15.70765761489093,41.360594763312506],[15.707420059388028,41.36032123519178],[15.70407414133024,41.3564683006832],[15.703631329691188,41.35595834547263],[15.702818205376168,41.35502189379185],[15.702198167469227,41.35430779231782],[15.701533045464247,41.35356395725271],[15.701429601112046,41.35344826915022],[15.701241749536923,41.3532381834892],[15.70114481162971,41.35312976985566],[15.701091188797081,41.35306979987444],[15.701047236993649,41.35302064458509],[15.700989004032007,41.35295551635806],[15.700898155496928,41.3528539138601],[15.7008415589298,41.352790614921865],[15.700606479745064,41.35252770249504],[15.700421571127052,41.3523209001414],[15.699657558479847,41.351459477976846],[15.699143604696841,41.35088788778964],[15.699055981293874,41.35079222409457],[15.699000597233699,41.3507309889689],[15.69504677625018,41.34625823591224],[15.694944045761707,41.34614201205196],[15.693517671472287,41.34451713978848],[15.693467764540548,41.34446805572803],[15.693301461111172,41.34428046428722],[15.693098388464257,41.344053824362014],[15.693071616945451,41.344023533988015],[15.693803956636232,41.34368375152525],[15.692420971509794,41.34230360536543],[15.690924924778985,41.340821696845225],[15.690165878242787,41.34006796948538],[15.690046596449834,41.33995228173105],[15.6896399661211,41.340307938970426],[15.688846758880523,41.34067039791146],[15.688476433947825,41.34084041267634],[15.687335112976848,41.341354725897226],[15.680114525693938,41.344605359448124],[15.679144746604132,41.345042993144446],[15.675674107490815,41.34660908338014],[15.675492054742076,41.346691473189125],[15.675360252042575,41.34675112051711],[15.675323426034018,41.346767780470074],[15.674550523218334,41.3471162177657],[15.67421753593883,41.3472684878986],[15.673960130607316,41.34738237385474],[15.673910320464513,41.34740483152185],[15.673647991519752,41.34752309949658],[15.673382376896589,41.347642889364025],[15.673303740470669,41.34767833163548],[15.673223522326941,41.34771449238327],[15.673098565555375,41.34777075760166],[15.67276154139853,41.34792247570536],[15.672507380714858,41.34803688587166],[15.672398300966572,41.34808623075523],[15.671937107272809,41.34829398765933],[15.671607176974753,41.34844206190961],[15.67136748811272,41.348549931656656],[15.671335437639945,41.34856498656654],[15.671264771777668,41.34859739473315],[15.67122223447998,41.3486166377556],[15.67117087247843,41.34863987851478],[15.671138241170734,41.348615318621476],[15.670044924610274,41.34779241692335],[15.669215624524753,41.34716820971832],[15.66916723949066,41.34713178988712],[15.66880251917631,41.34685726123878],[15.66873472093665,41.346806227518044],[15.668179808472235,41.346388530610255],[15.667846353627967,41.34613752753934],[15.66779344455296,41.34609770019465],[15.665736557360583,41.344549331789565],[15.665704831515274,41.344525454691755],[15.663546030777155,41.34290068633964],[15.663516430036541,41.342878407609795],[15.662433600767514,41.34206339401444],[15.662068461852698,41.34178855669994],[15.661692920474229,41.34150588639299],[15.659294975496728,41.339700857705374],[15.659266075902988,41.3396772086681],[15.659230899374808,41.339654828050655],[15.65923707890038,41.339603475700706],[15.659263459818895,41.33955773252021],[15.659894918857184,41.33816098496619],[15.659934766920241,41.338072840084905],[15.660911000932037,41.335913367196646],[15.661093184115359,41.33551035645838],[15.657936628575289,41.33431317705566],[15.657276281341401,41.334062711457406],[15.657224683028751,41.334025210288814],[15.657186993301105,41.33399651209491],[15.65715606440823,41.33397553098565],[15.656732589401217,41.33366893876911],[15.655941602684116,41.333096261953514],[15.657348633232937,41.33137974654004],[15.657401388789651,41.33131124756634],[15.657429997155333,41.3312727968592],[15.657558610845799,41.331123574535624],[15.657627017874885,41.331041294219155],[15.65770655078773,41.33094045285697],[15.65773172435973,41.33091036827468],[15.657799606920342,41.330829560139385],[15.657829832268353,41.3307936964861],[15.657861457723584,41.33075685956755],[15.658382908244079,41.33012141366966],[15.663988907102603,41.32327676529944],[15.664015714000227,41.323244274139654],[15.664326671566933,41.32286540396321],[15.664470254514127,41.32269075267494],[15.66454578582137,41.322598665347144],[15.66492386546217,41.322133258806744],[15.664947637066271,41.32210423529636],[15.66575452921886,41.32112288790112],[15.66645521896846,41.32123287155198],[15.66766949859533,41.321391084505876],[15.667816101685824,41.32141018513918],[15.6678595894099,41.32141585075304],[15.667995133306182,41.32143350942367],[15.66831929106957,41.321475742153666],[15.668753043862303,41.32153220183588],[15.669523549014711,41.32163233763711],[15.669733726643777,41.321659776301324],[15.670239449093655,41.32172564438002],[15.670784953063029,41.32179726353923],[15.670874227712869,41.32180927129491],[15.671011272563039,41.321826999147156],[15.670937063201757,41.321721473115446],[15.670906649545167,41.321679035904296],[15.669510636663247,41.319703452724376],[15.66924450689218,41.319326818369895],[15.66893438250574,41.31889300474631],[15.6689199722732,41.31886752030066],[15.66863370706061,41.31846237799146],[15.668599214902768,41.31841356069811],[15.668670947106236,41.31838485019972],[15.672009764589774,41.3168371067108],[15.673988340769778,41.315941592806446],[15.674098653231614,41.31589026309735],[15.674221110471189,41.31583367909647],[15.674283549328777,41.31580487915529],[15.674562696080095,41.315676399340795],[15.674758221011778,41.315593053199784],[15.674925912757486,41.31551102482166],[15.67511478982799,41.31541914997858],[15.675340388739327,41.31542521783255],[15.67538701087199,41.31542813121888],[15.675382868766802,41.31536940655714],[15.675373702299511,41.3153020394375],[15.675374165082227,41.31527012200063],[15.675366595456016,41.3151291978378],[15.675351493853757,41.31491927683881],[15.675345120558978,41.314831302674165],[15.675326039089757,41.31456251166039],[15.675320172864582,41.3144730544605],[15.6753135468408,41.314377359548665],[15.675310270881951,41.314330869378765],[15.675297004542706,41.31415188323835],[15.675293105553163,41.31410560306322],[15.675159715524199,41.312232590078786],[15.675147662892257,41.31203412120416],[15.675131753507923,41.311784047112305],[15.675118756982886,41.31153861021374],[15.67499102336243,41.31134204630945],[15.674970746576482,41.31130893673403],[15.674873057818141,41.31114478004049],[15.67471578387992,41.31090173997966],[15.674710827995986,41.3108103037291],[15.674701697388812,41.310758225402296],[15.674693885254655,41.31070776136631],[15.674606347076015,41.30984975492197],[15.67455944473316,41.30985689333099],[15.672472471123633,41.31017451804107],[15.672299840068806,41.310200790991246],[15.670934703367653,41.308059551343305],[15.6704872144286,41.307361110335606],[15.670223385122316,41.30695257311306],[15.668797760633659,41.307045468826324],[15.668725709213602,41.307050163321165],[15.667506468001434,41.30712959539436],[15.667275293003772,41.30714304726328],[15.666488970092226,41.30718879702065],[15.666099407187339,41.30721146006929],[15.6657029918282,41.30723452129381],[15.66432664830608,41.30731457629817],[15.664287208849053,41.30731909031897],[15.66306905109204,41.30739016243865],[15.66297809199664,41.30739766451882],[15.662892234041314,41.307347695686815],[15.662842689061023,41.307327787629106],[15.662165994989229,41.3071657231505],[15.661353652971332,41.307041952023575],[15.660243067453344,41.30683201095232],[15.658577774773788,41.30653729379869],[15.657355838257645,41.30623029621334],[15.656253176935502,41.30592261472072],[15.656193352122528,41.30590728153143],[15.656155097890958,41.305897014266776],[15.656108745602111,41.30588496106851],[15.655946800355935,41.305834011804706],[15.655821971117707,41.305799852411646],[15.655535897747134,41.305717720898066],[15.655425455193633,41.30567147186899],[15.655318205294392,41.30562770940682],[15.654864513493063,41.30544351660337],[15.654482311995238,41.305337163212606],[15.654414065261777,41.305321806038535],[15.654360689116134,41.30530177648563],[15.65367568887398,41.30508055483507],[15.653600274002688,41.30503364894214],[15.653449812365883,41.30494226993038],[15.653413984033174,41.3049177857582],[15.653245557683922,41.30481303240958],[15.65260571594717,41.304274184562814],[15.652195660327637,41.30385249323867],[15.65129069338534,41.30311302951393],[15.650809916440608,41.30258293847997],[15.650397371403912,41.30210738472146],[15.650186973707756,41.301729472059066],[15.650086497437597,41.301552978783086],[15.650057610263666,41.30149710634668],[15.649619958664966,41.30113315773674],[15.649369686003155,41.300925030477174],[15.648941194569476,41.30058539576263],[15.64881043470996,41.300480043097544],[15.648772441758997,41.300447224770636],[15.648504951172985,41.30022820907334],[15.648106812226349,41.29980581083691],[15.647767544136062,41.29949249535833],[15.647703480139471,41.29943426008958],[15.647274275351588,41.29904411157027],[15.64724945142338,41.29902223605239],[15.646900564360985,41.2987147912262],[15.64653986105332,41.29842521435401],[15.646116420819382,41.2980762755129],[15.645865235282157,41.297807344868275],[15.645861596421375,41.29742055853259],[15.645822367775086,41.297035835258455],[15.64443591906348,41.29704423321215],[15.6440920884238,41.297271166966425],[15.643900434343152,41.29743977800277],[15.643553422639062,41.29740139650344],[15.64329082618834,41.297371620415134],[15.643107159393512,41.2972724410736],[15.643004062066872,41.29721525525892],[15.643010936829786,41.297145489921796],[15.643067620403539,41.2969944092077],[15.64312675965618,41.296847905732754],[15.643159255043802,41.296767613760416],[15.643253098149243,41.296537177517195],[15.643315764571929,41.29638692978077],[15.643341937141157,41.29634553431995],[15.643528406680721,41.296070855309274],[15.643592988395037,41.29597486016925],[15.643873789287193,41.29568572362094],[15.643961149014268,41.29559576884762],[15.644340885240485,41.29520475343522],[15.644417444898092,41.29512302683324],[15.644667624690602,41.29485856801458],[15.644586900063285,41.294860120150965],[15.642994689687502,41.29489072859092],[15.641760396064603,41.292399010760214],[15.639987969706143,41.2934500059531],[15.63989657816584,41.29360394933801],[15.639490294178042,41.29392154580105],[15.636970826943681,41.294067489726785],[15.630736436978282,41.29075266255214],[15.633423921535936,41.2889063051934],[15.635611513607003,41.28885317459981],[15.63433279405281,41.28577662045352],[15.634219418323603,41.2856159051739],[15.634234340011302,41.285464949484606],[15.63370527517934,41.28444710825369],[15.633671734268292,41.28438257807158],[15.632734231795517,41.282578859126836],[15.631957888796684,41.281085107956],[15.631965848671506,41.28104013312175],[15.631820696862993,41.28052203431419],[15.630929401511038,41.278679113036354],[15.630552784115277,41.2780844053926],[15.630313966531066,41.27780196519137],[15.630190036263745,41.27765539222932],[15.629996284136135,41.277357519199796],[15.629973335534416,41.277319051223934],[15.62991077083957,41.27722604954095],[15.629860810623475,41.27712712026208],[15.629656849006006,41.27672323972784],[15.62921132987105,41.276272011877346],[15.628717645351266,41.27596306779434],[15.628602425262375,41.275907085035314],[15.628237623740311,41.27572983086482],[15.627848177515748,41.27546708447036],[15.62771544091965,41.27537753104433],[15.62759622851632,41.27520599872956],[15.627393352523173,41.27490565696305],[15.627104985783497,41.27450383337335],[15.626657011660328,41.273998736633985],[15.626283555682999,41.27366932999509],[15.625765151818156,41.273087301802484],[15.625293956761377,41.272529542348074],[15.625121985209537,41.271981485065844],[15.62494949373243,41.271604456812646],[15.624779298744926,41.271191295307915],[15.62448821680214,41.270821120852645],[15.624056188810686,41.2704725916463],[15.623380267437126,41.26983665587147],[15.62281424585299,41.26928436618783],[15.622599639551296,41.268671131896475],[15.62257557710052,41.268602372177014],[15.622558010311389,41.26855217325555],[15.622304374141525,41.26813932893575],[15.622082471310629,41.267657151024316],[15.621792384607119,41.26717891187659],[15.621550804368594,41.266855369837984],[15.621235831600561,41.266455066485435],[15.620981972394647,41.26606923205622],[15.620910519333998,41.26577381861573],[15.620698166426706,41.265751810115205],[15.620546076222611,41.26573728060639],[15.6202997503422,41.265713315073846],[15.619943456234452,41.265678495946204],[15.619836456418508,41.26566802664281],[15.619552394065545,41.26564000642888],[15.619340320524094,41.26561974414973],[15.618738049413803,41.26556118040218],[15.618688786967734,41.26555720215738],[15.618136608665566,41.26550372560141],[15.615798568791844,41.26527745701699],[15.615724246772732,41.26527046528227],[15.615595712870842,41.26525791026389],[15.615125458531864,41.265212440819795],[15.614522932350873,41.265154009685645],[15.614201371102293,41.26512309456629],[15.613920213784116,41.26509549463319],[15.61331790515249,41.26503718940932],[15.612871423901943,41.264993966829685],[15.612715597284197,41.264978881824945],[15.612163269764565,41.264926844446485],[15.612115368582364,41.26492189559499],[15.611510983384564,41.26486225510083],[15.61090867753476,41.26480393775067],[15.610306372267317,41.26474561625051],[15.609958901051165,41.264711968565045],[15.609704067672988,41.26468729149514],[15.609438214461882,41.26466168688302],[15.609101827501798,41.26462898050888],[15.60905981422513,41.264624901368165],[15.608747579731387,41.26459456512353],[15.608499320133197,41.26457034150898],[15.607896867812977,41.2645116943169],[15.607294414986297,41.26445304393601],[15.607117208781785,41.264435792388696],[15.607032439190684,41.2644280543478],[15.60547443620971,41.26427674507044],[15.604964102661995,41.264227597516275],[15.604885443394986,41.264220145664105],[15.604663979635996,41.264197943463394],[15.604357732632169,41.263497994579446],[15.604248413800317,41.2632411448721],[15.6041922144254,41.26314696678005],[15.604164925562358,41.26304265112482],[15.604084961099279,41.262850059949926],[15.603946264906874,41.26230454943183],[15.603959357175023,41.26185691679317],[15.603964984694993,41.261664469249084],[15.60392897388906,41.26145981353578],[15.603888148850787,41.26125347765705],[15.603828484584563,41.2609343318098],[15.603840137346426,41.26090216100424],[15.60400283553181,41.26044728505573],[15.603637735752642,41.259874319509734],[15.605947565506197,41.25903921721996],[15.606884202226723,41.258512731159854],[15.60808559871186,41.257921474843144],[15.608156943721225,41.257892532310045],[15.608228145510271,41.25786378969192],[15.608409745079808,41.25778960121637],[15.60848648589652,41.257758848880705],[15.60939159023465,41.25739167392815],[15.610580008690247,41.25670213938473],[15.611710741980497,41.25632642113874],[15.613331051718006,41.25586844491018],[15.615362239162351,41.25496373367598],[15.617428015290587,41.25366549010197],[15.617862384287275,41.253233799533604],[15.618076189615671,41.25308843970469],[15.618236048844006,41.25298448863146],[15.619621313369272,41.252067346785275],[15.62016517489713,41.251921896617],[15.62033421142383,41.251874400116456],[15.620560505324109,41.2518171702338],[15.62063606289228,41.251795960701116],[15.620930412251582,41.25171723742665],[15.622532248040455,41.250873201339495],[15.623987652838297,41.25205359901477],[15.624350438996144,41.25245563205541],[15.624963329409399,41.252883707108815],[15.625721417290716,41.25342038633935],[15.626202355513582,41.253752583082225],[15.627184418869293,41.254145803608615],[15.628484551365574,41.255146120459436],[15.62948410531967,41.25394981604222],[15.630373853749033,41.25237927086985],[15.62999542661696,41.2522912484077],[15.630036867658198,41.25205790599535],[15.6300544241272,41.25195904121928],[15.630278031055845,41.25069990846422],[15.630500710341806,41.25025052964052],[15.631031018005846,41.249571854644806],[15.631757390998091,41.24826443375653],[15.631814521214228,41.24815103735609],[15.631869463449512,41.24805267246759],[15.63198496932631,41.247835167514],[15.632169592670477,41.247485492176445],[15.632590841329803,41.247641115883106],[15.632912563211754,41.24775563775591],[15.633328933188546,41.24791204587763],[15.63344861550174,41.24795597623059],[15.635524423178829,41.24770082591846],[15.640098937374141,41.246864417940365],[15.643151295254079,41.24659755312597],[15.643714553953268,41.246547112615495],[15.643933124635806,41.24652564810576],[15.644143664251475,41.246506283997086],[15.644199746165132,41.24650078320208],[15.644549864987933,41.24677748422421],[15.644792822667817,41.24717289635124],[15.645227048582967,41.24760221844553],[15.645612055551505,41.247899394287415],[15.645982702703217,41.248201900471344],[15.646016910587084,41.248222345029724],[15.646050534458984,41.248242440939904],[15.646236648776238,41.24835367411543],[15.646470175726328,41.24854758206995],[15.646580024729278,41.24864148126015],[15.646692556457197,41.248732234075604],[15.646862785852408,41.24891087837148],[15.647013569800409,41.24906911577274],[15.647066395153855,41.24912455143235],[15.647475251313649,41.24948728948103],[15.647513346184288,41.2495081966441],[15.647652717656959,41.24962683985611],[15.648016452562148,41.249910943506286],[15.64816569331228,41.24995248851718],[15.64840067204227,41.25001915624749],[15.648665573523864,41.25016128881575],[15.648879637061011,41.25030186974883],[15.649087769372535,41.25050129426239],[15.649322577259579,41.250699169986305],[15.650474508656458,41.251968824242766],[15.65141426286794,41.252209040717716],[15.65147855654929,41.252225559679395],[15.651208372287226,41.25270473406841],[15.6514023807202,41.25299947265314],[15.65174298150166,41.25359170049186],[15.652335621745019,41.25479727778437],[15.652350430518386,41.25482740074075],[15.652521552099557,41.25517549630117],[15.652783792022692,41.25566887433671],[15.652803617401434,41.25569616535271],[15.652852444276215,41.25578238699756],[15.652886949529774,41.25583889306434],[15.652928152228325,41.25592709261061],[15.652948666745088,41.25597272696502],[15.653157044250316,41.25636259778142],[15.653293203072538,41.25661734692279],[15.653306913632303,41.25664259520174],[15.654566093390558,41.25899876726369],[15.655078202976934,41.2593184834281],[15.655207205828907,41.25939754028206],[15.655839797615409,41.25979329796827],[15.656461206338092,41.26106219535554],[15.656685590721604,41.261303410212875],[15.656722021572635,41.261341180436204],[15.656801154586608,41.26142065949646],[15.664057801206527,41.26916459290611],[15.664085997248453,41.26919465399053],[15.664231280436834,41.269349547474896],[15.671365332232083,41.266920546435315],[15.671560066582568,41.266857679816226],[15.671856745845552,41.267436680905604],[15.673400590014248,41.270449468671664],[15.667065181172791,41.272159185183945],[15.671553200558234,41.27766692825602],[15.66797763891843,41.2793525400197],[15.66786736390039,41.27940238094152],[15.667737573382295,41.2794655665441],[15.667675512963648,41.27949350327309],[15.667512719512251,41.27957155429843],[15.668054950183118,41.28066431593052],[15.668074862585009,41.28069815279434],[15.668500605593529,41.28156241909413],[15.668735526788485,41.28203582797771],[15.668962133217835,41.2824943131569],[15.669016315377789,41.282604749548426],[15.669115920199761,41.28280344309661],[15.669154691852011,41.282882059557465],[15.669174858665748,41.28292307147558],[15.669332191995357,41.28323817859079],[15.669594073662125,41.28376588469699],[15.669651254163286,41.28388127803654],[15.670018027728851,41.28464373085009],[15.670076582981382,41.28476545461364],[15.67091482975653,41.28650791122117],[15.670931127766593,41.28654179143919],[15.671289905449116,41.287287546796],[15.671366693421502,41.287447155745504],[15.672097542625725,41.28717858556799],[15.674365078913805,41.28634527540499],[15.67528773595018,41.286004048656224],[15.675397179966932,41.285965962244184],[15.675589372184955,41.28689454864395],[15.675639210890488,41.28713534512701],[15.676648606676261,41.28668054566803],[15.678100725232417,41.288592167139356],[15.678147505062677,41.28865867581351],[15.678204579658313,41.28873399757383],[15.678335281550567,41.28890647952056],[15.678376206356551,41.288944889485336],[15.678600183311726,41.28886861369692],[15.680983667218744,41.28805686559654],[15.6809206722084,41.287950959455394],[15.680162813187602,41.286676799901436],[15.67877859997897,41.28434295496815],[15.678967226093455,41.28427596142621],[15.679244071044396,41.28417863236221],[15.680184998096143,41.28385248647743],[15.682268167396886,41.2831310334812],[15.682543507965653,41.28303764432023],[15.682649286705601,41.283000311994115],[15.682840829102837,41.282931501397776],[15.683089626573036,41.28284248387521],[15.683135704989388,41.28283017037675],[15.686520236116012,41.28165904618423],[15.685872612693158,41.28148083587248],[15.685429180018684,41.28140320816363],[15.684736169558946,41.281218639099166],[15.684408578086993,41.28069452998306],[15.684366338078402,41.28065907257791],[15.683853927260364,41.28029361501351],[15.683435508415933,41.280052522662835],[15.682559279392349,41.279680628410524],[15.682255769065183,41.27933833264778],[15.68194269408242,41.27901909352932],[15.681521699759271,41.27860714626791],[15.681349514493679,41.27814919304171],[15.680899960667194,41.27742109199758],[15.680507907583522,41.27706098245123],[15.680140076389378,41.276723428222404],[15.68009523551192,41.27668162910554],[15.680066704842773,41.276651157873786],[15.679577668405518,41.27619601392976],[15.678994563415246,41.275802505157465],[15.67868171412769,41.27539774491836],[15.678353345792718,41.27495788746884],[15.67795445660077,41.27438264195536],[15.67734050361728,41.2737749250898],[15.676820584162243,41.27332822528049],[15.67651080042125,41.27288335636537],[15.676408029646668,41.27273576934819],[15.676339244393269,41.27261426421561],[15.676312704760335,41.27256701891285],[15.67608745841341,41.2721952732798],[15.676080354895877,41.27216628787762],[15.676071333307739,41.27212972735951],[15.676065817674129,41.27206094892575],[15.67606302299049,41.27203284921396],[15.675966266903725,41.27147902403239],[15.675910305151113,41.27064079677469],[15.675942302701854,41.2702249384088],[15.67597432222786,41.269867579269885],[15.691098363056911,41.277089883449094],[15.691128239637942,41.27710166412447],[15.691508684777833,41.27728323100662],[15.691873706959324,41.27745712926489],[15.692129422707572,41.27757831779168],[15.692241899868243,41.27763201654561],[15.692443296637741,41.27772728057552],[15.692832431882632,41.27791232147015],[15.69307232153322,41.27802872524612],[15.69326789712515,41.27812277526881],[15.69335060055261,41.27816455809051],[15.69340350029356,41.27819089627886],[15.693440418573562,41.27820411362676],[15.694296633756469,41.27861309084673],[15.693886299568723,41.27923554869505],[15.694803526490073,41.28012244912143],[15.69502343965264,41.27953361255171],[15.696138499437975,41.27987795450502],[15.696684361449424,41.2796750606068],[15.697789850587517,41.27908396367823],[15.698374076162782,41.2789643177331],[15.69873047347083,41.27886248734351],[15.699445395698138,41.27876669485081],[15.69987269126268,41.27862921656276],[15.70036228846305,41.278546591513496],[15.7008431983739,41.27843747448041],[15.701278461930132,41.27829052428902],[15.701777568739919,41.27812633996304],[15.702076659198791,41.277960351423864],[15.702756701595513,41.27790257770065],[15.703915573155475,41.27716430397569],[15.708522644414783,41.28109240608386],[15.708577113189637,41.28113907310579],[15.709580405234512,41.28199648973892],[15.70978132123398,41.282168013569446],[15.712223431667464,41.28425047810168],[15.712257500795133,41.28428496167058],[15.712619123912454,41.284588119848344],[15.710706512161293,41.28575316516785],[15.710675281531008,41.285772237812374],[15.710485919233214,41.285887532755396],[15.711342595307228,41.286705168095125],[15.712039858752211,41.28737063601256],[15.713115757336112,41.288397433255504],[15.709656747165251,41.289585425127314],[15.709570710660639,41.289613611356074],[15.707690505716778,41.29026085436896],[15.707586544532836,41.29029650526837],[15.707540688178065,41.29031223117787],[15.707223717170974,41.290420925450384],[15.707622619223734,41.29050611574516],[15.71039955330037,41.29109733098257],[15.710441780813513,41.2911083237442],[15.710506957484741,41.29112221780976],[15.711357510726982,41.291303663466856],[15.714373627709426,41.291947616991706],[15.714732092742537,41.292024144536605],[15.714810080927352,41.29204079441084],[15.714914922416046,41.292063175820786],[15.715405801237429,41.29216796904266],[15.715522983421303,41.29219298541351],[15.715834445797029,41.29225947522302],[15.716124440654967,41.2923213805844],[15.716603461923249,41.29242363618538],[15.716840077709062,41.292474145417266],[15.717306339564066,41.29257367378423],[15.718311971138464,41.29278832898178],[15.71854283130664,41.29283760519331],[15.71901856941278,41.29293914747749],[15.719774991332088,41.29310059529512],[15.719900458680677,41.29312737478141],[15.72353239783809,41.29390271204924],[15.72575796805531,41.29437745009137],[15.729539626538495,41.29518285211203],[15.731178937328671,41.295226058967515],[15.731443257819777,41.29520781797888],[15.731534327908927,41.29520034215384],[15.731617342183851,41.29519580456981],[15.731637772646001,41.295220038727585],[15.731818914875637,41.295434923438144],[15.732018532131795,41.295671720559426],[15.73208206495705,41.29611347558921],[15.732251188196203,41.2966535966547],[15.732261685478113,41.29669414959498],[15.732279418239981,41.2967514427853],[15.732871416900863,41.30286794547275],[15.732923530929948,41.30345300656058],[15.732965670771485,41.303900475792375],[15.733056398320498,41.30479503262432],[15.733081638985174,41.30509299525668],[15.733097200483934,41.305231526835556],[15.73311651507889,41.30542172097203],[15.733127830993912,41.30559459338],[15.73314072604488,41.305690021273485],[15.73314712053127,41.3057289819542],[15.733150690875792,41.30575850487664],[15.733179828751954,41.30605062528396],[15.733189228788767,41.306148945903004],[15.733196148027448,41.306196736074504],[15.733207341400565,41.30628643567053],[15.733214327051757,41.30640049667004],[15.733231353799562,41.306581569812195],[15.733243969738792,41.306668760354235],[15.733248225839331,41.30672160382864],[15.733253988354347,41.30679869971284],[15.733256090784641,41.306826363131826],[15.73326137235714,41.3068675563653],[15.733270035429568,41.30697152627983],[15.733274772941696,41.30703053964484],[15.73330798054343,41.30736978876095],[15.733313956232212,41.30744608103102],[15.733316140391091,41.30747392234297],[15.733327314024885,41.30756854059448],[15.733341460462078,41.307712348202706],[15.733355443722333,41.307862913470075],[15.733360691192685,41.30792704296608],[15.733375288744424,41.308054057380154],[15.7333880000318,41.30818702533084],[15.733469300857822,41.309018599779755],[15.733560389597208,41.30900869545259],[15.733806449277264,41.308978233829386],[15.733982598293155,41.30896143291941],[15.734572661773491,41.3087547365675],[15.73471879546245,41.30870642188888],[15.736505605694004,41.30807155668077],[15.736906665438159,41.30793068132076],[15.73698861344573,41.307902442703764],[15.737025106322374,41.30788853240936],[15.737625903909867,41.3076771250265],[15.738751184995966,41.307279143238205],[15.739163469240811,41.30713586294075],[15.739326977824746,41.307076429903255],[15.740477436627286,41.30667230650915],[15.740544131404045,41.306648829923134],[15.7406935269014,41.306596358591854],[15.74082004372801,41.306552070220185],[15.740868345189197,41.30653511594386],[15.74094559094663,41.306507825255444],[15.741053367511851,41.30646962506659],[15.741738457521922,41.30622839849014],[15.741773215793913,41.30643736371454],[15.74211958299426,41.30851453932166],[15.742140113235163,41.30862410358698],[15.742163156299632,41.30875987142288],[15.742263818583192,41.30938665162946],[15.742336273542497,41.30982218612938],[15.7423708548463,41.31003005819433],[15.742478844046794,41.31067917115049],[15.742514724345982,41.31089484065867],[15.742553078159562,41.31112537357441],[15.74276519376004,41.312400293629615],[15.743019713944635,41.3131260997971],[15.743114058654353,41.313395133275705],[15.743137799293528,41.31346283298158],[15.743236189321427,41.31383119045443],[15.743355100712089,41.31427637107209],[15.743437103674598,41.314583376350576],[15.743627127144318,41.31529475785501],[15.743754943375139,41.315774904626096],[15.7440334320009,41.316815910773904],[15.744197284841952,41.31743089486643],[15.74425070646906,41.317638921744425],[15.744313857945148,41.317874339149384],[15.744396673587222,41.318187801780695],[15.744458508440362,41.31840694394761],[15.746915246870156,41.31797212143072],[15.748247375549052,41.31773632217724],[15.748642013808613,41.31766670486927],[15.748775192223919,41.317643056453484],[15.748902284063531,41.317620391004226],[15.751758480109086,41.31711385654983],[15.751849414385083,41.317098642899914],[15.752331982219255,41.31720519837394],[15.752991800259352,41.317553296744805],[15.753687627052404,41.31797699968864],[15.75374255341063,41.31801044590258],[15.75392833549215,41.31812357061625],[15.75434096569228,41.31847444088756],[15.754379875792187,41.31850752603423],[15.754546938739676,41.31864958240865],[15.754993443111415,41.31907695644426],[15.755041186754578,41.31913642988644],[15.755066781022865,41.319168443236315],[15.755355989444594,41.31951535126021],[15.755600303745377,41.31994781533149],[15.755710630049679,41.32014156403397],[15.75574715893056,41.32020776160926],[15.756061095423924,41.3207022316024],[15.756595675847084,41.32130968545268],[15.756781994594117,41.32153751545627],[15.756890493785207,41.32167018746133],[15.7571176402471,41.32194553165788],[15.75724812496766,41.3221195790725],[15.757408059578797,41.32234015424677],[15.757581517153673,41.32258243910176],[15.757992679851933,41.323238721116546],[15.7584060820714,41.323722114131314],[15.758548992717007,41.32390478490267],[15.758660571614735,41.32406093745109],[15.758707504175527,41.3241238059192],[15.759083187447306,41.324600841110495],[15.759102039331387,41.32466855651016],[15.759136488947274,41.32479230587823],[15.759154671052988,41.324857616443616],[15.7591787232725,41.32494401455381],[15.759221223171282,41.32509668041959],[15.761986684620389,41.32557246381782],[15.76202644756799,41.32542417294917],[15.762040086620962,41.325373312984375],[15.76210070587026,41.325147248010566],[15.762285454584548,41.32471335752699],[15.762324758875627,41.3246649092269],[15.76234605417778,41.3246345226866],[15.762387949135979,41.32457837424055],[15.762588025618115,41.32432792450911],[15.762637619227371,41.32428271615114],[15.762664178580895,41.32425466835905],[15.762946262101016,41.32403537180937],[15.763386256420807,41.32378890497778],[15.763707770298819,41.32352243118812],[15.763585773265419,41.32324456320324],[15.763534758310914,41.32312484060589],[15.763473903812175,41.32298137339396],[15.763462702828486,41.322955178441966],[15.763451263444276,41.32292844677704],[15.763399024944334,41.322807225885896],[15.763041467333673,41.3219972464507],[15.763016751322516,41.32192931725602],[15.762997743521742,41.321883494716666],[15.762945678800328,41.321757997448444],[15.762925460869024,41.321710602972864],[15.762904754292569,41.32165079155777],[15.762777183642232,41.321354515915495],[15.762690189472856,41.321136068905595],[15.762650784651479,41.32105322108267],[15.762631150417498,41.32102037262122],[15.762453455523548,41.32061411988642],[15.76243069300567,41.32056230902833],[15.762312579938683,41.320269529868284],[15.764467506582339,41.319085726966655],[15.763429099283561,41.31813906856351],[15.761910296907757,41.31891719818387],[15.76184073060417,41.31876491142773],[15.761249377860578,41.31747031873695],[15.76114143213228,41.31723399855818],[15.76103017164953,41.31699041666996],[15.760808908378673,41.316513591953715],[15.760676037222273,41.31621662033499],[15.760633914564394,41.31612323769638],[15.760614334205266,41.316079864943845],[15.760591434530662,41.316029550337205],[15.760556239888125,41.31596623207915],[15.760539850897782,41.31592407136013],[15.760527218736392,41.315891790298856],[15.760476218348941,41.315779991434226],[15.760417136614652,41.315648274118736],[15.760363809005966,41.31552909321228],[15.76028078641519,41.31534220691862],[15.76022460415958,41.315226741190514],[15.76020910705502,41.315194387042645],[15.760176917868222,41.3151219725469],[15.760094897248148,41.31493279054071],[15.759967645203448,41.31465769340264],[15.75795577678505,41.31025882902504],[15.757925553783249,41.31019761417382],[15.75929967661368,41.30978857041549],[15.759333073739743,41.30977677328269],[15.759367449909277,41.30976421999839],[15.759648728641322,41.309683656753975],[15.761173369579888,41.30923467363213],[15.761217228995925,41.30922166907079],[15.761355125965647,41.309180781236805],[15.761392854119192,41.30916960719695],[15.761502802175851,41.30913526352539],[15.761616518110639,41.30910327581767],[15.761796321476423,41.30904996237394],[15.762224324957089,41.30892305234911],[15.76277802489641,41.3087524965256],[15.762959299983825,41.30870195002423],[15.763225690528863,41.30862614656333],[15.763306874169672,41.30860232249117],[15.763353228786166,41.30858896463044],[15.763534368685717,41.30853698704337],[15.763836372119137,41.30844066004306],[15.76387664735053,41.30843890876714],[15.763930529205911,41.30842390393242],[15.763999767064304,41.308399481437185],[15.764061606397222,41.30837921258803],[15.764102055562285,41.30836503309817],[15.764216030612632,41.30833245154502],[15.764268020398454,41.3083158825026],[15.764315269396382,41.308356313400886],[15.76435831219569,41.308409547272866],[15.765754009912998,41.30988285633918],[15.76582744698499,41.30996189431276],[15.76588715156286,41.310027587475425],[15.765917092203296,41.31005991674079],[15.766007926538432,41.31015799666771],[15.766176906008397,41.310337624339745],[15.766208574257524,41.31037065607601],[15.76632034187771,41.31048653577118],[15.766388003135114,41.31056082600616],[15.766981497200186,41.31119078715035],[15.767785580012013,41.31204204442998],[15.768026434887654,41.31230344486187],[15.766098901217392,41.31358957948993],[15.767636450877447,41.31527479996668],[15.77036929573773,41.318272482810606],[15.770395454085678,41.318296844553906],[15.770621188983895,41.318538427721734],[15.770695490670409,41.31862272288174],[15.774548149962593,41.322845461675264],[15.774572461148564,41.32286867256994],[15.7747870212795,41.323107701187254],[15.775238536213722,41.323592552296084],[15.777365569551305,41.32266576868019],[15.777490970651236,41.32272359732052],[15.777672577153067,41.322805518375034],[15.777768695895817,41.322851367964724],[15.777819888454577,41.3228728815985],[15.778267299434786,41.32300065741718],[15.77830282154564,41.323010802548204],[15.778367148976603,41.322997996777296],[15.778522266453463,41.32296856944989],[15.77858243119944,41.32296321954362],[15.778613903158593,41.32295095278951],[15.778674418744464,41.322939318261405],[15.778736469110227,41.322893441600144],[15.778938997632208,41.322784589157024],[15.779409857642129,41.32253005026785],[15.779708857545124,41.32236790968698],[15.779857220050243,41.32228742615896],[15.780276798164884,41.32205975261743],[15.780766460503097,41.321780552201446],[15.781400308248825,41.32143027503708],[15.781678409844382,41.32127658785231],[15.781835643198352,41.3211881717321],[15.781967242755425,41.32111417128258],[15.78252453822738,41.32081253282227],[15.78422983045829,41.31986503190341],[15.784702374269326,41.31960681716691],[15.784778949166007,41.31956554718849],[15.785789626626523,41.31900446042847],[15.785915393026748,41.31893494992589],[15.7862379366408,41.3187566773174],[15.786289839108992,41.31872867814898],[15.786873402975756,41.31840544583705],[15.787044107860686,41.318311093940956],[15.787149797214784,41.318252676603066],[15.787608456882353,41.3179991623745],[15.7880616443637,41.317748669598174],[15.788737139321764,41.31737529202368],[15.788973477901243,41.31724465451422],[15.789301471553223,41.31706335330983],[15.789872002612409,41.31674724032362],[15.790430120505988,41.316439469559526],[15.790797096864212,41.31623661044177],[15.791558745886363,41.31581557635122],[15.791708886662613,41.315732577595014],[15.793251643030564,41.314879717262784],[15.793532414497513,41.31472449731723],[15.793815930490661,41.314567759493414],[15.79438362724465,41.31425289151259],[15.79443659501658,41.31422408398596],[15.79494474182373,41.313943609400006],[15.795047687448625,41.313886784031645],[15.795200425244813,41.31380255041216],[15.795508761666836,41.31363187175586],[15.796073028022242,41.31331990528505],[15.796267604201732,41.31321232802443],[15.797765790953832,41.312383989938],[15.797871621817464,41.312325475349894],[15.800443073858052,41.31090364051346],[15.800533301741154,41.310853285429296],[15.800793887517159,41.31089104828204],[15.800953419948787,41.3109142604258],[15.801246952873624,41.3109567072487],[15.80134832647361,41.31097139467129],[15.801530439927914,41.310991807495625],[15.801644616893118,41.31100460418289],[15.802030692088644,41.31104787706084],[15.802296300290799,41.31108997666827],[15.802407062881192,41.3111087638976],[15.802580075562116,41.311136751329364],[15.803214201967295,41.31126558901773],[15.803790724081509,41.31144284156949],[15.803855069132071,41.31150183341677],[15.804081130578673,41.311709081394646],[15.803813758599922,41.31237743101974],[15.803731288982986,41.312489224993875],[15.80359157978726,41.312678613259195],[15.803249185961755,41.313085929436674],[15.803060112408481,41.313304147776705],[15.803156211634658,41.31350993164387],[15.803651604523159,41.31362450563663],[15.804049090319989,41.31391588507125],[15.804388305826233,41.31444921249402],[15.804620007060102,41.31486743108681],[15.804924920403987,41.315272299904485],[15.80541136083826,41.315729382357894],[15.806000371300621,41.31613987062785],[15.806623560824582,41.316620321426576],[15.806797565143734,41.31673190861827],[15.807458415270196,41.317155688841844],[15.807915243268155,41.317529022898704],[15.808261172242592,41.31789769702968],[15.80832649492222,41.31796779217113],[15.80842357803022,41.318163834537096],[15.80844689158022,41.31821067638681],[15.80851682811828,41.31833550853888],[15.808543367077387,41.31840454173536],[15.808605567900699,41.318532426376336],[15.808630352872369,41.31858764041724],[15.80871215513517,41.31877245464761],[15.808727872387255,41.318808921313604],[15.808795035628664,41.318948704549754],[15.808844234801535,41.31905758863085],[15.808913939934524,41.319211331283675],[15.808961222204253,41.31931693726834],[15.809030721287822,41.31946914864765],[15.80912569095922,41.319648849294715],[15.809158088779249,41.31971080235364],[15.809185070544677,41.319763406284196],[15.809304795083836,41.3199928407676],[15.809317317186597,41.32002452314751],[15.809349432491102,41.32008378224173],[15.809470565301073,41.320314535876285],[15.809747686747867,41.3208399536123],[15.809994444691903,41.321394066568224],[15.810019225281664,41.32146728075981],[15.810069503344815,41.32160556411516],[15.810151893929156,41.32183683088596],[15.810241837009306,41.3220795425648],[15.81031789149018,41.322279246074494],[15.810379557176399,41.32245831283808],[15.810672971652204,41.323066339352195],[15.810930023205355,41.323640529230445],[15.811281377541281,41.32414611481389],[15.811470525833384,41.32442981063959],[15.811487977002859,41.32445756651813],[15.81151102819647,41.32449774463659],[15.81157440293027,41.324579101470256],[15.811777258631919,41.3248642496208],[15.811793212704384,41.32488794112675],[15.81188757729206,41.325013817693204],[15.812027024115983,41.325198557573785],[15.812134729211712,41.32531931630422],[15.812262805852432,41.32545331066014],[15.812541707391338,41.32574509384907],[15.812594614857305,41.325800443466996],[15.812941001540565,41.32616926322264],[15.813236047243688,41.3264822614335],[15.81336646185293,41.326596000294856],[15.813597344910896,41.3267973579671],[15.813646613306034,41.32684032489684],[15.813695790612936,41.3268823981565],[15.81382893414573,41.32701847238541],[15.813847653535927,41.32703957549493],[15.813899667801941,41.3270907612621],[15.813923370226036,41.327115202922776],[15.81400435128733,41.32719871404775],[15.814232655873631,41.32743871796009],[15.814276999843102,41.327485614287895],[15.81432459945078,41.32752896186488],[15.814643881884104,41.32787013686132],[15.814791309191678,41.328025964896526],[15.814936393185246,41.32818389855901],[15.815051708296869,41.3282983248718],[15.815101109676258,41.32836022659692],[15.815140764012307,41.328399048986434],[15.815328976719274,41.32857924092561],[15.815393113817574,41.32864059341505],[15.815476368161445,41.3287204403218],[15.815602036442417,41.32884106731696],[15.815918323514387,41.32914427982423],[15.815957859147732,41.32918189042373],[15.816087600975823,41.32930002366638],[15.816269066850692,41.32946731482666],[15.816373377609622,41.32956346644889],[15.816580125691077,41.32975200832176],[15.816716977084244,41.329871631078355],[15.816755334369871,41.329908207248856],[15.816838268285931,41.32999106005858],[15.816926399345835,41.33008536607281],[15.817244767514664,41.330415070919834],[15.817532395534007,41.33071293751399],[15.817596236373888,41.33078098226685],[15.817645908363323,41.330839518846815],[15.81783876785532,41.331039866261996],[15.817875093654596,41.331078201778006],[15.81961568348254,41.332933318536945],[15.820477055226911,41.333694797589125],[15.820608937117724,41.3338129644773],[15.820846066723236,41.33402100576697],[15.820931215442686,41.33412138535208],[15.821031373925516,41.334239461665355],[15.821394724981714,41.33466780268444],[15.821612401139038,41.33492441083954],[15.82175808115505,41.33509614306685],[15.8221257106387,41.33552665312045],[15.822288801854981,41.33572070985696],[15.822450283547195,41.335912126315506],[15.822485255302233,41.335952991523406],[15.822510388877964,41.33598296543313],[15.822635091557904,41.33613098265717],[15.822689788736788,41.33619595023305],[15.822772514949731,41.336296193652956],[15.822828583183805,41.33636519233133],[15.822878760434037,41.336423945686434],[15.822972664045425,41.33652774492716],[15.823310927543538,41.33692406268896],[15.824241588224028,41.33803070895157],[15.82429203860326,41.33809090151485],[15.826476040610832,41.34066478488615],[15.826839006545265,41.341093130398306],[15.82706354088888,41.341358104184856],[15.82720197868648,41.341521474311236],[15.82727820270834,41.34161142552941],[15.82748769419331,41.3419544227799],[15.827508907765402,41.34198915508289],[15.827758463792009,41.34235370007212],[15.827782597489072,41.34238897913036],[15.827890348094138,41.34254573858676],[15.827983952433167,41.34266733455256],[15.82803549364473,41.342731623557725],[15.828103701618836,41.342817138220546],[15.828236834567242,41.34298655599429],[15.828452734002424,41.34321638685861],[15.828475401964043,41.343243656168646],[15.828628025745997,41.34340737031896],[15.828801659505162,41.34367600576183],[15.8289411065639,41.343896798611944],[15.828978163959762,41.34395443056576],[15.829062212609275,41.344082653831634],[15.829079759086277,41.344109933163665],[15.829217437562527,41.344329557643356],[15.82923148003949,41.344804572318886],[15.8292315644797,41.34483381518629],[15.829153652339276,41.345003844774716],[15.82911497187432,41.34508825544466],[15.829059237443122,41.34515457573341],[15.829014198349942,41.34520900791197],[15.82869158238219,41.3455947146501],[15.828324829772757,41.345922822524145],[15.828160029899978,41.34614467802895],[15.828107029575154,41.346212999312804],[15.82796061343567,41.346435010525724],[15.827205879094175,41.347208962983544],[15.826387416683676,41.34796177434422],[15.826332754672475,41.3480120506188],[15.824928167806139,41.34929920649879],[15.82490573169497,41.34932033174867],[15.824382275864972,41.34980049888101],[15.8240120712793,41.35014224478442],[15.823774336205782,41.35036428084364],[15.823684067119336,41.350447986946754],[15.8227398477204,41.3513149695611],[15.82252514604448,41.35151444328699],[15.822311764824812,41.35171144227482],[15.82218780194658,41.351826004293024],[15.821786972187725,41.352193608180976],[15.821645637824895,41.35232364327944],[15.821264036936151,41.35267473062489],[15.821101017689815,41.3528247136588],[15.82074109417287,41.353155852146635],[15.820556391773136,41.353325782820825],[15.820218143710074,41.35363697095736],[15.820011755232946,41.353826850153794],[15.819689864951922,41.35412207750166],[15.819472186354043,41.35432281019184],[15.816855828747292,41.3567326361959],[15.815217617074468,41.3582370562658],[15.814390773597143,41.35899596811135],[15.81422720456444,41.359148061578225],[15.813814996183854,41.359533064278104],[15.813699001105327,41.35963554838635],[15.812786384599196,41.36047346777836],[15.812650179363477,41.360598564109175],[15.8120464926433,41.36115378304787],[15.811950286578911,41.36124611946235],[15.811499089786707,41.36165716964363],[15.806469331308385,41.366282324567074]],[[15.766017629709822,41.32648118510595],[15.765572996242417,41.32673767945041],[15.766184252903146,41.326904071963085],[15.766710479835446,41.3269989863721],[15.767227898256598,41.327382409228136],[15.767578440488089,41.327696688632386],[15.767905964833636,41.327990330393554],[15.76895589552208,41.327452440275025],[15.768477653192186,41.326914841797404],[15.768150144631456,41.32654945464494],[15.76808808111762,41.326479349270755],[15.767389228848701,41.325689937406196],[15.766017629709822,41.32648118510595]],[[15.76759836349529,41.32213170789055],[15.768369541679743,41.32282351937771],[15.769240833151622,41.323605115265444],[15.770887889991918,41.322711310765165],[15.770126746672357,41.32183488070782],[15.769592463564793,41.32121742165143],[15.76759836349529,41.32213170789055]]]}}]}
