{"type":"FeatureCollection","metadata":{"code":"072034","referenceDate":"2026-01-01","sourceDbfExportDate":"2026-02-18","upstreamArchiveUrl":"https://www.istat.it/storage/cartografia/confini_amministrativi/non_generalizzati/2026/Limiti01012026.zip","sourceManifestSha256":"70ac8256c4785dc6ed2814c32b6965ae76f9161b51abaa1660059e1c6cbd8ca6","license":"https://creativecommons.org/licenses/by/4.0/","attribution":"Istat, Confini delle unità amministrative a fini statistici al 1° gennaio 2026, versione non generalizzata.","modifications":["Converted from WGS 84 / UTM zone 32N (EPSG:32632) to RFC 7946 WGS 84 geographic coordinates.","Converted from shapefile to per-municipality GeoJSON without geometry simplification."]},"features":[{"type":"Feature","id":"072034","properties":{"code":"072034","name":"Poggiorsini","alternativeName":null,"regionCode":"16","regionName":"Puglia","territorialUnitCode":"272","territorialUnitName":"Bari"},"geometry":{"type":"Polygon","coordinates":[[[16.252613048102756,40.9608471653776],[16.25208071942958,40.961672672243495],[16.252009988673915,40.961858083334675],[16.2519837316635,40.961925455472986],[16.25194768260939,40.96202140986891],[16.25188725547315,40.96217980798192],[16.251471165254557,40.961634735129444],[16.25106981640143,40.96108872853832],[16.2501041516274,40.96086184282781],[16.249888893370407,40.96087690131247],[16.249580195746564,40.96089985954327],[16.24934954994894,40.96091780999944],[16.248866157014962,40.96083196602803],[16.248830050030307,40.96082541207616],[16.248684719586464,40.96071822370229],[16.24857721997112,40.96063893481497],[16.248419902319895,40.96052290351584],[16.248293132688755,40.96046112283196],[16.246929334423502,40.9597847067795],[16.246891442228215,40.95976398383523],[16.246825133569683,40.95973197129489],[16.246793459718067,40.959710867059826],[16.246727817475534,40.95968181597491],[16.24669241003148,40.95966738861416],[16.24636204270865,40.95942920399289],[16.24625515429807,40.959353235952335],[16.245524914217583,40.95883422765538],[16.24411774925449,40.95799181215605],[16.242932118606806,40.95740983231574],[16.24126226195594,40.956417503307016],[16.23933025970947,40.955406323021236],[16.239277910554613,40.95537762962097],[16.239193658285078,40.95533192585497],[16.23854860365046,40.95497722035821],[16.238440287780183,40.954923820606545],[16.2383401456433,40.95486902031786],[16.237928753495524,40.9546434457878],[16.237796556972718,40.954570869977054],[16.237671945596112,40.954502828258676],[16.237415318315602,40.95435894854202],[16.237351675444053,40.954323155520264],[16.237294715070473,40.95429088830397],[16.237083116016063,40.95417102253219],[16.236328575024235,40.953750514872716],[16.23482043216959,40.95293302097233],[16.234780693239266,40.95291259300342],[16.234587191690036,40.952807588724255],[16.233845354591775,40.95237031934988],[16.23378134747409,40.95233202500121],[16.233731244112704,40.95230221727705],[16.23364809076764,40.95225311865412],[16.2330992613992,40.95192963575991],[16.232509511342357,40.951530415724655],[16.23232061479042,40.951285729548],[16.2322552350449,40.951208843412054],[16.23188940007814,40.950746182210324],[16.23102916215425,40.949936594830945],[16.23000005470283,40.94893968434966],[16.229227267974714,40.948169560161396],[16.228713833494083,40.94782207771786],[16.228673126864873,40.947794529651716],[16.228454924723373,40.947646854465845],[16.227508816385587,40.9470617107488],[16.227241669453875,40.94689097923046],[16.226302947377103,40.946149287253526],[16.22613875361037,40.946003463080636],[16.2258622621003,40.945757901069],[16.225602870535408,40.94552752550338],[16.225239512129498,40.94500188439392],[16.225208996793413,40.94495774256133],[16.225063436596766,40.94474716968598],[16.224406467977012,40.94451860729074],[16.223784388299542,40.94422935527909],[16.223726137661927,40.94369762894815],[16.223549533663874,40.94319585178452],[16.222983531471698,40.94268710503613],[16.22254521930602,40.942152317642545],[16.22218294957579,40.941824198171986],[16.221419702850465,40.94097693214308],[16.22077285019659,40.94013582947395],[16.220177578262266,40.93927797917174],[16.219689764094603,40.93864281626677],[16.218754815975974,40.937608376612374],[16.217703043408278,40.93656328470041],[16.217060922251413,40.935916617246725],[16.21700630974074,40.93586161750307],[16.216689100555826,40.93553829539387],[16.215744339302756,40.93468441280399],[16.21474214790169,40.933847631931876],[16.214497791299163,40.93366962417494],[16.214472118595342,40.93365092251859],[16.21351415895088,40.932953056747515],[16.213109886703858,40.93268924091579],[16.212884533621526,40.932539791083485],[16.212544600638093,40.932316665127594],[16.212475382973594,40.93227123250298],[16.212338179854044,40.932181173277904],[16.21168546449841,40.931664322039644],[16.21087627582024,40.93090985201651],[16.210183981447404,40.93011203447631],[16.209649284772045,40.92934479830455],[16.20911018982299,40.92856433922426],[16.20869284764521,40.927812218184194],[16.20815623732059,40.927027097983625],[16.207458823644107,40.925910145359566],[16.206774665131448,40.92483284790103],[16.206155174507174,40.923994436339264],[16.20576334561033,40.92336667691523],[16.205297940113123,40.92266255256084],[16.205196130344692,40.92221903423415],[16.20505557991037,40.921719459895805],[16.204759460680158,40.921153171631055],[16.20422491154401,40.92038589859041],[16.203758121279904,40.91961436753719],[16.20329239602267,40.91874378734261],[16.202926497384063,40.918325847767335],[16.20277949961888,40.917957150500854],[16.202490860365774,40.91756787252795],[16.20246420581977,40.91753153345664],[16.202587042843533,40.91737824867315],[16.202612063503388,40.91734678236426],[16.20315056172506,40.916656093758114],[16.203638900712143,40.916076531316996],[16.20381380402663,40.91585858702435],[16.20415231712874,40.91543052378187],[16.204263065339397,40.915290476403165],[16.20436158959485,40.91516588646843],[16.204405330242345,40.91511057273814],[16.20451628130516,40.91498598956848],[16.20466847376628,40.914815099330724],[16.204903572835374,40.914551113790516],[16.205300860687657,40.9141050052531],[16.206481089851874,40.91304555358112],[16.207488711859046,40.912325372651736],[16.20791660049317,40.91205442845074],[16.20816702756319,40.91189585192919],[16.20831992810552,40.91179903111661],[16.208616683915206,40.91161111696785],[16.20888311962865,40.911525573075195],[16.209365774391188,40.911370605179094],[16.209454520043884,40.911343437058264],[16.20975263027829,40.91124622904899],[16.211612353174072,40.910558989417304],[16.212613481785233,40.90978202118086],[16.212691053572094,40.90972181753188],[16.212822539107158,40.90958320481057],[16.213001198712856,40.90939485958207],[16.213029252126535,40.90936528627098],[16.21305397740274,40.909339220112685],[16.213328214694076,40.909050112995295],[16.213351756266945,40.909030638698596],[16.213434464525857,40.90893935260702],[16.213980870770115,40.90818299316712],[16.21365257409572,40.907150844476845],[16.2138003979581,40.90614274289051],[16.21392211671816,40.905552411204084],[16.214030792150822,40.90503046810875],[16.214334058401484,40.904134067293434],[16.214600973427434,40.903586431406204],[16.21469821638261,40.90338691477397],[16.214779710048038,40.903219712635384],[16.214792810924017,40.90318283152659],[16.215038856080046,40.90242506496711],[16.215364269788857,40.90137879791053],[16.21558651889341,40.900617965128426],[16.215878074799043,40.89965031149454],[16.21615181736326,40.89904370755835],[16.216607262587054,40.89796676359776],[16.21699588201508,40.897260942572316],[16.217015015191603,40.89722619410758],[16.21713586926441,40.89700669083358],[16.217702064468853,40.89615672894553],[16.21803753619948,40.895681210210206],[16.218362999397076,40.895196854148516],[16.218460265046474,40.895051794808346],[16.21847608436108,40.895028239774085],[16.218557763073598,40.89489635383333],[16.21920838565365,40.89384577651462],[16.21922700122503,40.89381571692197],[16.219237285106246,40.89366182788775],[16.21926805825283,40.89320128692706],[16.2192816595325,40.89300106118081],[16.219271255839747,40.89239606765928],[16.219270975564335,40.89230105341017],[16.219267138164998,40.892148520055],[16.21929291096192,40.89184997878597],[16.21933196500355,40.89139761005934],[16.219345637794067,40.89123925970941],[16.219440536970033,40.890940888184375],[16.219586558149103,40.8904817879341],[16.21961865395285,40.890380876869116],[16.219647900822803,40.89028892202045],[16.21974374907427,40.8900317963527],[16.21996476211567,40.889436645346635],[16.220393651120748,40.88875481481168],[16.220470300193966,40.88863295981489],[16.220506955174283,40.888574685245],[16.220594590237848,40.88851457244366],[16.220833803282044,40.888352171050265],[16.22107006654565,40.888188567312696],[16.22115230362609,40.88813302486588],[16.22131576689578,40.88801987623928],[16.221711794525216,40.88783553363652],[16.2221761136514,40.8876193998853],[16.22220992707382,40.88760365951028],[16.222275426292992,40.88756810687713],[16.222835058619733,40.887264341306796],[16.22311916451366,40.887110127283066],[16.223278821867122,40.88702346445772],[16.223391375241768,40.88692977198749],[16.223764023999294,40.88661956527989],[16.223805052712635,40.88658541136176],[16.223901244312685,40.88616311752456],[16.223957894324784,40.88591441933825],[16.22396024102842,40.88576624453797],[16.223961176807148,40.88570728200243],[16.223968312104727,40.885256923442505],[16.223969524995404,40.88518033383697],[16.224085453029993,40.88479829543649],[16.224224143005184,40.88434101439461],[16.224275507502934,40.88417169701178],[16.224283591001708,40.884146080105694],[16.224326666189114,40.88405408405242],[16.224401422712013,40.883879963341315],[16.224589985856998,40.883454100131495],[16.224609972065238,40.883416960023766],[16.224756157116968,40.88314529617509],[16.22486058383925,40.882951231920316],[16.224980908293258,40.882727622090215],[16.22516705081055,40.88248201360839],[16.225262549250555,40.88235600644106],[16.225467880680018,40.88208507546063],[16.22553431984765,40.882008975103744],[16.22578587989172,40.88172083651458],[16.22592093665808,40.88156613887486],[16.225936052380327,40.88153374687592],[16.22606794335433,40.881251095176005],[16.22615234653357,40.88107021380041],[16.226204282529427,40.8809589102598],[16.226273198717983,40.880755861651934],[16.226322857758483,40.88060955516848],[16.226363442514653,40.88048997729526],[16.226423246598106,40.88026011186375],[16.226452475933478,40.88014920909471],[16.226466331276598,40.880096631442136],[16.22655707386396,40.879752212920074],[16.22657270409221,40.87969399942736],[16.226607124209856,40.87956581064416],[16.226551217685014,40.87924539022786],[16.22654112530183,40.87918754533283],[16.226417166083092,40.87883992468848],[16.22641038279052,40.87880435170634],[16.226363758937183,40.878559846120595],[16.226145367389403,40.8783710266476],[16.225998596986187,40.87824412813577],[16.2257961897486,40.878069201419656],[16.226292972472656,40.87806490570441],[16.22657226433772,40.87807129226311],[16.226818571146055,40.87807647064366],[16.227445794534972,40.87809126558598],[16.228919822045025,40.87809328356318],[16.23019583764217,40.87814967530404],[16.230299149914078,40.87815424305261],[16.230465667340027,40.8781620565112],[16.2307119553868,40.878173399493846],[16.231627310943264,40.878277670698985],[16.232457319279643,40.87836032012599],[16.23230525779224,40.87967914019325],[16.232271131888176,40.8804506353471],[16.232215934707085,40.880977479178405],[16.232211920655665,40.88103018751262],[16.232177587329545,40.88138989368658],[16.232166033200105,40.88142635319998],[16.23215939694146,40.881487969537474],[16.23202126529125,40.88225702390255],[16.231968614429768,40.88269675356931],[16.233315701620587,40.88298075138707],[16.23402108757807,40.88327820429257],[16.23483227422594,40.88413586453039],[16.2357340544423,40.885076311442525],[16.235812971852035,40.88516577858654],[16.23594610533316,40.885293865850635],[16.236933993336574,40.88605938061334],[16.237138730331978,40.886202209256574],[16.237177156154143,40.88622697514734],[16.23757265491134,40.886504920393286],[16.237762008711158,40.88663701435699],[16.238339385350862,40.88698300655377],[16.238232412236403,40.88706770416714],[16.23777848065686,40.8874368111928],[16.238914001126343,40.88790246284038],[16.238947339798617,40.88791194886288],[16.239081467460135,40.887966470117306],[16.24038399600155,40.88843765496702],[16.240760603374838,40.88854723082821],[16.24118452040155,40.8886705684896],[16.241400533422755,40.88873341644855],[16.241981402261064,40.88886752791309],[16.242364595146977,40.88895599838327],[16.242591294899064,40.889014013978205],[16.242659145977694,40.889027383892206],[16.243180757245987,40.889154349620945],[16.24362989421564,40.88930352119153],[16.24357055137839,40.88941779705476],[16.24298939099316,40.890545216075346],[16.243716506729246,40.89071526008855],[16.243749301815136,40.891203588993626],[16.24395371551891,40.89122849624075],[16.24479583815851,40.891337085300535],[16.24553824738114,40.891054617160734],[16.246125098656623,40.89103385563212],[16.24650974318199,40.89102024682489],[16.247427247794068,40.8911422470595],[16.248521872533175,40.891365524176166],[16.249486981163237,40.891435009445544],[16.250176339766963,40.89158490290461],[16.25095108027568,40.89162141681834],[16.251427498077625,40.891748768235836],[16.251517087602327,40.89182556998862],[16.251705521602283,40.89198710772117],[16.251772633092397,40.892045241712765],[16.251814798165977,40.89207931588938],[16.251906109684512,40.8920424475165],[16.25238728306806,40.89184764912809],[16.252423289275978,40.89183362562416],[16.25275280268091,40.89169898095696],[16.254253504236356,40.89109461087312],[16.25447491569976,40.8910073243279],[16.254640782519676,40.89093822700175],[16.255044506403532,40.89089307494141],[16.255416489855918,40.89068670981155],[16.25580215933974,40.89028802781825],[16.258280870988393,40.887723770367906],[16.258384938644735,40.88761285996863],[16.258798806727665,40.887180533565164],[16.25884087229222,40.88713692649654],[16.260528516031705,40.88538731754167],[16.260618233479022,40.8855404066291],[16.2606714651174,40.88563298234691],[16.262494614282783,40.888732825201544],[16.26252120158661,40.8887873319724],[16.26257521872105,40.888879491665485],[16.262546029902108,40.88891058365896],[16.26161442489121,40.889878473097596],[16.261543054940095,40.88995262149344],[16.261644224658127,40.89002270180552],[16.26206993982689,40.890317589272044],[16.26211277046446,40.890348631794595],[16.262712904680782,40.890762954651144],[16.263278323697115,40.89115459859928],[16.26404259826912,40.891683967400915],[16.26457748526693,40.89220797635156],[16.264925504024227,40.89310824064372],[16.265235220087273,40.893767980867814],[16.265983604016288,40.89445392325207],[16.266364868744287,40.89455124619676],[16.26641132008721,40.89451602010712],[16.26645706756725,40.89448132718672],[16.267161097149103,40.893947422858645],[16.26784105807859,40.893499429512424],[16.26822863502091,40.893303908753985],[16.268340960401353,40.89338378677932],[16.272569644906728,40.896390708679114],[16.272817064634868,40.89656662860743],[16.27397988610585,40.89739339667745],[16.274268331637913,40.897598476992975],[16.27432615168768,40.89763958597938],[16.27605399491193,40.89886800512394],[16.276614899611907,40.898642685295826],[16.27683047143471,40.898556537130304],[16.27695931164111,40.89850433123599],[16.277277598748746,40.89837646976099],[16.290177845438873,40.90979912600046],[16.290612534727156,40.90996423437599],[16.290982517440465,40.910105769742856],[16.291032328153545,40.910151294929086],[16.291813214502742,40.91083342058364],[16.291888779470167,40.91130225207317],[16.29191112247741,40.911457593151546],[16.291917419550057,40.91150354929592],[16.29196498719182,40.91183155046841],[16.29235083810378,40.91277430809438],[16.292805346803345,40.91361371952325],[16.29324084024937,40.914629799521094],[16.293475580659514,40.915600157888974],[16.29388149484608,40.91637516887131],[16.294298651645423,40.91706398299156],[16.294351411507442,40.91720838826051],[16.294408300179267,40.91735844357367],[16.294465527252875,40.91768754337718],[16.29452359093862,40.91798143791482],[16.294852230178158,40.91987215348657],[16.29525944853603,40.921127805714],[16.29527967476157,40.92119017182482],[16.293528876959915,40.92201237094609],[16.292468533302554,40.92261518097723],[16.291645271605432,40.923243400451526],[16.291465266332125,40.923466298611096],[16.291730366890132,40.92428176399843],[16.291920822705514,40.9250389886253],[16.291986148750187,40.92522993888874],[16.29199557866286,40.92525918611946],[16.292016573120947,40.92532306160891],[16.292057276451462,40.925442764506045],[16.292228722296308,40.925973204495435],[16.292481129998738,40.92686145911987],[16.29321821165676,40.928699679633816],[16.29398149542304,40.93002333974512],[16.294131542488646,40.93030392512987],[16.29436404142998,40.93072872142366],[16.294398816807295,40.93079312452821],[16.294799636363823,40.931815902992504],[16.2952844458507,40.932873827858046],[16.295386908640438,40.93311783578525],[16.29549592205609,40.93339126018623],[16.295529147404494,40.933852546457715],[16.295033911157827,40.934711870841085],[16.294659451543,40.935590504708934],[16.294329051640144,40.9364392778574],[16.29410408377805,40.93684506651671],[16.2938440113636,40.937041568344156],[16.293406857471815,40.93727918371904],[16.29328157562168,40.937347281175356],[16.292622952641874,40.937722093046666],[16.292115505469884,40.9380422989864],[16.291731031949656,40.93834793530414],[16.291947630319527,40.939065753517916],[16.291971798949866,40.939138060012844],[16.292017225880063,40.93932651161805],[16.292045067220105,40.939436741182334],[16.292138783331108,40.93978194452308],[16.292240625765967,40.9400859018661],[16.293369837832017,40.94080967052517],[16.29349827120476,40.94105678681947],[16.293755880369062,40.94155520173932],[16.294288579175696,40.94218717620181],[16.29503683412189,40.942809934288526],[16.295107419008907,40.94331383435622],[16.295005420938036,40.944161642240424],[16.295309636294046,40.94519506198302],[16.29583566575792,40.94603440815066],[16.296043636190458,40.946385597677214],[16.29516453744474,40.94618957959882],[16.293697656255517,40.94596345584369],[16.292782797707094,40.94587317206944],[16.29172060137541,40.945738261325246],[16.28957216827269,40.94398975342789],[16.289236184205507,40.94379515581697],[16.281635388933598,40.94328374231595],[16.280757166542937,40.942745628050666],[16.280012101795023,40.942365518414746],[16.27927549687457,40.94219632212726],[16.27845352510227,40.94216751071437],[16.277734703712486,40.942188881896634],[16.277698260174333,40.94218964600552],[16.27765606417678,40.942191726257015],[16.276986724284953,40.94221370577608],[16.276917733884417,40.94223439353123],[16.275695219583206,40.942657473883536],[16.27482138272676,40.94307283433979],[16.274107909571203,40.943624235647675],[16.273651878671096,40.944546223679055],[16.27362572213706,40.9452691942277],[16.27362294385783,40.94534602157439],[16.273611583234512,40.94566004762318],[16.273506856030863,40.94613994823797],[16.2734739481552,40.94627217000932],[16.273444995374106,40.94640093667207],[16.273348864466218,40.94682846959339],[16.272715082307936,40.94657463877059],[16.27245181438142,40.9464691988416],[16.27191427546441,40.946249088886425],[16.270825500543253,40.9459267052755],[16.2702566014706,40.94591705043153],[16.270199040364396,40.9459178920683],[16.270115385290197,40.94591465421874],[16.269817865927696,40.945909602890566],[16.269425760391997,40.94616437148727],[16.26924845002021,40.94628127844018],[16.269154961645892,40.94633977542422],[16.26899014635905,40.94644797066047],[16.26833174735367,40.94728042947104],[16.268195959508663,40.947452110040466],[16.268066064680646,40.94815769853218],[16.26807395327295,40.94862228388523],[16.26808202948713,40.94897432929119],[16.26814434456465,40.94905265601599],[16.268174667013973,40.949090579247276],[16.26848635525351,40.949479949228504],[16.268728583143016,40.94978036264112],[16.268987621109424,40.95046129903816],[16.268952276140812,40.950592553076916],[16.26893920573141,40.95064109547461],[16.268895178300514,40.950804589750604],[16.268822580113817,40.95107353098839],[16.268803720428934,40.9511572283232],[16.268681952206705,40.95103074072135],[16.26865994691883,40.95100641227775],[16.2686232659513,40.95096070203353],[16.268590393847205,40.950931753391245],[16.267788279061055,40.95007075492641],[16.26774356272292,40.95002275607188],[16.26704149862665,40.94908839708123],[16.266891668236216,40.948888986963034],[16.266461915537786,40.948677767903135],[16.265614281907087,40.948524516535244],[16.264787362416023,40.94866688612525],[16.26456056766261,40.94895119775888],[16.26372281548605,40.949022260121886],[16.2628364732729,40.94901804778991],[16.26259336883994,40.94901689034601],[16.261938739185904,40.94901377333368],[16.26103185515078,40.94958859185684],[16.260391734177606,40.95069990133485],[16.260490627127403,40.951516971942446],[16.26040975413056,40.9522104509773],[16.260006237325317,40.95296484905537],[16.259880857476745,40.95311707048974],[16.25937287420138,40.953733795800254],[16.259107984741508,40.95392097304686],[16.258908256762034,40.95406146616496],[16.258529625949482,40.954327105024205],[16.258370655335195,40.95444060438805],[16.257661589288844,40.95500737586603],[16.256549381389483,40.95606306000301],[16.256006331473102,40.95689825984741],[16.255450467408217,40.957536308302046],[16.254798187357014,40.95826410616872],[16.25466820948339,40.95840913298129],[16.253483238370762,40.95969434737458],[16.25306115269374,40.96025774929723],[16.252827586285633,40.96056295150919],[16.2527783648957,40.960625390128044],[16.252613048102756,40.9608471653776]]]}}]}
