{"type":"FeatureCollection","metadata":{"code":"075067","referenceDate":"2026-01-01","sourceDbfExportDate":"2026-02-18","upstreamArchiveUrl":"https://www.istat.it/storage/cartografia/confini_amministrativi/non_generalizzati/2026/Limiti01012026.zip","sourceManifestSha256":"70ac8256c4785dc6ed2814c32b6965ae76f9161b51abaa1660059e1c6cbd8ca6","license":"https://creativecommons.org/licenses/by/4.0/","attribution":"Istat, Confini delle unità amministrative a fini statistici al 1° gennaio 2026, versione non generalizzata.","modifications":["Converted from WGS 84 / UTM zone 32N (EPSG:32632) to RFC 7946 WGS 84 geographic coordinates.","Converted from shapefile to per-municipality GeoJSON without geometry simplification."]},"features":[{"type":"Feature","id":"075067","properties":{"code":"075067","name":"Sanarica","alternativeName":null,"regionCode":"16","regionName":"Puglia","territorialUnitCode":"075","territorialUnitName":"Lecce"},"geometry":{"type":"Polygon","coordinates":[[[18.373428798894068,40.108208501581295],[18.37345814665735,40.10869499548569],[18.373786598065635,40.10880526258506],[18.37405135970327,40.10883675014911],[18.374167515693575,40.108850564068184],[18.374272147802042,40.10893611660565],[18.374332170794567,40.1089851952901],[18.37470067036062,40.109286498165325],[18.374784762209224,40.109355255060585],[18.37477295114335,40.109550747446804],[18.37474573592539,40.11000119436802],[18.374687879867743,40.11095880851074],[18.374484533478963,40.110882699490766],[18.374352673136414,40.11083334627664],[18.374257030325598,40.110797547119844],[18.374201898978495,40.110776912963566],[18.374101338184374,40.11073927421142],[18.373178946711693,40.11056739133564],[18.372378293365635,40.11051365974626],[18.37181445648759,40.110456388015805],[18.37156150865813,40.110430694560044],[18.371446111909318,40.110418973524915],[18.371115358728094,40.110330876173045],[18.371007965653043,40.11030271008241],[18.370412829280415,40.11014375012103],[18.37021378252112,40.11009455665943],[18.370015392983298,40.11004757097457],[18.369746080659496,40.10998069731441],[18.369648033558658,40.10995604604004],[18.369550748611207,40.10993234110043],[18.36914817616967,40.10983251745387],[18.36887803580692,40.109764792309015],[18.368787148114162,40.109741253140385],[18.36873302045938,40.10972914456605],[18.36858544893814,40.10969286743172],[18.3685266095105,40.10966955749877],[18.36840199554295,40.10962019268631],[18.368155951611506,40.10952272381238],[18.367842223685102,40.10939843988566],[18.367065824990135,40.109019764893745],[18.36703236073732,40.10900003157349],[18.366552488395698,40.10870811783998],[18.366021119056228,40.10835818487272],[18.365925010705652,40.10831579192441],[18.365397682254752,40.108083182459666],[18.36525041454961,40.108001793886885],[18.365196419009457,40.10797195330341],[18.36488743434862,40.10780118932263],[18.364220469012338,40.10754995809091],[18.363897673872085,40.10745991667521],[18.36382774703651,40.107440410513775],[18.363727387697473,40.10744185516375],[18.363601318026678,40.107443667417485],[18.363409578194606,40.10744642430599],[18.363158829333692,40.10745002982789],[18.36289521211085,40.107449738334466],[18.362400945802083,40.10744918836251],[18.36150326646786,40.107394036745156],[18.36084292156305,40.10706358649395],[18.3601329941951,40.10671050750158],[18.35990809750222,40.10661076693619],[18.35928010793919,40.10632927751173],[18.359231905632154,40.10631188153013],[18.358581648655008,40.10597145421346],[18.357853584619956,40.10568021789872],[18.357099528839104,40.10543379541547],[18.35628282479795,40.10528461812816],[18.355704107215345,40.10516323240011],[18.354872938025757,40.105015223623134],[18.35469367270965,40.1050154771956],[18.354528537450616,40.10501571078923],[18.35425551301309,40.10501609790909],[18.354140731140966,40.10503616172488],[18.353998259717127,40.10506235184295],[18.353918302065136,40.10507503969536],[18.35358997113694,40.105886857822696],[18.35339476789837,40.10636950329465],[18.35345646172741,40.10641589813658],[18.353488724865276,40.10644016003995],[18.35379652274825,40.106671628259356],[18.354043609002645,40.106934665865246],[18.35421811556956,40.10713844322234],[18.354485287902104,40.10737736876299],[18.354804381843273,40.107589588036454],[18.35514058337832,40.1078408656388],[18.355627645746335,40.10812479403467],[18.355601337518493,40.10828059336068],[18.355490437891245,40.10897425697579],[18.355399008623248,40.10924498757932],[18.35536810250594,40.10933650790223],[18.3553046997036,40.109564135730494],[18.35529179865203,40.109607429688204],[18.35526383225333,40.10972873683956],[18.35522184955219,40.10991084005481],[18.35521528516846,40.11013411597425],[18.355213039940427,40.110183112931054],[18.355060025428273,40.11068814544913],[18.354869302908167,40.111108221360084],[18.354763907715775,40.11140447900031],[18.354741026666826,40.11145376524352],[18.354724650934646,40.11148822322156],[18.354651138281252,40.111647398549366],[18.35374297138529,40.11148076070607],[18.35344814943116,40.11105627486672],[18.353024153380545,40.110874280911965],[18.352915793389617,40.110828682148586],[18.352873708623903,40.11081196984128],[18.35270199442472,40.110738717008616],[18.35247440304853,40.11068759686439],[18.352270023739887,40.11064168960079],[18.352173357904316,40.110619975840194],[18.351464877413175,40.110576565144775],[18.35108856386647,40.11054611813045],[18.350822360294668,40.11052104855518],[18.350768719515695,40.110516413257095],[18.35049691388617,40.11051934909533],[18.350332442458722,40.110521124823244],[18.350228229808067,40.11052072739632],[18.350130908771643,40.11050545150801],[18.349904174613037,40.11046622873467],[18.349736425232443,40.11043683808714],[18.349656915083834,40.1104208949397],[18.349602219249437,40.11040893570102],[18.3493592438149,40.11035594725837],[18.34930188401988,40.110343984599886],[18.349223523753516,40.110327642732045],[18.34913863825659,40.1102918571426],[18.34872313443114,40.11011668908585],[18.34868675185677,40.11008584910195],[18.348267849916255,40.10972469467649],[18.348241427100714,40.10970194413432],[18.347989682398374,40.109479867360555],[18.34779407241031,40.109305888490255],[18.347721795800595,40.109241899981726],[18.347681183475995,40.10920594374736],[18.347524399268814,40.10907487849863],[18.347422328784752,40.10898955256485],[18.347237774952657,40.108835271366345],[18.347176434437962,40.10866437990269],[18.34712420448867,40.10851325926586],[18.34711228276347,40.1084795315501],[18.347074126128042,40.10840695240807],[18.346967656916554,40.10822125180966],[18.346885596310692,40.108078122002645],[18.346706677070415,40.10776605124005],[18.34695932666805,40.107221832217085],[18.347005557290544,40.106997529628934],[18.347018836567354,40.10693309787922],[18.347046953102254,40.106796679325356],[18.347068578864864,40.106684776529356],[18.34711181717356,40.10646102865369],[18.34715091054642,40.10616267742809],[18.347178673602613,40.1059484395393],[18.347150862908485,40.105599339764225],[18.347089820718637,40.105512212544184],[18.34704502547612,40.10542877771599],[18.346895127149757,40.105188662102975],[18.34686095842832,40.10514143995952],[18.34682029234297,40.10508524023689],[18.346700631305705,40.104919871252086],[18.346620231570974,40.1048087594824],[18.346327720163515,40.10417408658643],[18.34620974783772,40.10399227491872],[18.346001445310414,40.10367124849454],[18.345974522017947,40.103629755025395],[18.345653532222496,40.10323186733691],[18.345526696876306,40.10309657179954],[18.345445815351333,40.10301118192455],[18.345230594145622,40.10277787417738],[18.34501754052085,40.10252777745893],[18.34504098627003,40.10204042937492],[18.34556063056118,40.10160707545378],[18.345853031777075,40.101372014238606],[18.345966048197013,40.101045929010425],[18.346001555906838,40.10066468707781],[18.346012027312668,40.10055225087194],[18.345768761697922,40.100401253623204],[18.345470030572706,40.100230050508166],[18.345090799289114,40.09998449254716],[18.34472210385224,40.09960323193299],[18.344674912881374,40.09915534475677],[18.345019134469776,40.098956520535765],[18.345515282351418,40.09881949124697],[18.345983184042566,40.09877465545573],[18.346082945520777,40.0987698057113],[18.346462834889888,40.098751335361925],[18.34710442357645,40.098691491464876],[18.347145292074266,40.09869299485508],[18.34779944484457,40.098703181147236],[18.348702789800072,40.09875996603814],[18.34881195853935,40.098773897621236],[18.34887557110503,40.09878201550554],[18.349471368600945,40.09885804634369],[18.3499390702983,40.09891772796712],[18.350064919099182,40.09891779870509],[18.350541972884987,40.09891806205364],[18.3506490983674,40.09890970386411],[18.35105686481525,40.0988778881614],[18.35120506906629,40.098866708211474],[18.351449589091814,40.09882853402485],[18.351930090907295,40.09875554060137],[18.35201136041193,40.09875828077636],[18.352049394809328,40.09875956288073],[18.3525739883877,40.098777245679806],[18.35257456273355,40.098821712098754],[18.352575426372763,40.0988606209126],[18.352579834003564,40.09911612649551],[18.353014712916256,40.099107663146796],[18.35337987565618,40.09914533114251],[18.35342709323512,40.09900674145948],[18.353441971392567,40.098963071028635],[18.353531870678534,40.09869919913399],[18.353608668773003,40.098301895058164],[18.353657271966824,40.097891155568185],[18.353700923953692,40.097550489377525],[18.353554800589887,40.097530460786416],[18.353143743742383,40.09747411760337],[18.353068985398092,40.097463869928696],[18.352919402085877,40.09744336637163],[18.352885896477456,40.09744660233834],[18.35246136492877,40.09748396413737],[18.35232449686682,40.09750082499532],[18.35170634532108,40.0973264448123],[18.351526145939882,40.09724787820542],[18.3512947660917,40.09714699782121],[18.35121122863817,40.097110575952634],[18.35091697513105,40.09699295891426],[18.35084554822394,40.096960117927715],[18.35076873290438,40.09692479956103],[18.350613864558607,40.09685359015361],[18.350575690514088,40.096837117380026],[18.35052057170735,40.09681333268758],[18.350280896748682,40.096709909292315],[18.350001978845988,40.096635997095184],[18.349890820062743,40.096605994221186],[18.349810037685938,40.09657687392717],[18.349365914331127,40.09643676423947],[18.349608744123206,40.09718781639297],[18.34934921746517,40.09716635749765],[18.34925263104664,40.09715742382045],[18.34920014372414,40.09715253350387],[18.348960084129843,40.097130346788106],[18.348645211587872,40.097101188287084],[18.348509086579632,40.09702247318848],[18.348259287288347,40.096879052255645],[18.348225495858742,40.09685965072923],[18.3481632998692,40.096823941024105],[18.347807804583923,40.09653825319815],[18.3474550727217,40.09627256683606],[18.347209893036688,40.096072047820435],[18.347125188768164,40.096002770651545],[18.34700620508327,40.09591143972444],[18.346908722978526,40.09583661333647],[18.34682077887201,40.09576910548402],[18.346744681041134,40.09565394335621],[18.346672811749347,40.09554517645433],[18.34664321850478,40.095500390968034],[18.346641735839338,40.09532005648413],[18.346640852260816,40.09521291662931],[18.346639387183785,40.095034667232],[18.34663825686569,40.09489741677541],[18.346581996189606,40.094887292057514],[18.346533059583077,40.09488340855823],[18.346248659719205,40.09486084068728],[18.346104634712795,40.0948494106521],[18.34585511506434,40.09482960983489],[18.34567366813795,40.09481521168249],[18.345672921842873,40.09434925013401],[18.34564181435744,40.09432951871242],[18.345314433083132,40.09418424671193],[18.345028933546242,40.094057558585284],[18.34415796053555,40.09367106075362],[18.343906468081617,40.093558481577446],[18.343534125841664,40.093391468709335],[18.343456324981563,40.09341604091675],[18.343121930182484,40.09352165543615],[18.342899694184656,40.0936500635224],[18.3427597454509,40.09373092532296],[18.342723531471734,40.09375185098718],[18.34235253034388,40.093952646089505],[18.34213229816758,40.09364489589889],[18.342147574458117,40.09325342553877],[18.342185845521506,40.093103094178815],[18.34229547844937,40.09268545897158],[18.34239892149498,40.092346951280405],[18.342456760413008,40.09215767983852],[18.342445261816835,40.091904658739935],[18.342324111122583,40.09188326514936],[18.342079351856743,40.091840044706856],[18.341903373109847,40.09177345867008],[18.3418419342321,40.09174909786555],[18.341738497665993,40.09170808411751],[18.341708109183177,40.09169644848642],[18.341658828594717,40.091676493840104],[18.341463654348797,40.09125862646875],[18.34147504566886,40.09116362786239],[18.341532180790686,40.090687172102285],[18.34153577567915,40.09065719653866],[18.341025812566773,40.09072566211275],[18.34074571779237,40.09076326511957],[18.340652366963614,40.09077579755596],[18.340515882352303,40.09079412003074],[18.340176930447075,40.09088901911369],[18.340081267682134,40.09091366220997],[18.340006087527335,40.09093399855466],[18.339721230307852,40.090975560813085],[18.339686201085854,40.09098089533982],[18.339434982261587,40.09101915210985],[18.33898150475403,40.091051107094955],[18.33851019007522,40.09106067231807],[18.338333945646955,40.09103135186629],[18.33819835187605,40.09100899171828],[18.338194683952413,40.09096208784599],[18.33812769101974,40.090511957924015],[18.33809754963037,40.09030942557902],[18.33806840100117,40.090120873270756],[18.33806116177986,40.09006493397438],[18.3380424291426,40.089939060146726],[18.337826125294097,40.08897616090889],[18.33777378182566,40.088742819733426],[18.337758367207762,40.08867417680291],[18.337731651663418,40.088555215362135],[18.337232425308315,40.08896664242607],[18.337139143572376,40.08905933910535],[18.336971053164458,40.08922637417473],[18.336949514878643,40.089247778250225],[18.336887577019727,40.08930932664121],[18.33657305352996,40.08958324558368],[18.336503608100763,40.089644193434786],[18.336395151560556,40.08975862199418],[18.336243044909917,40.089919101764615],[18.335979168491843,40.0901487641187],[18.335864923181756,40.090248195289526],[18.335632610167295,40.09037684836864],[18.335478124443203,40.0904622516382],[18.33505968380393,40.09057731296342],[18.33497189606615,40.090600296469106],[18.334741323448302,40.090639222886225],[18.334455689814142,40.09068697585126],[18.334297644807947,40.09068673786357],[18.333972453719944,40.09068624872888],[18.33385863127326,40.09068607798649],[18.33347960004842,40.09066868247349],[18.333363909291304,40.09066337177087],[18.333225982817332,40.09063959502093],[18.33296525947323,40.090594647868386],[18.33267270181745,40.09048448568187],[18.332499457228668,40.090419090740866],[18.33244487854787,40.09040009122321],[18.33191012975577,40.09034860368689],[18.331741098242702,40.0903323283567],[18.331212895483322,40.09055505486218],[18.330649933096552,40.090737903732204],[18.3302817369793,40.090868962338945],[18.330229170025856,40.090890959533574],[18.329842282899186,40.091052856699804],[18.329350153944933,40.09124357672363],[18.328773075229616,40.09151521276272],[18.32862533672489,40.091620299123676],[18.32858510757967,40.091647723425716],[18.328345458837383,40.09181937533905],[18.32830935426061,40.09184505751866],[18.328183544782455,40.09194914993802],[18.328083446804786,40.09203196991336],[18.327742535606298,40.09221249381344],[18.327362330070752,40.09242233704584],[18.327329887606744,40.0924406024235],[18.327234725940578,40.09251012036527],[18.32696499069277,40.09270717106384],[18.32672999735783,40.09281521757429],[18.32666236193662,40.09284631597663],[18.325795393780734,40.09324493018413],[18.32485592219482,40.093550347317844],[18.324747862487577,40.09358547687776],[18.32464876922921,40.09361253342804],[18.324370507726854,40.093331453496916],[18.32420767463099,40.09308397810757],[18.324172892948905,40.092982061453306],[18.324152688766297,40.092940662090086],[18.324111887288673,40.092834316027236],[18.324092326992258,40.09280134979625],[18.324035280600672,40.0926607892202],[18.32359663719505,40.091697391534744],[18.32352944616776,40.091491230088046],[18.323295545312945,40.09077354196996],[18.32316919768441,40.0902972531259],[18.323137386818328,40.09017733561469],[18.323072252751547,40.08951289406433],[18.32301209269532,40.08901210994165],[18.322956345582572,40.08859749389818],[18.322953630551336,40.08854489774628],[18.322881428282244,40.088020369686625],[18.322974638277724,40.087507131402006],[18.322837184049746,40.08712499499387],[18.32259149212929,40.08682806032635],[18.322538910766962,40.08676490678437],[18.32234090343844,40.086621479572266],[18.322308188586934,40.08659952470003],[18.322113651483736,40.0864600782314],[18.32201668697082,40.086422181781614],[18.321813696365112,40.086342846137256],[18.32138780376104,40.08618219530256],[18.321189355238836,40.08610733789749],[18.32113855287315,40.08608848099388],[18.321044203144638,40.08605258466668],[18.320771649272174,40.08595720145466],[18.320687460721263,40.08592778227505],[18.320538043039686,40.08587556996169],[18.319662954226732,40.085435133466504],[18.319618810954434,40.08541291521718],[18.319142265876497,40.08517306173499],[18.318480955342814,40.084853666049256],[18.31859190133996,40.084741393136866],[18.31863443703453,40.0846983507324],[18.31881740917169,40.084513192272844],[18.318896258136053,40.08443340176347],[18.31928741246647,40.08403756798765],[18.319328844249977,40.0839494081503],[18.319459823003093,40.0836724917295],[18.320240323593133,40.082021139763555],[18.320302897445394,40.08189150985696],[18.320742006455475,40.08095738988558],[18.32103976938504,40.081016370078665],[18.321302223338552,40.08111642339362],[18.321676040604252,40.081281598170655],[18.321964562388,40.08142223382311],[18.32212911153829,40.08146946803848],[18.3224265038276,40.08155477314067],[18.322449098772896,40.08105252097476],[18.322443092477126,40.0806687008764],[18.322452043293715,40.08062863770111],[18.32247019524968,40.080547387984474],[18.322513352091224,40.08035099547021],[18.32258189245076,40.0799764635014],[18.322675226920175,40.079676720341915],[18.322653978790736,40.079267169735466],[18.32272855417155,40.07917796113758],[18.32282731739984,40.07905981747662],[18.32309727202285,40.079011666913594],[18.32314807746375,40.079002605177365],[18.32319684094392,40.07899343414428],[18.3232292068304,40.078988134214185],[18.32352121705274,40.07893604763206],[18.32357291913876,40.07896990807888],[18.323823469985115,40.07913399591177],[18.324033658831652,40.07944954405308],[18.324254773964853,40.07995073862444],[18.32444302520932,40.080041017515825],[18.324527296227703,40.080081430738275],[18.32466054754707,40.08016777691638],[18.324983428418452,40.08037700075412],[18.32497930795626,40.080405578441564],[18.3248801523381,40.08109332445719],[18.325070406606027,40.08141273607557],[18.32540223474389,40.08171712351406],[18.32545619923665,40.08172859283581],[18.325501198922144,40.081738156296666],[18.32569731518756,40.08177983479319],[18.325738399494398,40.08172280923106],[18.325762995281895,40.081688670436584],[18.326965771121756,40.0800158646955],[18.32701901927334,40.07975672454466],[18.32704784115611,40.07962498335862],[18.32694944638455,40.079356545437754],[18.32684370820716,40.079034765661845],[18.32687461576422,40.07900713493378],[18.32692889681395,40.078958607483194],[18.32733866099958,40.07859227034791],[18.328078562975737,40.07757026760475],[18.32819016822217,40.077448305672036],[18.328289629911446,40.077339614700726],[18.328424999985756,40.07685666033767],[18.328272107998682,40.076617373259545],[18.327924834965998,40.076699939912196],[18.327855685264765,40.07671638052082],[18.327862777242252,40.076677188167324],[18.327920480266677,40.07635827403545],[18.328287582268,40.07581603958434],[18.328513102723967,40.07546724278699],[18.32856977777942,40.07537958941308],[18.3289054339067,40.07508368196499],[18.328974145708568,40.07502310637528],[18.329302843635798,40.0748564462452],[18.32942808314516,40.07479294576046],[18.32980189067724,40.074682055109236],[18.33014907663662,40.074768954857404],[18.33021299030267,40.074786658752544],[18.330265883089034,40.0748141355186],[18.330298175630983,40.074831267979725],[18.330353714043063,40.074861606882486],[18.330393525252752,40.074883354927934],[18.330514797809453,40.07494960471052],[18.33059358402016,40.07499264362421],[18.330984594863935,40.07513408770156],[18.33104001431917,40.07515413463232],[18.33119425941575,40.07515846192346],[18.331410052148808,40.07516451383861],[18.331536173053397,40.074988735522915],[18.33163094477006,40.07485664719868],[18.331658170755425,40.07465496855357],[18.33166979907283,40.07456881652295],[18.331673333662874,40.074542632661554],[18.331687872799407,40.07444028916269],[18.33169321222428,40.07439536345016],[18.33171924779016,40.07408965136944],[18.331730987279187,40.07395180233116],[18.331737924317785,40.07387033226703],[18.33172478202256,40.07380663603365],[18.331676353047786,40.07357193735695],[18.331691162669646,40.0735093539524],[18.33171429984026,40.07341158772999],[18.331748473905108,40.07326717059734],[18.332171747591108,40.073632283971286],[18.332369564027527,40.07380291843139],[18.332830076073428,40.07420014395],[18.33289736012937,40.074258180527906],[18.333094779151693,40.074428466567255],[18.333330201193693,40.07463153000635],[18.333373780683292,40.07466911880558],[18.333496398807295,40.074774879710475],[18.3335253327487,40.0747998382707],[18.333707014563238,40.07495654612318],[18.33427427833611,40.07463503124323],[18.334302122069253,40.07460355205023],[18.334377523317492,40.07449163692813],[18.334395751009808,40.074463500648996],[18.334425976223773,40.07441753153999],[18.33456570339407,40.07420502598316],[18.33496035527874,40.0737117553974],[18.33516082634841,40.073469426218495],[18.335527824158607,40.07303184958746],[18.336862412184196,40.071532888923],[18.33689328397834,40.071498214344906],[18.33691715022542,40.0714803474671],[18.337219678530445,40.071253872853454],[18.337354691437156,40.07115279795709],[18.337420878673974,40.071011129504946],[18.337646106614866,40.07052904386038],[18.33788455507509,40.07013658379069],[18.338028565708477,40.06950459134661],[18.338199699020024,40.06889960847078],[18.338251412482265,40.06823466923409],[18.338568868870055,40.0680335537568],[18.33901393861107,40.0680580322513],[18.33944046026019,40.06811772882868],[18.34011905755127,40.068096239345984],[18.340631825750275,40.06808453349674],[18.340743051241276,40.06808395692191],[18.341001604965374,40.068073883722086],[18.341324807234457,40.068256596325945],[18.341529243862446,40.0685725763367],[18.34202019782487,40.06884501742387],[18.342457170850334,40.06883193584238],[18.342937921460127,40.0690051295878],[18.342988526539415,40.06902916812811],[18.343308366806394,40.06914247875768],[18.343446148534177,40.06921323397978],[18.34364571740026,40.06931677753014],[18.343791765471085,40.0692947042933],[18.344461619495593,40.069190209110175],[18.344741294446912,40.06916070495755],[18.344815524922023,40.069121578948966],[18.345008539265148,40.0690198416115],[18.34536733238849,40.06892771133498],[18.345481528716395,40.06899677437534],[18.345616255642575,40.069078252011366],[18.345923214408355,40.06899453632162],[18.34596591704177,40.068982890613036],[18.345988624936812,40.06895457768952],[18.346088126906935,40.06881726517749],[18.346214397926005,40.06864301344073],[18.346249071517324,40.068597490317686],[18.34628085351482,40.068552202566714],[18.346383586252884,40.06851524664987],[18.34645968480683,40.068487871586846],[18.346595772505218,40.06843891850556],[18.346994520612476,40.06842443624796],[18.34762778622643,40.06845603364165],[18.34801700878833,40.06851773164477],[18.348443807120685,40.06854016770918],[18.348870907358474,40.068561576118974],[18.34922425132394,40.068514824554626],[18.34950326619339,40.06843816707029],[18.349976273223596,40.06821985803814],[18.350242140746804,40.06809033277953],[18.35056540078324,40.06805685949276],[18.35064836519912,40.06804826900861],[18.351021002822375,40.068011168635635],[18.35152687851745,40.06803710235959],[18.35180214418682,40.06773005934815],[18.35185989140417,40.06760779362105],[18.351930801422952,40.06746062256523],[18.352009920092414,40.06724966701152],[18.352123012365993,40.06690334876631],[18.35222641465978,40.06661400373594],[18.352448146137238,40.066355473285604],[18.352696529111903,40.06595093918725],[18.352889686446474,40.0655913563956],[18.352912666363466,40.065395512837995],[18.352920004552107,40.06536539421492],[18.352928822899777,40.065246568165826],[18.352529892165872,40.06504758512856],[18.35220963115937,40.064803987998914],[18.352310752349652,40.06451932376686],[18.352515164381142,40.06430490385764],[18.352912971358663,40.0641354097635],[18.35320318348058,40.064012883922075],[18.35369528603057,40.06386716833125],[18.354324061303124,40.064164123504355],[18.354358629540272,40.06418024640846],[18.354531641774035,40.06425033982447],[18.355221220116665,40.06453391993426],[18.355503959901977,40.064653559134385],[18.35609411972271,40.06490327653981],[18.35702023266645,40.06534020502916],[18.357749227475868,40.06566284452428],[18.35836770658471,40.06589166632304],[18.35847047523747,40.06592973976537],[18.358550669462865,40.065959346616175],[18.358609003475273,40.065979313106666],[18.359351943769635,40.06623338348859],[18.360159882099083,40.066470913898655],[18.361183922807363,40.066621149218506],[18.361852901157928,40.066890223335385],[18.36202633723759,40.06692266160062],[18.362090280713666,40.06693404498424],[18.362201322635617,40.06695620122953],[18.36230624309377,40.066974614362415],[18.3626627227991,40.06713879435101],[18.362749825571502,40.06717890985513],[18.362844499505524,40.06723735152886],[18.363319031621828,40.067530273795555],[18.363752020097916,40.06778487066264],[18.364344861680255,40.06815902272912],[18.364658754557247,40.06831996694157],[18.364762101040093,40.06837295666601],[18.364808326564656,40.068396657360154],[18.364983939659975,40.06848669984467],[18.36547058984327,40.0687487564042],[18.36550223120544,40.06876579500165],[18.365537047134538,40.06878339357846],[18.365591389225013,40.06881085649301],[18.36565944979192,40.068845113797494],[18.366185194582666,40.069114608140055],[18.366779010654202,40.0693479892133],[18.36695230399458,40.069416097212866],[18.367507521286964,40.069750601111345],[18.368416002571433,40.070355175699135],[18.368250464627355,40.07057544053091],[18.368218891712733,40.070658784075476],[18.36817860444398,40.07076513719639],[18.368116009208887,40.0709281664442],[18.368055441979664,40.071090267885275],[18.368009949440065,40.07115109933647],[18.367765017108326,40.07147270202086],[18.36764761242872,40.071602340188655],[18.367478310669544,40.07178235317207],[18.367394948026842,40.07187763066303],[18.367350110314046,40.071928875969455],[18.36719032881806,40.07211149098983],[18.367108489596973,40.07221196221588],[18.367075334354634,40.07225078363466],[18.366845208513276,40.07253518524419],[18.36678210007641,40.07264868575796],[18.366657078568235,40.07287353687572],[18.366636418495812,40.072908344362865],[18.36652513004885,40.07311708582077],[18.367347136910873,40.07322462531127],[18.36802006354731,40.07328882819733],[18.368712429630566,40.073469871453234],[18.369430926513377,40.07365462999813],[18.36976148961629,40.073741149691614],[18.370183659128305,40.0738516426049],[18.370254876961315,40.07386558722648],[18.37030397698937,40.073875532464676],[18.37115334788899,40.07403094031826],[18.372298990968126,40.07427677123129],[18.37233068530872,40.07452299929732],[18.37233821222081,40.07458145764787],[18.372283540070732,40.07469379414808],[18.37216988534761,40.074927331150995],[18.372140029103264,40.07498867676216],[18.37211435903382,40.07503572080947],[18.371853461449664,40.076232361771304],[18.37184092497776,40.07628986093494],[18.371819033929913,40.07639026751993],[18.371217276848736,40.07776301752262],[18.37120444631745,40.07781400438221],[18.371120243902013,40.07814856395588],[18.371305406842964,40.07831746528041],[18.371357688400725,40.07836515530348],[18.371383251124016,40.0783854345988],[18.371454665838385,40.078408928009985],[18.37169383696754,40.078488287317334],[18.371996527876345,40.078582687145975],[18.372582022286874,40.07881805552862],[18.373407073453603,40.079072067307266],[18.37420294101802,40.07936113094135],[18.374289609688446,40.07939260827712],[18.374321116248765,40.0794037625934],[18.37443572693518,40.079444287680495],[18.37422347118172,40.07973120098154],[18.374159691851244,40.07981741615251],[18.37407300209938,40.080010298295036],[18.3740595617347,40.080040202681346],[18.373991925051687,40.08019069321865],[18.373842618046165,40.0805916779192],[18.373752825582706,40.080894367737734],[18.373644858308452,40.081258322789516],[18.373795896428863,40.08130861949474],[18.373847554018695,40.08132195719355],[18.374856446131762,40.08160699054251],[18.374943117205706,40.08163147594539],[18.37498003035493,40.0816424681082],[18.3750254246669,40.08165472917623],[18.37531470206669,40.08116590134066],[18.377487848438847,40.081622343159445],[18.377520429800324,40.081629186366584],[18.37762589635869,40.081651336985296],[18.3777326933027,40.08144035086567],[18.37791306360232,40.081084017186235],[18.378035402077128,40.08112236998609],[18.37858089965164,40.0812933829124],[18.37864096764272,40.08131221427842],[18.37985593370213,40.081698378204514],[18.38041242631049,40.08185067450832],[18.380452255868253,40.08188123221168],[18.380716863566708,40.08208424376006],[18.380968428498626,40.082400789907794],[18.381274655825344,40.08281624688176],[18.381570484439706,40.08319884302278],[18.38184056006742,40.0834455559225],[18.381869483621603,40.08347486037686],[18.38193600497234,40.08353754007575],[18.381999889551228,40.08359524199007],[18.382225487458747,40.08320199101608],[18.382262601586056,40.08321257775201],[18.3830705531291,40.08357290727759],[18.383676960700825,40.08378663317412],[18.38435938611158,40.084027145514774],[18.383956106674724,40.08481757908714],[18.383908734556957,40.084913485015655],[18.383780915101532,40.08493959033971],[18.38359176122373,40.08497822157132],[18.383376660847023,40.08502215111459],[18.382942206564827,40.08503294266753],[18.382784572566944,40.0850022645194],[18.382665570573494,40.08497910549967],[18.382584383606694,40.084963305072016],[18.3824002735457,40.0848955232556],[18.382360217379567,40.08488110120047],[18.382257367555436,40.08484291173512],[18.382189751795305,40.0848180182794],[18.38204990537938,40.08475893479718],[18.38190004115479,40.084695618641746],[18.38185101243266,40.08467490348755],[18.381673862752105,40.08454364304581],[18.381415000490072,40.08435223468278],[18.38138227433459,40.08432758638741],[18.38132494911316,40.084285110282295],[18.38124456992714,40.084225551146034],[18.3811111805235,40.084229962940405],[18.380861924500202,40.084237760490865],[18.38080701766144,40.08423873504341],[18.380748641922015,40.08424003887685],[18.380707967839097,40.08424184422363],[18.379904836984664,40.084269854097755],[18.379707860478373,40.08443202706614],[18.37955267776509,40.08474810058634],[18.37941651161777,40.08515925574254],[18.379323190718573,40.08539386385293],[18.379298032734688,40.085598374044984],[18.379271486203514,40.085814171667394],[18.37926538309298,40.08586379083302],[18.379305162481522,40.086166104369106],[18.37937685156957,40.08671092710033],[18.378840935365556,40.08681314513146],[18.378746903909196,40.086274132299295],[18.378745325891263,40.0862442110481],[18.37624775927517,40.085578153221554],[18.376156133670232,40.085553698767264],[18.37603482349493,40.086326565347534],[18.376029031844745,40.086368636540485],[18.375640763878277,40.08626677903017],[18.374650616759123,40.08600701717872],[18.37472819303042,40.0858276353447],[18.374741244706893,40.085795106134256],[18.374942694616667,40.08532693450496],[18.374620337687826,40.08522963940219],[18.374589196232787,40.08522023984506],[18.374503002512355,40.08519422393775],[18.373892321251557,40.0850099004873],[18.37360655413676,40.08492364553228],[18.373347645379432,40.08484549617376],[18.3730556918438,40.084757370758346],[18.373016290830723,40.08476206290975],[18.372693013373134,40.08480055869338],[18.372635444711154,40.0848074135968],[18.372369332190004,40.08487183992279],[18.37218527420429,40.08491608336591],[18.372126363504055,40.08493437710039],[18.371851442048722,40.08501974696431],[18.371773663926678,40.085045432983016],[18.371732790494214,40.08506640001002],[18.37165741508719,40.08508278249407],[18.371619577084296,40.08509476384468],[18.37157986758892,40.08510733665057],[18.37105425410364,40.085284841248495],[18.37049444195968,40.08540470176664],[18.369752986661283,40.08552006921126],[18.3692936284169,40.085591539849815],[18.36916694126892,40.08561125084435],[18.36879309357533,40.08566941651642],[18.368503326035906,40.085713415439585],[18.36814544883865,40.085767755010984],[18.368026632382367,40.08578579585242],[18.36803217384836,40.08582815285828],[18.36805706945851,40.0859761841045],[18.368102304465236,40.0862639425641],[18.3678070774693,40.08632521107595],[18.36786827147461,40.08657699284885],[18.367907232417643,40.08673729782817],[18.36799721171748,40.0871075117235],[18.36788556286809,40.08769644531246],[18.36840220949282,40.0876239437522],[18.368574423574632,40.087599776463904],[18.368615953311622,40.08799573981419],[18.368682645049514,40.08863158868],[18.368177317036984,40.088621027708314],[18.367631306293063,40.08848130036753],[18.366989911480058,40.08818080046436],[18.366143041817686,40.08785436055754],[18.36558362261066,40.08770223255457],[18.36528413261587,40.088012082608394],[18.365100507351865,40.08854620737953],[18.36503080166148,40.08920588074805],[18.36535853610125,40.08956569202126],[18.365500989525223,40.089855218840704],[18.365731932950812,40.09002290976114],[18.366075815640837,40.09001283197869],[18.36609380252246,40.09026981231261],[18.366098681100326,40.09034712743868],[18.36610706346286,40.09047998651483],[18.366135280679558,40.09092715998921],[18.36615408705229,40.09122517569358],[18.36616505828874,40.09139904621881],[18.366179725709888,40.09163145652558],[18.366024452256873,40.09158778912685],[18.365856126064642,40.09154044982056],[18.36574066281719,40.091507977611386],[18.365640834235634,40.09147990216612],[18.365419651230663,40.09144627938227],[18.36537145423617,40.091438953739754],[18.365327129287945,40.091435826760616],[18.365048099790343,40.09156594381947],[18.364959125898874,40.091607434577895],[18.36491332483568,40.091889845639],[18.364895440781293,40.092331791101586],[18.36465925325309,40.09255880369731],[18.364433863562134,40.09246711860729],[18.364396604554102,40.092449970039034],[18.36434843407841,40.09241008598459],[18.364128521921355,40.092211931019925],[18.36396243021096,40.09184830358259],[18.363684145075418,40.09159759056427],[18.36366046302845,40.0915760063509],[18.363560815338115,40.09148327726939],[18.363396192567336,40.09141709918525],[18.363055781412225,40.091280253797564],[18.363017338224935,40.09126480147847],[18.36287482806051,40.091200462555555],[18.362831418231988,40.091183305389514],[18.362687495256687,40.09113220356755],[18.362631810136545,40.09110981767751],[18.362501176726678,40.091057300925065],[18.362438478237554,40.091147314867456],[18.36239753956031,40.09120608893116],[18.362205753367647,40.0914814288538],[18.361966874330076,40.09178117816252],[18.36178974491829,40.0920704589321],[18.36163528226224,40.092307793747764],[18.361495849689703,40.09250569778496],[18.361418559667676,40.092670122463026],[18.361354762872562,40.09279844662465],[18.361257489210605,40.093152155380665],[18.361220738937046,40.09337314852743],[18.361172432954767,40.09348431938489],[18.36112993568937,40.093578037872554],[18.36107462022584,40.093704971844225],[18.361021994733346,40.09382175651877],[18.360963849590245,40.09394667379894],[18.36087041586913,40.094141105044336],[18.360646548084965,40.09442679909483],[18.360521180523417,40.09461816970242],[18.360496742205168,40.09465547453658],[18.360375916937056,40.094839912217545],[18.360785713360805,40.09503123467872],[18.36103946500931,40.09514534650115],[18.361225676949374,40.09522908515849],[18.361264214868935,40.09525383458034],[18.361327585428246,40.09529453187873],[18.361619289590617,40.09548186832154],[18.36169205486304,40.09552859810397],[18.361906587225565,40.095793833986015],[18.361981961871063,40.09591658900087],[18.36201020478967,40.09595800127297],[18.362075216528424,40.09606100345348],[18.36213597975976,40.096125821689974],[18.362160940593924,40.09614974440517],[18.362207360118795,40.096191554840836],[18.36223322751122,40.09621616682171],[18.362356267391654,40.09633698488908],[18.363281769471588,40.09735822128937],[18.363165102937447,40.09761494992155],[18.363087004738734,40.09770773539397],[18.362965580351588,40.097851996306055],[18.36289227934805,40.09791774336399],[18.362869901851496,40.09793632608868],[18.362813624963568,40.097985994627436],[18.362734378882113,40.098058373590874],[18.362626813048614,40.09815480279018],[18.362205504162343,40.098632624205315],[18.36214744053882,40.09869714429865],[18.362014754387154,40.09884588720278],[18.36181755587061,40.09914970065146],[18.361549422395317,40.09932384215144],[18.3614422190188,40.099393466999665],[18.36123196308734,40.099499730283355],[18.361085999317005,40.09957343802576],[18.360652038310764,40.099764474120015],[18.360137903915803,40.099933921901176],[18.359866940352166,40.100039532290914],[18.359294443052665,40.100262664802706],[18.359214771704405,40.10029371577242],[18.359007709223622,40.10037441969684],[18.359537776650363,40.10060987727038],[18.36011940102606,40.100773706924606],[18.36033640977272,40.10084671095415],[18.360459666984298,40.100888176256355],[18.360758310705105,40.100988641909936],[18.36083455897211,40.10101429241342],[18.361123555293904,40.10112665945727],[18.361527363571323,40.10128366418129],[18.36243235884189,40.10179642271478],[18.36173042423456,40.102647976185224],[18.36178098226911,40.10268500295583],[18.361899862668352,40.1027720692499],[18.36249444178031,40.103207520020426],[18.362828464237168,40.10345196236277],[18.3633756748544,40.103517649271524],[18.36409300476109,40.103603752185116],[18.364370633124498,40.10363707507629],[18.364783125432723,40.10368658390102],[18.36503272034351,40.10371654130042],[18.365369756374935,40.10375699177713],[18.365323904436497,40.103996708545154],[18.365416966032424,40.10422509163872],[18.365510720659326,40.10440212960611],[18.365524034040167,40.104427267902594],[18.365616575631527,40.10460201530395],[18.36563487175689,40.10463656281128],[18.365688924491906,40.104631836158745],[18.3657188983825,40.10461546022682],[18.365916768746512,40.10457985118015],[18.366313867422996,40.10455194382199],[18.366795309927785,40.104604800443724],[18.367073426847053,40.10467305792594],[18.367358822564086,40.104743100260535],[18.367733845106674,40.10495745983449],[18.368070754325974,40.10468499913191],[18.36888741265659,40.10598243048336],[18.369046229697187,40.106234734997386],[18.369915493766637,40.10545529076866],[18.37024386997743,40.10516083856552],[18.37035321819736,40.105062787459815],[18.370545119137972,40.105370744066754],[18.3705747720291,40.10539754047496],[18.37079601763091,40.10559747410152],[18.370838831021594,40.10560890887146],[18.371330909250744,40.10574033744387],[18.37195404399892,40.105801829175384],[18.372225517432472,40.10593385516655],[18.372417805988547,40.106170739043854],[18.37269250492932,40.106301547580216],[18.37274937071628,40.10632862583412],[18.372557117506666,40.10677514525361],[18.372715061500845,40.10712565851189],[18.37275149072041,40.107206502927184],[18.372816784602946,40.107226828547134],[18.373981095234615,40.107589277238795],[18.374030130451708,40.10785770065636],[18.37407966345975,40.10813183495315],[18.37356886111545,40.10799717642736],[18.373414453110644,40.10795692775613],[18.373428798894068,40.108208501581295]]]}}]}
