{"type":"FeatureCollection","metadata":{"code":"075006","referenceDate":"2026-01-01","sourceDbfExportDate":"2026-02-18","upstreamArchiveUrl":"https://www.istat.it/storage/cartografia/confini_amministrativi/non_generalizzati/2026/Limiti01012026.zip","sourceManifestSha256":"70ac8256c4785dc6ed2814c32b6965ae76f9161b51abaa1660059e1c6cbd8ca6","license":"https://creativecommons.org/licenses/by/4.0/","attribution":"Istat, Confini delle unità amministrative a fini statistici al 1° gennaio 2026, versione non generalizzata.","modifications":["Converted from WGS 84 / UTM zone 32N (EPSG:32632) to RFC 7946 WGS 84 geographic coordinates.","Converted from shapefile to per-municipality GeoJSON without geometry simplification."]},"features":[{"type":"Feature","id":"075006","properties":{"code":"075006","name":"Aradeo","alternativeName":null,"regionCode":"16","regionName":"Puglia","territorialUnitCode":"075","territorialUnitName":"Lecce"},"geometry":{"type":"Polygon","coordinates":[[[18.126927868310414,40.15943222104135],[18.1268934086502,40.159593451850036],[18.126881879088646,40.159647394870255],[18.126871773186835,40.15969468215623],[18.126864028091852,40.15973092095757],[18.126829935764732,40.15989043051051],[18.1267202700953,40.15973480551397],[18.12669315159574,40.159698859585845],[18.126072528411164,40.15881557361047],[18.12557764726759,40.15851326772811],[18.125226901375253,40.15828041877057],[18.125234730399182,40.15821421089117],[18.12523973737101,40.158149527383266],[18.12524337412115,40.15810151281665],[18.125245914159876,40.158073928750426],[18.125266097665484,40.1578547424808],[18.12536038592135,40.15755505191064],[18.125298615630626,40.15711307125522],[18.125292969756263,40.157072667943865],[18.12528769577216,40.157034932291445],[18.125274018908488,40.15693706653602],[18.12505127771165,40.15654569625899],[18.12501133954741,40.156539574224354],[18.124961059917926,40.15653186641598],[18.124500891155037,40.15646132491812],[18.123943342364395,40.15658430599727],[18.123875725964645,40.15662176486575],[18.123585368298592,40.156782618350455],[18.12325650779392,40.15696480091306],[18.123174819048057,40.156988969115304],[18.122918410338134,40.15706482826691],[18.122757922432406,40.15711230966841],[18.12243970212433,40.15707690919254],[18.122214660000093,40.15655984707307],[18.122216987568788,40.15605618433599],[18.1220776119553,40.1556312123173],[18.122046271122063,40.1556058555089],[18.12172388399876,40.155310930837864],[18.121301312480615,40.155088270999926],[18.120840152024726,40.15473156818421],[18.120522416756135,40.154450003648556],[18.12048840902961,40.154432331346015],[18.120280436252024,40.15432425364259],[18.120149127088105,40.15425601566614],[18.11985185673334,40.15407182769062],[18.119612498731538,40.153925545185345],[18.119767711547762,40.153459822784086],[18.119806650326478,40.15334594488522],[18.119880841108426,40.15313188262783],[18.11994540730724,40.152945585873184],[18.119957468652654,40.152910785727876],[18.120030146046755,40.152701091766524],[18.12000942818155,40.152502570397914],[18.119971251875473,40.152117524031006],[18.119977601689456,40.15197388618568],[18.11999226747437,40.15167551979621],[18.119993530344356,40.1516498453287],[18.119999850081054,40.15152122621998],[18.120052084337743,40.151277657255605],[18.12006951415402,40.1511963756333],[18.120145489685108,40.150842101399164],[18.120170322114944,40.15077976411002],[18.120184129412475,40.15074510669304],[18.12021108720194,40.15067743718884],[18.120369438045678,40.1502835126635],[18.12040527158707,40.15023688484086],[18.120509856701194,40.15010079505058],[18.12056332808938,40.15003121526537],[18.120602231992407,40.1499800522069],[18.120732490048344,40.1498087442928],[18.120747818446944,40.14961443269724],[18.120764491894164,40.14940807547185],[18.120772439093535,40.14933162442637],[18.12078438058459,40.14926260068364],[18.120855171377187,40.14892722674244],[18.12086297068886,40.148886225301716],[18.120896790660968,40.148730049794274],[18.120905097912264,40.14869069466266],[18.1209329263101,40.148558854728776],[18.120973801798744,40.148291760263845],[18.120979507783932,40.14825447016824],[18.121012317511873,40.14804008086922],[18.121015968876094,40.147567781408746],[18.121013612714293,40.147505241214134],[18.12100827002842,40.14736350254644],[18.12100784170284,40.14729258538909],[18.121000924332822,40.14721279472671],[18.120996649047232,40.14710776669956],[18.12098628772526,40.1468926587642],[18.121066971645863,40.146657157384944],[18.121121205952683,40.1464998645614],[18.121152937385258,40.14640783570706],[18.12118545020687,40.14631354024798],[18.12127140086138,40.146064259286156],[18.1212858914429,40.14602222999495],[18.12129790583936,40.14598738680598],[18.121308747934574,40.14595594263618],[18.12151533457168,40.14535677633337],[18.121532099906382,40.14530815412923],[18.12155673692016,40.14523670038097],[18.12147767156626,40.14515712137042],[18.121434562302216,40.14511373244592],[18.12124834064067,40.14492630032857],[18.120606473313167,40.14427152651987],[18.120773027246912,40.14405329847273],[18.120895264261005,40.143893136524945],[18.12100139316221,40.14375407773391],[18.121251100155416,40.14342689216118],[18.12160608915273,40.14308401814514],[18.121662211698847,40.142740162861784],[18.12170868072319,40.142545750276504],[18.121715179398294,40.142517457187616],[18.121742715361805,40.1424033613119],[18.121721531029575,40.142369297280126],[18.12167617444753,40.142300330394],[18.121651739353275,40.14225904074292],[18.12145100700407,40.14193430030132],[18.121119325436464,40.14172474446044],[18.12100346223556,40.141650698297866],[18.1208521588617,40.14155481839618],[18.12097032676457,40.1414854218888],[18.121223938427995,40.141336481177596],[18.12156212505945,40.141036190175264],[18.121616907248676,40.14098754801458],[18.12161835219165,40.140930844827324],[18.121605478894047,40.14069757967875],[18.12160227555882,40.1406605928723],[18.121596066491062,40.14055619969848],[18.121548514995922,40.140402139294004],[18.12148518653092,40.140192255664275],[18.12141987081807,40.139985343961115],[18.121401635907386,40.13992626268069],[18.121389934717467,40.13988835241434],[18.121378705635102,40.13985197082194],[18.12136719381012,40.13981467395976],[18.121276362516696,40.139583797056716],[18.121095729213888,40.139124654866066],[18.121073082046724,40.13906709282843],[18.12104909197839,40.13888920431317],[18.121021498469336,40.13868459398199],[18.121009113260964,40.13860206681392],[18.121003026475265,40.13856150958444],[18.12099557729921,40.13851187478122],[18.12095848226509,40.13826469573835],[18.120950789451086,40.138213435889035],[18.12094455251831,40.138171877333846],[18.12093483030857,40.13810708855466],[18.12073565599714,40.13810038228306],[18.120615110923826,40.13809632520061],[18.12029716844406,40.13808562118328],[18.120037556894353,40.13807688046055],[18.119961068462914,40.13807430501752],[18.119735492524,40.13773484600433],[18.11959538673563,40.13752400704093],[18.11920949308003,40.13694327916298],[18.119168124944746,40.13688102514075],[18.119019755047788,40.136657740491636],[18.118916040580807,40.136501661508504],[18.118741923179268,40.13623962417547],[18.118486960319274,40.13585591543138],[18.118422694182037,40.135759197559004],[18.11774258026046,40.13473562414746],[18.11770721661535,40.13468554895659],[18.117428401669166,40.134262772684984],[18.117297608729825,40.134065920610894],[18.11702610687843,40.133657287551834],[18.116582023401122,40.1329888896115],[18.11647924408099,40.13282748517364],[18.116514040311184,40.13251088126217],[18.116591423497955,40.13181427828011],[18.116596622665494,40.13176745278212],[18.116628247652052,40.131482763296034],[18.1166450293967,40.131331700642676],[18.116648400092014,40.13130083316986],[18.116655428607217,40.131236474418465],[18.116666299988164,40.13113692933623],[18.116676209868352,40.13104618157583],[18.116701872165986,40.130811161769984],[18.116705931272094,40.13078579409818],[18.116731915572267,40.13053604085727],[18.116754464558273,40.13032954851154],[18.116803983076313,40.12987608649362],[18.116846192704315,40.12948957055663],[18.11687304511529,40.129243653133585],[18.116904258449107,40.1289652297648],[18.116913306787684,40.12887495593982],[18.11696615505382,40.12839099491566],[18.116831975358465,40.127516228821406],[18.11682691612039,40.12747515195044],[18.116779465704774,40.12718084733631],[18.11676764601356,40.12710422487498],[18.11674205469524,40.126938334879],[18.11671164424866,40.12674119644841],[18.116838448818456,40.125270153675345],[18.116944667487772,40.12528240614294],[18.117032981331363,40.12529259261187],[18.118385029883694,40.12544853529951],[18.118362693717515,40.124588692626986],[18.118358467676586,40.12442602811411],[18.118353565388304,40.124237302085994],[18.118972533338034,40.12387739113412],[18.119055690425263,40.123829490450426],[18.119093083215017,40.123807187382624],[18.1192713611001,40.12370422132919],[18.119814427896834,40.12338878511143],[18.11995993333483,40.1233042678005],[18.120240731585092,40.123141166666144],[18.120409546110864,40.12304684345817],[18.120672650975973,40.12265283594519],[18.120883711810112,40.12235061986313],[18.121236817737607,40.122124778580634],[18.121941732296612,40.121902456859665],[18.12252108288155,40.12172606794906],[18.12268357039748,40.12154999410941],[18.12273072233849,40.1214989015232],[18.122756108488524,40.12147139350243],[18.122816284686895,40.12112880335227],[18.122840589421468,40.12099042849911],[18.122731562306644,40.120877558216826],[18.122612814751385,40.1207546227227],[18.122456500607196,40.12059279753195],[18.122350617055726,40.120483177181306],[18.122266535512853,40.120477464022564],[18.122190127238294,40.12046974498514],[18.12196944464444,40.120457266870666],[18.122379654258406,40.11943487558439],[18.122423084215576,40.11932662682539],[18.123247838729043,40.11942981683787],[18.123292312688125,40.11943538194056],[18.12337899701338,40.11944622622051],[18.123337541770766,40.11920556407134],[18.123306790450684,40.119020562191665],[18.12326706461974,40.11880887433508],[18.12320264581671,40.11844205566061],[18.123678889558864,40.11834802725087],[18.124284872522963,40.118284657581924],[18.124484347332828,40.11826379887286],[18.125114121646615,40.118353107636935],[18.12531518263589,40.11838483800004],[18.12579613945993,40.11846073756011],[18.125940184310377,40.11849810736787],[18.126366489018793,40.11860870554921],[18.126583173895835,40.118636809356154],[18.126616947885733,40.1186411880874],[18.12693371276154,40.11868212597074],[18.127075676001443,40.11870068232218],[18.127344045539854,40.118779194862086],[18.127392659133257,40.11879341813484],[18.127445155480363,40.11880877485773],[18.127752313956467,40.11889863406434],[18.127815209767018,40.11892937856292],[18.128026299383453,40.119032554594405],[18.12811009854864,40.1190735138996],[18.128372177305852,40.119201612793475],[18.128582901315042,40.119304609116526],[18.12869252646061,40.119372626534705],[18.128746066126094,40.1194058449748],[18.128825648411855,40.119455220628765],[18.129221920150318,40.11970108566177],[18.12939317190152,40.11973065258438],[18.129758385204955,40.119793707072034],[18.129899359538786,40.11981804474169],[18.130764759946892,40.11978744320346],[18.131230162417655,40.119726191211484],[18.13127944858001,40.119720451360855],[18.13143114343744,40.11969974213015],[18.131623789813013,40.11967438794387],[18.13190217785959,40.11959051425679],[18.132070632372677,40.11953934716342],[18.1322492927706,40.11948508274939],[18.13320845829693,40.11936833767818],[18.134028959554083,40.119156976835164],[18.135130989986486,40.11904974823957],[18.13518880095064,40.11904412328472],[18.135235432002872,40.11903958551491],[18.135319090959907,40.11903144472751],[18.135354966231873,40.11902795229652],[18.135421802375898,40.11902144918006],[18.13570644065633,40.1189576674149],[18.135883722853425,40.11891776250369],[18.135949611855064,40.118902925531366],[18.136078615906264,40.11887426964233],[18.136126770553226,40.11886347870253],[18.13629909463351,40.11882486309809],[18.13657269041249,40.11876355451323],[18.136580094439,40.118681694049705],[18.13658597665132,40.11864580578844],[18.136600640933395,40.11843716852962],[18.136634102667976,40.11807311762976],[18.136666036774823,40.11771948973179],[18.136678347398163,40.11758668930583],[18.13703439760457,40.11760905848719],[18.137094941879408,40.11761337716514],[18.137283060617488,40.117628167938435],[18.13737154474499,40.11758965993146],[18.13747793188272,40.11754384919367],[18.137628767839516,40.11747875251556],[18.137751212851864,40.11742552314491],[18.13781975800134,40.117396658841436],[18.138152004400443,40.1171904083288],[18.138266502462766,40.116954286133925],[18.138365229331175,40.116753133635946],[18.13837924455107,40.116553915367085],[18.138419879409742,40.1160435518326],[18.138422543100756,40.11597590422861],[18.138286496830574,40.11579772477753],[18.138155973142606,40.11563997549138],[18.137847827574774,40.11526520669952],[18.137726177441742,40.11512051891837],[18.137593819269437,40.11490237685299],[18.13733459827763,40.114475143596934],[18.13730835130313,40.11434073266403],[18.137296795287895,40.11426884739407],[18.137257588656098,40.114056470162446],[18.137358173534725,40.11369558907419],[18.1374106918212,40.113536654426426],[18.137486918615274,40.11330313274234],[18.13767463328887,40.11272191004031],[18.137775907808155,40.112548087522725],[18.137896809421395,40.11234091064443],[18.13804540230285,40.11208554692247],[18.138173459747055,40.11177642184008],[18.138197258958645,40.111499937135946],[18.138209343649297,40.11136844411613],[18.138227032025803,40.11115406257678],[18.138286298593002,40.11087330890699],[18.138293297076405,40.11082923224841],[18.138312700250165,40.110730834613435],[18.138903382824054,40.11087322705416],[18.13929809490468,40.11092037585201],[18.13940025593743,40.110932577224176],[18.139784020512895,40.11103148755074],[18.139840501098725,40.1110488472961],[18.14000046763367,40.11112010937373],[18.140088214446152,40.11116015575254],[18.14022221224845,40.111222639157845],[18.140304535785553,40.111258689180815],[18.14035577460903,40.11128303168898],[18.140390419134114,40.111300177380905],[18.140461178817727,40.11133106832033],[18.140524308462773,40.11135618145962],[18.141059692570572,40.11158041579288],[18.141111961428336,40.111625069226136],[18.141293228126294,40.11178376797908],[18.14141210149846,40.111851831394304],[18.141693868957066,40.112022039297166],[18.14172679273675,40.11204068361508],[18.141755589068318,40.11206688131738],[18.141948821427707,40.112249678543996],[18.14200002133668,40.11229978669741],[18.142061177967364,40.11239555453875],[18.142127479786804,40.11249556083527],[18.142184281603452,40.11258452781465],[18.14221962967298,40.11261623824019],[18.14233531112567,40.11272010069482],[18.142417626634792,40.11279165972295],[18.142488496068406,40.11286345209759],[18.142591574478722,40.11296787175017],[18.14266858951001,40.11304588885043],[18.14272183618096,40.11310771740439],[18.142847179820706,40.113253263394114],[18.14287690504762,40.113287778612154],[18.14318194852993,40.113521425891676],[18.143403943241953,40.113689677969965],[18.143448026589308,40.113723293402465],[18.143598582871398,40.1137962694817],[18.143726821743403,40.11385842668382],[18.143923414356106,40.113934616986256],[18.143986433587564,40.11395904011117],[18.144020291057203,40.11397216199525],[18.144242231056765,40.114032694625806],[18.144473165453032,40.114095677910875],[18.144903878961223,40.11425017699764],[18.14519325465081,40.11435524461276],[18.14526538431373,40.11441243301169],[18.145328089721982,40.11445685284999],[18.145382570089772,40.11449974661241],[18.145431975044584,40.11453416101264],[18.145605547349362,40.11465505309886],[18.146061973484787,40.114913136786704],[18.14654255744138,40.11513333300825],[18.14664302173812,40.11535683438534],[18.146815457607254,40.11548469908131],[18.1468901856894,40.115539431761455],[18.147635437122506,40.11572505350947],[18.147688965431517,40.1157404695315],[18.147753335006573,40.11575819911905],[18.147994332545764,40.11582457542333],[18.148374706649836,40.11593137549025],[18.148766174189625,40.116055271453305],[18.14879845015575,40.116060983781445],[18.149204067341216,40.11613276190198],[18.149596869379824,40.11617636650239],[18.149733540245485,40.116194334138264],[18.14982167524898,40.116205920799906],[18.1499659655216,40.11622488941714],[18.15015993837507,40.11625213675338],[18.15025899660305,40.11627797111284],[18.150314249467236,40.11629238084488],[18.15035922320902,40.11630144666373],[18.150405338377293,40.116311445527145],[18.150442607138984,40.11632166563984],[18.150537790836097,40.11634738864638],[18.15092370225784,40.11648795747473],[18.15108622692097,40.116542433328554],[18.151563720198876,40.116717901016195],[18.151911085427926,40.1168577839791],[18.152043622313283,40.11691115566607],[18.152088585722062,40.11691911846134],[18.152577511508014,40.11700570541625],[18.15263954551873,40.117016745045476],[18.152744038560023,40.11703534262705],[18.152980736513637,40.11707746791397],[18.153100857204365,40.11709884540836],[18.153144464464557,40.117106606602405],[18.153271232994594,40.11713967210903],[18.15335028106877,40.117157404288704],[18.153523046765386,40.11720004587309],[18.153519744409433,40.11722842877222],[18.153481076192868,40.11756076207615],[18.153438808502308,40.11770954327033],[18.15342280025577,40.117757303970606],[18.15337049900982,40.11793369022782],[18.15330893267261,40.118149901340026],[18.1532796887043,40.11825722294279],[18.15331696255586,40.11830720404143],[18.15348992402148,40.118526570180336],[18.15351323720878,40.11855613719912],[18.15365370656198,40.11920818996792],[18.153662707012643,40.11924997156922],[18.153623353129827,40.11936442407283],[18.153563589048403,40.11954219840769],[18.15350991737015,40.119700436134664],[18.15341491072044,40.119900413334676],[18.1533464113994,40.12003338559635],[18.153335688013573,40.12005977801491],[18.153326972317192,40.12009043372716],[18.15328584379611,40.12021915804995],[18.153186386886976,40.12055566042912],[18.15303909253967,40.12078387317865],[18.152986176501425,40.120865861189706],[18.15290025574068,40.12099898219669],[18.152879029532563,40.121031867739354],[18.15283423288161,40.121094221375316],[18.1528096174651,40.12112848380308],[18.152743378719197,40.121220682468156],[18.152558724676584,40.12147770431054],[18.152040168231142,40.12197305657864],[18.151783562867724,40.122175565749394],[18.151459115521348,40.12254755881756],[18.151375937892137,40.12265855659055],[18.15116742667484,40.122935628047074],[18.150288658293203,40.12341851672944],[18.150065826159448,40.12380832194101],[18.149975082183847,40.12396706283454],[18.149954806150234,40.12400253071062],[18.149768066702855,40.12433207804609],[18.149610594707756,40.12466154151264],[18.14937151007526,40.12500058099856],[18.149224069045577,40.12520255166731],[18.149068351481297,40.12535527148311],[18.14893970818266,40.125481439764094],[18.148846140497316,40.125547332899124],[18.148741815591393,40.12561969858035],[18.148681365135392,40.12566317454032],[18.1486028326399,40.125719695306735],[18.14814268619809,40.12616978298262],[18.14773543097134,40.126398623864745],[18.147704568566876,40.12641596563256],[18.147408956057074,40.12669329767217],[18.147417431777175,40.12682107336725],[18.147421816481348,40.12691103519881],[18.14742248829101,40.126966924584586],[18.14740571127257,40.12705524669743],[18.147350245286265,40.12732526215589],[18.1472995394262,40.12752600456475],[18.147258700112445,40.12768767999661],[18.14724547145703,40.12774445022817],[18.14721444726171,40.12787758444584],[18.147191994328473,40.12797394678014],[18.14704674508032,40.12819904230278],[18.146759986354787,40.12852531640109],[18.146616429082005,40.12874128611935],[18.146585922886054,40.12879116941309],[18.146548393614044,40.12885253840606],[18.14650372459095,40.12892557860253],[18.146410588647957,40.129081341360475],[18.14635583593389,40.129131170936716],[18.146156281114273,40.12931278043523],[18.146126393754205,40.12933998055415],[18.146083486817997,40.12969402825146],[18.145504826898375,40.12979386101835],[18.145396641938873,40.129811672705266],[18.145277385219003,40.12981757254844],[18.14469564990343,40.1298463472351],[18.144652019247918,40.12984850503145],[18.144596195325633,40.129913637498746],[18.144541283914823,40.12997770560604],[18.144500263202076,40.13002556681248],[18.14452347903108,40.13024766347176],[18.144529991119207,40.130309946779015],[18.144586774481326,40.130318959703125],[18.144797006537008,40.13036415206386],[18.144840424735325,40.130373148660404],[18.144914729406384,40.130384666933786],[18.14697550900051,40.1307040756074],[18.146632051131988,40.13193857673769],[18.146614830603372,40.132000471368436],[18.146563669376093,40.13218435594014],[18.146526653102367,40.132256909816135],[18.14634766022073,40.13260773196404],[18.1463169018,40.13266801861515],[18.146272007000917,40.13275601112621],[18.146149565111806,40.132989957586474],[18.146101780033337,40.13306743113902],[18.146068487529902,40.1331373066756],[18.14599363658575,40.13326661189547],[18.145903759167354,40.13343266282568],[18.145711519664925,40.133756469021506],[18.145689837414444,40.133784080928585],[18.145647281475664,40.133835876946634],[18.145588211072187,40.133914687101665],[18.145430305891264,40.134110950659455],[18.145271430765,40.13451694025935],[18.145221721923992,40.13459674608322],[18.14515104312626,40.134710216090774],[18.145054884417185,40.134864592668784],[18.145033428691764,40.134922491935754],[18.14489912173057,40.135315287029904],[18.144882604474237,40.135429381564386],[18.144871804126968,40.135488301279985],[18.14486923559341,40.13552173690931],[18.144838554577937,40.13573367503586],[18.144781508179648,40.136032432440736],[18.14476308988597,40.136128525483194],[18.144723808619528,40.1363971528743],[18.144712589834462,40.136483553333356],[18.14470033554822,40.13657761264912],[18.14461268076396,40.13696538655899],[18.14456387337541,40.13708206011687],[18.144434881258434,40.13739041098886],[18.144420782517656,40.13742411493994],[18.14436383328681,40.13756024704911],[18.14434739735085,40.13759953779689],[18.144307265630683,40.137695468570726],[18.144070067179314,40.13804001492399],[18.144052147730257,40.13808282134365],[18.14388114362679,40.138399200928326],[18.143840601383133,40.13851481146457],[18.143693031227695,40.13893563314746],[18.143603525724185,40.13909670933278],[18.143502240168168,40.139278980356785],[18.1434794126274,40.139401895561036],[18.14344546493629,40.139584684666765],[18.1434297948117,40.139668436766065],[18.143384476249604,40.13991064144602],[18.143349409980193,40.140098051813105],[18.143283093626803,40.14027638710517],[18.143216974539147,40.14046147750144],[18.142762928177458,40.14055445933046],[18.142725904443417,40.14056204136382],[18.142654215302333,40.14057672180735],[18.142441916150386,40.140624864225686],[18.142303622626283,40.140884843733275],[18.142267021937055,40.14095364953979],[18.142066407133267,40.14133078261129],[18.141639788419454,40.141409036958926],[18.141422512462338,40.14144889068147],[18.14094044078589,40.14153731250831],[18.141338763690893,40.142306866955366],[18.141368979816935,40.1423652413854],[18.1414398921301,40.142502240608145],[18.141209808349906,40.14250483980293],[18.14113577211372,40.14250567635269],[18.14055092690268,40.14251228227282],[18.140255579293093,40.142515617812265],[18.1403363244649,40.14277620064054],[18.140442764105256,40.143119701103785],[18.140485673666646,40.143271020966026],[18.140546491724525,40.14345444652401],[18.140599359596116,40.143627163310505],[18.140612600569458,40.14367042218207],[18.140651293542014,40.143813274052754],[18.14047899778732,40.14378052850836],[18.13918972393274,40.14353548651012],[18.139024883513752,40.14401988123774],[18.139013650746882,40.14405297355914],[18.13825651692618,40.143933429884456],[18.137626017961846,40.14463345503824],[18.13756541014137,40.14470074573623],[18.137542354875794,40.144723705085106],[18.13741256772581,40.144870439725345],[18.135630825568914,40.146848557489164],[18.13528472620558,40.14697499400011],[18.134905247574604,40.14709284699665],[18.13456380593586,40.14710203209816],[18.13411675686854,40.147153334088756],[18.133813674381006,40.1471212556699],[18.133353609359805,40.14712004259352],[18.133239403534922,40.14711974154036],[18.132964399522336,40.147186574032474],[18.132785673090023,40.1472300082684],[18.132319568376655,40.14730256341885],[18.13228366798478,40.14730815129118],[18.13194649651393,40.14760918409829],[18.13180703040225,40.14772591666328],[18.131696435373826,40.14781787604533],[18.131601138795368,40.14797230134088],[18.131429785430306,40.148248135238106],[18.131184619438436,40.148647510491735],[18.131037229305388,40.14908728026593],[18.1309361847301,40.149388765349784],[18.13081394527654,40.14984858800227],[18.130801988037142,40.149893569968754],[18.130786631347682,40.14995133463699],[18.1305912801168,40.149913716943736],[18.13047424072058,40.149891178927426],[18.13042194301966,40.149881107553696],[18.130345114442957,40.14986631231897],[18.13013405831118,40.14982566859399],[18.129949988925308,40.14977244021372],[18.129767220647174,40.14971958726251],[18.129595589205596,40.14966995535916],[18.129561022789932,40.14965995975238],[18.12947065128446,40.14961464573332],[18.129144575629162,40.14945114574141],[18.12908466086056,40.149410525747236],[18.12905454835988,40.14938998217603],[18.128959021142123,40.14932481445302],[18.128715305253586,40.14915855306754],[18.128659240081443,40.14912030417624],[18.12866604070839,40.1491620368055],[18.128668334316995,40.14961181813223],[18.128674746023236,40.149958303406976],[18.12867552036378,40.15000009084066],[18.128525943337735,40.150002007769196],[18.12757279077443,40.150011346979184],[18.12733360580796,40.15075635546257],[18.12717908564542,40.151130512955476],[18.12692218077008,40.151744318585095],[18.12670592306084,40.15201549686368],[18.126615314624914,40.15212911561013],[18.126529860395816,40.15235315487831],[18.126564127195877,40.15236508034609],[18.12795493151797,40.15284907480457],[18.12799061990995,40.15286149367098],[18.128165005111693,40.15292217786499],[18.127871247405142,40.15323136181628],[18.127839292110032,40.15326499501846],[18.127673242780915,40.1534669998828],[18.127693676486793,40.15368339825019],[18.12781849743137,40.15415222521033],[18.12787417717107,40.1541897049327],[18.128180960292323,40.154396210015314],[18.128245444733963,40.15440370404695],[18.12851647553318,40.1544245893617],[18.12873264288091,40.15443839757401],[18.128973947944026,40.15442370460363],[18.12928812551427,40.15440623277053],[18.129630312563226,40.15442397448668],[18.12971141829164,40.1546557766442],[18.129410093808552,40.155005648878635],[18.128532722763808,40.15536311626181],[18.128129203092318,40.15549859373311],[18.12812127316861,40.155786924386625],[18.128419019387337,40.15590934767567],[18.128662032312153,40.15616873435615],[18.128926941696196,40.15646009361286],[18.128984915926573,40.15649999219446],[18.1292402068272,40.15667568307537],[18.129327287836507,40.15674787215515],[18.12955688219797,40.15693819986289],[18.129835439463076,40.15741727555187],[18.129775082581446,40.15781611587378],[18.12976966906378,40.15785188977424],[18.129738391878643,40.158058574162766],[18.12965744594202,40.15859347024521],[18.127408812501518,40.15825259067183],[18.1271871684453,40.15821898833676],[18.126927868310414,40.15943222104135]]]}}]}
