{"type":"FeatureCollection","metadata":{"code":"078083","referenceDate":"2026-01-01","sourceDbfExportDate":"2026-02-18","upstreamArchiveUrl":"https://www.istat.it/storage/cartografia/confini_amministrativi/non_generalizzati/2026/Limiti01012026.zip","sourceManifestSha256":"70ac8256c4785dc6ed2814c32b6965ae76f9161b51abaa1660059e1c6cbd8ca6","license":"https://creativecommons.org/licenses/by/4.0/","attribution":"Istat, Confini delle unità amministrative a fini statistici al 1° gennaio 2026, versione non generalizzata.","modifications":["Converted from WGS 84 / UTM zone 32N (EPSG:32632) to RFC 7946 WGS 84 geographic coordinates.","Converted from shapefile to per-municipality GeoJSON without geometry simplification."]},"features":[{"type":"Feature","id":"078083","properties":{"code":"078083","name":"Morano Calabro","alternativeName":null,"regionCode":"18","regionName":"Calabria","territorialUnitCode":"078","territorialUnitName":"Cosenza"},"geometry":{"type":"Polygon","coordinates":[[[16.161594984392167,39.9175658493431],[16.161209583504952,39.91765951418575],[16.161048020361,39.917698779258714],[16.160418663285423,39.917881807400434],[16.160338332598425,39.917918960343755],[16.16007037020277,39.918042892782445],[16.15984088612076,39.91825058378078],[16.159561872950224,39.91851533595098],[16.159346365795514,39.918870613558965],[16.15915311286689,39.91908955367475],[16.15895662407856,39.9194031646713],[16.158809560092042,39.91968671877825],[16.158617184958793,39.92006755333436],[16.158037227495388,39.919676164205846],[16.15789599081661,39.91954096596193],[16.15769255425416,39.91935564512758],[16.157231984157995,39.91898833588905],[16.1570053290738,39.91880445530434],[16.156731385171703,39.918587511464914],[16.156423806263728,39.91831417548766],[16.156162887688765,39.91810992301231],[16.155795292594533,39.917849305223655],[16.155344842908764,39.91749485828701],[16.155073114194472,39.917340757013676],[16.15482573640029,39.9171401592907],[16.15462385315176,39.916927742523825],[16.15426517102846,39.916612585484415],[16.153993786884897,39.916363991431204],[16.153771559718535,39.91618125821814],[16.153468860092776,39.915883680175874],[16.15318343160736,39.915640452910516],[16.15280668913864,39.915375894229925],[16.152521021393277,39.91520016040409],[16.151957547757096,39.91495167573712],[16.151590997831967,39.914812445843985],[16.151131665884986,39.91465197281009],[16.150604869455936,39.914558664182756],[16.150180124839633,39.914463531722305],[16.149901131225516,39.914449333822304],[16.149066375590657,39.91433011371545],[16.148490131797022,39.914140886552936],[16.148271625435573,39.91405002839813],[16.148151157089348,39.91399993648021],[16.147841727686522,39.91384815969516],[16.147549252739907,39.91363416558074],[16.147405243937932,39.91352879862375],[16.147140513874916,39.913189798684066],[16.146925232530503,39.9128207397587],[16.146790392371194,39.91253667405333],[16.146657877349746,39.912148986766766],[16.146552170323808,39.911444731031416],[16.146521865652847,39.91114069501533],[16.14648094319253,39.91083281255405],[16.146511205965567,39.91036756656786],[16.14639777665419,39.91005067584728],[16.14634746658131,39.90966689767019],[16.146166002425026,39.909439707016794],[16.14584617740863,39.90923008355484],[16.14527944184902,39.90883780029588],[16.144186241676515,39.9077673204183],[16.143940038010882,39.90755198114181],[16.14375873049603,39.907393400787164],[16.143598191169016,39.9072714357596],[16.143379728668712,39.90710645301969],[16.143058571673322,39.90686990901375],[16.142668487770234,39.90657464908549],[16.142410522481722,39.90630909793088],[16.14237220440025,39.90626997406379],[16.142329331949554,39.90622602329017],[16.142226783330386,39.90612062777872],[16.141726925319926,39.90557616041339],[16.1416593151222,39.90548234442486],[16.141560020004402,39.90534313073035],[16.14139118204397,39.905110646005724],[16.141222855269866,39.90486913261124],[16.14103422182794,39.904628876837826],[16.140817765060433,39.90433186450802],[16.14055445621178,39.90401974649395],[16.140352822122857,39.90376680039736],[16.14014864375291,39.90354550407144],[16.139899753166965,39.90325948499481],[16.139659776239196,39.902918934050014],[16.139396375644022,39.90263381896792],[16.139281591167748,39.902525738002126],[16.13905331490763,39.902310791366595],[16.138970481236644,39.902232793321055],[16.138663623061426,39.90190579213434],[16.138635322391103,39.9018756331474],[16.138605235517876,39.901848173305986],[16.138404517984462,39.901664976877996],[16.138012271298834,39.90143528626524],[16.13797371131567,39.90141270626855],[16.137949624863698,39.90143432521867],[16.1378014588237,39.90156732279038],[16.137476801493992,39.90187083464765],[16.13700482332966,39.902259943393666],[16.13676638765818,39.90239864382978],[16.136737406548093,39.902415500553616],[16.13670192941614,39.902436138648646],[16.13627590905077,39.90269193000207],[16.135939068434094,39.90289271377818],[16.135497918043445,39.90305946785624],[16.135255856240395,39.903258885406494],[16.13504514465212,39.903352900231575],[16.134733175363074,39.903498160859115],[16.13454920824665,39.90368049032312],[16.134493006933234,39.903953897982916],[16.13445500862027,39.90406546976386],[16.13439271632705,39.90425251560821],[16.134214104268672,39.90479442044356],[16.134068451082307,39.905190324120824],[16.133958089044537,39.90558854954642],[16.133835384313432,39.905898184927494],[16.133771375831326,39.90622092717993],[16.133513176204847,39.906474888210084],[16.133322348750127,39.90666258446899],[16.133080631565182,39.906893474824635],[16.13286090492512,39.906977444151416],[16.132476480619538,39.90712380402052],[16.13210036775899,39.9071565263108],[16.131728059218897,39.90726952167506],[16.13147272721273,39.907271813086865],[16.131279737743306,39.90723015108028],[16.130954119040123,39.907159828026295],[16.130471947642846,39.906973766192436],[16.1300961367507,39.906871028160985],[16.129602073396374,39.90671261232118],[16.12936748947272,39.90660564798672],[16.12897697766377,39.90643182772137],[16.128424842526922,39.906164529397316],[16.12815058739112,39.90600022317515],[16.12810856463551,39.905974916020824],[16.128057333849743,39.905944220415435],[16.127968730862314,39.905889388760826],[16.12771380684846,39.90573158995962],[16.127101968825972,39.9055219544444],[16.12664738312744,39.90553204730843],[16.126502491200576,39.9055387646638],[16.126063134356357,39.905559135494016],[16.125584588845104,39.90563368714833],[16.12508140207519,39.90558378450565],[16.124403130022905,39.9056616641938],[16.12429119536302,39.905655968200904],[16.12422937144686,39.9056528020522],[16.124185423541714,39.90565054115653],[16.124135702354014,39.90564806090745],[16.124088870129984,39.90564569016264],[16.12405269304202,39.905643859016486],[16.123995204522473,39.905640948686596],[16.123950143101084,39.905638630493264],[16.1239015375698,39.90563620541671],[16.12384277553993,39.90563312621283],[16.123806105920075,39.90562929101958],[16.12376529911786,39.90562490418935],[16.12371213892256,39.90561935374689],[16.123667163577384,39.90561451796485],[16.12361816827265,39.90560941482195],[16.123571185902488,39.90560444559759],[16.12352999661891,39.90559998692397],[16.123469405330443,39.90559371201978],[16.123395311238944,39.90558638761199],[16.123350750293426,39.905581918416445],[16.123301714232063,39.90557716406468],[16.1232549187292,39.905572552976444],[16.12320846531914,39.905567962135855],[16.12316807260554,39.90556392742587],[16.123114526158552,39.90555871727035],[16.12306772816214,39.905554104458965],[16.12302093035543,39.90554949341601],[16.1229614536224,39.905543531825955],[16.122921743876418,39.905536899508995],[16.122875218411977,39.90552904591019],[16.12282869959257,39.905521177485504],[16.12278218449405,39.905513299814075],[16.12273286008761,39.905504921642844],[16.122689157289656,39.90549752803279],[16.12264264411601,39.90548963488862],[16.122603962495997,39.90548306944989],[16.122394834460856,39.90544753340221],[16.122339712917665,39.905438166901014],[16.1222722048721,39.905422525259766],[16.122178178093357,39.90540106522463],[16.122000125682725,39.90536015663871],[16.121713437107562,39.90527731153899],[16.121678366065108,39.90526715684789],[16.12163477982612,39.90525431381152],[16.121307473652433,39.90515998536484],[16.121000241255548,39.90508447461571],[16.120548088765812,39.90512602437782],[16.120471338461112,39.90511072625177],[16.120237626798012,39.90506401941022],[16.119806279838425,39.904978212339216],[16.119419262063126,39.90502009452703],[16.119059753313554,39.905073773572035],[16.11856726673104,39.905126651902066],[16.118216184808492,39.90515612812327],[16.11817901494593,39.905159249320754],[16.118144618917206,39.9051621372757],[16.118086322368164,39.905167031644154],[16.117960665179865,39.905177581083635],[16.11729677774945,39.90528152512886],[16.116511286930002,39.90532548543566],[16.11569427597705,39.905389375457176],[16.115157025856206,39.90539101998163],[16.11453788143125,39.90543370148705],[16.11391884833601,39.90544937954941],[16.11322627387217,39.905474092909664],[16.112539793292505,39.90554341241887],[16.11208293151492,39.905630064800704],[16.11174419257451,39.90568693675351],[16.11053020683922,39.90585174506499],[16.110121397732392,39.905782466147194],[16.10956075623574,39.90582601318068],[16.109055995804237,39.90580313062031],[16.108261196640584,39.90575762936754],[16.10759316772219,39.90580778414951],[16.106926694990143,39.905830851268924],[16.10630747727173,39.90577452000785],[16.105759620878022,39.905722984914405],[16.105661679039084,39.905715322695016],[16.105148619151883,39.90582339985261],[16.104942324957445,39.90600256166591],[16.10482772933694,39.90622106758399],[16.104728346167565,39.90650162010911],[16.104381630745934,39.90672092073599],[16.1037796909101,39.906881112389996],[16.103726580992372,39.90689622190289],[16.10354171428963,39.90690758325495],[16.103320258491713,39.90692124123303],[16.103104387244354,39.90688083099298],[16.1030463311421,39.906870072877325],[16.102971472083887,39.90685856229752],[16.102924567233323,39.9068513546137],[16.102882957706758,39.90684496091113],[16.102830761129447,39.90683693986564],[16.102783855046816,39.9068297312992],[16.10273616833496,39.90682235212722],[16.102690050054402,39.90681531546556],[16.102643145247182,39.906808107661675],[16.102602706417073,39.906801893719276],[16.102546477795148,39.906793083329134],[16.102500423773733,39.90677703045379],[16.10245336700911,39.90676106448538],[16.10240631267889,39.90674509924688],[16.102359558620456,39.90672923517344],[16.1023122052387,39.90671316863485],[16.102265151060596,39.90669720422684],[16.102223479652523,39.906683065197164],[16.102165171654864,39.90666328115789],[16.1021239895274,39.90664930812198],[16.102071315121876,39.90663143567043],[16.102029883578123,39.906617378078195],[16.10197754819495,39.90659961967876],[16.101935772785847,39.90658544555331],[16.101881924398157,39.90656718009519],[16.101839496386333,39.90655320176828],[16.101790902254606,39.906538652830235],[16.101749652059137,39.90652662286818],[16.101702628280275,39.90651290759613],[16.101369274675587,39.906416007953126],[16.10079366164801,39.90611852578395],[16.100295724193185,39.90586574348066],[16.100034071361883,39.905580464487024],[16.099600495229467,39.90561160781719],[16.09920473694728,39.90565395239128],[16.098961697853525,39.90567635940593],[16.09890770054558,39.90568003469187],[16.0988333128523,39.905666629794695],[16.09878639266349,39.90565820391744],[16.09875209828526,39.90565203880345],[16.098687844685344,39.905640773475646],[16.09829850750281,39.905435288523314],[16.098078136387688,39.90526938411771],[16.09803872717731,39.90523982337491],[16.09780302069363,39.90517784709614],[16.09753502249939,39.905198832589974],[16.09724570982407,39.905338100964045],[16.096557905451828,39.90547035367313],[16.09648161884814,39.90547286866707],[16.09643484849414,39.905474412056876],[16.09638572649599,39.90547603619227],[16.096341309025078,39.9054774996026],[16.096302242569905,39.9054787949205],[16.09624293962179,39.90548049634866],[16.096197958067684,39.9054715632456],[16.09615100544922,39.905462324864274],[16.096104114514546,39.9054530502772],[16.09605708780291,39.905443818213364],[16.09600472947555,39.90543353289564],[16.095947404988564,39.90542246246797],[16.095677113352842,39.905308620311835],[16.095405086843847,39.90514989156057],[16.095272739573755,39.905077686871884],[16.095243115760326,39.905061765954976],[16.09514562246483,39.905008720806585],[16.094949789155827,39.90487436801967],[16.094891645581868,39.90483445455711],[16.09476614500163,39.90474830270069],[16.094305644843203,39.904349224452275],[16.094198067935416,39.90427323954021],[16.09409829358699,39.904202679110135],[16.09388964016014,39.90405538563836],[16.093550726292346,39.90404023462038],[16.093221815177454,39.90404220139414],[16.09309757584565,39.90401811526369],[16.093000650625733,39.90399918357761],[16.0929641885148,39.90399197484406],[16.092906398922313,39.90398087565173],[16.092857480683833,39.903934048683844],[16.092830586282155,39.9039084936147],[16.092609795288737,39.903697688712676],[16.092373258142572,39.903500781190075],[16.092265293576414,39.90347071245545],[16.091843931522092,39.903353362510245],[16.091534159252458,39.90326409052164],[16.091303533232857,39.903197625809916],[16.09100931774098,39.9031347342434],[16.09080863629844,39.90303009575929],[16.09058463738622,39.90284141516226],[16.090429058261876,39.90270679825852],[16.09021568566186,39.902522175090354],[16.08988353176215,39.902191675543214],[16.08966837534408,39.90197545617097],[16.089475746877937,39.901759586849806],[16.08945524735012,39.9017366135633],[16.089132183077215,39.901324577207134],[16.08899819907357,39.90112991419979],[16.088953494350122,39.90106562091495],[16.08876154565365,39.90084797373341],[16.08847736211175,39.900501028347264],[16.08817990674596,39.90030785340102],[16.087779414912834,39.900121008361104],[16.08739164274592,39.899959220469334],[16.087204134778247,39.89988192025996],[16.086791764070405,39.89965081575633],[16.08640005551737,39.89944993213478],[16.086341294388184,39.89940129442306],[16.086307219454692,39.89937328683811],[16.08614139005666,39.899236378869475],[16.085774533823706,39.898993470973814],[16.085299492221367,39.89862224974812],[16.085108623370754,39.898386529505764],[16.084849031490524,39.89816403397477],[16.084479854575815,39.897799794280004],[16.084172870913353,39.89768367860694],[16.083690748165726,39.897483838580236],[16.083420532742874,39.897158511291266],[16.08325986420997,39.89687594982037],[16.083047374488675,39.896614566871044],[16.082690644415095,39.89638452808194],[16.082396325893495,39.896249631544784],[16.081751200432226,39.89616775997229],[16.081412997612958,39.89621551305692],[16.081039840588573,39.89629240480133],[16.08058615223485,39.89642371928601],[16.08017823090541,39.8964892421997],[16.0797906098524,39.89645454076583],[16.07938101232322,39.89636270758334],[16.078934096528656,39.89629115372071],[16.078548109999243,39.89621586098214],[16.078252347891002,39.896081042076396],[16.077719911201193,39.89569081145742],[16.07709708466799,39.89549956656412],[16.076858689263737,39.89580661655678],[16.076520228832727,39.896007333701704],[16.076183674492135,39.89611345723494],[16.07540403333918,39.89625574704099],[16.074912272322145,39.89635788316831],[16.074307677726427,39.89659740274449],[16.073910954210703,39.89664422377811],[16.073453282990123,39.89659580510108],[16.07338597469694,39.89659202862552],[16.0732762572035,39.89658576907535],[16.073031759228396,39.89657215598965],[16.072693275768586,39.89657490672167],[16.072604606209293,39.896578253630885],[16.07244324580328,39.89658439699938],[16.07230782519579,39.896589537709424],[16.072195669384488,39.89659351859229],[16.07211891748206,39.89659625430782],[16.071957208573515,39.89660203324193],[16.07152486896343,39.89671401415469],[16.0711517585814,39.89677736968334],[16.070289252000734,39.896852723009225],[16.06981924116849,39.89685452971349],[16.069377661149716,39.89687708904142],[16.068895787577528,39.896834624831634],[16.06853104643989,39.89676699151405],[16.068215112076754,39.89670537041757],[16.067932759710096,39.89660119448592],[16.067567888295116,39.896461585573064],[16.06718013605666,39.89635486954749],[16.066807089831343,39.89630573778365],[16.066301077397718,39.89625574569719],[16.065751402531887,39.89623542694549],[16.065223754862007,39.89615975943933],[16.064685224494184,39.89613424874983],[16.06431257362493,39.89610308303897],[16.063913795163163,39.89617248452964],[16.063553594884365,39.89636099466426],[16.063218449412425,39.89656597027435],[16.062952293431177,39.89680270990231],[16.062597136802253,39.89723835003738],[16.062356561680044,39.89758149570367],[16.0622160250538,39.89779125769433],[16.062161688873978,39.89787235871752],[16.06192125245355,39.898089523434635],[16.061454707776566,39.898266545721036],[16.060777570909586,39.898298982877016],[16.060297002721494,39.89828340527358],[16.059804889329378,39.89825502977313],[16.05931284323978,39.898213155636],[16.0588247422652,39.898252013909364],[16.05753532362637,39.89820941977305],[16.056883547553685,39.898388757402536],[16.05513006774818,39.89850498773916],[16.05472053575864,39.89849853632602],[16.054311133179453,39.898465080812784],[16.053898455791053,39.898314855311746],[16.053499444819717,39.89814129797295],[16.053084164363465,39.897838257253724],[16.052611478383398,39.897417258743936],[16.05226463292626,39.89707854624536],[16.05182735863839,39.89673185790941],[16.051293737601714,39.896314577682865],[16.05084556284739,39.89601804290578],[16.050407096327703,39.89571641679302],[16.05024637558927,39.89560321821394],[16.050054429015802,39.89546802515437],[16.049862441595167,39.89519182377098],[16.049473970149517,39.89495012307319],[16.049338820588762,39.894905707749345],[16.049212026627483,39.89486403365494],[16.049135426237726,39.894838865346344],[16.049022759136164,39.89480205879226],[16.048984368686945,39.89472655650895],[16.04888371842972,39.89449566227978],[16.04885008581337,39.894452717217845],[16.048622034962243,39.89413823036421],[16.04839437670705,39.893841705937945],[16.04816342472081,39.89343606515569],[16.048094906282564,39.89331562697348],[16.047936475428582,39.892911401858605],[16.047742781784503,39.89250483313202],[16.04747966514965,39.892147504742475],[16.0470639601973,39.891754494193066],[16.046907348047416,39.89163738917218],[16.046544765294204,39.891363287717716],[16.046153788037014,39.89105424955814],[16.04588144136697,39.89089091624206],[16.045759134495153,39.89083023933025],[16.04549372180333,39.89069867455452],[16.04521328731614,39.8904821713541],[16.04500833915002,39.89032340197653],[16.04492080381734,39.889955328188854],[16.04497852558886,39.88981717565853],[16.04507897056646,39.88957676853976],[16.04509777696494,39.88954277146386],[16.045249372906536,39.88926042490573],[16.045271818759183,39.88923614474379],[16.045485697713044,39.88900597055642],[16.04554888760714,39.888938006334904],[16.045581843847593,39.88890255945691],[16.0458286570397,39.88867612525809],[16.045939239542854,39.88857456596887],[16.046203871924995,39.88826597676104],[16.046586533527055,39.88804016341883],[16.046853891144323,39.88785736068594],[16.047173812159276,39.887419421626426],[16.047016046447276,39.88707814000913],[16.04695950974169,39.887009146599965],[16.04673212340171,39.88673106994811],[16.046397638934682,39.8863465859602],[16.046167891516294,39.886081363674506],[16.046025174123024,39.885916606711795],[16.045985283470827,39.88588002194991],[16.045884430383463,39.885787667779795],[16.04556879778629,39.885498691506115],[16.045512614589356,39.885429551562176],[16.045316126998518,39.88518466289875],[16.045017310474137,39.88482049710551],[16.044732278791624,39.88450496597799],[16.044388059035775,39.88413907395418],[16.044066122387296,39.88376282621131],[16.04378131228076,39.88340679355815],[16.04348113272714,39.88302921684349],[16.04320842540063,39.88276242712132],[16.042866027137446,39.88251339697344],[16.042523322420433,39.882318358731304],[16.04224002250995,39.88213320278411],[16.042146102919,39.88205935095686],[16.041931724041376,39.88189081309483],[16.041895695328655,39.881856585241046],[16.041680984883758,39.88165260342522],[16.041611344449088,39.88158644209626],[16.04152294211779,39.881482742419934],[16.04138548686684,39.88132121588239],[16.041230604833817,39.881078722533324],[16.041201852376847,39.88067106940207],[16.041219001167185,39.88035509416888],[16.041239224690433,39.88009742081906],[16.04119785652185,39.879945170954386],[16.04115266084486,39.87977903230377],[16.040840492850155,39.879298690241775],[16.040661915182028,39.879066653212355],[16.040457690234923,39.87874168485402],[16.04030269989421,39.87852619328047],[16.040167998153798,39.87835831729891],[16.040088526526464,39.87826032062896],[16.039849121656392,39.8779195112268],[16.039705102587416,39.87764036457289],[16.039641723477267,39.87737879884278],[16.03960347701007,39.877120196220964],[16.039643550094638,39.87658686876227],[16.039706345777162,39.87614665187054],[16.0397559732719,39.87578916568099],[16.039765599061752,39.87572175506799],[16.039800414947813,39.875470656514835],[16.039930949169317,39.874837332023105],[16.040018634174157,39.87444057760644],[16.040107727683747,39.874142713962925],[16.040110145248303,39.87351270887042],[16.039872700089894,39.87326176204915],[16.038970662629563,39.872367503178076],[16.03875610693596,39.87208366482304],[16.03841099842833,39.8717223023304],[16.038183055447007,39.87132230116868],[16.038128817938976,39.8708937009788],[16.03807821048314,39.87059986152724],[16.03798406512038,39.87030867812299],[16.037944096335803,39.87018964031995],[16.037738973057298,39.86988730243061],[16.037660043266943,39.86977098958059],[16.037638830996023,39.86974539271137],[16.037430590432795,39.869496538392475],[16.037157192175858,39.869193784574556],[16.036777968863493,39.86888399471595],[16.03636518882567,39.868616733170704],[16.035928126939574,39.86836893828646],[16.035456617202215,39.868055776640844],[16.034981827099354,39.867639322661],[16.034650869548024,39.86734456737339],[16.03440148311995,39.86707633294954],[16.03409027792675,39.86661841101144],[16.033803379312296,39.8662264888834],[16.0335169448275,39.86583905376355],[16.033032172977556,39.86548167006945],[16.03257094174223,39.86515436157199],[16.03209917509739,39.8648951761362],[16.03175650203471,39.86462812235955],[16.03142537969329,39.864373871536586],[16.0312241723219,39.86404870096611],[16.03107554675982,39.86365286149958],[16.030919618882706,39.86335642474701],[16.030715977934815,39.86303591571631],[16.030372639667945,39.86280488722933],[16.029842650929822,39.86250423774293],[16.029629580034104,39.86242499636921],[16.029478301742213,39.86236870599761],[16.02913689407392,39.86222753955406],[16.028605977097055,39.861917966912074],[16.028480164053097,39.86171630757624],[16.028270663141043,39.861380508553154],[16.028300394946157,39.86107277963012],[16.028520387259746,39.8608839126816],[16.028783488915693,39.86040362485539],[16.02881628025249,39.8603395200828],[16.028846565099332,39.86002274594901],[16.02891171431139,39.8596903596387],[16.02896656458052,39.85938557832326],[16.02926263059743,39.859162260447874],[16.029439493057207,39.859028608427224],[16.029704346063827,39.85876502956847],[16.02992401948042,39.85854470559822],[16.030060323945968,39.858279963253665],[16.03009872201051,39.85771524749362],[16.030139283237837,39.8572853823927],[16.030132369533703,39.85687639515114],[16.02998645084148,39.85643228674173],[16.029897537777543,39.855995409980586],[16.02990157116762,39.85591911243399],[16.029912378899343,39.855714698356635],[16.029916024820423,39.85564744219378],[16.030015628386007,39.85526837562223],[16.03009125239064,39.8550021286635],[16.030126376221194,39.85486996838217],[16.030143115645647,39.85446405568496],[16.03003170109865,39.85407492254514],[16.029604903441477,39.853655520159556],[16.029414288913873,39.85343318994254],[16.029235801836304,39.85320111020972],[16.02909120933141,39.85295797248448],[16.028922337384287,39.85256336267885],[16.028835139645704,39.85216825800232],[16.0287590057393,39.851781489173085],[16.028649599426586,39.85146872584818],[16.02846723244213,39.851070423665355],[16.028357829037777,39.850757659839545],[16.028235682430594,39.850391696529265],[16.028124522884376,39.8500475473228],[16.027979707108024,39.84975942084296],[16.027812002272647,39.84941871250147],[16.02736188856017,39.8490277180288],[16.026997767487085,39.8487976666727],[16.026783105194113,39.84866255907819],[16.026221801251626,39.848624752528195],[16.024910169280172,39.848484139245706],[16.024387589285062,39.84841150647814],[16.024127755708275,39.848378281796734],[16.023763378281842,39.84832898358882],[16.022440134359837,39.84818904912147],[16.021949213176008,39.848182926737465],[16.021526987934315,39.84807812621702],[16.021125609582278,39.84787759580395],[16.02071088309778,39.84747542689452],[16.02039102483842,39.84721594267955],[16.020057593427524,39.84679533860372],[16.019782997710124,39.846393617919524],[16.019569451332586,39.84613217902147],[16.019410420141817,39.845718951833895],[16.019253243748686,39.84532359682584],[16.019188770491446,39.84493611205098],[16.01913538223226,39.84447145834199],[16.01909038963138,39.84380384777932],[16.0191398219865,39.84318898505871],[16.019109803975734,39.84269593238418],[16.01912612205614,39.84256202865826],[16.019186051890227,39.842061252310366],[16.019205512433516,39.841899269060406],[16.01921379968443,39.84183030284703],[16.019239714761447,39.84127084579695],[16.019290669414186,39.840727868435174],[16.019341675111963,39.84032381095533],[16.019338046538632,39.83996467632343],[16.019332714399503,39.83962757074369],[16.01921026137841,39.83924361178888],[16.01887650086033,39.83880501926464],[16.01794068103225,39.83795761412618],[16.01726702206012,39.83747669487425],[16.017231870617547,39.83745500953128],[16.016736006487058,39.83714906678468],[16.01666513697228,39.837093689942186],[16.01628725558289,39.83679842454299],[16.015675955713338,39.83657014672177],[16.015136012968814,39.836385044853365],[16.015018238435168,39.83634466748049],[16.01415692828643,39.83582563627079],[16.013994677235754,39.83573703512949],[16.013658116022356,39.83555324313218],[16.01349713188613,39.83546533090685],[16.012982125803155,39.83525741315411],[16.012886898300422,39.83521896867333],[16.01274076549932,39.83515347057322],[16.012633335626095,39.83510531866802],[16.012604051516536,39.835092194238456],[16.012238781489618,39.83484443472316],[16.0121642222098,39.83478516697928],[16.01200218290593,39.8346563558199],[16.011773771323497,39.83430580286116],[16.011875037610242,39.83401171744359],[16.011938984066184,39.833566947707745],[16.01164002106756,39.83313970753737],[16.011354404877686,39.83274314895315],[16.01132645587561,39.83248390903556],[16.01140519157499,39.83224067091338],[16.011645010539343,39.83187518319666],[16.01191076321385,39.83162060322437],[16.012152102815392,39.83141248858018],[16.012567974893336,39.83101380522716],[16.01302022380343,39.830756885215465],[16.01332992878161,39.830418642627585],[16.013441261036235,39.83005196591638],[16.01345522363646,39.82981661299497],[16.013460010075704,39.82973589698462],[16.013490125530947,39.8293741347946],[16.013556503544933,39.82909567584835],[16.01369154078098,39.82880403297374],[16.01381754621857,39.82856693313881],[16.013777553715265,39.828218442961294],[16.01370636223543,39.82780506592386],[16.013687839736136,39.82769750422073],[16.013647995322955,39.827407494814835],[16.013787209586443,39.82722808330476],[16.013904051497633,39.82707251249345],[16.01397998723374,39.82697341958755],[16.014162201206176,39.82662943167416],[16.01422893032839,39.82636893554109],[16.01438767680232,39.82606685981915],[16.014511725975378,39.82575338441232],[16.014914213992615,39.825324032131086],[16.015086007392608,39.82510663040624],[16.01529230560775,39.82477017008315],[16.015624880185527,39.824399039617],[16.015769558134682,39.82385936104507],[16.015767725270354,39.82292818940013],[16.015761587795254,39.82256865018727],[16.015861989134883,39.82225211365994],[16.015951914611527,39.82199020807328],[16.016064105073422,39.821717955783235],[16.016338161525386,39.821273904390154],[16.0167079490353,39.82089601346187],[16.016961720852834,39.82069612624326],[16.017176197607643,39.820197205691386],[16.017399914101514,39.81951775690348],[16.01749815893141,39.8190663858288],[16.01760976013669,39.818731183098734],[16.01773302725112,39.81838176335437],[16.018010905218837,39.8181894202835],[16.018252111048795,39.81790930532942],[16.018272362707457,39.817665141804106],[16.018181809882346,39.81703628985419],[16.01854373057354,39.817095259586296],[16.01912620826244,39.817014862830966],[16.019430016205792,39.81693340411155],[16.01989130376562,39.81659492243212],[16.02032909898086,39.8168967372831],[16.02053107875073,39.81713188309014],[16.020920211885496,39.81741415530319],[16.021168731586172,39.81761949086748],[16.021487320237373,39.8178250614173],[16.02183953431156,39.817974592504875],[16.022279681223196,39.818456202557684],[16.022401054245066,39.818772741563194],[16.02266155626354,39.81899534974023],[16.023204440725365,39.819340220194874],[16.023546807974228,39.819607322998195],[16.024100986154085,39.81992002693097],[16.02447451633083,39.81997828894543],[16.024769462128603,39.82009530599065],[16.025415804958644,39.820339408283125],[16.025976186969185,39.82032780453747],[16.026345000021408,39.82002641692598],[16.0265752506395,39.81979644872949],[16.027110353789954,39.81955241931668],[16.02787695306032,39.819289816582284],[16.02877107197423,39.818933940863225],[16.02962236895645,39.819583940911635],[16.030415286948088,39.82030497238187],[16.031714217812993,39.821238125361866],[16.032090282250234,39.82136368874265],[16.032572607116872,39.821527563089525],[16.032624780276773,39.82156456417217],[16.032986169321752,39.821821992670905],[16.0330272585817,39.821851523879594],[16.033257022850947,39.822016924023586],[16.033541379971613,39.82221555251902],[16.0336859990743,39.82233182693118],[16.033799091928334,39.822422308382805],[16.033895799904002,39.82249989523803],[16.03419039933432,39.82268439023059],[16.034567625406403,39.822863849416166],[16.03509403577204,39.82304715487125],[16.03576505289277,39.8233037497545],[16.0362849759213,39.82362297728909],[16.03658948996615,39.823761878995214],[16.03693623668239,39.82421313412675],[16.0371049915766,39.82453575982403],[16.037259988915036,39.82480974606887],[16.03738180753122,39.825144244032074],[16.037480494712977,39.82546664432256],[16.03755472492558,39.82576355790912],[16.037654955525824,39.82615784201923],[16.037799984437765,39.826490923531715],[16.037943929749748,39.82675657198346],[16.038135398658607,39.82707333373252],[16.038338651109804,39.8273623612586],[16.038588654211395,39.827666540877004],[16.03885080661319,39.82796098744003],[16.039120329562977,39.828142501641054],[16.03915162534145,39.82816309348],[16.03919216717309,39.82817177149634],[16.039434958626142,39.82822424972176],[16.039468497858397,39.82823095402113],[16.039576707253897,39.82825412928344],[16.03979173715898,39.828330997896565],[16.040162178469313,39.82842987977613],[16.040532621398587,39.828443275507965],[16.041166682514323,39.82839560796033],[16.042034705430144,39.82849562430833],[16.042150977816686,39.82851592256312],[16.042224903382472,39.82852884793059],[16.042302066755614,39.82854230095288],[16.04262880336381,39.828598840578366],[16.043036121579085,39.8286729647118],[16.043091684650403,39.828687098047546],[16.04399177830437,39.828916067644776],[16.044534059129802,39.82895497122124],[16.044837062135834,39.82902194711736],[16.045170833003365,39.82911855415338],[16.04632688864446,39.82946638706633],[16.04673336832705,39.82951806586848],[16.047615998193965,39.82968912528423],[16.04826183198295,39.82978465497097],[16.04865474241917,39.8298461298761],[16.049294537523586,39.829897040976405],[16.049889632131013,39.82991019336628],[16.05007439176053,39.829891845859954],[16.050467097648713,39.82985284744935],[16.05059567934989,39.8298400781822],[16.051371428915946,39.8297791994207],[16.051668886247867,39.82975065551577],[16.051794208445877,39.82973862930073],[16.052145701672714,39.82970489800573],[16.052860196842175,39.82970172884977],[16.05373816275728,39.82965707433315],[16.053998349365614,39.82964525520481],[16.054549917340037,39.829620972922385],[16.055302062001886,39.82953000138958],[16.05621866261498,39.82939300299314],[16.056964753138292,39.82925741032536],[16.057686138809956,39.8292222972351],[16.058608314812414,39.82922439691214],[16.059529456076742,39.82933002335228],[16.060220460869555,39.829382238256876],[16.061096802851505,39.82946359483737],[16.062182560923127,39.82949616261157],[16.063006194258246,39.829589723443924],[16.063770935437223,39.82967788795857],[16.064408479859566,39.82979183752608],[16.066077872097086,39.830094559792585],[16.068116105590605,39.83053661177403],[16.06875361824257,39.830664045241804],[16.069725639111777,39.83083844977565],[16.070985612238083,39.831103190399],[16.071651777331102,39.83129631425166],[16.072103378874427,39.83150258131548],[16.072644748154595,39.83163136806698],[16.07271801568962,39.83165048534789],[16.07291009065677,39.83170059481347],[16.073036764506895,39.83138690135621],[16.073057573186816,39.83129968537574],[16.07313024850695,39.83099507912701],[16.07314678371237,39.830925776931274],[16.07320265767337,39.8308409084135],[16.073409125638744,39.83052729536467],[16.073572746598046,39.83036834205939],[16.07364219801941,39.83030087178719],[16.073789700149103,39.83015757513502],[16.074093818004815,39.82988652076955],[16.074170507850063,39.8298193138197],[16.074697638796668,39.8294033587441],[16.075082032400008,39.829151601155196],[16.07525928391552,39.82900669073949],[16.07538011392587,39.82890790705202],[16.075403191576342,39.82888904031258],[16.07546276468549,39.82884033571458],[16.07557010791475,39.828759725423076],[16.075821541410658,39.828570901527634],[16.076025507305083,39.82840901563867],[16.07609795590512,39.828351514288],[16.076160907281164,39.82831163245462],[16.076208207600118,39.828281513512025],[16.076341701844065,39.82819709222468],[16.076641490325542,39.828034758352395],[16.077048446425707,39.82789283135221],[16.077582407348505,39.82765315292143],[16.078011415987955,39.82744238872945],[16.078334352600308,39.82719314668721],[16.07872843051827,39.82691254586721],[16.07893098128872,39.82673257443909],[16.078964597732572,39.8267027042501],[16.0790384330226,39.826637101770466],[16.079362616741278,39.82642826522372],[16.079721893986395,39.826181288724904],[16.08004624431605,39.825999432609926],[16.080566104986218,39.82567961753917],[16.081028823070607,39.825385786620274],[16.081399108039953,39.82512913659994],[16.081466663062454,39.82509017258355],[16.081861665559707,39.82486232730319],[16.08224465825089,39.824672356842434],[16.08264999256952,39.82445853334434],[16.083034022562597,39.824349502825235],[16.08350069039535,39.824235381026114],[16.083872806222573,39.824194559506914],[16.084293208811165,39.824155251489195],[16.084737609716953,39.824150475391626],[16.085310877383463,39.82416476558364],[16.08680643195807,39.824239425476534],[16.087312046169657,39.82436132804064],[16.087779703816082,39.824440596259805],[16.08822514755357,39.82451671155627],[16.088554592241564,39.82461345612983],[16.089034054129627,39.82465149169755],[16.089548621079864,39.824718860374205],[16.089958902050526,39.82477914374044],[16.09040477066199,39.824873209916156],[16.090731948336074,39.82493409990736],[16.09133228984174,39.825153651085294],[16.09162568815172,39.825311071185986],[16.092002106144115,39.825382420764086],[16.092352112772186,39.82542389887558],[16.092472112552702,39.82545131895274],[16.092833478594432,39.82553383544479],[16.09305095502703,39.825546748729344],[16.093242644732566,39.825558130319884],[16.09357010111541,39.82556500211413],[16.094001189532797,39.825516009159806],[16.094167151038526,39.82547124897803],[16.09458442879903,39.82535870760149],[16.094967472631804,39.82525417690356],[16.095292648760886,39.82512622324365],[16.09572345784442,39.82503225955708],[16.095864616043865,39.825000691767556],[16.095941551743636,39.82498035198303],[16.096084156706574,39.82495159405786],[16.096458971566513,39.824951032014525],[16.097101761307908,39.82497449492949],[16.097570015313703,39.82503118617222],[16.09794251936584,39.82500828049821],[16.098352248726084,39.82497858733611],[16.098875746762324,39.824892401199065],[16.099388176058508,39.824797900251575],[16.099820703536395,39.82474881410189],[16.100274957178783,39.82469837279146],[16.100589734614825,39.82462501773001],[16.100950890240952,39.824548826688556],[16.10133487943907,39.824439718844935],[16.101649592519845,39.82437987225],[16.10202249081716,39.82437491284502],[16.10235088032999,39.824403779806154],[16.10244798536344,39.82459617470613],[16.102537576983384,39.82477002056331],[16.102556591367257,39.824805428062064],[16.10264427855486,39.825192054691634],[16.102768236224254,39.82565680702642],[16.102717804869616,39.82612777529883],[16.102771101446045,39.826515907089636],[16.102857978313086,39.82684796186121],[16.102946382521136,39.827063152018425],[16.10297886965622,39.827141954124215],[16.103136316825793,39.827465169739945],[16.1033172286446,39.82783194044765],[16.103368137780656,39.82811223545086],[16.10344355354406,39.82841799918755],[16.103541344900822,39.828686416540116],[16.10371986875628,39.82894535100629],[16.104181053009842,39.829186905167],[16.104588828505424,39.829166301557635],[16.10503203974977,39.82910752706568],[16.10514616473983,39.8290910767921],[16.10552215539893,39.82903687470555],[16.105964316227087,39.828996145910025],[16.10641888768347,39.828878178917066],[16.10710550558533,39.8287189462676],[16.10751117406821,39.82852299876822],[16.107612486182738,39.82849328874369],[16.10791889529579,39.82840343091432],[16.108361168257332,39.82833569116431],[16.10880610227721,39.82832179449979],[16.109155816024803,39.82831824001383],[16.109655568032906,39.82814350493874],[16.109873503193956,39.82855746030116],[16.109947274156347,39.82880485148895],[16.109996789236128,39.82889726240591],[16.110091960172234,39.82907487270833],[16.11036575514323,39.829422402155906],[16.110613663518563,39.82961858018908],[16.111015081990185,39.82983227792559],[16.111473143971736,39.83001550645025],[16.111995797443186,39.83014747926409],[16.112060348303757,39.83016377805735],[16.112387298717174,39.83017961861534],[16.113630492119178,39.8304359073915],[16.114121063260825,39.830369681582795],[16.11463431409575,39.83031104977218],[16.1150977156069,39.83023360988979],[16.11514604333711,39.830225218620015],[16.115375861205703,39.83018045010302],[16.115718146396638,39.830113773614904],[16.115907528001856,39.83006055847228],[16.116110031498053,39.83000365565541],[16.116202659927982,39.82997888226773],[16.11641551963474,39.8299178115274],[16.116784266899714,39.82993478745944],[16.117001704677232,39.829945556879],[16.117305225148197,39.830042909991576],[16.1173812769695,39.830065015352815],[16.117982921539472,39.83023989399488],[16.118261499390908,39.830320866553535],[16.118479926952737,39.830384355073036],[16.118574184759957,39.83030259513914],[16.119108590620726,39.8298415191475],[16.119136997958314,39.829816989401955],[16.119644105193352,39.82937910469572],[16.119706584694498,39.82932374536673],[16.119682645192835,39.828929045214785],[16.119688251401033,39.82888322702675],[16.119723693434818,39.82859359167561],[16.11974432461497,39.82842988880576],[16.119775690004964,39.82818100878965],[16.11979472739765,39.82797690127707],[16.119806077608793,39.82785520512767],[16.119860183965695,39.82753915395401],[16.119936238490848,39.82723983957233],[16.119993375100588,39.82712199799237],[16.120021918295542,39.82706312823012],[16.12009362933155,39.82691523065426],[16.12024269738346,39.826615802061355],[16.12050194522795,39.82628270480701],[16.120669782717755,39.82612340351463],[16.120768814115472,39.82602779436049],[16.12078969295512,39.826008069190856],[16.121033582835373,39.825782024965314],[16.12132259137689,39.82551675517477],[16.12159772253704,39.825216353949024],[16.121838495568213,39.82493607459102],[16.122055896704115,39.82469772093308],[16.122437761468227,39.824399724227966],[16.122934942224013,39.8241306159895],[16.12333945664656,39.82384022896374],[16.123767053684492,39.823575393610895],[16.124078834205214,39.82329072747404],[16.12429747779554,39.82309277720556],[16.124539399779184,39.82287990224538],[16.125183425299824,39.82225531175392],[16.125305369617973,39.82185639325346],[16.125784577365927,39.8211474809322],[16.128649741697473,39.82063316254277],[16.1299043718109,39.8204787736076],[16.130666942563465,39.82038462248042],[16.130783570325676,39.82037028955342],[16.130989876801053,39.82032048111496],[16.13128442597145,39.82024936667637],[16.13143455210197,39.819973920424175],[16.13147123863801,39.8199066109456],[16.131533096501567,39.819793119004224],[16.131993646751564,39.81936877908667],[16.132224872486074,39.81916554106327],[16.132369471570964,39.819026307259314],[16.132477960750986,39.81892046693435],[16.1326584938696,39.81859439314437],[16.132686755751433,39.81841595083392],[16.132702081247015,39.81832627841226],[16.132767384747726,39.81807031094647],[16.134517355717435,39.81717036873073],[16.134838370620933,39.81697505525342],[16.13534039904239,39.8166696138128],[16.136151844936535,39.81710981151625],[16.136692439177146,39.817301325554254],[16.137067693991675,39.817417595877465],[16.137502245431683,39.81755717484571],[16.137936928350243,39.81766974941955],[16.138276525061123,39.81776572048483],[16.138579756388395,39.81786840326336],[16.13867415455583,39.8179003756574],[16.13877087000035,39.81793312150739],[16.139096987456337,39.8178994632565],[16.139142375932202,39.81783360449484],[16.139189533695376,39.817765181744946],[16.139313757156017,39.817584933697425],[16.139359317876306,39.81751882757212],[16.139600787987863,39.81727445799186],[16.139855514047454,39.81710124412788],[16.140180138083636,39.816955196537684],[16.140481946174198,39.81684205102389],[16.14078460776748,39.81675135217659],[16.141097176986335,39.81660155174913],[16.14164201336159,39.816387976042776],[16.142342209621138,39.81634455694611],[16.14265884270319,39.81638794776838],[16.143172254595722,39.81637417770634],[16.143575806620444,39.8160477764719],[16.14383051673699,39.81587457310419],[16.144141221423276,39.81558091088639],[16.14428943598434,39.81520814213188],[16.14433194324501,39.8151012329938],[16.14479387136199,39.81478921695297],[16.145307374679746,39.81474843835768],[16.145668553928168,39.81476387921935],[16.14582157147735,39.814770592937556],[16.146160439109067,39.814803604599355],[16.146468348276827,39.81497347103951],[16.146761830636255,39.81513075962562],[16.147080731572252,39.815335950179445],[16.147376776143837,39.81557404564002],[16.147790409367232,39.81587683542203],[16.148131893445004,39.815990663285895],[16.148486387971484,39.8162296338409],[16.14867811929309,39.816474185976816],[16.148929463019126,39.816912987207516],[16.149108708639567,39.81713581438672],[16.149484958221027,39.81724746579435],[16.14978680057122,39.81712080654994],[16.15009852149082,39.81693504695586],[16.1505020616932,39.8166086217772],[16.151005824676243,39.816586423809035],[16.151178072265687,39.81666894158925],[16.151404939490813,39.81677762383652],[16.15164224514037,39.816983359537524],[16.151730292697803,39.81704924379446],[16.151914311266466,39.81718694088217],[16.152265658753407,39.81724165996369],[16.15263064007539,39.817398980457654],[16.152885457926303,39.81754201489418],[16.152948169471216,39.817577209389015],[16.153219928034222,39.817735827846576],[16.153423529826682,39.81803812429079],[16.1537588056775,39.818512194792596],[16.154088184937375,39.818635747502164],[16.154541306397988,39.81847719984352],[16.154900995295073,39.818373916961654],[16.155576161034144,39.81823309038128],[16.156008573198523,39.81818378402372],[16.156674345868524,39.81810651066432],[16.157059919467983,39.81818157917941],[16.157575607797234,39.818329555433436],[16.15800956122234,39.81837911593346],[16.158348155728508,39.81836712637651],[16.158994346217636,39.81836566673934],[16.159702759819208,39.81836405607847],[16.160156257015615,39.81822346628915],[16.1605650498887,39.81815760301817],[16.160947284891854,39.81796294371648],[16.16144866501442,39.81780587112932],[16.16189925801312,39.81766545299279],[16.162525176270464,39.81738817128537],[16.162988744999005,39.817134467806035],[16.163456759759086,39.817118928423994],[16.163881083846498,39.81716007036714],[16.164193775773864,39.817221628789426],[16.164616089071437,39.81728539191236],[16.16493128362595,39.817328808740314],[16.165528163285437,39.81733223759411],[16.16589031387255,39.81733674937656],[16.166323127907862,39.8173053805373],[16.166856250760635,39.817173307113165],[16.167182901716775,39.81711703667317],[16.167513737313822,39.81724044165748],[16.16805085817639,39.81734206070998],[16.168484410961,39.817373602183395],[16.16909161663361,39.81732239874479],[16.169439987487113,39.81726477277991],[16.169727935281117,39.81734998215817],[16.169980281530183,39.81742465385402],[16.17034862978889,39.81772567594154],[16.170665832839067,39.81788592185174],[16.171161327170413,39.81814755078526],[16.17169107344563,39.818290073972825],[16.172241564870784,39.81843582225618],[16.17261815271843,39.81859237411096],[16.173065989666707,39.81897197698688],[16.17324773921098,39.81918367198987],[16.17347780197049,39.81954277008557],[16.17372627476824,39.81988272127615],[16.173970488336963,39.82040272307002],[16.173811412563456,39.820637752359225],[16.173815208406428,39.820676509648244],[16.173851640902935,39.82101252292236],[16.17412560600623,39.821247422242955],[16.174469018980265,39.821504981011046],[16.17477576181484,39.82176034021661],[16.175238181059562,39.82210948684387],[16.175665749662333,39.82247428542233],[16.176140285096864,39.82295313625201],[16.176485869822912,39.823287041831044],[16.17687930653864,39.82375742411375],[16.177130105996373,39.82413322762421],[16.177527225036297,39.82465287258877],[16.177798604021532,39.824946391447],[16.17800198158976,39.825217162713145],[16.178324883580817,39.82555698789548],[16.178654317946155,39.82581989862336],[16.178963286035234,39.825998637075166],[16.179440207728355,39.826499804779935],[16.179417056753895,39.8266594111428],[16.179386725565607,39.82687711983991],[16.179227759912205,39.827183916290565],[16.178998957331853,39.82742308243596],[16.17886316312604,39.82772843802751],[16.17943331182868,39.828228320591556],[16.17999176906916,39.82875592072033],[16.180714531469025,39.82940373836141],[16.181943877637426,39.83022247902455],[16.181647889065026,39.83062780272829],[16.181829282410952,39.83098090073434],[16.18170635411004,39.83133944912849],[16.181511401142867,39.83156752208613],[16.181314167738563,39.832191613687584],[16.1806575149928,39.832830786755125],[16.18232068602805,39.8334404732669],[16.182745988360352,39.833595644373936],[16.18293197359684,39.833663877033466],[16.183117876597784,39.83373190035927],[16.183489696864985,39.833867938886655],[16.183636754685956,39.83392191123196],[16.1836865663115,39.8339398376531],[16.184081314491596,39.83408430099821],[16.1836983416448,39.83435557298725],[16.183330563349937,39.83470236910122],[16.183099996086053,39.83489667464935],[16.18273653878849,39.83539615940013],[16.182542783782193,39.83584457939494],[16.182474039387174,39.83596225362531],[16.18219101971229,39.83645581117242],[16.181887031607218,39.83707755604815],[16.181751616438973,39.83741438304056],[16.18177927506487,39.83766459052123],[16.182053293835107,39.837912954341576],[16.182176521035927,39.83818420908925],[16.182112782800825,39.83860655203962],[16.182004180090097,39.83915765146839],[16.182139180176115,39.83952714286047],[16.18234204386584,39.83982041730332],[16.18245750208323,39.84025410757515],[16.182369450660723,39.84072296205145],[16.182245399448604,39.84098710746133],[16.18223701137521,39.84105484680135],[16.18221851614098,39.84120417968558],[16.182183575819156,39.84147231635886],[16.18219772895229,39.841655383109675],[16.182216457855695,39.84189763916477],[16.182362117556004,39.842094980678525],[16.18238169135501,39.842121280254034],[16.182516676113146,39.84235132048535],[16.182540880379424,39.84239130487971],[16.18257715419037,39.84245136536568],[16.182623819255888,39.84252856074998],[16.182781382744714,39.84278920825606],[16.182873191768874,39.84296290756128],[16.182926923484455,39.84306456881121],[16.18297245374779,39.843150711559595],[16.183078897597053,39.843399971813106],[16.183206369308273,39.8436984761445],[16.183239020305567,39.843839873955375],[16.18327764552501,39.844007145452444],[16.18332929049572,39.84421718205827],[16.183329198926344,39.84428412882183],[16.183329144070704,39.8443257661592],[16.18332906630834,39.844382839156744],[16.18332784627108,39.84471486360903],[16.183276546885597,39.844900214861504],[16.18319905792381,39.84518196652934],[16.183161236655994,39.845315333642304],[16.182980319854035,39.845596969454455],[16.182939947690546,39.84565743414406],[16.18277348170686,39.845906751968414],[16.182675258747288,39.84603578804778],[16.18265674565194,39.84606010880757],[16.182604950620775,39.84612815484358],[16.182536220296733,39.84621844755485],[16.182491985294696,39.84627124916991],[16.18241361577196,39.84636409691928],[16.182294108896755,39.84650845568098],[16.182256855744747,39.84660022074864],[16.182217912023194,39.84669615068116],[16.182150024809086,39.84686815784555],[16.182120115973827,39.84705859711306],[16.182096059478972,39.84722257950335],[16.182087833262795,39.84736158671665],[16.182078829567853,39.847510833746064],[16.182059694310556,39.847835890136786],[16.182038503863076,39.847963339013994],[16.182005919476243,39.84815932979509],[16.181921231730524,39.84842032193238],[16.18183944553986,39.84867354858598],[16.18181370513378,39.84883577060162],[16.18175506489474,39.84920515446798],[16.18166094411525,39.84975535426271],[16.181658826741938,39.849792496212324],[16.181633286656215,39.85026045494473],[16.18160601325724,39.850524216106166],[16.18158243246865,39.85073598683821],[16.18161494729316,39.85126931254263],[16.181670284703632,39.85163025519289],[16.181712856902383,39.852189950954816],[16.18175206331635,39.85231352580016],[16.181861090723174,39.85265758833784],[16.181974372857326,39.85316788407577],[16.182066099782475,39.8536255310847],[16.182226597544695,39.854191026739755],[16.182240621760318,39.85428623150095],[16.18230460512023,39.85470386135097],[16.182337059616188,39.85511122606692],[16.182287352924686,39.85568116046541],[16.182200831763897,39.856122925721266],[16.1818253047143,39.85659167183486],[16.18165472761017,39.85688569067865],[16.181337462996975,39.8571593817229],[16.181277534206927,39.85721453555256],[16.181226848078904,39.85725872565959],[16.18056343000722,39.85755000241396],[16.18039114355669,39.85762564563432],[16.180306969469083,39.857665348356356],[16.179817434872515,39.857896442301524],[16.17976669325058,39.857920769717964],[16.179070099078963,39.85820720762709],[16.178639349823737,39.85850007802666],[16.178604973892966,39.85852345518353],[16.1783998112283,39.85866278797115],[16.178153162042346,39.85878787141911],[16.1778538290622,39.85893967274189],[16.177775246447446,39.859025012013426],[16.177612744977196,39.85920148471882],[16.177418796680943,39.859412106285816],[16.177331322645948,39.85950249619067],[16.17708697299418,39.85975499005069],[16.17689995515564,39.859948239283874],[16.176880991125586,39.85998037736439],[16.176616133870617,39.860429250150744],[16.17658210155645,39.86050815589113],[16.17642472334894,39.8608730398737],[16.17639578843438,39.86091029676148],[16.176272377454488,39.86106942146763],[16.176197214214003,39.8611662474652],[16.17608172022964,39.86130341609567],[16.176013820126105,39.86138405726686],[16.17594540490003,39.861465310776154],[16.17572900305257,39.861726202392475],[16.175669817639033,39.861855321595755],[16.17557157408733,39.86207150823404],[16.175532492168966,39.86231368951933],[16.175524787389513,39.86236254729691],[16.17548486283634,39.86261413298134],[16.175470903486627,39.86276743307281],[16.17544880153795,39.86301018879163],[16.175436663816303,39.863143488437984],[16.175434403269396,39.86321957419927],[16.17543294960226,39.86326846613033],[16.17542803020072,39.86343401561302],[16.17542568841435,39.86351851279209],[16.175423518219084,39.863600612264904],[16.175420832817498,39.863674179057625],[16.17548005070013,39.86411647735936],[16.175487304667875,39.864170540307974],[16.17552949289542,39.86456327317265],[16.175545390765357,39.86471127142256],[16.17560358353223,39.865008537029745],[16.175633267813858,39.86516017216561],[16.17571629108635,39.86545133270022],[16.175808387667526,39.865774413466724],[16.17585512787167,39.86590458419225],[16.175882859281288,39.865981818011655],[16.17602346931832,39.86637341248927],[16.17606475779222,39.86649196719349],[16.17608649853911,39.8665422652205],[16.17633257312776,39.867100413744225],[16.176551925424228,39.86755014652428],[16.176862517093547,39.868021180946094],[16.177050335126715,39.86829001163585],[16.17706742205254,39.86831206606343],[16.177281028113743,39.86862044051481],[16.17729844798324,39.868644969199835],[16.177359012528214,39.8686043840476],[16.177386451080547,39.86866113666885],[16.177541301243842,39.86898210719936],[16.17783073709141,39.869581308632945],[16.177941795245474,39.869922553326404],[16.178054555691666,39.87036286599247],[16.17831821501913,39.87073860174822],[16.17864051317212,39.87112273795648],[16.17900538530749,39.8714343514725],[16.17916342463928,39.87155219612413],[16.179470241537096,39.871780976926686],[16.17998989032507,39.87208203473966],[16.18047541500773,39.87239305145645],[16.18078337621315,39.872623878021294],[16.180924759564103,39.87273022859638],[16.18119704642581,39.87292566745852],[16.18130693376063,39.87302591159581],[16.18163657191292,39.873326619618865],[16.182016091705822,39.87363808494521],[16.182193399106833,39.87383647240653],[16.18221679614663,39.87386360366527],[16.182349927930446,39.87401309069873],[16.182648387585203,39.87437043396546],[16.183016391887104,39.87469103334363],[16.18304867698344,39.874739629715734],[16.183196814640777,39.874977605636964],[16.183491745318026,39.875298939650605],[16.183573023429823,39.875775625923865],[16.183368771282673,39.876138082263196],[16.18337497122367,39.876498416152046],[16.183251855882045,39.877499722096864],[16.183256810627597,39.877787975549445],[16.18338379734023,39.878372303518994],[16.18356613877079,39.878775881237196],[16.183734618442166,39.87905345539315],[16.18389035362671,39.87926810354077],[16.183989912389706,39.879618460243954],[16.183994247697925,39.87987067319874],[16.18401075795476,39.880149804317135],[16.183948349974013,39.880600924677886],[16.18376670271554,39.8809181182316],[16.18341212754489,39.88138122001409],[16.18303371559423,39.881817539298254],[16.182596676734185,39.88224543722712],[16.18225117473488,39.882555288024705],[16.18175457444091,39.88292073860028],[16.181281514752023,39.88329495023467],[16.180830131327372,39.883569835339436],[16.180356152685263,39.883889998627666],[16.18010262218404,39.88410880324576],[16.17976969027979,39.88447257322182],[16.179518638238463,39.884835503690056],[16.179220469161088,39.88518091254622],[16.179137555586816,39.88531299353999],[16.179121308683165,39.88534477600288],[16.178990156380316,39.885561636969314],[16.17882679739252,39.886094845968856],[16.17870788126923,39.886663671011355],[16.178733303670292,39.887465254441445],[16.178743568632584,39.88806188027147],[16.178798195362724,39.8885099509712],[16.178855849973107,39.88877715693831],[16.178892060606515,39.888944394287364],[16.178926824226696,39.889104323913116],[16.178747830348104,39.8891235767909],[16.177707638011547,39.889234028737555],[16.177710597664547,39.8895127693388],[16.17771974257533,39.889962069803296],[16.17774987416837,39.8903470828591],[16.17779243195769,39.89078079922631],[16.1778233080852,39.89124225472919],[16.17785107890335,39.89161842254226],[16.177929656940364,39.89197792302693],[16.17804080822909,39.89242537370291],[16.178176362002187,39.89281283824272],[16.178452232891267,39.893160061404494],[16.17897081083641,39.893496693933436],[16.179465802415343,39.89366383010605],[16.1799020280593,39.8939110922326],[16.180222334209464,39.89412510297541],[16.180566546546235,39.89444279036588],[16.18089112844802,39.89482128815529],[16.18122414324925,39.895142447940565],[16.181589168707998,39.89543463852566],[16.182028440762412,39.89579417842349],[16.182445646654084,39.8962495650553],[16.18281784812751,39.896721259229054],[16.183185874703426,39.89713922072024],[16.183476420446134,39.897597992958296],[16.18354964810777,39.897912569065475],[16.183578010430214,39.89803704327905],[16.1835135524801,39.8983829459934],[16.183391139292066,39.89853944401056],[16.183250919999498,39.89871870945686],[16.18306546770488,39.898884946657965],[16.18297455365289,39.898966440292845],[16.182857190051042,39.89907164532137],[16.18264562060959,39.89923943429097],[16.18248784897324,39.89936455426438],[16.182410159294154,39.899389956027015],[16.182045941820785,39.899509041182434],[16.181848564261404,39.899604258451696],[16.1815975183343,39.89972536693503],[16.18146777638254,39.89978795523229],[16.181297872463503,39.89992249712344],[16.181005324711375,39.900154156253166],[16.180935871431437,39.900216427207745],[16.180761069947497,39.90037314977805],[16.180600935473443,39.90051672252843],[16.180422200513668,39.90069827427427],[16.180256503492465,39.900866581484586],[16.180236910406943,39.90094435097381],[16.180181797040728,39.90116310991235],[16.18016784594661,39.90121848611093],[16.180210106830284,39.90161121916643],[16.18022651463546,39.90176369373482],[16.180250516874523,39.90204756140704],[16.180097203890725,39.90242404883129],[16.1800491686301,39.902520979910214],[16.179970680936098,39.90267935913634],[16.179945689306276,39.90296637890463],[16.18002734248308,39.903247153282045],[16.180159508173077,39.90341385585553],[16.180374047463516,39.90368445389151],[16.180533021511337,39.90376617839641],[16.180648602790978,39.90382672434846],[16.180941471183353,39.90405402514384],[16.181164636109788,39.90425305464138],[16.181312220874577,39.90438634006532],[16.181655166610728,39.904648393762685],[16.18168256119864,39.90466866020163],[16.181805544940534,39.90475963613053],[16.182047823884748,39.904938859732546],[16.182251746250262,39.90508309437689],[16.18243741733498,39.90521441810887],[16.182544722367872,39.9052903133427],[16.18280220555897,39.9054986906382],[16.182875072892884,39.90555766143487],[16.183046111770587,39.905906921480906],[16.183049086881955,39.90593318980492],[16.183086082020807,39.90625982884218],[16.183131816494218,39.90626466034457],[16.183461176375232,39.90629945384806],[16.183724042155,39.906329090213234],[16.18380086146109,39.90633624504851],[16.183988533517113,39.90635657059741],[16.184317758544275,39.906432773826054],[16.18444803977821,39.906462927981465],[16.184765042253215,39.906519654840245],[16.18491610513632,39.90656799367596],[16.185153407392708,39.906643928435365],[16.185229698626717,39.90669712302322],[16.185496932560376,39.90688345269259],[16.185535115288157,39.90689992761849],[16.185906906538055,39.90706034911348],[16.186012700251755,39.907098218948384],[16.186145070005352,39.90714560168503],[16.186495679525912,39.90727110420721],[16.18675097873572,39.9073527173346],[16.1868961209177,39.90739911537609],[16.18700197096952,39.90748645710089],[16.187134364682876,39.90759569945917],[16.187296680894082,39.90791796542292],[16.187365044364622,39.908053695247794],[16.18741339640634,39.90809767376517],[16.187672316667026,39.90833353263402],[16.187460176499556,39.90853461515766],[16.187415266460597,39.9085774487043],[16.18719460595265,39.90878464281437],[16.187146578742926,39.908827656988336],[16.1869516721237,39.90900222536367],[16.18692695838478,39.90902143442796],[16.18661817635774,39.90926143153786],[16.186572015895216,39.90931330239657],[16.186408547556432,39.90949679645221],[16.186120811082294,39.909791295402385],[16.186078188403837,39.90983491991384],[16.185862738716537,39.910012211359195],[16.18581202790068,39.91005394089763],[16.185510400148495,39.91017170922526],[16.185299522885362,39.91021796127716],[16.18508070000175,39.910265955821664],[16.184724708506728,39.91031331078518],[16.184600982937933,39.91032893032863],[16.184139281099704,39.91029689361636],[16.183721656686533,39.91026934403548],[16.18355250567308,39.9102718324894],[16.183159967634808,39.91027760823845],[16.182966053122662,39.910249053384575],[16.182805356095084,39.91022538937364],[16.182752044088215,39.910217539508565],[16.182164098036903,39.910195664426055],[16.18198483526596,39.910250328716074],[16.181796632784046,39.910306515649786],[16.181361120029234,39.91043036389065],[16.18101159421867,39.91053320640598],[16.18075514448634,39.910625727202174],[16.180605480092357,39.91067958876714],[16.18046854521453,39.91072626231167],[16.180103340214117,39.91084984208113],[16.179661403073446,39.91099850676763],[16.179303152509693,39.91108575735548],[16.17854310331703,39.911271075671756],[16.178414681655784,39.91130412741468],[16.178193795364418,39.911361102615],[16.178080412820883,39.91139008968306],[16.178028034997222,39.91140809417566],[16.177696992070228,39.91152191521424],[16.177359072443387,39.91164192072066],[16.17696419635114,39.911873428630024],[16.17653242903164,39.911975550540525],[16.176499286534412,39.9119834725696],[16.175965346228654,39.912250484677536],[16.175454086623827,39.91227344232238],[16.175171399781114,39.91226839587732],[16.17483007487878,39.91224464250287],[16.174757698893945,39.912254944945886],[16.17449333952727,39.91229257401057],[16.174178149612903,39.91240665154155],[16.173989261714624,39.91251749893405],[16.17380943521358,39.91262302999108],[16.173527273479202,39.91273660381773],[16.17341285139527,39.91278266086494],[16.17307762935807,39.912956458982976],[16.172774800589938,39.913132746067504],[16.172438558015667,39.913324611758064],[16.17189724602508,39.91366417926829],[16.1713275730601,39.91395602547622],[16.170934543823382,39.914205395491486],[16.170435398686934,39.91451534960294],[16.169928625321617,39.91493374206278],[16.16920182388223,39.91563573738476],[16.168994184644884,39.915802921763465],[16.168799322563448,39.91596216584891],[16.168510795147117,39.91619154067883],[16.168418941626218,39.91624673196976],[16.16803540482111,39.91647751209239],[16.167826853997912,39.91658200657513],[16.167738646140236,39.916626125132616],[16.167687093016575,39.91665210863565],[16.167211170786132,39.916807646817674],[16.167101134872464,39.91682510452572],[16.166791653780777,39.916874207007425],[16.166712638547498,39.91687368712479],[16.166464251798523,39.91687205255437],[16.166006863479762,39.916837523885604],[16.165597250242183,39.91683593941187],[16.16522533229131,39.91698050982225],[16.164917065463133,39.91707943872267],[16.164585291768997,39.917223985203165],[16.164324372852708,39.91733787327857],[16.16359461161538,39.917468674851165],[16.16320991298113,39.91753305250893],[16.162600977506447,39.91754837072402],[16.162284381863557,39.917496051062194],[16.161594984392167,39.9175658493431]]]}}]}
