{"type":"FeatureCollection","metadata":{"code":"078041","referenceDate":"2026-01-01","sourceDbfExportDate":"2026-02-18","upstreamArchiveUrl":"https://www.istat.it/storage/cartografia/confini_amministrativi/non_generalizzati/2026/Limiti01012026.zip","sourceManifestSha256":"70ac8256c4785dc6ed2814c32b6965ae76f9161b51abaa1660059e1c6cbd8ca6","license":"https://creativecommons.org/licenses/by/4.0/","attribution":"Istat, Confini delle unità amministrative a fini statistici al 1° gennaio 2026, versione non generalizzata.","modifications":["Converted from WGS 84 / UTM zone 32N (EPSG:32632) to RFC 7946 WGS 84 geographic coordinates.","Converted from shapefile to per-municipality GeoJSON without geometry simplification."]},"features":[{"type":"Feature","id":"078041","properties":{"code":"078041","name":"Civita","alternativeName":null,"regionCode":"18","regionName":"Calabria","territorialUnitCode":"078","territorialUnitName":"Cosenza"},"geometry":{"type":"Polygon","coordinates":[[[16.287086817196677,39.90315975607062],[16.286869332409466,39.903407415280455],[16.28645442330848,39.90376201567594],[16.285806015565704,39.90410439038093],[16.285648867247943,39.904206059375205],[16.2855286955534,39.904283852389966],[16.28507441972676,39.90446098794436],[16.284681595984043,39.90461175929352],[16.28422502866353,39.90472607415167],[16.283677644576056,39.90478314131368],[16.283162810209987,39.90476166466495],[16.282890192155744,39.904724891546095],[16.28267123901687,39.90469823404294],[16.28231907671272,39.90468001830709],[16.282252868168282,39.90467109241664],[16.282189126969925,39.90466518490753],[16.28206120935018,39.90465056495006],[16.28198919183625,39.904642335856984],[16.281675007701853,39.904599193214175],[16.281226093420237,39.904470083005705],[16.280872545768702,39.90427646660237],[16.28075379845025,39.90419588469283],[16.280623877653543,39.90410771976293],[16.28020716305878,39.90381462635924],[16.279947990872184,39.90357456805322],[16.279825476334562,39.90354347974764],[16.279607289987304,39.90348811450949],[16.27900976342518,39.90348534347891],[16.278948900424275,39.903507365070716],[16.2786483902729,39.903616106001714],[16.278416433096538,39.903745520697655],[16.27822107293745,39.903854510666875],[16.277721383260896,39.90400299193632],[16.277115793296648,39.90417166013065],[16.276508894993693,39.90425944200811],[16.276039597602672,39.904185586391215],[16.275592214750205,39.90401587593339],[16.275083019397147,39.90381405661274],[16.27467292947441,39.90362398678725],[16.274284844392906,39.90354500159825],[16.27366011064466,39.90335497808884],[16.273181075257853,39.903313214746845],[16.27267869716284,39.90335388433882],[16.2721875423181,39.90333537938005],[16.27171692611227,39.90319409356747],[16.271351687600546,39.90305517241909],[16.27112439233286,39.90284007879039],[16.27072316672305,39.90256847052765],[16.270344111732843,39.90232693734309],[16.269857763396022,39.90207869477179],[16.26943404840028,39.901938938082814],[16.268881821829854,39.90175782450703],[16.26834248872576,39.9016568409503],[16.26788433738278,39.90157775184629],[16.267367380819103,39.90141239199174],[16.266837378809747,39.90124785160924],[16.266391405683525,39.90111849631677],[16.265990420870455,39.90098630615153],[16.26542658675556,39.900805887696436],[16.26504797965528,39.90060930398621],[16.26495280673793,39.90054050632096],[16.26486072994321,39.900476387363554],[16.264763579061654,39.90040672531577],[16.264431414202736,39.900193726634505],[16.263747486479854,39.89988590906971],[16.264201234440925,39.89958206641612],[16.2643341443737,39.899493063722076],[16.26442964071173,39.89942911628795],[16.26474420609037,39.89919498981629],[16.264812606638955,39.899144080640944],[16.265039893705243,39.898998681051665],[16.265085126428048,39.898969778804336],[16.26514762422434,39.89892959973132],[16.265290311056333,39.89883704079347],[16.265493242508064,39.89870540076475],[16.265792936496045,39.898501526666735],[16.265835660964644,39.898472462736116],[16.265886792471438,39.898437678717436],[16.26628969345491,39.898020377771026],[16.266335368890743,39.897973071251194],[16.266363492441503,39.89794297273802],[16.26659890302318,39.89769104067619],[16.26673939936297,39.897542189301],[16.266894951384742,39.89737548978458],[16.26711233405379,39.897058326380055],[16.26725738101079,39.896686863862215],[16.267275814901186,39.89660868090802],[16.267334901094397,39.89635808459331],[16.26733834456435,39.896154648467736],[16.267336895457333,39.896016081005044],[16.267372299690866,39.89585850900644],[16.267393699946226,39.89575616788069],[16.26744505188191,39.895456032548374],[16.267574135330946,39.89521235891108],[16.26762748485492,39.89511165134618],[16.26767220701812,39.89507106687637],[16.26783524603905,39.89492310814],[16.26787859966416,39.894873125864834],[16.268029748722427,39.894698874924494],[16.268049884544233,39.89467566378127],[16.26809198223173,39.89439859092048],[16.268110674101607,39.89432986569739],[16.26815919732922,39.89415144363539],[16.268502266658377,39.89372494917128],[16.2686420198394,39.893581953055445],[16.268788047654155,39.893432538656306],[16.269122209004916,39.89311456225214],[16.26945142797396,39.89259898135155],[16.269531130058322,39.89248379486519],[16.269702041896746,39.89223679394743],[16.269826882817764,39.8919398261432],[16.26985934599794,39.891862448411246],[16.27002869820515,39.89173827529637],[16.270054801288193,39.8917191233748],[16.270230622193864,39.89159012106019],[16.27034240231901,39.891508108426216],[16.270374045258787,39.891490992425574],[16.270428196837013,39.89146170426666],[16.27065305196691,39.89134008438426],[16.27089805125577,39.89116697827652],[16.271164932197685,39.890965410800625],[16.271209727824814,39.89093160793768],[16.271439736544842,39.89074939761935],[16.271475018943313,39.89072144691387],[16.271879547890585,39.89048900195876],[16.271919085245663,39.89046801302991],[16.271989841273108,39.890430452648424],[16.272331481014813,39.89024908913851],[16.272542317854068,39.8901338791909],[16.272768889998744,39.89001007145296],[16.272884290560565,39.889957303908574],[16.273097196000684,39.88985995243666],[16.273350882264452,39.889743952119375],[16.273656582305456,39.88962211715357],[16.27376689723477,39.88957827344287],[16.273818770849736,39.88955396608332],[16.274078789411742,39.88943212610829],[16.27421300938398,39.889369232709804],[16.274243905355696,39.88935475578141],[16.274280459953054,39.889337167062905],[16.27460336267676,39.889179128810234],[16.274895471117897,39.88899872051733],[16.274927948252877,39.88897857353749],[16.275193116973725,39.88875566760053],[16.27524027571132,39.8887160315892],[16.275504096445875,39.88850595540788],[16.27560139696084,39.888401867904065],[16.275709913554483,39.888286027946215],[16.27602118266359,39.88802797919991],[16.27632213114824,39.887865032133575],[16.276692696542664,39.88769771161357],[16.277532879548122,39.88721840459456],[16.277978281121854,39.886964308076195],[16.278555592933174,39.886586004043906],[16.2791663760373,39.88613809108626],[16.27971117190175,39.88582479558008],[16.279972201812253,39.88570975373919],[16.280128137701055,39.885641026924255],[16.28023507674474,39.88559292770587],[16.28060087867719,39.88542773832585],[16.28079290206927,39.88534734620025],[16.281055866920255,39.88523608101316],[16.28135141841042,39.88510831066851],[16.28138186605429,39.8850951081036],[16.281506686700112,39.88504118428821],[16.28181878055711,39.884888641267814],[16.281907251733994,39.88484407710163],[16.282031055091906,39.884783155988565],[16.282484669081438,39.884609520266295],[16.28302903076122,39.88440983415403],[16.283134873603597,39.88436208404188],[16.283458343160962,39.88421619703695],[16.283587872632804,39.88417460930367],[16.284152650286146,39.883993245377056],[16.28456402694771,39.883861230914405],[16.284713426388397,39.88380117201381],[16.285198878657162,39.883602476230195],[16.285276140301935,39.88357773281917],[16.28568873467251,39.88344559522652],[16.2858382715908,39.88337293112502],[16.286030461979784,39.8832795388743],[16.28607183662881,39.88325943329934],[16.286379773419654,39.882974345826824],[16.286416012468052,39.88294079531189],[16.286528500497266,39.88279822718091],[16.28661025682969,39.88269460811615],[16.286785349337542,39.88233214946285],[16.286859066466985,39.88217954664559],[16.286876168649528,39.882152008438176],[16.287051693188005,39.88186935373322],[16.287362213700757,39.88159894416657],[16.28739798225388,39.88156857659293],[16.287620467324295,39.88137968707721],[16.287694238255188,39.88131705620528],[16.287931146697343,39.88109187370436],[16.28798321397523,39.88104238300736],[16.28819058919734,39.880893814027715],[16.28834129713762,39.88078584193786],[16.288471020008586,39.880678251766206],[16.288652481415237,39.88052774835765],[16.288865428116637,39.88040132171493],[16.288940797254433,39.88035657616517],[16.289015481575795,39.88030779004563],[16.289253364933444,39.88015239978218],[16.28945613273943,39.88006082955586],[16.28956765837811,39.88001044469911],[16.28966673812886,39.87996573706962],[16.291583462057286,39.879100828952225],[16.292278099368815,39.878701537620785],[16.292762468306773,39.87832904114379],[16.2931084064178,39.87808224550673],[16.293338775385603,39.87787424563495],[16.293677867839786,39.877384953068656],[16.293710713655866,39.877313925195566],[16.2938829403793,39.87696708010746],[16.293957250435465,39.8767759867358],[16.29397596879771,39.876720529952664],[16.294047960840107,39.8765428151473],[16.294108259941144,39.87640879812981],[16.294216744149036,39.876167771859066],[16.294285733903305,39.8760216610651],[16.294420405551097,39.87573653133086],[16.294633236588254,39.87530921013428],[16.29477963163922,39.87503904138057],[16.295205954430113,39.874670189185636],[16.29537884050099,39.87444332277425],[16.295687304239564,39.87403694416837],[16.29582060750652,39.87378110870214],[16.29606091766614,39.873392528027075],[16.29645258917631,39.87323280264719],[16.297000033590503,39.87295974446641],[16.297273064064143,39.87265906448229],[16.297684951580887,39.87223714704739],[16.298235159727053,39.87204488941302],[16.298579865745214,39.8719241157728],[16.29889070468224,39.87154007722139],[16.299078986603238,39.87103331859871],[16.29946249940386,39.87082460942914],[16.299640844824125,39.87048493824637],[16.299678879102515,39.86995171927945],[16.299730600075733,39.869629053890755],[16.29972528063841,39.869556537563],[16.2997008884317,39.86922616898674],[16.30003383620474,39.868899193726314],[16.300225074017327,39.8686531753549],[16.300219290087455,39.86833864378719],[16.300166742003782,39.867941612798965],[16.30013624321986,39.867669126637956],[16.30003760229356,39.86740095247186],[16.30044126865536,39.866957048733674],[16.300586117621624,39.86672747198337],[16.300641148023374,39.86653591377813],[16.300680770600895,39.86640161450608],[16.300714663661292,39.866266699835734],[16.300784838334135,39.866004112213176],[16.30089084483129,39.86564485787596],[16.30096067961372,39.865408187069264],[16.30097365904563,39.86483155869941],[16.30100187558733,39.864769022973405],[16.30104602435943,39.86467118032077],[16.301209845116585,39.864307991622596],[16.301261108042986,39.86419283816297],[16.301399351697228,39.863882422619],[16.3014121582646,39.863769895536336],[16.301422018158405,39.863681569015306],[16.30143854293652,39.863538069936816],[16.30148165552874,39.86316986708258],[16.30160177916702,39.86293389640082],[16.30174693726124,39.86248834793697],[16.30195361422599,39.86223685535671],[16.30220539009695,39.8619015253313],[16.302372155267143,39.86153559027349],[16.30244981947803,39.86129224414249],[16.302513572401462,39.86098681802691],[16.302789891003858,39.86070392207451],[16.30319548430622,39.86053878095479],[16.303481025907644,39.860219314088],[16.303322404292103,39.8600241122536],[16.303181971723543,39.85985126984837],[16.302908902268424,39.85960313281112],[16.302303751003304,39.859771912514844],[16.302007528321948,39.8601280389908],[16.30180265817733,39.860451407059806],[16.301608427559742,39.8607785972749],[16.301379482640574,39.86105399736676],[16.301210493661266,39.86128961617882],[16.30101544413443,39.861499891041674],[16.300700826162192,39.861573790043686],[16.300610890775765,39.86153796080729],[16.300426041944196,39.86146429498452],[16.300252764786244,39.861395235470695],[16.300194546538883,39.86133114722711],[16.299932003638798,39.86104211898365],[16.29957188873445,39.8605520783624],[16.299306755789768,39.860172992522564],[16.298972520381746,39.859816263963836],[16.29862678119879,39.85940629049083],[16.298300873117213,39.85897706000855],[16.297988980058634,39.85854242811532],[16.297637816831674,39.857903375427746],[16.297560149142427,39.85760197569486],[16.2974861135191,39.85731466770195],[16.297444510194275,39.85714813266947],[16.297323411638025,39.85666368760546],[16.297230222792432,39.856035309865945],[16.297148560137128,39.855460152167325],[16.297101754754284,39.854828840603275],[16.29704544032055,39.85440952924661],[16.297048280453595,39.85384704798181],[16.297086110102295,39.853462282551305],[16.297113806310648,39.853304130257385],[16.297151466125104,39.85308926724834],[16.297186156598563,39.85288501065057],[16.297318203094093,39.85210746616995],[16.29741824238692,39.851826309783036],[16.29745051918809,39.85177875660206],[16.297635200710488,39.85150669657293],[16.297630824382573,39.85121906996702],[16.297646750836872,39.85093015918345],[16.297922602266024,39.85062930232276],[16.298245521617968,39.85048291701435],[16.29854642543767,39.85021196375477],[16.298306840084972,39.84990772650637],[16.29808826799692,39.849458217304694],[16.2981864128152,39.84910562221125],[16.298144874221872,39.848811354811794],[16.29791965222007,39.84858717082454],[16.297738883143026,39.84835569771029],[16.297557270248163,39.84804779182],[16.297965811510128,39.846649908097376],[16.297982773775793,39.846315935860396],[16.29783091452358,39.84584869980262],[16.297746811975262,39.845579622533776],[16.297551308909046,39.845223104060324],[16.29742950428562,39.844969898616384],[16.29723927976765,39.84462205534263],[16.29693612149444,39.84422736626306],[16.296699787723067,39.844021884429004],[16.296436130172797,39.843683180340236],[16.2962385345741,39.84339075900793],[16.296205826442268,39.84334235292527],[16.296092152644817,39.84312098965765],[16.29597760653859,39.842897925195],[16.29587860151943,39.84259829985879],[16.29577638014478,39.842213399396215],[16.29576260613458,39.84195679958372],[16.295758571771444,39.841881626002326],[16.295701901912267,39.84140387182395],[16.295870725915982,39.840961350392284],[16.295962429940616,39.84078393544563],[16.29603610760777,39.840641401093244],[16.29605342314452,39.840607905951074],[16.29617556725888,39.84034376872588],[16.29627054620406,39.840111603620514],[16.29631914346977,39.83999281035745],[16.296405296438376,39.83959599839308],[16.296377738171525,39.839323325380576],[16.296324245216898,39.83897132962811],[16.296295717132935,39.838703232649536],[16.29607804399865,39.83831662250437],[16.29588601416484,39.837923913502436],[16.295735897587043,39.83758252283759],[16.295600265359724,39.837240216125316],[16.29554163606384,39.836963513594014],[16.295524079827963,39.83688064418275],[16.295472342645283,39.83664100828103],[16.295340017987918,39.836343469281374],[16.295254517540574,39.83607447736041],[16.29512628831456,39.83565072120736],[16.294923119596,39.83527669791254],[16.295005517913705,39.8348171442126],[16.295106566290556,39.8344643688982],[16.295114318641367,39.83416698394222],[16.295374460930095,39.83370518414812],[16.295826656605364,39.83360911703059],[16.29626676705287,39.83352280488998],[16.29648836341235,39.833333823227974],[16.296581334917445,39.832859634110335],[16.296611279789506,39.832565341754695],[16.296770289307073,39.83220889925089],[16.29706735636747,39.83190963840226],[16.29709311102561,39.831883409963545],[16.297213599334775,39.831645539621974],[16.29749967536732,39.83124957172235],[16.29774061781768,39.83099142596122],[16.298004337859023,39.83067333675078],[16.29824369604603,39.830482766273036],[16.298621903099853,39.83014394707229],[16.298862815621852,39.82989928943924],[16.299109387160904,39.82959623617579],[16.299150968409894,39.82954399622049],[16.29920382783293,39.82948365176155],[16.299392635522498,39.8292719667493],[16.299439904959662,39.829201686794846],[16.299765412042525,39.828717583958046],[16.299972876791088,39.828487900569044],[16.29999379873658,39.82846475826446],[16.30017484990262,39.828192394681246],[16.300369412554502,39.82793715930312],[16.301609484106642,39.826158276212674],[16.302677717601203,39.825217976425044],[16.3034121884957,39.824307784927605],[16.303633315834517,39.82372697700035],[16.303049163590952,39.82365149659026],[16.30269846902062,39.82372766046651],[16.302069285786086,39.8237360070011],[16.30170369760774,39.82376813238981],[16.301123027778864,39.82391732757632],[16.300486360952313,39.82406108895605],[16.30011167097942,39.824048790081406],[16.299556133780815,39.82389950967754],[16.299288590432166,39.82364417434815],[16.2991632004162,39.82352398271546],[16.298971012188275,39.823239245243116],[16.29887402685178,39.82291699700735],[16.298750391871074,39.82264590626857],[16.298757707270223,39.822015650288144],[16.298701635358572,39.821776290412394],[16.298242975552725,39.82174232115736],[16.297577059192122,39.821761938330894],[16.297057490612058,39.82148439483692],[16.296541796241517,39.82132937211913],[16.296499649862074,39.82131383693045],[16.29627174854047,39.82123435648586],[16.296237436740636,39.82122275597528],[16.296205998342483,39.82121183209407],[16.296149368535225,39.82119215708293],[16.29606958671129,39.8211644314874],[16.29601935055869,39.82101865358426],[16.295937955567396,39.82078247664013],[16.295896626697925,39.82066254632978],[16.29590029287209,39.82057633250321],[16.295919463029303,39.82012527287619],[16.29592078238295,39.82009420544827],[16.295989862020225,39.82000956269997],[16.29603250613081,39.819958408451406],[16.29611187471108,39.81986058313663],[16.296156763323737,39.81980506012654],[16.296195632279275,39.819757434731876],[16.296216867117796,39.81972103695143],[16.296344876736292,39.81950070935334],[16.296410954104626,39.81925810175665],[16.296393047695773,39.81898030324331],[16.296350541648504,39.81894643674522],[16.296304577011657,39.81890984507661],[16.296213663836962,39.81883747104832],[16.296190894965534,39.818819168439425],[16.296026526597455,39.818688493442544],[16.29562401838235,39.81859247940101],[16.295252344058888,39.81852600430329],[16.294921822715615,39.8183939462862],[16.294554607483867,39.818259711846096],[16.29424905863562,39.81814034886377],[16.293824644670522,39.81793698993634],[16.29378787387903,39.81789962176544],[16.293612131808867,39.81772102664696],[16.29395013271464,39.81757706151788],[16.29434380350097,39.817409401594006],[16.294597837986096,39.81734264375082],[16.294654706386257,39.81732789624718],[16.294749560669715,39.81730276623878],[16.294839848600617,39.81722304644814],[16.294871567228075,39.81719504083271],[16.29490496887732,39.81716554867166],[16.29494559989292,39.81712967314739],[16.295128200341633,39.81696844707545],[16.29519964932236,39.816920923555806],[16.295500884664225,39.816728955082006],[16.29557682438559,39.81670051086686],[16.295665265291873,39.81666846739176],[16.295929036227257,39.8165721215798],[16.296060973277473,39.816608813799256],[16.296113140043698,39.81662332161558],[16.2962536437569,39.816661862493504],[16.29641528976609,39.81670596984818],[16.2964803854354,39.81672544242505],[16.29673322904776,39.81680973899461],[16.29684342253512,39.81684648077103],[16.29716341325765,39.816880525107585],[16.297757070539927,39.816945949819385],[16.297824401150773,39.8169307550649],[16.298254594931425,39.81683366980429],[16.298557730778928,39.81681759296613],[16.298698405930622,39.81681013252363],[16.29894975410618,39.81698768739619],[16.299330054393682,39.8173684819693],[16.299547270244087,39.817520345017215],[16.299613016770962,39.8175664750648],[16.30010498325917,39.817642389160994],[16.300144958865403,39.817603656263444],[16.300325461220993,39.81742249959927],[16.300341932273803,39.81732910945647],[16.300376806504854,39.81713138531979],[16.300816697659208,39.81681115722372],[16.301144237160806,39.81670945423584],[16.30137566325382,39.8166301890352],[16.301685774980182,39.816522255535155],[16.302300910038724,39.816254562267176],[16.30255557734978,39.81608934120166],[16.302796778398093,39.8159166288587],[16.30305003889317,39.81576115677805],[16.303222290774414,39.81561998971332],[16.303246061533073,39.81559978145076],[16.303282057933732,39.81557097835565],[16.303638300724277,39.815314517131064],[16.30368170616566,39.81505086299804],[16.303686450977196,39.81480763714183],[16.303622304877045,39.81446531209387],[16.30352354011,39.814044215695],[16.303503410504245,39.81364963206576],[16.30353428117695,39.813377759050354],[16.303690116132618,39.813142973882314],[16.30398061486073,39.81294014657335],[16.305201851442607,39.81278188121249],[16.30541229690045,39.812763208695195],[16.30555554482285,39.8127501852525],[16.306278159382277,39.81268674724873],[16.30684565005632,39.812627259873686],[16.30692858828364,39.81261857337126],[16.30735071960965,39.81251537684443],[16.307766954132926,39.81246652156446],[16.308086274549275,39.81239678603212],[16.308139346695118,39.812385195518196],[16.308173113308726,39.81237782087617],[16.308659208213275,39.81212211311695],[16.30871090600477,39.81209064056969],[16.30913479121816,39.81183264760454],[16.309352172938492,39.81170034649907],[16.30964155301896,39.81156956471779],[16.31028105727961,39.81137160779197],[16.3117983578422,39.811104526382586],[16.312190445874744,39.811061698949885],[16.312624178166306,39.81093075465285],[16.313063239921146,39.81078146897376],[16.3133777168149,39.81065358427574],[16.31367735524296,39.81044116163586],[16.313961657703175,39.81015322520443],[16.314309163203177,39.80988378096439],[16.314569764287697,39.80961986209577],[16.314903759955705,39.80934677671026],[16.315273927424943,39.809098390200226],[16.31563277442693,39.80899016500913],[16.316085668088984,39.808875995403056],[16.316518462655868,39.8088619883987],[16.31696374669744,39.80882034274677],[16.317357605358737,39.80883126216447],[16.317839739124874,39.80879175252349],[16.318234187675987,39.80877123393804],[16.319028122541393,39.808572446356365],[16.31968655056626,39.808265263778736],[16.32014696504245,39.80801565252514],[16.320507425810888,39.807772361218944],[16.320877489476196,39.807577932040616],[16.321365289933084,39.80740754136411],[16.321826485913178,39.8072883080892],[16.322269278267434,39.80720172998323],[16.322663803146803,39.80711371807322],[16.322973826993444,39.807029649061725],[16.32307484073623,39.807002277102434],[16.323641308147995,39.80685835530105],[16.324002042753182,39.806581800517506],[16.32404373265272,39.806549839958585],[16.32437450633539,39.80611666239268],[16.32444414215954,39.8060254043627],[16.324709119281884,39.80578294605603],[16.324982211620277,39.805513697469024],[16.32522241249993,39.805291531509916],[16.32546791538487,39.805091508246235],[16.32569761128399,39.80489125803444],[16.32582302619059,39.80478038452395],[16.325918431849377,39.80468233367744],[16.326042076912497,39.80455571252784],[16.32606396234351,39.80446509443131],[16.326114894913655,39.80425419958564],[16.326240873497035,39.804110869488625],[16.326399687184672,39.80393027228233],[16.326724882360015,39.803671218358886],[16.32698721609494,39.80350610853961],[16.327113690598072,39.80276483448097],[16.327907046420556,39.80256152686265],[16.328242215622943,39.80243676771184],[16.32834119103739,39.80203912336844],[16.328450598112575,39.80180725577978],[16.328864160774636,39.80150208604857],[16.329384853151485,39.801244097082176],[16.32957010111566,39.800944433548466],[16.329561013279818,39.800504179506795],[16.329273391800612,39.80007710319081],[16.3290518723841,39.799681812194876],[16.328859713867306,39.79934313874763],[16.328736581295473,39.799009073070394],[16.328745128238378,39.798747624546884],[16.328948324131648,39.79838384412689],[16.32933445002131,39.79801294171758],[16.32980926633305,39.79773538551621],[16.33032904053218,39.797414473229196],[16.330502843767988,39.79728186667022],[16.33068809021721,39.797140483470436],[16.331065861753036,39.79688255494206],[16.33139742021212,39.796641812062894],[16.331527779283558,39.796546807948374],[16.33198562318545,39.79658497421904],[16.33232763591303,39.79674318667806],[16.332748122182547,39.796891844332016],[16.33314737445238,39.796920370045385],[16.33351725297795,39.79686552529274],[16.333950204462862,39.796770777213965],[16.3348803985202,39.7971657553344],[16.335080194379586,39.79723430853377],[16.33513824409722,39.7972542402801],[16.335278414817665,39.79730235871527],[16.335553080366935,39.79743289115929],[16.336157801026992,39.797318430074995],[16.336560019279624,39.79718041012685],[16.33688408839403,39.79712419670814],[16.337052481433247,39.797095154598],[16.337491727928764,39.79705375823985],[16.337962337366996,39.79705530540695],[16.33841597343113,39.79711191834011],[16.338902298875393,39.797296920549975],[16.339519924042232,39.79744207953143],[16.339576948228007,39.79747627934752],[16.340111685977277,39.79779570267966],[16.34055103891806,39.79797265412548],[16.340995084122106,39.798121873009435],[16.34135011747361,39.79830620555102],[16.341691748670634,39.79839244478175],[16.34213408341338,39.79843172193684],[16.342482503554585,39.79842751868184],[16.34283521280613,39.79836916649019],[16.343113401739902,39.798230022727594],[16.34334017685335,39.79803587183518],[16.343856375925743,39.798074771519836],[16.344210060237227,39.798191725101496],[16.344699501018656,39.79817406468908],[16.345025706888567,39.798225271946635],[16.345675036704936,39.798570800907456],[16.345694091187063,39.79859758443661],[16.345757657673175,39.79869051257977],[16.34592778522584,39.79893699944984],[16.34597103648251,39.798987921493804],[16.34601559637284,39.799039169575245],[16.346118340651383,39.79915871471786],[16.34660713527158,39.79910974385847],[16.34703171447952,39.79909620143617],[16.347423575486154,39.79908919935401],[16.34794826859256,39.799055828319176],[16.349022017737312,39.7993428242485],[16.349746439523205,39.7993956503723],[16.35040651649514,39.79937155467838],[16.35097850113422,39.79934862662669],[16.35154355848114,39.799267692726865],[16.3519046508842,39.799208702904046],[16.35230828682869,39.799070519516775],[16.35269024740418,39.79889325345598],[16.35306299517373,39.798739033738755],[16.3535455006581,39.798515209301065],[16.35423013936703,39.798678165523675],[16.354562002095786,39.798917917796985],[16.354959245076216,39.79914895067143],[16.35535868651275,39.799258217669525],[16.35571573515366,39.799173080538154],[16.355871368852366,39.799135997166175],[16.356256668703338,39.798989977358545],[16.35652954775254,39.798788143392024],[16.356726688805775,39.79855965091737],[16.356977411282685,39.79831425428875],[16.357274441720712,39.798065903989595],[16.357615259352503,39.79800819073889],[16.35795315931937,39.79795066251125],[16.358390658578355,39.797720327406935],[16.3586443078886,39.79742075276255],[16.358883896234566,39.7971805579287],[16.35916990489555,39.796856441189334],[16.359370013692722,39.79651980098148],[16.35957354482352,39.79611996468061],[16.359718630136122,39.79575983899284],[16.35978409831367,39.795404792519946],[16.359824755512467,39.79516237844907],[16.359913897169147,39.79472756090774],[16.35996145478416,39.794495963540385],[16.36007256773226,39.794636377795676],[16.36012959821569,39.79470844767298],[16.360277876952825,39.794895825282346],[16.360439189455615,39.79509967221682],[16.360488408442713,39.7951618686139],[16.360794187386038,39.79531272153713],[16.36091632988868,39.79537297896485],[16.361058511159364,39.79543715552222],[16.36126562541836,39.79553064007492],[16.361660600072483,39.795613832940134],[16.36192113868286,39.795668709252936],[16.362248845176367,39.795659061977275],[16.362355780777353,39.795656148080134],[16.362817487202538,39.79552605735285],[16.362901131520097,39.79550280365802],[16.363396947621656,39.79549171380671],[16.363434813367437,39.795490858685056],[16.363752217527285,39.79545745530242],[16.363975371051,39.795447609016286],[16.36420709341377,39.79543738283185],[16.364431768279676,39.795530476846544],[16.364573713844116,39.79558929108278],[16.364856304592298,39.795706380317],[16.365184935687175,39.79593889021562],[16.365359681170286,39.7960664308796],[16.365392556627246,39.796089944668246],[16.365427915750452,39.796115236035135],[16.365732439714943,39.796351063330015],[16.36583020065215,39.79643007694181],[16.366210275211177,39.796735553218255],[16.36623993999057,39.79676457528442],[16.3664737831035,39.796993344945975],[16.366555605573502,39.79707339059333],[16.366691462562077,39.797185587091974],[16.366838735960492,39.797307207485865],[16.366942800322242,39.797380721019046],[16.36707249929822,39.79747606873944],[16.36711185327862,39.797504490007626],[16.367216536412503,39.79758009061012],[16.367244469368462,39.79760021449196],[16.3676352411976,39.79788173354599],[16.367746012602694,39.79797971395055],[16.36778670933109,39.7980158062559],[16.367977211314617,39.79818435787002],[16.368034512927252,39.79845002289964],[16.368070049272628,39.798614775342145],[16.367840481443018,39.79885636432553],[16.367783952669267,39.798915854177544],[16.367724215651016,39.79897871839677],[16.36748179254096,39.79920204983258],[16.36731025607403,39.79938583177203],[16.367279853417095,39.79941644183202],[16.36708707313056,39.79967166724675],[16.367094110108464,39.799740793632715],[16.367100349990146,39.79980207803812],[16.367106126012047,39.79985880010442],[16.367141224793148,39.800203515355925],[16.367182009988998,39.80030379327239],[16.367196513083513,39.80033945994621],[16.367207305130034,39.80036604288114],[16.367360258358598,39.8007422440147],[16.36746391227775,39.80099717603528],[16.367495304598446,39.80107442348093],[16.367504973228222,39.801102382638746],[16.367523573480298,39.80118113862458],[16.367547437558823,39.80127922907969],[16.36762911312516,39.80161516485041],[16.367709896957887,39.801952606867275],[16.367594059567402,39.80199834862973],[16.367399279031623,39.802075688788676],[16.367334171127712,39.80209281163977],[16.367083064342136,39.80215885404082],[16.367029696767773,39.80217395956357],[16.36671372106918,39.802263393704116],[16.366467724555854,39.80237183424069],[16.366379611902886,39.80241067682095],[16.36594943025216,39.80255959575798],[16.365905997355686,39.80257202345976],[16.365628007508796,39.80265156268119],[16.365484018261828,39.80269276191931],[16.36534117064737,39.80274335362666],[16.364972720815167,39.80287384767064],[16.36478126147471,39.80296056120558],[16.364348392810694,39.80315661168516],[16.364225068899135,39.80319526881102],[16.363696130142326,39.80336916809659],[16.36365951145355,39.80337704681008],[16.363089451969916,39.80349970624518],[16.362519388692533,39.803622361324024],[16.362269530658832,39.80367612036714],[16.361951353045576,39.80377734467723],[16.361444395844913,39.80393567677652],[16.361387002316178,39.80393989222094],[16.360978579809863,39.80396988873061],[16.360809815996735,39.80399618129743],[16.36048955236372,39.80404607659384],[16.36023752954293,39.80409817088084],[16.35998600400442,39.80415016362858],[16.359669056765682,39.80423575046959],[16.359593478090407,39.80425615936223],[16.35914834789565,39.80436103166913],[16.359099983763933,39.80436776414966],[16.358671381768993,39.80442743147442],[16.358525768467548,39.80445281664095],[16.358219029465587,39.804505748742926],[16.357946545493473,39.80449454745518],[16.357857635452085,39.804494135534924],[16.357380905745273,39.80447101375183],[16.356788320865732,39.80456536006111],[16.356227070829412,39.80465553221023],[16.355637904662725,39.804715638621985],[16.35506098040053,39.804774491222084],[16.354823921223915,39.80479867450151],[16.354482558905598,39.80481936801717],[16.353903090696,39.80485449306285],[16.353379598796863,39.80488622371135],[16.353323793749823,39.80489121289316],[16.352746094087532,39.804942863515315],[16.352168400545782,39.80499451533704],[16.35197866262171,39.805011482608016],[16.351592119832013,39.80505942374178],[16.351016531429224,39.80513080876076],[16.35071092821786,39.80516870837319],[16.35044248510624,39.805216618966796],[16.34987018662032,39.80531875761467],[16.34961352006956,39.80536456399538],[16.34929701314715,39.80541274044002],[16.348723126822783,39.805500091060445],[16.34839546423538,39.805549876922825],[16.348294780430244,39.80556143086287],[16.348148971798395,39.8055810123975],[16.347573893405286,39.80566124382868],[16.34699898681856,39.80573909438187],[16.346889182935172,39.80575396277558],[16.34642846687196,39.805857904367805],[16.34585897572326,39.80598638065294],[16.34575018530259,39.806010922544914],[16.34528896856377,39.806110066477885],[16.34471878444301,39.80623268564358],[16.34429347583058,39.80632401701938],[16.344148736515276,39.80635567120966],[16.34357882456792,39.806480307943666],[16.343014165616612,39.80660337505391],[16.343067543684214,39.806788395300984],[16.343126969246686,39.807005550760216],[16.34316607518777,39.80724514271749],[16.343265963847692,39.807598123825706],[16.343281893050435,39.80767133789838],[16.343332743688133,39.80790362370868],[16.343344169263027,39.80795891290971],[16.343360140337374,39.80821685959521],[16.343417157717596,39.80875043486435],[16.34337055559981,39.80900487717219],[16.343359203059354,39.80906659563891],[16.343346194540153,39.809137216618545],[16.343336753855336,39.80938972868469],[16.343192503387783,39.80977228157206],[16.342966628954446,39.81016901888953],[16.342783417677985,39.8104055959612],[16.342614134364382,39.810704265523036],[16.342691085353916,39.81097377899564],[16.34245185768835,39.811231903830844],[16.342136461941582,39.81137792778909],[16.341851421726933,39.81156250101565],[16.341561953031658,39.81185532859232],[16.341384826808774,39.81224446522988],[16.34124925955284,39.8126129576962],[16.340899256556337,39.812599239975356],[16.34053215475226,39.812343686881796],[16.340363572853764,39.811994543620806],[16.340169744989627,39.81177745887767],[16.339891310483512,39.811655707021536],[16.339120279374722,39.81163293920893],[16.33902237966805,39.81163002471838],[16.338712606310548,39.811924117840626],[16.338651490338385,39.81218441305127],[16.338671453280487,39.81236145183278],[16.338679692167805,39.81243453048019],[16.33836797988182,39.812710763161846],[16.338065158025785,39.812837993682066],[16.3377145991845,39.81288726084797],[16.33742365934547,39.81273033216645],[16.33695723524913,39.812800471286195],[16.33680354392724,39.81295673132967],[16.336731394962317,39.81303083570708],[16.33670649295077,39.8130553961166],[16.336587588995087,39.813176284303715],[16.33655606027177,39.81320834025307],[16.336201304784023,39.81354578644482],[16.33612100798711,39.81358968137837],[16.335931258875195,39.81369340651688],[16.3356810288338,39.81377858019204],[16.335606226393374,39.81380404174017],[16.335309024572336,39.81405234986559],[16.335157319660272,39.81428342217634],[16.335117594775085,39.81434260798608],[16.3349822199381,39.81452865983031],[16.33494536191902,39.81457929444267],[16.33466019907732,39.81484483769769],[16.334358690276318,39.81505291778934],[16.33414624246056,39.815201863588086],[16.334021577220472,39.81528927636439],[16.333942235125274,39.81534487623421],[16.333822670729315,39.81547707599665],[16.33363719796477,39.81568364740769],[16.333501672561553,39.81592839318224],[16.33347893408786,39.81596354606487],[16.333439551005952,39.816059325250784],[16.33339052380498,39.81617208899333],[16.33335547908196,39.816254775457594],[16.333249234248534,39.81640945181339],[16.333193934072565,39.81648996166302],[16.333006314154957,39.81670651486066],[16.332852081882894,39.81688453202357],[16.332727865140313,39.8170279027925],[16.33248802620901,39.81731526474158],[16.33245079315823,39.817359874758736],[16.332430515973954,39.8173841683405],[16.33213058678988,39.817691289567065],[16.332097191302694,39.817724179178676],[16.33197165741357,39.81785150504466],[16.331753276649735,39.81807498803151],[16.331559148027367,39.81831063386188],[16.331438120207782,39.818407765358785],[16.331295072123172,39.81852252800607],[16.33105600464607,39.81879809909495],[16.330983906114696,39.818881204717876],[16.330956594012292,39.81891268549452],[16.330913964020016,39.81896182510526],[16.330861398022872,39.81902241923106],[16.330866421330406,39.81925998581316],[16.330868238477713,39.81934586831268],[16.331003231573195,39.81969025286167],[16.331266257892352,39.81999983775375],[16.331339489606545,39.820129614258185],[16.331408390465302,39.820251712597994],[16.331426096952846,39.82044760300348],[16.33143787141571,39.82057963411192],[16.33141211198862,39.82070270575397],[16.33137371295157,39.820879673970424],[16.331274250877282,39.82106755740629],[16.331228025602666,39.82115429610306],[16.330989660158675,39.82143484126466],[16.33071508491023,39.82169071183264],[16.330622522329996,39.82176272866402],[16.33048213801258,39.821871950166525],[16.33033445424743,39.821994115751],[16.330194087998965,39.822110700659636],[16.32997693542164,39.82216752658492],[16.32987744663066,39.82219366396315],[16.329805954025097,39.822212270246396],[16.329692655367673,39.822243565436416],[16.329479491466433,39.822605481053785],[16.329430725005285,39.822700298734084],[16.32938826409897,39.82278285432854],[16.32935751265571,39.82284264526429],[16.329179828979694,39.82311054351049],[16.329133898598045,39.823179795217115],[16.329052259610968,39.82330288447773],[16.328962643306568,39.82336341459752],[16.32880987511149,39.82346660020807],[16.328742447939245,39.82351266180022],[16.328669989841845,39.823562353753665],[16.32866735553656,39.8236166753887],[16.328666054405875,39.823646099716136],[16.328658231119658,39.82390621292186],[16.328712982238034,39.823951035531614],[16.32906743739022,39.824233583041014],[16.329420899847396,39.82438619491277],[16.32949405170883,39.82441789229603],[16.329766472378893,39.82459910851444],[16.329944601962136,39.824717552160685],[16.33039074327524,39.825008715537656],[16.330751702290314,39.82511571378597],[16.330828297045347,39.8251383637619],[16.330999878121354,39.825222259673104],[16.33133308240049,39.825385179962765],[16.331616442853502,39.82549265584769],[16.331664032097883,39.82550799296438],[16.33207530760313,39.82573838725056],[16.332231612417306,39.825829547080666],[16.33237357935685,39.825912343779265],[16.332562182636572,39.826022338832935],[16.33272015188097,39.82634056438628],[16.332635225980816,39.82673293953637],[16.332630682659527,39.82679568847318],[16.33260577173577,39.82713967540503],[16.332600360838978,39.82724745778095],[16.332589461023495,39.827464595658626],[16.332623647556137,39.82769582035299],[16.33264217325832,39.82782111457093],[16.332696416992995,39.82808306936411],[16.332710367515695,39.828140150868464],[16.33280792416515,39.82853932984488],[16.332805269466547,39.82858396223561],[16.33279019644665,39.82883734675095],[16.33280800971785,39.829033629639355],[16.332823074578016,39.82919963981093],[16.332861922962152,39.82944007521287],[16.33285223344825,39.82948066162209],[16.33274305058337,39.829937851303086],[16.332716592572073,39.830072581922266],[16.3326963023202,39.830176767388174],[16.332678870517885,39.83026589658463],[16.33266943529212,39.830391926799834],[16.3326494305953,39.830659126465385],[16.33259276092137,39.83084652599002],[16.332563791247367,39.830942060076794],[16.332488501088946,39.83118667214329],[16.332405589020272,39.83145353840283],[16.332343076642708,39.831654746059414],[16.332334244136238,39.83169716374536],[16.33224552725571,39.832132873461255],[16.332282310653095,39.83281918680314],[16.33183381214481,39.83311309025866],[16.331510964911597,39.83334052440084],[16.331507624153133,39.833718606847505],[16.331587172547444,39.83423086847946],[16.331404241155145,39.834566395296726],[16.3313601075078,39.83462710834144],[16.331155176452608,39.83491066470091],[16.330764152015934,39.835196415964106],[16.3304459753275,39.83537852108331],[16.330372448544935,39.83542060260043],[16.330313257795996,39.83545447946148],[16.32995588990038,39.83562877347426],[16.329920884959815,39.83564584583903],[16.329574735845302,39.835955735926326],[16.32952260617022,39.836039371263126],[16.329426236770995,39.836194064080324],[16.329407546188726,39.83621958541185],[16.329348613092225,39.836300017201026],[16.32933046357149,39.83632471601945],[16.32921560853661,39.836481273025605],[16.329086910629577,39.83665732932613],[16.328977604108516,39.83685691063458],[16.32893767723633,39.836929859585],[16.328892700955382,39.8370102377478],[16.3288038422024,39.83710990548382],[16.328764922825048,39.83715302850012],[16.32866522914591,39.83726348703154],[16.328397914748397,39.83746490701742],[16.32824295026479,39.83780313004873],[16.328097669539847,39.838136260992066],[16.327962155043362,39.8383697898052],[16.327569125102443,39.83869164355317],[16.327177234861036,39.83886047281384],[16.3270628902329,39.838979400861476],[16.326960635867305,39.8390857228381],[16.326755031906437,39.8393596864483],[16.326595298775622,39.839639745554535],[16.326241117162027,39.83938332849934],[16.325859995541816,39.83905215479494],[16.325503909337442,39.83877785332802],[16.325215523871115,39.838440788456715],[16.325055686907017,39.838037079696406],[16.325028479023455,39.837782395553496],[16.325355746117214,39.83711582285305],[16.325702091834895,39.83705581111118],[16.32575498041789,39.83705379633451],[16.32605660438362,39.83704229515346],[16.326388605288397,39.83685927086366],[16.326596546167046,39.83664813931151],[16.32669637698633,39.836367386754425],[16.32672481420422,39.836032705530194],[16.32669034183834,39.83598873299555],[16.326490698837752,39.83573406405591],[16.326425848454807,39.83565133798031],[16.326180790586594,39.835542736863765],[16.325965324236165,39.835447167873205],[16.325563731415663,39.83526574760865],[16.325222075679296,39.835071510205154],[16.324879379973115,39.834922332420625],[16.324547378085274,39.83470947802694],[16.324220152562322,39.83454131500003],[16.32383157619964,39.83439954122837],[16.32350084859375,39.834335076870296],[16.322775277454298,39.8341247180559],[16.322001213001016,39.834061372450954],[16.32187135857094,39.83406578903857],[16.32153901276013,39.83407698439179],[16.321443633175356,39.83407798751722],[16.321033403079632,39.83408230409778],[16.32086527040265,39.83412602506372],[16.320461394837697,39.83423104884735],[16.320299407393748,39.83429116385994],[16.320185256307344,39.83433352654607],[16.319905746990152,39.83443725389289],[16.319740638605996,39.83452279544107],[16.319187717552314,39.8348092543773],[16.319105457176676,39.8348518719919],[16.319029722195072,39.83489093208285],[16.31895710471026,39.83491477572487],[16.318985269042567,39.83524642341128],[16.318990148356335,39.835308576308094],[16.319013736390346,39.83560898527739],[16.318988674536964,39.835758514101826],[16.318961155078792,39.83592271903893],[16.318859494984963,39.83620849040965],[16.318777649661985,39.83643721908674],[16.318741059049184,39.83653947489985],[16.318737403489372,39.836674143219746],[16.318733963080508,39.83680083286982],[16.318831088662197,39.83693790754492],[16.318941309805332,39.83709597360961],[16.319154147624616,39.83749843513407],[16.31918524667168,39.83754542391429],[16.319314158511478,39.837740200096405],[16.319304036342555,39.83798773366189],[16.31929719126938,39.83815513469701],[16.31911686527072,39.838452382608644],[16.319014767119516,39.83865876303453],[16.31891325036261,39.83886324773407],[16.31891030160397,39.83891239994587],[16.31889645498144,39.839143222194146],[16.31896245702954,39.839358936927],[16.31899501600083,39.83946535176179],[16.31911963187628,39.83980336354332],[16.319165592646836,39.83996910896836],[16.319230337864425,39.84015657625909],[16.319215906234618,39.84024238635513],[16.319202977228596,39.84030741797252],[16.319176743274227,39.84049754730223],[16.31909207790907,39.84070232541204],[16.319015622607054,39.84090928896319],[16.3189465379759,39.841087952762045],[16.318910381766525,39.84116169674021],[16.318740383604652,39.841505878808896],[16.31868763367709,39.84162567193016],[16.318478870855852,39.842088759691514],[16.318451490005433,39.84214949780298],[16.31860031971439,39.8425309016305],[16.318670179113298,39.84270992958583],[16.318683829515283,39.84274657392894],[16.318698133895715,39.84297453364623],[16.318700986409954,39.843019983608016],[16.31852088842167,39.84334617257799],[16.318449512408417,39.843440157986855],[16.318369376666336,39.84354567801325],[16.318280404378626,39.843662833781444],[16.31817150662012,39.84390763761748],[16.31812391130516,39.844014630209614],[16.318073468783016,39.84417061473774],[16.318003136673674,39.84436995591044],[16.31798265678773,39.84445247970895],[16.317906350111922,39.84467713944759],[16.317857457169502,39.844820432546584],[16.31781497514219,39.844947420432646],[16.317686106879272,39.84528796168597],[16.317602185232634,39.84550972500328],[16.31753332127634,39.84574749798726],[16.31746804171316,39.8459590854933],[16.317414101959855,39.846204905286726],[16.31735261064536,39.84646574315211],[16.317320763062902,39.8466606711285],[16.317277601949748,39.84692484043421],[16.317184032413067,39.84711914124302],[16.317054240819427,39.84738879031386],[16.317033316224762,39.847430989806085],[16.3169577814333,39.84758332194001],[16.316828545825643,39.84784395655189],[16.31660118544538,39.848055783717825],[16.31652406872355,39.848127630735405],[16.316450336538928,39.84819632555391],[16.31628071689753,39.84835694763588],[16.316095314288663,39.84853373386952],[16.315772618166434,39.84890056290157],[16.315557739415905,39.84919759456619],[16.315494984764452,39.84952546036992],[16.315536564311685,39.84984672857235],[16.315624903458417,39.85022347001833],[16.315677755263142,39.85028723995833],[16.315841046570238,39.85048426560529],[16.316018076323243,39.85056439717649],[16.316146145355418,39.85062236607971],[16.316531555598228,39.85066539991039],[16.316848459405165,39.850654293929985],[16.31721354166817,39.85073911371551],[16.317415473283187,39.851086178165275],[16.317552145712778,39.851464375079836],[16.317632311651604,39.8516573952811],[16.317701418259226,39.85182378581209],[16.31770825580488,39.85212024581616],[16.31765422132861,39.8524340722091],[16.317424482593648,39.852646573243405],[16.31703089310574,39.8529369531811],[16.316849388983222,39.85316433221126],[16.31634645255199,39.854262357395356],[16.316231157603365,39.854508097703885],[16.31607969592229,39.855057521218406],[16.316071976181817,39.85540889128712],[16.316162752164246,39.85579449724208],[16.31631061574546,39.85612699025196],[16.31651459366101,39.85639745908588],[16.316743101574033,39.85676084124551],[16.316949383546525,39.857121136739636],[16.317052183278463,39.85755095530233],[16.317034755267642,39.85794793697114],[16.31699317250921,39.858337441057664],[16.316921655461428,39.858706344894244],[16.31681238141987,39.859131630826845],[16.316706258914774,39.85973666328693],[16.316722805021957,39.860014523840164],[16.31675512958797,39.860412827098806],[16.316817895945157,39.8607957131135],[16.316908306171744,39.86112287633693],[16.31703014016614,39.8614165370814],[16.31711408479743,39.86154149937237],[16.317293930945866,39.86180922887206],[16.31753558876206,39.86210430013294],[16.317799291723993,39.86255090537011],[16.317982365136366,39.8629396636179],[16.318026276288983,39.86335073862428],[16.318012023999973,39.86390045206164],[16.317962641773985,39.86435342962428],[16.317833466994593,39.864865457158125],[16.317735223418445,39.865353023731856],[16.317617684163398,39.86582381304286],[16.31748534821022,39.866156095297974],[16.317489183675928,39.866547231912875],[16.317498795361576,39.866951472472586],[16.317517210931072,39.867287697694465],[16.317547667790148,39.86762763602289],[16.317682426335622,39.86793266880818],[16.31770512898985,39.86798536100958],[16.31773611156307,39.86806290044796],[16.317755816865155,39.86810678126259],[16.317888256255138,39.868424762734755],[16.318004664254637,39.86883123717007],[16.317751525537957,39.86916668748667],[16.316893339819625,39.869535963213075],[16.316717259029225,39.86965220585901],[16.316547002121386,39.86976475807166],[16.316271244552148,39.87001166711247],[16.3161249716605,39.870281871093155],[16.316116514992416,39.87033506518672],[16.316072847817043,39.87060005097428],[16.316124651123413,39.87088017169841],[16.31619911561974,39.87120834688553],[16.316441234025646,39.87154836781393],[16.316701326913012,39.87182426897096],[16.3169773783065,39.87208566981571],[16.31732341780004,39.8724146011807],[16.317701009366196,39.87261557074051],[16.31809247340433,39.872946113862945],[16.31848594911113,39.87321354791912],[16.318875832796305,39.87363865708715],[16.318964317057592,39.8739884196639],[16.318740559745336,39.874380490959034],[16.31835815710153,39.87453071132112],[16.31826899612191,39.87457159211016],[16.31818498998959,39.87461010887855],[16.31805626150044,39.8746691284263],[16.317800175429518,39.87478654031515],[16.317737543492154,39.8749744260979],[16.31771285473409,39.875048492065694],[16.317706125885525,39.875426655196755],[16.31770637591155,39.87548074741344],[16.317716923644177,39.87553185344439],[16.31777326326128,39.875804905366216],[16.31778351761891,39.87591605272086],[16.317800907781418,39.87610454102663],[16.317738507770812,39.876365072994204],[16.317593681623194,39.87678795780331],[16.317741121908075,39.87712948660318],[16.317748739837246,39.87759685115895],[16.317721655401062,39.87798543590404],[16.317681167248246,39.87827590642339],[16.317721369877493,39.878597243459076],[16.317914672030486,39.87895834161539],[16.31809836946114,39.87929756788895],[16.318188617249515,39.879773178528765],[16.318165591825565,39.88040443093249],[16.318153729701336,39.88098998013412],[16.318263484324362,39.88133389720436],[16.318425334326843,39.8817554920313],[16.318526821043935,39.88213142385667],[16.31861477019794,39.882517206134594],[16.318656925550872,39.88282942728532],[16.31856711616413,39.883150021368586],[16.318433443263938,39.8833744158477],[16.318311432586132,39.88359822862849],[16.318286630498267,39.883646052323805],[16.31813800216414,39.8838745164422],[16.31807388445736,39.88413499779966],[16.317975788448983,39.884514581801604],[16.31792411548029,39.884850759127175],[16.317976843017668,39.88520728696926],[16.31817530671466,39.88556669929761],[16.31819264457465,39.885606601447016],[16.318304061797587,39.885734885561064],[16.31837484703287,39.88581638805479],[16.318635599986216,39.88600226783454],[16.31874720336998,39.88615661575227],[16.318839939997357,39.88628170034061],[16.318937981984238,39.886522901221],[16.31894218565472,39.886594090672354],[16.318955976022707,39.88682764486468],[16.318952516071032,39.88704373907082],[16.318952880074857,39.88725547630144],[16.318953779869744,39.887313634471596],[16.31891367673786,39.88749559424449],[16.318899951948037,39.88755995714051],[16.31877545629977,39.88780178925639],[16.31864424077847,39.887962538160416],[16.318500503812587,39.88813862780548],[16.31846667832832,39.88816970484817],[16.31825857682185,39.888360899422366],[16.31817005092706,39.88844530490256],[16.31804130353381,39.888568118962205],[16.317935448693444,39.88866288256123],[16.317765483738928,39.888815037038455],[16.317641182217145,39.88892587518372],[16.317477580264494,39.889071705539436],[16.317107902264294,39.889285789410714],[16.31704157525622,39.88932420913351],[16.31658379018279,39.88958939390282],[16.316307088811243,39.889748715486355],[16.316039304180624,39.889927121295266],[16.315985823763487,39.88996252762223],[16.31575684343569,39.890134490341254],[16.315697954068224,39.89017871662167],[16.31549180717291,39.89038072927081],[16.315461318277865,39.890413629004904],[16.315229445916607,39.89066383701535],[16.3151684822297,39.890729620161565],[16.314821361246697,39.89078762076648],[16.314657691048367,39.890778235568945],[16.314411517746706,39.8907641196163],[16.314068269333905,39.89072732239541],[16.3138842884344,39.89070759891966],[16.313458977975277,39.89062413175686],[16.313215780393524,39.89055603025395],[16.31293240759893,39.890475555575904],[16.312871577565353,39.89045844913162],[16.312299387649755,39.890297540143166],[16.312214435640186,39.89027365288676],[16.31150995371247,39.89010238014076],[16.310981348950037,39.889991945242805],[16.310419098587964,39.890086047121144],[16.309873693730637,39.890228588620765],[16.30931641498089,39.89039991306239],[16.309257774930437,39.890400778771166],[16.3091690318268,39.89040369148632],[16.308579043694774,39.89042308415353],[16.30799416615844,39.890455647375006],[16.306953898796838,39.89053054536039],[16.306348244232133,39.890546432114576],[16.305880368677258,39.890553570888194],[16.305415567568076,39.89076745389657],[16.304917841858117,39.891014891131654],[16.3045014188975,39.891189720189864],[16.304023243228002,39.89130547951927],[16.302346050781583,39.891636655941525],[16.302316115424667,39.891944458444314],[16.302277793574593,39.89236524382066],[16.302108574276925,39.89272234562684],[16.30190494726199,39.89314010834601],[16.301666642086648,39.893465596569456],[16.301344760191657,39.893773877650965],[16.301093424073585,39.89408668325669],[16.30074927620769,39.89440536393016],[16.300368382052167,39.894738498428595],[16.30031124208545,39.89478846981734],[16.2997929591697,39.895172158020195],[16.29942332391634,39.8954024914353],[16.298750024394234,39.89568800921842],[16.298363681032285,39.89576194907242],[16.298273161166346,39.89576507657554],[16.297896716788276,39.8957779927228],[16.297342833336543,39.89589606448424],[16.29723279804641,39.89591896168902],[16.296534095173723,39.896062147988154],[16.29585099990927,39.8964067527522],[16.29518026376455,39.89688102654037],[16.294728873631065,39.89724071427478],[16.29469017600766,39.8972691723511],[16.2946490899253,39.8973013371324],[16.294593189896702,39.89734553223293],[16.29424005937461,39.897513893494775],[16.29420558484072,39.897530523944326],[16.29417655519642,39.89754448429494],[16.293930430205467,39.897661845043814],[16.293379140873412,39.89809258843048],[16.292700004273133,39.898666345471796],[16.29214440226655,39.899229443802746],[16.292119656436384,39.89925396177513],[16.292078649050772,39.89929435129877],[16.29185001915243,39.89955660182526],[16.291671837606643,39.89976108877015],[16.291435394028433,39.9000325201617],[16.291180382970243,39.900325488970964],[16.291151583574454,39.9003549676015],[16.291095609693297,39.90042321063796],[16.290830764365314,39.90067836644225],[16.290520417490104,39.90095891404076],[16.290045756854134,39.90121833933003],[16.2896523172027,39.90147262768056],[16.289225425837735,39.90178301799827],[16.28873818150382,39.90203424075022],[16.288344861088856,39.90220753579147],[16.28824035468683,39.90225463930045],[16.28778843818618,39.90249461607926],[16.28737217710749,39.90279533643001],[16.287086817196677,39.90315975607062]]]}}]}
