{"type":"FeatureCollection","metadata":{"code":"078021","referenceDate":"2026-01-01","sourceDbfExportDate":"2026-02-18","upstreamArchiveUrl":"https://www.istat.it/storage/cartografia/confini_amministrativi/non_generalizzati/2026/Limiti01012026.zip","sourceManifestSha256":"70ac8256c4785dc6ed2814c32b6965ae76f9161b51abaa1660059e1c6cbd8ca6","license":"https://creativecommons.org/licenses/by/4.0/","attribution":"Istat, Confini delle unità amministrative a fini statistici al 1° gennaio 2026, versione non generalizzata.","modifications":["Converted from WGS 84 / UTM zone 32N (EPSG:32632) to RFC 7946 WGS 84 geographic coordinates.","Converted from shapefile to per-municipality GeoJSON without geometry simplification."]},"features":[{"type":"Feature","id":"078021","properties":{"code":"078021","name":"Calopezzati","alternativeName":null,"regionCode":"18","regionName":"Calabria","territorialUnitCode":"078","territorialUnitName":"Cosenza"},"geometry":{"type":"Polygon","coordinates":[[[16.8190497422426,39.58395677367612],[16.819013120274082,39.58413648394579],[16.818993502018177,39.58417678331323],[16.81890271826089,39.58433975876804],[16.818855834949858,39.58444284960821],[16.81876212425943,39.58465225300849],[16.818575478392326,39.585099835589354],[16.818343331514225,39.585704867119894],[16.818279251777167,39.585782634081106],[16.818267416515315,39.58596197392214],[16.818237703650393,39.58609039187511],[16.818194495784446,39.586334193610675],[16.81811923361136,39.58661687977617],[16.818076351087658,39.586873461837584],[16.818049306836723,39.58710421420431],[16.818106910183246,39.58741039970254],[16.81807096554314,39.587757606443155],[16.81806513839151,39.58781387152],[16.817932385341077,39.58790061430373],[16.817691181421385,39.588058221635286],[16.8176506453335,39.58808470422653],[16.817595710424346,39.58806468231624],[16.81735996292569,39.587978753861236],[16.817177529711337,39.587912278544785],[16.81687661354734,39.58776391548182],[16.816763686664796,39.58766871721658],[16.81674145721864,39.58764921630599],[16.816508524652196,39.58745153867527],[16.816346969166844,39.58724982611293],[16.81630259812397,39.58719470299622],[16.816084325671113,39.586978199829275],[16.816040289719997,39.586934561029246],[16.815891150399718,39.58683088413762],[16.815792677521717,39.58676242955296],[16.81562020052296,39.586640181587946],[16.815524351420656,39.58657212304683],[16.81543241681345,39.58650537178731],[16.8154052813573,39.586486602005515],[16.815306926741073,39.58641855723102],[16.81524523142857,39.58635712153483],[16.8150741760633,39.58618697244066],[16.815031252470828,39.586146036449506],[16.815000423880345,39.586120693907034],[16.81496001231097,39.58608635830802],[16.814858288682565,39.586001303385075],[16.814805281670747,39.58595672496837],[16.81454276822404,39.58574512758433],[16.81442531286153,39.585658676747215],[16.814328477467736,39.585587401652546],[16.814268572022172,39.58554330867272],[16.814168296058572,39.58545407596131],[16.814066608071478,39.585363589474674],[16.81395815900291,39.585278540839106],[16.81382839060692,39.58517618399798],[16.813526826244594,39.58491839881845],[16.81337573448146,39.58478891385429],[16.813320044695004,39.584754431245344],[16.813063645816392,39.584594851112456],[16.8129155721222,39.58450739754962],[16.812725490120037,39.58445548217945],[16.81257415216758,39.58441467595697],[16.812540107647983,39.58440549545907],[16.812342869136575,39.58437434340542],[16.812302960687735,39.58436924293518],[16.81217771873828,39.58434906883739],[16.812102698279446,39.584338250954765],[16.811837979834152,39.58430008030695],[16.811789024985305,39.584295626698506],[16.811723545712177,39.58428904374181],[16.811357363397676,39.58425164965232],[16.811256030159733,39.584258504103126],[16.81119871099727,39.584262381284596],[16.81112810948738,39.584268100432084],[16.810870723285717,39.5842889514663],[16.810680827766163,39.584283585520296],[16.8105949476701,39.5842809884747],[16.810531854289135,39.58427935883478],[16.81040237077885,39.58427571886886],[16.809969064577164,39.58429831083529],[16.80982464020654,39.58430584037964],[16.8093980239331,39.58438850962406],[16.80932552185925,39.58440255861069],[16.809006734403763,39.58446065255609],[16.80891664820758,39.584477549024],[16.808828673012687,39.5844936838265],[16.808781698732844,39.584502299466735],[16.808741228595416,39.584523555621054],[16.80839858269588,39.584703521785215],[16.807914659979282,39.58475862429544],[16.80739686709244,39.58468581381648],[16.80678080424027,39.584592619227344],[16.80643020626396,39.58455374191515],[16.806218416938616,39.58442892943047],[16.806134872811242,39.584379933809316],[16.806056083139694,39.58429062638513],[16.805993284270976,39.584219756885076],[16.805876713754692,39.584087462058456],[16.805801610322483,39.584002185036496],[16.805756394196717,39.58391846413214],[16.80573715320789,39.583882838004435],[16.80552204183887,39.58348455412881],[16.805503993553117,39.58345112934223],[16.80527412435292,39.58307539598538],[16.805256678150187,39.58305276030206],[16.80516522339341,39.582934106992155],[16.80506984495986,39.58281035963953],[16.804867847718285,39.582626842214374],[16.804745585944094,39.58248160663485],[16.804684526369773,39.58240915532418],[16.80448558098394,39.58219955441825],[16.804208981030474,39.5819420754066],[16.804015404177544,39.581787431168216],[16.803897557629657,39.5816932849237],[16.8038597721841,39.58166698272523],[16.803520660953847,39.58143091990922],[16.803444463758176,39.581376272538726],[16.80322825867872,39.58122121121986],[16.803199728873814,39.581200748907406],[16.802857867944205,39.58101695920952],[16.80276658953202,39.58097233603799],[16.802610353515625,39.58089595568955],[16.8025082588294,39.58084604461906],[16.802478012430612,39.580831257838845],[16.802051714332112,39.580574608161356],[16.80198958994458,39.58054525070666],[16.80171277936711,39.58041074145416],[16.801374889592868,39.58024830433377],[16.801228496298098,39.58017781526499],[16.800863543035558,39.58001837230099],[16.800760181577555,39.57995123177912],[16.80062514521255,39.57986351499186],[16.800556237437117,39.57981875421164],[16.80052407009415,39.57978371509861],[16.800244420775513,39.579489018385836],[16.800175191032253,39.57934845373698],[16.800123002546282,39.57924248736539],[16.800075835148572,39.57914061721806],[16.800023960073794,39.57903530334461],[16.799886744230847,39.57873965108573],[16.79979744756844,39.57838589423544],[16.79968355987555,39.5780202949936],[16.799547533770216,39.57774164772629],[16.79945754865528,39.5776388210268],[16.799423184354442,39.577599333545585],[16.799332315547726,39.57749533591612],[16.798823490765784,39.57720613436592],[16.798770844566768,39.5771863459851],[16.798620094992557,39.57712834907875],[16.798482989983224,39.57707596538655],[16.79795012172137,39.5769366319585],[16.797717618816208,39.576959956737426],[16.797409301111248,39.57699088699541],[16.79691360920572,39.576871530334316],[16.796733307907985,39.57650599045326],[16.796896963151656,39.57606319871026],[16.797309081110555,39.575788012147214],[16.79763658208794,39.575419596226],[16.797488729955262,39.57510536388754],[16.797431959987883,39.57498470645322],[16.797413033085387,39.57494447914778],[16.797259850165467,39.574894586169464],[16.797086542279658,39.574845087439485],[16.79639605113531,39.57473878779915],[16.79603481907258,39.574704723354095],[16.79596422516829,39.574685782654704],[16.795557387427607,39.5745766177541],[16.795378600087695,39.57452864567084],[16.795008662739928,39.57436753218698],[16.79489526190365,39.57431849841713],[16.794871663399793,39.57429038187949],[16.794665300595216,39.57405085217132],[16.794450975970847,39.57375964391858],[16.794418009036452,39.57341556284221],[16.79439935673704,39.573146967051464],[16.794300601437143,39.572915276615035],[16.794147671629105,39.57242188410188],[16.794116122753614,39.572167659979044],[16.793979629628076,39.57185875271217],[16.7938956176856,39.571900849852916],[16.79369331709946,39.57200236416784],[16.793454474536162,39.57229725303928],[16.793098175499736,39.572374884866626],[16.792991600083376,39.57232315147328],[16.7927855578595,39.572223014069245],[16.792733198140432,39.57219757798838],[16.79234228760688,39.57190014294801],[16.79218467221045,39.57168232158916],[16.792108425392726,39.57157763610662],[16.792055217080563,39.5715846107797],[16.79189443087602,39.57162160956793],[16.791568941541293,39.57168741820042],[16.791035696775694,39.571862104348746],[16.790806448753155,39.57170343807952],[16.79069312653648,39.57162508734309],[16.790715630612645,39.57134838751442],[16.790719881372894,39.57129497583976],[16.790726660154824,39.57124621941205],[16.790789720024353,39.57083151545358],[16.79036327814411,39.57054096477246],[16.79014601341337,39.570440661845026],[16.78953881266231,39.57016033744531],[16.788914171974245,39.569941598473925],[16.788500847919387,39.569677143275],[16.787934509797992,39.56938253270008],[16.78752194814686,39.569143978128324],[16.787475296136513,39.56911715081831],[16.78709506227508,39.568881443913426],[16.786990666577253,39.56881261929373],[16.78692081776453,39.5687668085952],[16.786693275388494,39.56861620390888],[16.7863727227728,39.56843993182327],[16.786064286266978,39.56816794807032],[16.78582497462189,39.56791017767896],[16.785612753633,39.56770293111975],[16.785562196085305,39.567653558677726],[16.785370984747253,39.56746585359052],[16.785287093369835,39.56738434930389],[16.78522944652444,39.56722721033472],[16.78517526171343,39.567081418059104],[16.78529747601174,39.56687471203463],[16.785319270145965,39.56683784876234],[16.78534154844903,39.566788897830065],[16.785540975416144,39.56635516265444],[16.785578172464103,39.56609180828963],[16.785562443334065,39.56582301230171],[16.785225680819224,39.565476933501536],[16.78479383258043,39.56542992561182],[16.784355253825595,39.56562516905641],[16.783832507787658,39.56557982503236],[16.783611904922616,39.565194430410685],[16.78383191724239,39.56465788837843],[16.784006076958704,39.564205270236215],[16.783996638770592,39.56389078828409],[16.783852738897604,39.56365761645109],[16.783399122339983,39.563401615218545],[16.78334047130625,39.56336823680389],[16.783104025369155,39.563378051865804],[16.782996666250167,39.5633825077933],[16.78275587008697,39.56349453701792],[16.782454187554787,39.563634925007854],[16.78210348148732,39.56372792519274],[16.781978100933333,39.56376117293286],[16.781628949599675,39.56373997587334],[16.781685439039265,39.56354245380471],[16.78169421299669,39.563511761965295],[16.781716697164644,39.563433117212824],[16.781802495527362,39.56330544422849],[16.78182136422531,39.56327740308248],[16.781919656232738,39.56313132652698],[16.78204784678771,39.562695421363955],[16.78208265856118,39.562333286025066],[16.78202935599243,39.56204005217477],[16.78200986214637,39.562006162065295],[16.781884900389397,39.5617889188499],[16.781771677769257,39.56152145193511],[16.781739297775204,39.56146593269429],[16.781649510476463,39.56131198068397],[16.78160069685489,39.56122828371828],[16.78155253447991,39.56114570590045],[16.78117051690918,39.56077116171494],[16.78088741216914,39.56057886662878],[16.78063904203191,39.56041119873],[16.780192745012666,39.56026585398554],[16.779906698716058,39.56006024944541],[16.7796445402848,39.55982155375358],[16.779428085301912,39.55948533306622],[16.779285350930333,39.55930932565655],[16.779224049715662,39.55923373204191],[16.778602046093642,39.55878734471143],[16.778492150745414,39.55870847578468],[16.778427691390817,39.55866221376157],[16.778323214533188,39.55864961441094],[16.778191513824098,39.55863385604519],[16.77794912288051,39.558604484236724],[16.77738912568697,39.55867811830071],[16.776893599133686,39.558828331166985],[16.77656059886426,39.558832533981544],[16.77648419733727,39.55883347357674],[16.776046206912184,39.55884955032677],[16.77560203867507,39.55882103854804],[16.77499729564776,39.55887508499979],[16.774656408911568,39.55887358679001],[16.774496760222256,39.55887291352789],[16.774178868081783,39.5588925802564],[16.774124174258098,39.558896702214774],[16.773519468278952,39.5588980664814],[16.773008251275986,39.55877962673213],[16.772655156003914,39.55862350273639],[16.77231979371169,39.558376691494146],[16.770302051449136,39.558879613717636],[16.77023789698437,39.558895379216395],[16.770173636837836,39.55891022440568],[16.769753268804234,39.55901600657974],[16.769617183206055,39.55864350217847],[16.769526240529046,39.55831230187925],[16.76943626385322,39.55797656061223],[16.76942647552759,39.55792460280926],[16.769384583563404,39.55771017807398],[16.7693058596205,39.557423141452325],[16.769204045348832,39.55712417436942],[16.769152217285725,39.556830814879135],[16.769051462509328,39.55655076210487],[16.76903829215165,39.556514663235525],[16.768889789680482,39.55638625803922],[16.768753570777605,39.55626846900665],[16.768648919445624,39.55621256865172],[16.768422005312438,39.5560838766471],[16.768093946273616,39.55603398496843],[16.767875096521134,39.55602348971952],[16.767787725591837,39.556019299927335],[16.7676646095183,39.556013395937],[16.767613963364763,39.556015259112925],[16.76748749504495,39.55601994889165],[16.767221761013072,39.55602976221002],[16.766584974071343,39.55611303533788],[16.76605075661481,39.55618043637548],[16.76538946161868,39.55631934497235],[16.76511896588675,39.55666585800117],[16.76459840223986,39.556889380167775],[16.764053793013854,39.55684554119197],[16.763532860596456,39.5569253754851],[16.763078964942274,39.55700985808236],[16.762608643691664,39.557180881935174],[16.76229847091292,39.55736814762165],[16.76190866074109,39.55759672339391],[16.761322282603437,39.55793744858303],[16.76116717758946,39.557974317586975],[16.760807978500917,39.55805968127029],[16.760664177981408,39.55809387233462],[16.760339117155844,39.55813390330997],[16.759964551633423,39.55817699290064],[16.759788438738997,39.55819448927565],[16.759545204306026,39.55821852282641],[16.759152063216604,39.55821761981066],[16.759094924585483,39.55821748941278],[16.759048038361367,39.55821970882383],[16.75894948937684,39.558222215182674],[16.75888502452969,39.55822400700699],[16.75872433209543,39.55822887222918],[16.758281502364202,39.55824513275624],[16.757899149711964,39.558315837082006],[16.757592471782377,39.55834644374777],[16.757459394308093,39.55835975188112],[16.757351314278104,39.5583705355464],[16.75707833014312,39.55840299325157],[16.75680319335965,39.558430928239375],[16.75650229352401,39.55844440869938],[16.756041574075173,39.558463076199565],[16.75592334013396,39.55846417982812],[16.755342926204875,39.5584695937383],[16.754876380259503,39.558473956113055],[16.754893977648738,39.5585613246455],[16.75495499884429,39.558864364716236],[16.755016569231856,39.55900284213097],[16.755090922538443,39.55917006578541],[16.755187598575475,39.559441108278875],[16.755241317808924,39.559591717191225],[16.755329222132094,39.55988134757436],[16.75538178400419,39.56005452533797],[16.75545413619322,39.560322708584614],[16.755498581379836,39.56048744250734],[16.755553318540798,39.56076579805734],[16.755576267093026,39.56088249263619],[16.755628579416964,39.56101848260088],[16.75570060342773,39.561205685484985],[16.755738187947173,39.561303403596646],[16.755879019376547,39.561643440971764],[16.755939349506185,39.5617891062816],[16.756079169176807,39.562079751133446],[16.756096547340277,39.56211587408675],[16.75623597077262,39.56251449131152],[16.75632373367644,39.56283370962787],[16.756367663335315,39.562959878223786],[16.756453000049362,39.56320282032059],[16.75653305935762,39.56339851943692],[16.75662574138909,39.56362296903005],[16.756652029456276,39.56384025380585],[16.75668460677961,39.564109235338265],[16.756711103843706,39.564286059829286],[16.75677782546704,39.56473132798397],[16.756782688831212,39.56476378473843],[16.756858068309615,39.56517568716095],[16.75691765976682,39.565501297084836],[16.756941990375744,39.56561980278845],[16.757023334486394,39.56601594727339],[16.75703676253235,39.56606320946048],[16.757162401500924,39.56650528602187],[16.757319917699487,39.566943688743414],[16.757337741211895,39.56699326874483],[16.75744134040325,39.56738528264426],[16.75747904911944,39.5675279724026],[16.75754734804029,39.56776778072214],[16.75756280482818,39.567825965994466],[16.757632387621896,39.56806636535263],[16.757657163242445,39.56827028408348],[16.757707728512678,39.5686864637987],[16.757706411140354,39.56871672438188],[16.75769885874509,39.56889017950018],[16.757691685345367,39.56905501169731],[16.757687744331893,39.56916719193579],[16.757684166374137,39.56922774857422],[16.757686685173326,39.56945676163461],[16.757688453102123,39.56961742765428],[16.757691432476133,39.56988837711046],[16.757694373423295,39.5700667781553],[16.757701777788665,39.57051602900461],[16.757705794160064,39.57075978875317],[16.757360286428167,39.570477162993754],[16.7570208291592,39.57036504212125],[16.756777476816204,39.57027830039706],[16.756447221231934,39.5701606071083],[16.75587592960205,39.57013151168828],[16.75534949293485,39.57013987305309],[16.754867243871363,39.570154477011094],[16.75473325643592,39.57017675607863],[16.754332592417818,39.57023402798476],[16.754279608742888,39.570235117789146],[16.754005991985185,39.57022430713581],[16.753750054930006,39.570215938461864],[16.753151507345425,39.5701795947401],[16.75253473061348,39.57019850391835],[16.752012614278847,39.570206560775304],[16.751305695701117,39.57018263043409],[16.751275865331422,39.57008535008264],[16.751187706861767,39.5697974826189],[16.751140838928762,39.56964442834664],[16.751038479437476,39.56921053958409],[16.750911100413376,39.56877383305064],[16.750805876916306,39.56857928747925],[16.750733544439,39.568445561377104],[16.75070218450141,39.568387582245606],[16.75046115180391,39.56801246050511],[16.750337025801606,39.56777344106778],[16.75004104295584,39.5674784735976],[16.74962294710698,39.56707925274607],[16.749066408706447,39.5666758526879],[16.74875589138171,39.566471809352315],[16.748404934362494,39.56636041440584],[16.747996819229034,39.566374307755574],[16.7476882085617,39.566498446968204],[16.747364570624388,39.56659211141179],[16.74711053840523,39.56677557281618],[16.746846738057762,39.56692369318932],[16.746479491422576,39.5670562577106],[16.74616605268724,39.56717622193106],[16.745831264570164,39.567248154806414],[16.745364158242612,39.567189525761854],[16.745001349654345,39.567114911560715],[16.7446087092669,39.566812907873995],[16.744262690855862,39.56639536691097],[16.744168413948042,39.565929445071575],[16.744186019347183,39.56569213522443],[16.744190562936332,39.56563125939073],[16.744193936368355,39.565585971363156],[16.74418478058639,39.56545490325757],[16.744177071464364,39.5653442784701],[16.744088694036748,39.56502187273657],[16.743847011694783,39.5647187526844],[16.74372161305172,39.564636820077084],[16.743574122467656,39.56453912746319],[16.743315054456037,39.56432712453285],[16.743632469251462,39.56400901509516],[16.744092363422155,39.56384775554302],[16.744564820610556,39.56359120336174],[16.744858876786346,39.56332411918435],[16.745064482899462,39.563058469415154],[16.74521628480036,39.56268849410933],[16.745195757328563,39.562588995090316],[16.745162308438825,39.562426782481005],[16.74503994524758,39.56213815730241],[16.74519309257329,39.56172647882971],[16.745237680409296,39.56160767997365],[16.74562956712149,39.561059696696375],[16.7456802370255,39.560759450233014],[16.745615479942046,39.56045347738654],[16.745407380031356,39.56012561644172],[16.745170707896698,39.559867130469094],[16.7448719624663,39.55958583687465],[16.744500314601996,39.55923745695421],[16.744239405845654,39.559034569789894],[16.74428888821948,39.558684960199095],[16.744649426043683,39.55857083330376],[16.74509840551596,39.55845527009637],[16.74536039407043,39.55822633221963],[16.745643782125804,39.557941963156054],[16.74593295599768,39.55777416674787],[16.7463707255632,39.55762337193481],[16.746753857458046,39.5576201718465],[16.74735330487927,39.55739556477622],[16.74781224171956,39.55713541299061],[16.748122018478742,39.556957220808954],[16.748386191019545,39.556851462319834],[16.74844595809061,39.556827539002825],[16.748505294801458,39.5567952979972],[16.74854857905603,39.55677177508071],[16.748618645000576,39.55673368261012],[16.748719788243317,39.55667872378261],[16.748750486100523,39.55665950551482],[16.749007948585596,39.556501978494936],[16.74930422744396,39.55636518007932],[16.749706234461822,39.55621097211029],[16.749854385804678,39.55615372206063],[16.750411291899685,39.555938516546725],[16.75096819534062,39.55572330859412],[16.75101194146454,39.55570640384517],[16.751154579976973,39.555664041015355],[16.751530068734976,39.555552522122795],[16.751716227557427,39.555497233827985],[16.752092948034893,39.555390805331896],[16.752342777351135,39.55532025019058],[16.75265837275067,39.55525167338524],[16.75285183996707,39.555209633619896],[16.75322446401471,39.55511860699588],[16.753410421553028,39.555069325617566],[16.753471705940324,39.55460903890071],[16.75352434684555,39.55421102312368],[16.75351806265861,39.554156185652324],[16.75346685202574,39.553709881397275],[16.753463417176892,39.55367994165958],[16.75336378842795,39.553267051264804],[16.75332244995599,39.553095727675846],[16.753252993790017,39.552824739933776],[16.753154731239487,39.55244135403965],[16.753139013242304,39.5523826414149],[16.753020738744386,39.55194083186452],[16.752974956965666,39.55176980995346],[16.752878195650304,39.55150065098603],[16.75279257831105,39.55126249471586],[16.75273657055878,39.551106694108846],[16.75272926563034,39.55106089765802],[16.752658287722298,39.55061591338392],[16.75262442351195,39.550403603872404],[16.75257893860774,39.550171490881446],[16.752492127922782,39.54972822931731],[16.752435316881115,39.549281627608174],[16.75243151076685,39.54925170465889],[16.752337187099698,39.548838464419454],[16.752288948887934,39.54862712394144],[16.75223378776114,39.548395655670525],[16.752128297116144,39.54795298715902],[16.752119107213478,39.54791442055208],[16.75200142081924,39.547511752755774],[16.751902528764443,39.547173389408826],[16.751882371135117,39.54706999388343],[16.751795821409956,39.54662605308744],[16.75178308811526,39.54656074088835],[16.751742811414676,39.546179862487485],[16.751708946578237,39.54585961308904],[16.75170091227758,39.54573292629889],[16.751672514209087,39.54528508325168],[16.751667201962515,39.54520129647332],[16.751699564482074,39.544833519497956],[16.751712585464944,39.54468553901186],[16.751614881192136,39.54438945424502],[16.751472335336345,39.54395534048881],[16.75138197300694,39.54350558625109],[16.751354642503728,39.54336930661138],[16.7513002217354,39.54306108833276],[16.751247849790243,39.54271983138753],[16.751220367360595,39.54261766391381],[16.751088668638623,39.54217602243694],[16.75106758342749,39.54210227369381],[16.750990961615287,39.541732830512416],[16.7509351104789,39.54146352971825],[16.750891520772345,39.54128975392403],[16.750790883680434,39.54088853946958],[16.75077522345165,39.54084780908735],[16.750629047936297,39.54046762994816],[16.750612306252332,39.54040899190635],[16.750532747823648,39.540130342563],[16.750514432671302,39.54006611350897],[16.7509492897092,39.53998635085179],[16.75137559667947,39.539908116425124],[16.751518072273196,39.53988463494203],[16.751788726129917,39.53983230011148],[16.752093698055013,39.53983145119409],[16.752416851016264,39.53983307115412],[16.752505150747538,39.539832277282],[16.75267454070175,39.53983430342691],[16.752882308364264,39.53983974086086],[16.75325643625133,39.53984084374931],[16.753524385646763,39.53984163378665],[16.75383990592147,39.539864121327746],[16.754011851326133,39.5398763749088],[16.75442338685693,39.53988748689418],[16.754489592391568,39.53988927462754],[16.754921296182143,39.539918764297916],[16.75500869203465,39.53992715190969],[16.75530735740092,39.53995581302166],[16.75559476114762,39.539973633904005],[16.755690502897373,39.53997957173373],[16.755953934189943,39.540048896483206],[16.756190473617835,39.540110251239604],[16.756290406168624,39.5401363870481],[16.756333729194868,39.540147708418395],[16.75639808413466,39.54016910969097],[16.756805850029448,39.540304852797284],[16.757288366809945,39.54052880826693],[16.757723388855066,39.5407694534735],[16.75833050077612,39.54123689672101],[16.758697336173057,39.541491088953464],[16.759085867358404,39.54175734401385],[16.75954659463326,39.54204571800334],[16.75984178602202,39.54217878851583],[16.76012583626955,39.542290131715454],[16.760674387425265,39.542442175491885],[16.761028670403135,39.54257129189911],[16.761589394192086,39.542753995849765],[16.76209334722193,39.54281907635014],[16.76253883725678,39.542919566525214],[16.762919043979867,39.542997379636454],[16.76333782494695,39.54298717814048],[16.763493021079128,39.54294042107313],[16.763641224527646,39.54289496219325],[16.764023714077155,39.54277031356618],[16.764405820282395,39.5426681625484],[16.76472757581151,39.54250712167804],[16.76509503281341,39.54235199574283],[16.765462402460614,39.54218337307064],[16.765917384755586,39.542148292511484],[16.766230603560757,39.54211824512993],[16.766383743242407,39.5420935567592],[16.766441627236585,39.54208354950766],[16.76678528213435,39.54202697992891],[16.767182809356076,39.541649578277855],[16.767241834804913,39.5416492966144],[16.767542897615595,39.541647734292965],[16.76775622211431,39.54165949445889],[16.76792934868616,39.54166903972472],[16.768018575284927,39.5416739569849],[16.76849230589216,39.54155682708452],[16.768958275133517,39.54152556332489],[16.769299570835773,39.541565573743895],[16.76933932458918,39.54157518900939],[16.769649303514896,39.541650957475134],[16.76989786605296,39.541979583083986],[16.76995430785075,39.54194930465803],[16.7701445739977,39.5418479415878],[16.77041779525105,39.54170207882396],[16.771036854727953,39.54176353980118],[16.77138607275997,39.541901879981374],[16.77147957405617,39.541915463218466],[16.771728110965622,39.541951078086335],[16.77211285925293,39.54190291944635],[16.772410224168823,39.54177046719133],[16.7728373035186,39.54162930423116],[16.773076527074984,39.54149080950635],[16.77320803978739,39.541415634033655],[16.77366788595716,39.54134404923075],[16.77413287888065,39.54124988431132],[16.77451349293295,39.54125099863401],[16.774921525335888,39.54119222010478],[16.775268171466152,39.5411239031888],[16.775652190500548,39.54102610009571],[16.77641057646762,39.54071869500765],[16.776872795774416,39.54059313090724],[16.776930815264574,39.54056251896427],[16.777019751976134,39.54051589240758],[16.77733206052639,39.540350821610744],[16.77783655972554,39.54002002926083],[16.778320211363564,39.539852544675675],[16.778631956854337,39.539719108516174],[16.778921263303296,39.53961868280995],[16.779310775800102,39.53950275806833],[16.779733080868862,39.53954151940805],[16.780209558977784,39.53959488581522],[16.780909744453574,39.53976802699952],[16.781274105098102,39.53980644794799],[16.781601698214455,39.53978445469159],[16.781925784829095,39.53972215031847],[16.782307223262922,39.53969194032328],[16.782678233556645,39.53959499044217],[16.783081919657,39.53949134308646],[16.783463908308974,39.53937565401891],[16.784026004669567,39.53904095453239],[16.784414501074576,39.53877640071016],[16.784824665309937,39.53852389041588],[16.785170529790157,39.53829370912302],[16.785458376337665,39.53819334766956],[16.78604818732807,39.53802766599537],[16.786281633008798,39.53770162172817],[16.786564818452707,39.537381454934625],[16.787006706602554,39.537400808668515],[16.78738931936545,39.53732105439706],[16.78773501754257,39.53724870587958],[16.78794244898741,39.537036912314214],[16.788157025347875,39.536788585193875],[16.788434341564503,39.53629765690864],[16.78861161602648,39.53598887977934],[16.788755893500127,39.53570931546602],[16.788970898294483,39.53545195340446],[16.789212082239526,39.53525031571618],[16.78928434836791,39.535162290687836],[16.789357245486542,39.53507503351264],[16.789391903900263,39.53503305249856],[16.789616279444438,39.53472441093779],[16.7903825376854,39.53414302362369],[16.790481366343716,39.534067649706984],[16.791119627134712,39.534073761148],[16.791297074597257,39.53407545927211],[16.7927337341359,39.534248387468594],[16.79325741661021,39.534337698197405],[16.79343428947872,39.5343679823338],[16.794193084402725,39.53447869170203],[16.79478845999396,39.53447899226192],[16.7954175980402,39.53450849158566],[16.795975330971014,39.53456421314868],[16.79611485409516,39.53457791936576],[16.796757724088394,39.53466495374603],[16.797318478537946,39.534757527107395],[16.7978586794584,39.53487397760273],[16.798453972264532,39.535054165006144],[16.798994446570923,39.53522454800945],[16.799173819079904,39.535270460960895],[16.7996613029277,39.53539540540689],[16.800271057596948,39.5354846554723],[16.800878367312208,39.535565076986515],[16.801291445287877,39.53564293627132],[16.801508923475993,39.5356843948348],[16.802036743012238,39.53581964101742],[16.802689571932326,39.535968932502804],[16.803261727157253,39.53611460655948],[16.803816223898103,39.536332632283525],[16.804386299819097,39.535908677235234],[16.804685344439175,39.53568627590071],[16.805072444801187,39.53576298458605],[16.805631383676374,39.535878132379274],[16.807024955322277,39.536170728234346],[16.807536371894567,39.53627999523373],[16.80798707649725,39.53640636915827],[16.808091639097903,39.536435940955975],[16.808351925396707,39.536593735100574],[16.808623008463496,39.53679578362217],[16.808780014555268,39.53705500371456],[16.80880167552189,39.53719389175692],[16.808822264765936,39.537326498309994],[16.80886441520512,39.537584493028184],[16.808876053688273,39.537976268571754],[16.808863693687186,39.53802339501048],[16.808812381824897,39.538217647256545],[16.808800627413486,39.53836627877906],[16.808786638513794,39.538543196228844],[16.808783719162136,39.538703091965985],[16.80878137762682,39.538831383152115],[16.808782580033366,39.538877353508795],[16.808784008448924,39.53893197329018],[16.808787955788542,39.53908279051391],[16.808806093319316,39.53918817362354],[16.80883004041211,39.53932730560911],[16.808895323521227,39.53963638409848],[16.808944098596392,39.539714491666544],[16.80901785793221,39.539831245646376],[16.80916385726242,39.54006144082953],[16.809448541494675,39.54015612380724],[16.8095409527683,39.54018719471731],[16.80964416969013,39.54022217362097],[16.809930095224836,39.54047140120769],[16.809867624677146,39.54084024662176],[16.809867163391978,39.54091540966425],[16.80986552983359,39.541182193766986],[16.810211795853334,39.541341844274875],[16.810265329053006,39.54136652684008],[16.810353237397038,39.541373559745196],[16.810813406366478,39.54141042715698],[16.810947703064752,39.54149410678361],[16.8113063352257,39.54171756690622],[16.81139288803694,39.54177149602898],[16.81151736666616,39.542050909236394],[16.811533160482078,39.542151963694494],[16.811559101323038,39.54231793916141],[16.811612008162438,39.54258755600372],[16.81165599076238,39.54262359566488],[16.811841459973866,39.5427713815614],[16.81190329675059,39.542820663815824],[16.81210125534938,39.542978401073256],[16.812156021728587,39.54300934153071],[16.81228887512282,39.54308439570112],[16.812442495749316,39.54317118114388],[16.81286324464145,39.543411228040966],[16.812909604595617,39.54343767443666],[16.812964000001557,39.54346870793768],[16.813343694479997,39.543757844064565],[16.81340685108294,39.54379693681085],[16.81344675903543,39.54382162287764],[16.81354039146429,39.54387948331189],[16.81362638979035,39.54393267817004],[16.81380262775317,39.54404163481994],[16.813889520767294,39.54403501559535],[16.81398070098161,39.54402821332169],[16.81413676958473,39.54401645555044],[16.814337105318447,39.54400136194317],[16.814374437661552,39.54399854942134],[16.814708938265742,39.54397147869075],[16.81500474968654,39.544140301140686],[16.81502102257128,39.54416485871303],[16.81509655424244,39.54427884938833],[16.815164773783312,39.54438167118747],[16.815181085750194,39.544406419478214],[16.81523578254318,39.544488966226226],[16.8153573083067,39.544537098883964],[16.815475354673207,39.54458385226303],[16.815517028811936,39.54460035783259],[16.81555118001902,39.54461417385634],[16.815705064498772,39.544676582529895],[16.81581245155527,39.54472004961251],[16.81596706616914,39.544791268383946],[16.816061071892896,39.544834569402404],[16.81633891808455,39.54496539105013],[16.81656226193032,39.54513639750731],[16.81658941255646,39.545158455744435],[16.81662421511858,39.545186732352114],[16.816767938219122,39.545396127415145],[16.81679788458322,39.545439756596366],[16.81683461274346,39.545493267228686],[16.81694297139408,39.545651248458725],[16.81706453026331,39.545944051413215],[16.817161913094786,39.54603394168671],[16.81726879325298,39.54613260215738],[16.81749411443621,39.546301749406474],[16.817656288217883,39.546709022895946],[16.81775802135204,39.54676837230484],[16.818139824609613,39.54699111286627],[16.818153321254172,39.547021398647665],[16.81817391798562,39.547067622032266],[16.818351867089326,39.54746696630011],[16.818366353066704,39.54758147163019],[16.81837655407928,39.54766211829497],[16.818392483182652,39.54778804286423],[16.8184252477527,39.548078150237224],[16.8183939108019,39.548332031888336],[16.818410747777943,39.54844550918712],[16.818414733280214,39.54847966696052],[16.818457090722998,39.54883603273452],[16.81858258624867,39.54902029441644],[16.818650348102487,39.54911978892478],[16.81887577754499,39.5493024098708],[16.81904563544505,39.54939275583844],[16.819210566681086,39.54948048206995],[16.819288323338338,39.549521839962296],[16.81962774397734,39.5496337789013],[16.8199913163851,39.54967662166934],[16.82036444324334,39.54979519015],[16.82069530962658,39.54987161703605],[16.821178120251773,39.549816745745474],[16.821585066384042,39.54988296506428],[16.82170440667009,39.54990238420796],[16.821802123097896,39.54991828447523],[16.82222320162137,39.55002020803612],[16.822370115113657,39.550356538410185],[16.82251687360435,39.55039308864814],[16.822683961212384,39.550434703013664],[16.82285316006969,39.55047681006571],[16.82292108586083,39.55048688268119],[16.82300180489199,39.55049885466024],[16.82333023998036,39.550547567170916],[16.82343421350651,39.55056298641766],[16.823519000055633,39.55057556130398],[16.823594860654797,39.55060607185171],[16.823882657527566,39.550721820991136],[16.823911187429918,39.550735470067],[16.823954607730965,39.550756177888964],[16.82415474018332,39.550851626805944],[16.824216291175762,39.55090205553803],[16.824401539465743,39.55104645347596],[16.82452097888912,39.551167457857325],[16.824796841339364,39.5514469325566],[16.824858660476302,39.55150771011667],[16.82490540790931,39.551553669825964],[16.82494181015926,39.55158939544024],[16.825156324110075,39.55180035848133],[16.825281810769788,39.55193048045357],[16.825328402570563,39.55197923080069],[16.825371865347712,39.55202410590255],[16.8255044140038,39.55227147262317],[16.825729637966557,39.5527734045543],[16.825773486138146,39.55287209872953],[16.825833539626498,39.55300727320329],[16.825861497551724,39.55307020414438],[16.82607073565779,39.5531979434125],[16.82630225593772,39.553341745496425],[16.82664184094884,39.553390687278466],[16.826728082516837,39.55349661122993],[16.826822317746274,39.553612331097966],[16.82700428390424,39.55396786412846],[16.827458307783864,39.554342768116726],[16.827584750882306,39.55442866813347],[16.82770666166788,39.55451021318713],[16.827841649510862,39.55476640092827],[16.8278057587774,39.55479783610004],[16.82763107295819,39.55494985129401],[16.82751117040393,39.55505425547219],[16.827538953073073,39.55525502004305],[16.827564084534025,39.55543663544577],[16.82793268104729,39.55560526908229],[16.828081665210725,39.5555626860104],[16.828241050008184,39.55551697012646],[16.828504652974903,39.55519786254518],[16.82864964317611,39.554993835463094],[16.82867253910094,39.55496161681606],[16.828830008626955,39.55495268810884],[16.829013270802374,39.55494229686957],[16.829074902490145,39.55493913556461],[16.829169198969417,39.55512728483478],[16.82923603208077,39.55526063682446],[16.829262247784026,39.5553280653744],[16.829352025939176,39.55556298495701],[16.829778318775503,39.55552087778315],[16.830009390965568,39.55578845476449],[16.8299019753307,39.556097050251125],[16.829628478029875,39.55636295049713],[16.829424910204143,39.556579125147294],[16.82945556197924,39.55682440574315],[16.829831517381777,39.55701479515429],[16.830092932710464,39.55727139921066],[16.830045656394528,39.5573349672072],[16.82997567863946,39.55742898156004],[16.8299025856233,39.55752720883852],[16.829566429819177,39.55758597485383],[16.829153480524734,39.557748885176146],[16.829130308200817,39.55817320239104],[16.82930771695028,39.55844893107858],[16.829506433098004,39.55848987571659],[16.82954539149017,39.55849727553765],[16.829753843037494,39.558539676226964],[16.830043607954767,39.55843536870521],[16.830359495312067,39.55845866006462],[16.83072421006645,39.558703764245976],[16.83098337013324,39.55915841607674],[16.83092671832417,39.559331713025585],[16.830864706105388,39.55952175015917],[16.831059861858474,39.5598728124986],[16.83133702306253,39.56000419382308],[16.831425290655314,39.56004606516053],[16.83174258889828,39.56014146753282],[16.83198067344548,39.560238346932834],[16.832083845312106,39.56028038534326],[16.832329449838635,39.56044142446817],[16.832372664770162,39.56046834824892],[16.832428893865696,39.56050583884292],[16.832464823317423,39.56052560123764],[16.83271942091522,39.56070025657526],[16.832876948563523,39.560806902230695],[16.83299572642775,39.56100092427116],[16.83303532073703,39.561065601437456],[16.833079949743112,39.56114344363043],[16.833150322857385,39.56119559932234],[16.833380163265343,39.56136598127599],[16.83330499642394,39.56151048189549],[16.833203764998682,39.56171972162511],[16.83291367882022,39.562139557314445],[16.832704356042278,39.56234759972179],[16.83252602729997,39.56247836257852],[16.832357791541213,39.562679362514075],[16.83213799718287,39.56280439009581],[16.831994736620555,39.56301137646447],[16.83179180367545,39.563148928411124],[16.83163216172388,39.563362588512405],[16.831372588160598,39.5635458152641],[16.83109041229218,39.563812584672796],[16.830907703384757,39.56409056892384],[16.830721933652544,39.56425344494849],[16.83054663025582,39.564499316303554],[16.83035446321255,39.56473268035711],[16.83009455183294,39.56490310625368],[16.82982096331274,39.565182535459385],[16.829596272065196,39.565435584741216],[16.829313574903168,39.56568315388233],[16.829120893587973,39.565897319265424],[16.828814343076925,39.56608744646382],[16.828575261869933,39.56632402497064],[16.828323789776302,39.56657942258818],[16.828224410054244,39.566779562717805],[16.827670578331436,39.567302812589524],[16.827274136314145,39.56759951564026],[16.826972070208164,39.567921321066905],[16.826897975028494,39.56799829642229],[16.826806208865666,39.56809896077269],[16.82668532243905,39.568174907439314],[16.82659883290997,39.56834261643933],[16.82650197149692,39.56855581060586],[16.826436040263427,39.56862773774822],[16.82629420994214,39.568699299043864],[16.826214625093147,39.56881569868374],[16.826084142499692,39.56888173879606],[16.825908306779727,39.56910842633096],[16.825782033598028,39.56933433484756],[16.825632140575618,39.56960540913353],[16.825374041520938,39.56984618202322],[16.825240154195736,39.570097805790354],[16.825228004561527,39.57026434543958],[16.825109466923468,39.570470940010566],[16.82493445839472,39.57072960431326],[16.824792651097315,39.570994142947285],[16.824519694878404,39.571299123658925],[16.82438449110288,39.57149958800095],[16.824273210324595,39.5716676872014],[16.824139490658816,39.57192569121032],[16.823987745608424,39.572126409637285],[16.823908834773665,39.572268404664094],[16.823708064635586,39.57250941543035],[16.823576151129775,39.572743219281065],[16.82346421240027,39.5729351986342],[16.823379168676666,39.57312084324885],[16.82323247252942,39.57346809133961],[16.823167455487706,39.57362541007301],[16.823115764201553,39.573759334570575],[16.822970273295315,39.573978583887985],[16.82285936502878,39.57417695845313],[16.82280636764338,39.574345842385284],[16.82252204346473,39.57484933999207],[16.822427947188142,39.57504274456071],[16.82230316481993,39.575326206719275],[16.822193362565578,39.57555186179338],[16.822107205779606,39.57573234973995],[16.822055742796344,39.575976287455156],[16.821987412273927,39.5762076802498],[16.821902262414817,39.576426544619835],[16.821807635139052,39.57660077188505],[16.821722812830988,39.576832416296234],[16.82168854092711,39.577101660418506],[16.821539297741136,39.57739831192374],[16.82147197157086,39.577668081264456],[16.821444961647234,39.5778988313481],[16.821297387159163,39.57822246651821],[16.82123140963558,39.57858034673395],[16.82121113414761,39.578753423792435],[16.821180597300366,39.5788498637828],[16.821009678183387,39.579262837728855],[16.82100348550611,39.57954210010873],[16.820857931410938,39.57978261011592],[16.820798368368553,39.58003306426865],[16.820754490316567,39.58025128731404],[16.820721046763204,39.580552510403685],[16.820683094583043,39.580681063924935],[16.82065406682698,39.58083506115583],[16.820649321471343,39.58096948812771],[16.820542437753808,39.58099035823175],[16.82049413954513,39.58135579124222],[16.820357723231396,39.58151147876531],[16.82024372577677,39.58157724321169],[16.820142355246354,39.581809161187394],[16.820048573747314,39.58201536438087],[16.819897806066876,39.582254458176486],[16.81974937644197,39.58258306832385],[16.81963990788443,39.58282150151595],[16.81959335570462,39.58293739227912],[16.819538532827824,39.58305341851887],[16.819475287790205,39.5831631636749],[16.81937981930028,39.58330542851909],[16.819237140313867,39.58353798696749],[16.81927236034647,39.58362059880334],[16.81921554720817,39.58365986917894],[16.8190497422426,39.58395677367612]]]}}]}
