{"type":"FeatureCollection","metadata":{"code":"078080","referenceDate":"2026-01-01","sourceDbfExportDate":"2026-02-18","upstreamArchiveUrl":"https://www.istat.it/storage/cartografia/confini_amministrativi/non_generalizzati/2026/Limiti01012026.zip","sourceManifestSha256":"70ac8256c4785dc6ed2814c32b6965ae76f9161b51abaa1660059e1c6cbd8ca6","license":"https://creativecommons.org/licenses/by/4.0/","attribution":"Istat, Confini delle unità amministrative a fini statistici al 1° gennaio 2026, versione non generalizzata.","modifications":["Converted from WGS 84 / UTM zone 32N (EPSG:32632) to RFC 7946 WGS 84 geographic coordinates.","Converted from shapefile to per-municipality GeoJSON without geometry simplification."]},"features":[{"type":"Feature","id":"078080","properties":{"code":"078080","name":"Mongrassano","alternativeName":null,"regionCode":"18","regionName":"Calabria","territorialUnitCode":"078","territorialUnitName":"Cosenza"},"geometry":{"type":"MultiPolygon","coordinates":[[[[16.18164594412954,39.54052039535696],[16.181421133916103,39.54053281725643],[16.181004707230592,39.54055574935753],[16.180469266345963,39.54058900314396],[16.18029891673042,39.540356857442504],[16.180184684435396,39.54020186581987],[16.180133352956815,39.54021051292824],[16.180080543524898,39.54021940834282],[16.17984677003528,39.54025878869214],[16.179593139063385,39.54043221912398],[16.17929390452237,39.540544968491936],[16.179113910352445,39.54057413699067],[16.17893390684572,39.54060330668916],[16.178880186943555,39.54061123600847],[16.178792575389416,39.5406231166565],[16.178717759030967,39.54063306828766],[16.178574505246214,39.54065271932474],[16.178438039856267,39.54063421896951],[16.178326152756103,39.540619051954124],[16.178254061449323,39.54060927868453],[16.178209594895517,39.540603250783676],[16.178119280458393,39.54059100716852],[16.17769165801346,39.54059145175798],[16.177621067453536,39.54059051464881],[16.177412762291024,39.54054443174862],[16.17720172113141,39.54049690419278],[16.17702241824395,39.540455712430834],[16.176929560899765,39.54043549312846],[16.176828341213724,39.540441386252624],[16.176792211751252,39.54044381412826],[16.176591938545005,39.54045656775453],[16.17645505058558,39.540490916542886],[16.176187035723352,39.54055816742226],[16.175882732602815,39.540574875955],[16.175558741282188,39.540592665145496],[16.175363361649374,39.54062483753594],[16.175307840404617,39.54063399352474],[16.17527066389567,39.540640127071015],[16.175164558972813,39.540657609794145],[16.174782102102608,39.540681343447886],[16.1747305345447,39.54066987063436],[16.174600814849637,39.54064101235618],[16.17446359653432,39.54060711201305],[16.174314408799635,39.540457520293124],[16.17422833876822,39.54036931123285],[16.174203477387895,39.5402938988017],[16.1741309686628,39.54007395671215],[16.174074815120697,39.539948510666946],[16.174025939033154,39.53984270834685],[16.1734695113986,39.53952118797917],[16.173447294750687,39.53950081821538],[16.17338276204602,39.53944324571097],[16.173245254833205,39.53931918351287],[16.17307840166376,39.53918343232744],[16.17288501602479,39.539026076195114],[16.172862392116503,39.53900769656632],[16.1728135942033,39.53896913854421],[16.17277262902123,39.53893466429723],[16.172467044606712,39.538750797772835],[16.17228710431901,39.53861323626762],[16.172233420933857,39.53857219728258],[16.17218952812264,39.53857275335275],[16.171829903875683,39.53857731171708],[16.171778534078825,39.53857796250348],[16.171607812843472,39.53856525838241],[16.171454712595533,39.53855386068032],[16.171004810869153,39.5384613284265],[16.170624244134235,39.53834364173879],[16.170486707090618,39.53827520954445],[16.17041191693146,39.53823799688752],[16.1702705190054,39.53816764360972],[16.170034655675355,39.53797984087152],[16.169807515097183,39.53801181283446],[16.169234762546782,39.53809224305786],[16.16911644508462,39.53810908811588],[16.16904936008298,39.53817086842997],[16.168912668340944,39.53829675633012],[16.168774073039657,39.538381139090355],[16.168700814396182,39.53842492421925],[16.16856550069105,39.53850722286778],[16.16848331990992,39.538500947053606],[16.168112161556355,39.538472604978395],[16.16794766553375,39.538460043873336],[16.167886305446793,39.53843638176664],[16.167512516789404,39.53829223715576],[16.167384902934682,39.53824302493659],[16.167102001586787,39.538035522445604],[16.16702721983755,39.53774784449537],[16.16686395848236,39.53758642326401],[16.166815065292,39.53753606588404],[16.166271335650926,39.537526168363414],[16.16619805420677,39.53752483393581],[16.16615699602404,39.537516779773526],[16.165848244392865,39.53745659994686],[16.16547270431842,39.53732242062038],[16.164959134105978,39.5370753293191],[16.164618702085804,39.53694348644629],[16.164215315324107,39.53725639035789],[16.16379330591063,39.5370800874653],[16.163455419027894,39.537029048760026],[16.16289128055512,39.53736089869076],[16.162460611325223,39.53741007485732],[16.16193672940148,39.537330051393376],[16.161757247169263,39.537125250006476],[16.161892220336362,39.536828980582996],[16.161668464897318,39.53663139822274],[16.161327343258723,39.53643658919231],[16.161160176940747,39.53616804228899],[16.16095863538421,39.535946585054205],[16.160698917244446,39.535697194722744],[16.160601895997814,39.535604435430876],[16.16043782229229,39.535447774746615],[16.16022904098829,39.53533005301463],[16.160196770026023,39.53531376076699],[16.160146583065202,39.535285858467184],[16.159621207108035,39.535017016987325],[16.15941641491761,39.53491222140131],[16.159252565371986,39.53482837609683],[16.15901559531505,39.53477812144452],[16.158645247518958,39.53469955325526],[16.158424491725402,39.53468004131858],[16.15828398170551,39.53466759430702],[16.158076481670452,39.53464924319049],[16.15783941513229,39.53464049374226],[16.157666788924743,39.534634121451994],[16.157278797791598,39.534837596044994],[16.157170765322757,39.53489425097392],[16.15701900817274,39.53506061400714],[16.156988097398663,39.53509449991708],[16.156731144845356,39.535160323921154],[16.15647868818503,39.53522499637615],[16.15630441340893,39.535104841949014],[16.156233198046788,39.53505574248982],[16.156138106847386,39.53504339620568],[16.15585779984459,39.53500700143151],[16.155522210805774,39.53470283176654],[16.155444370648155,39.534632201870274],[16.15501498201516,39.53428491669684],[16.154948365689158,39.53423103767659],[16.154886757477037,39.534177001690686],[16.154641744673278,39.53396209932637],[16.154514591550317,39.5338660191867],[16.154253335197257,39.53366860577049],[16.154218021147287,39.53364192104123],[16.15387572550688,39.53345568545292],[16.153637008734616,39.53332580430896],[16.153371680547497,39.533181442132346],[16.15304107009686,39.53318056835932],[16.15274408293473,39.53317978217538],[16.1524814081568,39.533391021868084],[16.15234330440754,39.53350211695104],[16.15213974369819,39.533562798970586],[16.152041533498977,39.53359210072996],[16.151997177286002,39.53357190646135],[16.151915609385203,39.533534771176946],[16.15182497573047,39.53349350804339],[16.151788865041752,39.53347691098375],[16.151736759357156,39.53345349891017],[16.15159139815698,39.533363829207694],[16.151558344769857,39.533343426077856],[16.151372206183815,39.53322859780977],[16.151303197471123,39.533229273850594],[16.150767164417207,39.533234523939065],[16.15071699646679,39.533203306967714],[16.150344147151532,39.532977267172676],[16.150113167525436,39.53295659056504],[16.149809084038466,39.53292936956526],[16.149526312470183,39.53289935272409],[16.14935386171157,39.53288104714054],[16.149007451927094,39.53312739371526],[16.148979868698262,39.53323403094078],[16.14896027544484,39.53330977411228],[16.148888013531725,39.53358913434273],[16.14875065910158,39.533572910266166],[16.148429971980782,39.53353504260324],[16.148188192541404,39.533506471524504],[16.14783673744441,39.53341596066429],[16.147721811553648,39.533386340243425],[16.147232133406504,39.53325961596591],[16.146936644405233,39.53310242530662],[16.14683532943145,39.53300313241876],[16.14669915771177,39.5328696751512],[16.14662270504232,39.53291071148552],[16.14654725358813,39.53295119284172],[16.146377098240507,39.533042535076],[16.145983120231115,39.53306688328509],[16.145632835070316,39.532994058396625],[16.145306053503308,39.532937781934756],[16.14501622964321,39.53311314310814],[16.144787007793823,39.53328475921492],[16.144218938147727,39.53340981478846],[16.143922977077725,39.53313119677839],[16.143447328782123,39.53323706978721],[16.143075963706774,39.53325549534887],[16.142940560252875,39.533259625216964],[16.142505546544246,39.53327281314039],[16.142061693690195,39.5333284701884],[16.14179721439871,39.533361573179654],[16.14130991883298,39.5332837087825],[16.141034093621986,39.532918358483414],[16.140620651319146,39.5325704982023],[16.140154054297533,39.53248235771348],[16.139654372208668,39.53248172009899],[16.139395803786567,39.532340231690135],[16.139084611243085,39.532449401189595],[16.13853792038496,39.5325281490076],[16.138187305214903,39.53242382975094],[16.13783552011123,39.532265593051406],[16.136836281261406,39.53223729186934],[16.136494995467984,39.532096405736496],[16.136119717534765,39.53192162952264],[16.13584735390708,39.53236581902178],[16.13546656270214,39.532546769923705],[16.13506195944677,39.532679697114546],[16.134727428868626,39.532943252671785],[16.134417691552326,39.53315130704943],[16.134048791828548,39.53336301144997],[16.133758385295774,39.53350117045595],[16.133701255180156,39.53352841994879],[16.13329826337349,39.533644618221224],[16.133145491141317,39.533688668418264],[16.132834426872172,39.53386980580779],[16.132429800023623,39.534093412618546],[16.132121354314087,39.53423768821337],[16.131678350251647,39.53435049147906],[16.131618057897935,39.53436594510591],[16.131192966171973,39.53447489854595],[16.13062407088367,39.534622468644066],[16.13044127120015,39.534662578014085],[16.13018130430388,39.53471962046046],[16.12995788764021,39.5347686423169],[16.12988281350904,39.53478511532461],[16.12965451623909,39.534825369069225],[16.129568962430223,39.53484045369172],[16.12932985113394,39.5348852909845],[16.1290716971087,39.53493409275543],[16.128233506697203,39.53496271367821],[16.128192276775167,39.53496323257969],[16.127790804608242,39.534963629011386],[16.127384712212375,39.534997651299115],[16.127242881707396,39.53501651321959],[16.12707338880887,39.535039053897684],[16.126943390142074,39.53505634226963],[16.126465280743172,39.53506782473592],[16.126389681093652,39.53506297436817],[16.126000318401562,39.53503799330177],[16.125943725371613,39.535022134544114],[16.125595043841198,39.53492442507613],[16.125473907908976,39.53489047886799],[16.125397455030548,39.53495757854986],[16.12527310792309,39.535066713944865],[16.125154150403247,39.53517111920834],[16.124941344361975,39.53527209074889],[16.124610825274157,39.53542905507988],[16.123500272212283,39.5359252452914],[16.12326172296981,39.53621886301136],[16.12297607316141,39.53660533937568],[16.122818305581987,39.536907467444365],[16.122640638090935,39.53744026830674],[16.122622010198867,39.537711326942805],[16.12255306603738,39.53785433955138],[16.12253387130292,39.53789280077038],[16.122509346639976,39.5379432536104],[16.122270262926687,39.53824589454964],[16.122081496143565,39.53836675117596],[16.121959543638546,39.53844498449654],[16.12165963743144,39.53859391657745],[16.121643771642823,39.538644372233335],[16.121558049688687,39.53891696267151],[16.121537012856773,39.53898385563599],[16.12168915798275,39.539286412153736],[16.12175026576064,39.53940792946889],[16.12176379496378,39.539439043325885],[16.121517208637947,39.53989379544248],[16.121159222150112,39.540113780317085],[16.120827492414687,39.54047611391542],[16.120481718039045,39.54065935784656],[16.12008798399237,39.54081406200673],[16.119579227066144,39.54098034281951],[16.119406005933804,39.54100137643878],[16.119286169735393,39.54101592358468],[16.118986624327878,39.54105264802598],[16.118640185919134,39.54117294464882],[16.118236845937705,39.5414181937923],[16.118056683700907,39.54151822356965],[16.117888921407012,39.5416111115284],[16.11778721777172,39.54165150536533],[16.117687465907345,39.54169077486492],[16.117579655665942,39.54173306227009],[16.117485715912803,39.54177035881368],[16.117190468966303,39.54192115696017],[16.117095116450248,39.54196985891115],[16.116933456764553,39.54203872289553],[16.116780053598703,39.54210406887023],[16.116619661363984,39.54217239195471],[16.116565676227562,39.542195389081435],[16.116529024070925,39.54221168976587],[16.11647156383698,39.5421522557441],[16.116184182324638,39.54185498933816],[16.11594549712221,39.54182722793468],[16.11572570294009,39.541801663189126],[16.115450859070602,39.54176969353476],[16.115316836302036,39.54174657622374],[16.11527279815551,39.541738980334166],[16.115128222155324,39.54171426190265],[16.11506638135461,39.54170337509477],[16.114769570171827,39.54141573834609],[16.114564851742855,39.54119844415485],[16.1145331977228,39.54116484642338],[16.11440514634558,39.54109791289801],[16.114312176347713,39.54104931705743],[16.11406503382805,39.54092013370171],[16.113764971530934,39.5408359381571],[16.113588015444016,39.540786597061306],[16.11345120294452,39.54074866927318],[16.113245475039722,39.54069073700118],[16.112872939705202,39.54064167840635],[16.112569746052472,39.54051819418896],[16.112509086364206,39.54049309472931],[16.112145807863243,39.5403219970862],[16.111839891056473,39.54012938543668],[16.1115350835482,39.54000416393819],[16.1110196806811,39.53976594773814],[16.11070275249229,39.53956499998642],[16.110186966263495,39.5393087995446],[16.10983452411991,39.539104727096515],[16.109751488800182,39.53905665474423],[16.109341577775723,39.538883917957804],[16.10906449599135,39.538842009162316],[16.108768883063878,39.53879727369411],[16.108567230100846,39.538764153630446],[16.10825635799042,39.53871221033692],[16.108092968345744,39.53868417378265],[16.1079088826141,39.53865258557299],[16.10761388529569,39.53849525914378],[16.107565302338102,39.538425747321035],[16.107541455369194,39.538391971795264],[16.107496771410514,39.538328265686516],[16.107423347963014,39.53822356913497],[16.107250453886817,39.53728141687344],[16.107219259206587,39.53711142508548],[16.107175727835784,39.53692624440091],[16.107131694681495,39.53673893154688],[16.106841805576817,39.536621689315204],[16.106639206839645,39.53653975137763],[16.106548788325544,39.53649253337632],[16.106300073359993,39.53636265345743],[16.105935388342253,39.53619162151579],[16.10592378909134,39.53614983926099],[16.105879413602533,39.53598999541948],[16.10586276952152,39.535927264849335],[16.10587384868962,39.53582715851952],[16.10591389929118,39.53550015459854],[16.105862328307058,39.535156905086836],[16.105849793210822,39.535123018015284],[16.105763544689715,39.534897556233126],[16.105502566272587,39.53457620167703],[16.105194158788308,39.53447165093351],[16.10492929230193,39.53438199178279],[16.103862025528105,39.533817737479886],[16.10333345926448,39.533535294270784],[16.102969193618762,39.53338232132962],[16.10255307800839,39.53343568378344],[16.10248516392442,39.533444412102185],[16.10236634994446,39.533459609919305],[16.102192593471457,39.53344682300135],[16.102155596764177,39.53344415371605],[16.101934641094704,39.53342783999538],[16.10186457679879,39.533442337812815],[16.10180320096829,39.533455094559606],[16.10153759081318,39.53351022615489],[16.101472586099998,39.53352297163812],[16.101057175016347,39.53378757047047],[16.100737352316923,39.5341535935338],[16.100416067995248,39.534434261886396],[16.099967923858422,39.5347811846432],[16.099528866157854,39.53504656429693],[16.09920535644588,39.53519238947415],[16.098122851210746,39.53589765644118],[16.097627470267717,39.53616648540818],[16.097281264183046,39.536331707787944],[16.09688847548879,39.53648176503996],[16.096516488304257,39.536608059742086],[16.09602078121008,39.53684542883648],[16.09556772028987,39.53693169707231],[16.095125187256954,39.53698131231444],[16.094696566990162,39.53703900862458],[16.09416971930831,39.5369274740471],[16.093807524353384,39.536832866296194],[16.09332112698833,39.536907572695604],[16.092962408490227,39.53697907062818],[16.09242152411383,39.53738562601798],[16.092144654681515,39.537533086390496],[16.09178603273795,39.53767652974418],[16.091286501762482,39.537738544950344],[16.09082928248188,39.537640708582295],[16.090699376473193,39.53741926064946],[16.090557418190983,39.5365282230193],[16.09019659188162,39.53645137707495],[16.089716797614233,39.536318840919144],[16.08914769120073,39.53633572725615],[16.088773286359604,39.53628220833347],[16.08835469378858,39.53629437751934],[16.088020279114257,39.536418342827815],[16.08769560071345,39.53651021732067],[16.08738084459415,39.53652947109841],[16.08690073183188,39.53634768821184],[16.086402403664838,39.536467761925536],[16.08589786321949,39.536246950316496],[16.08568613376364,39.5360350247092],[16.085450893073627,39.535865004704625],[16.085061429921247,39.535712355166126],[16.084795733976097,39.535608215273555],[16.08455763629501,39.535339379256285],[16.084981167316442,39.53492688035551],[16.08501604102117,39.53489291594258],[16.08547910843597,39.534648618789774],[16.086185292012942,39.53445238789339],[16.086809312746922,39.534148711440906],[16.08729501711007,39.53398398789077],[16.087723136562953,39.53379579635633],[16.08813809872186,39.53354992311948],[16.08874064223517,39.53339153848865],[16.08908749518785,39.533289292081975],[16.089351171299256,39.532998697859284],[16.089427730984994,39.532710601653605],[16.089445113117772,39.532340631571834],[16.089380031764204,39.5319172499381],[16.089163172028826,39.53145817486532],[16.088835090669985,39.53128933782926],[16.08844991621901,39.53118698189327],[16.08792142315818,39.53090446148966],[16.08733921033506,39.53086367314613],[16.086908527700093,39.530813577272504],[16.08644115964671,39.53070276299707],[16.086076328674363,39.53048669400454],[16.085873561815053,39.53009422636943],[16.08542343750952,39.529640443294646],[16.084996617374884,39.529144747141736],[16.084567998925323,39.52859061606807],[16.084334700298065,39.52859917592585],[16.083837518265746,39.52861741630836],[16.0834317079014,39.528790405070126],[16.08290560886017,39.5286341391011],[16.08256890669121,39.52869050951351],[16.08214893301387,39.52866680759303],[16.081413225065425,39.52841498504005],[16.081121497469482,39.52828887950142],[16.080806712396143,39.52824968496676],[16.080256623517347,39.528053913072675],[16.079918401535753,39.52805667132271],[16.079446568359778,39.52834194635711],[16.079156354119913,39.528517132217914],[16.07880988820976,39.5286373096633],[16.07843960910716,39.52865101792266],[16.078053925823816,39.52869704941997],[16.077670648538486,39.528702540554264],[16.077235871995647,39.52865269415851],[16.076388509962115,39.528560595617535],[16.075599021334124,39.528613359458085],[16.07485247371061,39.52858256060862],[16.0742475382371,39.52851611825794],[16.07341928020791,39.528355349871404],[16.07249857828132,39.52824541174244],[16.0719811101276,39.528636747797655],[16.072137528647,39.52896008246265],[16.07224540588729,39.52919192958719],[16.07234288583931,39.52947838437269],[16.0724781954008,39.529964963926915],[16.072714531824868,39.53018895385019],[16.07292878366237,39.53049526126704],[16.073108676106504,39.53083516295014],[16.073230178960387,39.53112913890486],[16.073465991569407,39.53136215313036],[16.07363343440398,39.53169380335999],[16.073921471080016,39.53222504729442],[16.07420415354765,39.532419184666004],[16.074545745138575,39.53274919173911],[16.074795018961044,39.533071357023],[16.074810994158412,39.53331330065016],[16.074699964337515,39.53364851501257],[16.074669432372378,39.533947294546614],[16.074629046863212,39.53437713986569],[16.07473816351316,39.53464939213962],[16.074965052258186,39.53502240214949],[16.075179926075535,39.535391650631865],[16.0751844269532,39.53570629026306],[16.075025750053776,39.53595891885943],[16.07466793334693,39.53612477812928],[16.07434633834341,39.53634688950797],[16.074152098459265,39.53659271921689],[16.073708873850638,39.53667826550801],[16.073207897886263,39.536636915235825],[16.072857589186157,39.53657737393589],[16.07253180235108,39.53651631117981],[16.07201835361567,39.536466744237075],[16.071658767810387,39.536515711442696],[16.071184159057,39.53666170630288],[16.070483689418833,39.53651558670591],[16.06995618525255,39.53631390713568],[16.06962661735828,39.53607312969837],[16.069286479549845,39.535913964905625],[16.068958948159874,39.53573604500071],[16.0687348283888,39.535560794626626],[16.068452069182033,39.535380135671694],[16.068111708907153,39.53517600183288],[16.06780759297636,39.535028137154214],[16.06750112102756,39.53478592463532],[16.067078106396103,39.53448337080182],[16.066641353242613,39.534145667084644],[16.066393856982774,39.53394034952602],[16.06605275091599,39.533700266169916],[16.06562954492869,39.53335271951546],[16.065147527085443,39.533026769161744],[16.06450232626369,39.53272427129828],[16.064055498270893,39.53238717250571],[16.063629706394984,39.53198578486956],[16.063229452994744,39.531663842198384],[16.062415294960473,39.530885789400116],[16.06203633964782,39.530459054698],[16.061834456196127,39.53018795714281],[16.0614649091278,39.53038146880519],[16.061072658296908,39.530594367924536],[16.060723874056198,39.53060667076749],[16.060084300262734,39.5306727120801],[16.059760941667328,39.53077791601698],[16.059412626365177,39.530880164300555],[16.05905206519818,39.53093366485897],[16.058658756602952,39.53099365819144],[16.05829789425745,39.53101568218428],[16.057669554913574,39.53104953279306],[16.057398314281027,39.530796149562164],[16.057056120090582,39.53050213040412],[16.05670405177218,39.53025367649824],[16.056352585106907,39.5300681870696],[16.05590735687165,39.52987490956439],[16.055273982586556,39.52961661627345],[16.05494608338595,39.52943418076306],[16.05458052476864,39.52911007013788],[16.054298572247202,39.52887984904891],[16.053978217426724,39.528557476195424],[16.053697421921353,39.52838115620652],[16.053320592300754,39.528174703431695],[16.05304001648022,39.52804334667107],[16.052734831414025,39.52784151680371],[16.052357573092134,39.52754510857479],[16.052146128725024,39.52735106556633],[16.051979074447377,39.52713631394428],[16.05170652459882,39.526784022873215],[16.05137518681737,39.526453319560545],[16.05110481589449,39.526222364147564],[16.05072974587632,39.526047287727685],[16.050342684675794,39.52586844486309],[16.049922321627292,39.525790602037006],[16.04958310509477,39.525653819417],[16.04909294255868,39.52550373607361],[16.048671051669306,39.52528201103161],[16.048014051155214,39.524962151698226],[16.047685198526608,39.52478424220454],[16.047736695523838,39.52429071462041],[16.047956755581513,39.52344053260254],[16.048043549135897,39.52307984244226],[16.048188839692585,39.52266610853767],[16.04831246569851,39.522339160779346],[16.048395828507754,39.521744728779055],[16.04834401925439,39.5213205072321],[16.048300968348823,39.52079676332769],[16.048235804431535,39.520355352132825],[16.048219343052047,39.520050448454036],[16.04822560748476,39.519726156517784],[16.04824428775972,39.51933812351833],[16.048449399410913,39.51832687938587],[16.048394440622236,39.517785876766816],[16.0484563835664,39.51723774857298],[16.04849857172381,39.51693826325905],[16.048680950967782,39.51667521402345],[16.048722684236147,39.51637126027289],[16.048736845737043,39.515767557376954],[16.04881238711455,39.515439042939995],[16.04901564009348,39.514981275435716],[16.04910220791179,39.51457559900731],[16.049267097575996,39.513940228832595],[16.04940077305707,39.5134552094578],[16.04954320427773,39.51295616710082],[16.049721575615514,39.51239642880707],[16.049818339570386,39.5118911773225],[16.04990246549453,39.511332705735796],[16.049986882149042,39.510720225183334],[16.05006958719508,39.51007635632204],[16.05021353030626,39.5095637150986],[16.050231782779644,39.50924318908166],[16.050356804724565,39.50900163741661],[16.050562744169,39.508813621927274],[16.050874128278902,39.50861932081892],[16.051195602879712,39.508338839894456],[16.051875073515028,39.50792403172328],[16.052313056637367,39.5076049109423],[16.052922650966174,39.50713135395691],[16.05331190846854,39.50676121032895],[16.053517102194792,39.506451784576015],[16.05374480378918,39.50616346564822],[16.05387939054629,39.50584485571838],[16.05397890516189,39.50543838751935],[16.054043493132987,39.50508804032736],[16.054049522982545,39.50471878358841],[16.05397563686886,39.504448856420034],[16.05389912790287,39.50405314131949],[16.053788003371793,39.50357403529663],[16.0537807803213,39.50308861225488],[16.05399570663033,39.50276058837954],[16.05421349571534,39.50251787237375],[16.054396573737982,39.50229078095954],[16.054589742828657,39.50206305408295],[16.054679650717397,39.50181912596793],[16.054697614151973,39.501467126954985],[16.054554231861772,39.50124194039372],[16.054242737944897,39.50066259575835],[16.054192486919824,39.50038223518797],[16.05415286519784,39.50009223418383],[16.05400621358994,39.49960632066344],[16.05391945730547,39.499238208040005],[16.053832172645535,39.498879137771425],[16.053780264255295,39.49846841437853],[16.053751023134595,39.49805181357226],[16.053745873049678,39.49770122320895],[16.05363560065026,39.49733005354617],[16.05352634877971,39.49702629556726],[16.05335632418181,39.496595797300834],[16.053198367116078,39.4961555338562],[16.05303150320682,39.495841799660305],[16.052817087866753,39.495517474168935],[16.052555605289175,39.49518700838965],[16.05241272376282,39.49496628519206],[16.052363214894537,39.49472186617578],[16.052436507530565,39.49420004203552],[16.05273107654309,39.49365571751876],[16.053111607565146,39.49344358539822],[16.053525150046006,39.49309895766425],[16.053787602452484,39.492781526715376],[16.05398753839254,39.492220489153134],[16.054108638565843,39.491740729289866],[16.054090643636634,39.4912919513939],[16.054141502759393,39.490820989663284],[16.054182029606352,39.49039112473862],[16.054223124703753,39.49010968934175],[16.054358971383753,39.489817999831004],[16.054575065491644,39.4895303891024],[16.054906967103918,39.489168237292326],[16.055170818309527,39.48885073655843],[16.055479974452478,39.488593437470804],[16.05657585492884,39.488036236314244],[16.057037385480992,39.48777864892864],[16.05747396768685,39.48743260309901],[16.05765662608501,39.48718752958204],[16.057895869198372,39.48688501361197],[16.058145159704274,39.486424426334914],[16.058334861805612,39.485962977252704],[16.058584679316468,39.48549334598766],[16.05890148657923,39.484911680951285],[16.059184053575724,39.48442200211325],[16.059339557505204,39.483953521255955],[16.059557058427533,39.48366581649298],[16.060006482546807,39.4834179501673],[16.060479190880848,39.48321365805042],[16.06076800625892,39.483056576993725],[16.0611608397063,39.48286613127306],[16.061505402945258,39.48262917362432],[16.06189597904219,39.48227257459146],[16.064605277502267,39.48460853669876],[16.064842390151494,39.48491346691749],[16.065069459915662,39.48529100484888],[16.065227075905135,39.48571324963592],[16.065463671919932,39.48594173875244],[16.065964720747964,39.48607308902924],[16.066268079093955,39.486144538229425],[16.066380756419377,39.48661000884778],[16.066350359491103,39.48688180056318],[16.066342493595407,39.487161190205924],[16.06642755445428,39.48741244030578],[16.067003585469813,39.487795633317994],[16.067240519173055,39.48805557217359],[16.06746564563595,39.4883567325504],[16.067622527651615,39.48874302994409],[16.06769742192607,39.48909387053482],[16.06787604006033,39.4893798699878],[16.068135447851947,39.48957544986923],[16.06844230048899,39.489880625737804],[16.068867645032682,39.49030900412612],[16.069093870366462,39.490677573679505],[16.069191008880928,39.49091905431182],[16.069300389082013,39.49196507617005],[16.06922270378436,39.492271249776785],[16.06911461159898,39.492678227638685],[16.069141993638862,39.49301846335951],[16.069332011061217,39.493330758956546],[16.06947754024641,39.493690769778176],[16.069656004033178,39.49400376993375],[16.06962794284728,39.494455358244466],[16.06963370042696,39.49479689737742],[16.0695121027716,39.49521371848318],[16.069495882027695,39.495610610479794],[16.069489018439864,39.4959709233119],[16.06954106675281,39.496368121243414],[16.069781054226816,39.49677185345367],[16.069981660981615,39.49700251440004],[16.070113520698488,39.497228382805815],[16.07014121537183,39.49751460928303],[16.070121458594826,39.49777675950604],[16.070292953246746,39.498306110464654],[16.070378071210637,39.4985573347082],[16.070246434200616,39.49904676439678],[16.07025262977033,39.49947825416881],[16.07032527810851,39.49972125024496],[16.07064660912841,39.50019646061411],[16.071080713750263,39.50045334805466],[16.07131897953056,39.50065472595981],[16.071347519751257,39.50113434513991],[16.07125881169171,39.501432184108914],[16.071099421454484,39.501648861653564],[16.070824125430512,39.50186814602014],[16.07071355725066,39.50229328587274],[16.070776117581506,39.502536897344875],[16.070756872208968,39.502790005452276],[16.070749206840542,39.50304238771615],[16.070533377303867,39.50337499134711],[16.070576768945863,39.5039436814707],[16.070651854781413,39.50426749554057],[16.070806907214248,39.504563939131145],[16.070998035032538,39.50485817808825],[16.0712116532362,39.50517352130712],[16.07141432012333,39.50546703608207],[16.07163909943902,39.50576371266363],[16.07218160425502,39.50624339915937],[16.072489238286288,39.506512507858304],[16.07285775959099,39.507065812588976],[16.073024389745715,39.50736154575589],[16.073190915886,39.507585291067635],[16.073581572698213,39.50797078933563],[16.073911082247086,39.508283537567074],[16.074146957651543,39.508489551000515],[16.074559880585884,39.50876572135567],[16.075250745569765,39.50911934436347],[16.07556796197911,39.50931138783827],[16.075815637570216,39.50956165630606],[16.07614760362716,39.50995523158],[16.076758901635596,39.510354197077255],[16.077235906397572,39.51043299198505],[16.077462318960148,39.510702560832115],[16.07782687663533,39.51103115379714],[16.07818785167673,39.51105404387995],[16.078505774399673,39.511295511198455],[16.07907919598557,39.51150785039991],[16.079438326240705,39.51134191999323],[16.0798791848054,39.511265440225536],[16.080236955865065,39.51117156456092],[16.08083948069614,39.510986215624484],[16.081232560265462,39.51085418795399],[16.081743048469725,39.51070596038447],[16.082113880969604,39.51068325409404],[16.08250537963868,39.510681295395344],[16.08275387498792,39.51068005211714],[16.08310367206987,39.51072161428924],[16.083580542571607,39.510741903157445],[16.084579951850714,39.51068968359583],[16.08494006681603,39.5106046429065],[16.08548349525183,39.51040940077978],[16.085921198155354,39.51011716726497],[16.08649983135478,39.50989726367642],[16.08715127782696,39.509906824650855],[16.08742053131007,39.51008378881872],[16.087714636777907,39.51029070089959],[16.08813747127914,39.51052121560066],[16.0882696829744,39.51079201969851],[16.088521299638767,39.51129394687174],[16.088874275315312,39.51155123912513],[16.089354084198984,39.51174226889008],[16.0898339436211,39.51191980531945],[16.090186441312753,39.512087126932705],[16.090689258920712,39.51229024747368],[16.09134612530937,39.51263686211861],[16.091772411333366,39.51312807204509],[16.091742264546422,39.5134583217974],[16.091689645439896,39.513767468307336],[16.09182561114585,39.51414601835079],[16.091920254503925,39.51443262829238],[16.092005838685694,39.514701809440886],[16.09199825913731,39.51495420312001],[16.092014500254624,39.51524112434605],[16.09208816121488,39.51549303433955],[16.092061968728686,39.51598948910472],[16.091961539051344,39.51624308109493],[16.092141738384576,39.51662791043195],[16.09233362317073,39.516985046585276],[16.09259190551333,39.51715364041963],[16.093173090184983,39.51718549399485],[16.093663824012477,39.517227371233716],[16.09394823768131,39.51763729675413],[16.093897149706038,39.51801832571647],[16.0941931292399,39.518427540225204],[16.09476792831079,39.518666709342554],[16.095105561156622,39.51874496688438],[16.095467736002274,39.51882171686436],[16.096015912813012,39.51891404890211],[16.096543408097595,39.51910212171708],[16.096966408358426,39.5194045649503],[16.097664710544,39.519388707089],[16.098105061787024,39.51932119901622],[16.098414326700997,39.51903679980694],[16.098878872581377,39.51893629382569],[16.099283734943505,39.51884845963331],[16.099748554212276,39.51879294863912],[16.100257284629862,39.518613254411775],[16.101036315856476,39.518605907263456],[16.101420863058006,39.518631790215984],[16.101746463705748,39.518620789393076],[16.102152235138004,39.51854188232165],[16.102662719610933,39.51839357808747],[16.103044498516056,39.51830714838999],[16.103450586358054,39.518259708457315],[16.10384737993434,39.518149855801056],[16.104274094254176,39.51802017797732],[16.104807620009165,39.51796942009592],[16.105356962986576,39.5181156066592],[16.105694234356378,39.518076901514874],[16.106018660080483,39.518011968912745],[16.10645120884287,39.51815183892885],[16.107069736632003,39.51830727295991],[16.107464741983023,39.518265014766286],[16.107721850005376,39.518208751694104],[16.107893560438956,39.51817104456532],[16.108453479896376,39.518222092905155],[16.108699351505557,39.51838243874707],[16.109238201319606,39.51861023718483],[16.109611532136007,39.51866827114239],[16.109867595838328,39.51868119470913],[16.109938678357405,39.5186847515921],[16.10999154345071,39.51870117632334],[16.110026413160597,39.51871104151942],[16.11024351719202,39.51877931192778],[16.11063885777506,39.518901983685375],[16.110978337745678,39.51899808313431],[16.111421130664915,39.51911030813246],[16.11174725237664,39.519090253795355],[16.11178914211275,39.5190987537316],[16.11202556704311,39.51914679762756],[16.112264475848235,39.51919536128222],[16.112341910293825,39.5192111026268],[16.11270448990292,39.51930577536758],[16.113087607435926,39.51923271888632],[16.113492919004592,39.51922295600166],[16.113808989542346,39.51921534290172],[16.114438947447386,39.51934296359312],[16.114881449266463,39.51947724372326],[16.115395331476748,39.51950463646844],[16.115666409660154,39.519487958302705],[16.115836898648805,39.51947746858913],[16.11607173957735,39.519592889483775],[16.11642138001241,39.519764730774675],[16.11648415324679,39.51977805227169],[16.116808327871592,39.51984505868451],[16.11723892058762,39.5198950485155],[16.117516056428208,39.51981484484631],[16.11763379506527,39.51978077036227],[16.11847219424102,39.51972916724133],[16.118783897521496,39.519611012434986],[16.11907197482941,39.51947183023476],[16.119398158316045,39.51946973514652],[16.11946278710768,39.519464640062665],[16.119920923504985,39.519428271301166],[16.1203133988289,39.51932352596017],[16.120484340141758,39.51931714028851],[16.120674180131665,39.51931019089486],[16.12099898576326,39.51926319722575],[16.12129868365153,39.519141278045865],[16.121388101507783,39.519198812275405],[16.121604981990043,39.51933835720732],[16.121829359556205,39.51957197020343],[16.122240790365133,39.519803056268124],[16.122705383202575,39.51978793090315],[16.122843630339148,39.51975953941659],[16.123018234355495,39.51972368374034],[16.12319821719597,39.51978761940321],[16.12338177901292,39.51985320128695],[16.123599898368383,39.52002942476949],[16.12373462171653,39.52013841345355],[16.12382377364262,39.52022090551233],[16.123935186373306,39.52032399606214],[16.124153296464772,39.52044504344109],[16.124241625681098,39.52049406338696],[16.124302802721026,39.52050302154991],[16.124557555647048,39.52054032875658],[16.12469571719346,39.520560562117026],[16.125067880712564,39.520564628015144],[16.125474743100366,39.52055304795332],[16.12581075156935,39.5204858529634],[16.125944556677627,39.52045909451545],[16.126125030874984,39.52042300284022],[16.127567771865227,39.52048705079336],[16.127893762250185,39.52049395316351],[16.128347190168938,39.520497495701285],[16.128989062593508,39.52061088826796],[16.129682620946856,39.520821943099264],[16.129726597173644,39.52083533095856],[16.13007395130213,39.5207959312706],[16.13019167321084,39.52078562680781],[16.130270404438484,39.52077873658967],[16.13042224315353,39.52076544398731],[16.130514794544617,39.5207951080257],[16.13080825960619,39.52089010673957],[16.130863776784622,39.52089998166784],[16.130994069234237,39.5209231578155],[16.131240199441464,39.520966936998065],[16.13145753634278,39.52102550496139],[16.13166137196675,39.5210804333979],[16.131752929143957,39.52108801072806],[16.13194429934018,39.52110384908328],[16.132047334707586,39.52111241252396],[16.132126369488656,39.52111897043797],[16.132235097614924,39.52112629369136],[16.132631854854417,39.5211478717734],[16.13269824278788,39.521151442995986],[16.132933118711755,39.521253438953785],[16.132979433382378,39.521273550781245],[16.13315373596823,39.521341230728595],[16.133235848129143,39.52137311363468],[16.13338933954661,39.52143271151545],[16.133819769589245,39.52140289573237],[16.133981964367795,39.521391658754766],[16.13439098722949,39.52130921149819],[16.134525635672865,39.521282056308266],[16.134560962346338,39.521274938287604],[16.134964293568757,39.52123588433475],[16.13507230362759,39.52122542543743],[16.135471146847703,39.521102372108416],[16.135533323298937,39.52108722703571],[16.13593951869081,39.52088400565523],[16.13608574405957,39.520844379297664],[16.136119376753623,39.520835264454796],[16.1362404457685,39.52080245543515],[16.136459040509276,39.520832667417345],[16.13666837010633,39.520861597281616],[16.13689300228886,39.5208926414913],[16.137195892145556,39.520801974818156],[16.1372428344812,39.52079952222479],[16.13767109921962,39.520777141438224],[16.137818214369823,39.52074634464372],[16.13815867551918,39.52067507340124],[16.13838992017671,39.520657461932664],[16.138471345303397,39.52065125994625],[16.13894679105898,39.520586657267586],[16.139308376693002,39.52057261253655],[16.13953876271056,39.52053252246075],[16.139749192238824,39.520495905222795],[16.140126902678432,39.52060335827692],[16.140203961666916,39.52062528034222],[16.140273051153237,39.520696396918254],[16.14036844576965,39.52079459165914],[16.140525559433925,39.52095631689461],[16.140191406228524,39.52123001349087],[16.140157341683615,39.521257862524365],[16.14019688723962,39.52128325055121],[16.14062664328683,39.52155738847417],[16.14057366423121,39.52168164487924],[16.140514357244005,39.52182074348277],[16.14048870945142,39.522002596567305],[16.140463154269227,39.522183792528594],[16.140509230044167,39.522247308267104],[16.14064276524106,39.52243359693192],[16.14094642743272,39.522590300717546],[16.1412715006453,39.52258821217758],[16.141932381034863,39.52244843123202],[16.142304273100397,39.522407477984395],[16.142746014716376,39.5223397124643],[16.14315542700776,39.52250786335014],[16.143502219572778,39.52237846362448],[16.143955522608216,39.522309978401736],[16.144724174542123,39.52225799474791],[16.144829954297354,39.522223484136816],[16.1451850276887,39.522108058881116],[16.14548650617743,39.52198386431006],[16.145647522299747,39.521917532813795],[16.145802313978223,39.522137394083124],[16.14566834798283,39.52244519846622],[16.14569500801571,39.52245995323152],[16.14610342876744,39.52264963115395],[16.146371423284727,39.52282650887813],[16.14651896119361,39.52315927371552],[16.146685401004778,39.52324793585218],[16.14682165524175,39.52332051809721],[16.146953970441217,39.52327675657964],[16.147390419297214,39.52313240652549],[16.14768187990809,39.52322686581544],[16.148030428748548,39.52324130875829],[16.148506221604066,39.52319389594774],[16.14883394152427,39.523245628445515],[16.149161956592888,39.52344126964433],[16.14956578275079,39.52389315787379],[16.149943151050266,39.52424321513391],[16.15027478662925,39.52460059650381],[16.150465098353937,39.524840753301284],[16.150667408119844,39.52508466290234],[16.150690651529022,39.52510383844286],[16.151021469522725,39.52537767779719],[16.15107612322099,39.52539465628295],[16.151329730607173,39.52547344756943],[16.151383289032697,39.52548923311635],[16.15145174524525,39.525508648162806],[16.151675313882624,39.525572676513406],[16.15172262313122,39.52558621936137],[16.152271445904084,39.52571984745615],[16.15240040233622,39.52575124368659],[16.152739033651276,39.52583825812691],[16.152783214852402,39.52587553899184],[16.152876513419404,39.52595426429405],[16.15302216457861,39.52607716420253],[16.153361602128594,39.526200132178445],[16.153488427605822,39.52625502039749],[16.153542519026743,39.5262784295154],[16.15364462525669,39.52632261848617],[16.153889099086598,39.52642841912654],[16.15392094890207,39.52646139871645],[16.15411784122254,39.52668149721037],[16.154139843938886,39.52670531038548],[16.15413121117448,39.52685496264628],[16.154114610275172,39.52714275722686],[16.15411275971401,39.52717484624158],[16.154120040573535,39.52732798025341],[16.154126408539213,39.527461913867185],[16.154073951773455,39.52779804856694],[16.1540089266048,39.52804050737002],[16.15385369695806,39.528562951041444],[16.15369043992219,39.528667706536126],[16.153594573529666,39.52872921953725],[16.153496800940818,39.52879195434842],[16.153386971889955,39.52916314646594],[16.153547008663516,39.52941262193381],[16.153590916128124,39.52947892479599],[16.154129520304878,39.529589548322654],[16.15443163219631,39.52967433767138],[16.154898885512328,39.5298253610138],[16.15525329389786,39.5299282260015],[16.15562049653893,39.53003182229176],[16.155683477878657,39.5300496705098],[16.15572850245317,39.53005238439358],[16.15614775920615,39.53006304146763],[16.156463741349324,39.53016944754309],[16.156816013902688,39.530219619465406],[16.157141692234248,39.53030743887054],[16.15773583125986,39.53036513451387],[16.15833039895581,39.53044078423529],[16.158612069362142,39.53058079957271],[16.158953846402927,39.53083855970459],[16.15916655301351,39.53102782040664],[16.159544333608753,39.53140931040041],[16.159769103527825,39.53158883113344],[16.160127793462767,39.53205246472365],[16.160422169199972,39.53237162121854],[16.160585737562762,39.532539975624566],[16.160631985202453,39.532587581888876],[16.16074012594313,39.53269889600103],[16.160813837256544,39.5327747470517],[16.161155436053264,39.532867641793885],[16.161607102715525,39.53294605119935],[16.161729474014358,39.5329302811588],[16.161834924105314,39.532916690866415],[16.161911469558756,39.53290682603051],[16.162281167026826,39.53286059704863],[16.162647835171324,39.532602668332906],[16.163018890245752,39.532539201468516],[16.163447155947654,39.53236870741009],[16.163850555241396,39.53216827997848],[16.164371689341653,39.53198303635159],[16.16474157970411,39.53185215865718],[16.165262999913065,39.5317118723832],[16.16585514872452,39.53167967345396],[16.1664281847747,39.5317296392197],[16.16664250202168,39.53142844691561],[16.167246296129154,39.53136852561175],[16.16756152821404,39.53131299931126],[16.167898870161018,39.53137307103171],[16.168312598256133,39.53110449358506],[16.168811559806013,39.530929615481874],[16.16926318594459,39.530915102621364],[16.169717992772664,39.53094538858659],[16.17018482235124,39.53097942133989],[16.170649318559594,39.53099110021321],[16.17070851848097,39.531006191019515],[16.170965388830147,39.531070409785826],[16.171410040961277,39.531227278862744],[16.171749418224163,39.53137716977404],[16.17213899036656,39.53171740177459],[16.172465371151464,39.531755642156206],[16.172968613887484,39.531931350224056],[16.173462007041874,39.53205369726037],[16.173901583412654,39.53204892499231],[16.174150520719564,39.532208914424956],[16.17467534956491,39.53228432779759],[16.174989212756465,39.53232781454051],[16.175434531102592,39.532448640007864],[16.17568524121544,39.53251638277202],[16.17571719693656,39.53252443339686],[16.175760212087628,39.532536406966486],[16.176401903980874,39.532618028866416],[16.176763282232695,39.53268557403582],[16.177319885357086,39.532520569096945],[16.177923539698444,39.532487593337635],[16.178669308227107,39.53252227865211],[16.179344033994557,39.532516373261934],[16.17971421654477,39.532430408343394],[16.180174721466656,39.53212289756351],[16.18047556801407,39.53192878074773],[16.180773442902705,39.53176182309266],[16.180846079034872,39.53172072797889],[16.181314751184757,39.531449290946135],[16.18171932881491,39.53117675671935],[16.181920610608397,39.53075038672888],[16.181998212629868,39.53046215566585],[16.182072542775064,39.53015612623996],[16.182115649490125,39.52999883320107],[16.182182940749147,39.529754356075024],[16.182213843311473,39.52964216993308],[16.182265031217817,39.52946892496957],[16.182593019329094,39.52958681644289],[16.182860789761044,39.529680813624836],[16.183027690362053,39.52971292976285],[16.183442997014975,39.52979284454644],[16.183484185342888,39.529802531851345],[16.183561866038414,39.52981573997633],[16.183852930819132,39.52987175910754],[16.183896682036178,39.529880176785994],[16.184056227585202,39.529910876928085],[16.18401251961064,39.53062947403902],[16.18372056360106,39.531974674921585],[16.18361087450939,39.53234588225246],[16.18353420418849,39.532643049132716],[16.183509323718038,39.532812189731224],[16.183494158607225,39.53291544145364],[16.183697107108294,39.533276218664575],[16.18396884519542,39.53339619220648],[16.184036517494945,39.53342606997007],[16.1842080550505,39.53343612196982],[16.18474236099731,39.53346743160889],[16.184781753004113,39.533469739852194],[16.18531494014737,39.53339378636773],[16.185261446871916,39.533655170020666],[16.185239977298355,39.53376017944839],[16.185230553797517,39.53380624392755],[16.185200738377432,39.53405100769039],[16.18518727463074,39.534163229311304],[16.185181237926503,39.5342137096807],[16.18517154912335,39.53429445944759],[16.185148549147904,39.534486145558425],[16.185160472568256,39.53461912240862],[16.185176627019924,39.53479930272229],[16.185423051464433,39.53509822030804],[16.18554708586523,39.53524861342921],[16.185634627369136,39.535266325671245],[16.185894796131844,39.5353167975897],[16.185970521583858,39.5353475538246],[16.1862012930765,39.53544537946247],[16.18635253410302,39.53550891896862],[16.186521467299595,39.535723345120275],[16.186525352699142,39.53579201024499],[16.186534951659663,39.53596543687331],[16.18648202424386,39.53607475266652],[16.186388990296688,39.53626691124068],[16.186516521503922,39.5362581095047],[16.187050922727774,39.536221244641844],[16.18757694485467,39.536251526654276],[16.1879002731771,39.53628591616373],[16.18829806341821,39.53632820686445],[16.188363231013387,39.5363491559147],[16.18854329196283,39.53640624647895],[16.188896066509987,39.53652044987772],[16.188786303722,39.53671166016124],[16.18871397169269,39.536837619776485],[16.18866255593476,39.5370352261453],[16.188626584698603,39.537171459055685],[16.18855268831214,39.53762139300114],[16.188576876800568,39.53769039184333],[16.18862400271585,39.53782982586169],[16.18865065489018,39.53790772265961],[16.188642277629402,39.537981436304236],[16.188589994685376,39.538415317117476],[16.188553532515243,39.53840750629722],[16.188505588160904,39.53839723602232],[16.188447830169867,39.53838486409846],[16.188215653729173,39.53833512875539],[16.18791100360589,39.53814262911781],[16.18747565604316,39.53792228598273],[16.18708998666198,39.537788809605885],[16.18677521801347,39.53772289610231],[16.186397052931724,39.537696913328354],[16.18608717346278,39.537675722167904],[16.185705189847468,39.537712956414474],[16.18523933781038,39.537786885883925],[16.18480979958308,39.53780458564836],[16.184250513921317,39.53778984651711],[16.183811627554256,39.537857615948184],[16.183355637497336,39.537872439810656],[16.183052434464216,39.53780579742531],[16.182770203544866,39.537661383462385],[16.182456905005395,39.53759538638321],[16.181942515056136,39.53753736331463],[16.181616357256946,39.537557622402915],[16.1809991594145,39.537474491160125],[16.180535783567,39.537656223929496],[16.180555116538425,39.53810937342171],[16.180482093891925,39.538568258309354],[16.180585027589725,39.53904321040775],[16.18082200324205,39.53943786578586],[16.181083330394635,39.53975903609415],[16.181223685444177,39.53989958695368],[16.181332908183197,39.54000895615876],[16.181488622850978,39.54027819951427],[16.181598898068998,39.54044797408575],[16.18164594412954,39.54052039535696]]],[[[16.233902378820577,39.565180142597384],[16.233586564872283,39.56522686225818],[16.233229646910775,39.56523126870209],[16.232642687151163,39.565110031422236],[16.23257066413525,39.565082403027766],[16.23230795841354,39.564980400758536],[16.2322449089121,39.564965888907615],[16.232186193597947,39.564953019526854],[16.232115376088938,39.56493748749433],[16.232058198840235,39.56492496447427],[16.232000473469824,39.56491231287031],[16.231673651907304,39.564815792203994],[16.23122441693172,39.564759289642275],[16.230953351983132,39.564725562827576],[16.230598831522283,39.564680602623376],[16.230359902632177,39.56462288812388],[16.230258658299842,39.56459842560431],[16.230192534978883,39.564603108391466],[16.22971143285989,39.56463817914896],[16.229310192560572,39.56475219406399],[16.22894937864007,39.56488719870182],[16.228602755680104,39.564962862870516],[16.228113867667137,39.565006855776836],[16.227876502507623,39.565014122883476],[16.22769450499993,39.56501964432236],[16.22706378398044,39.565105587322726],[16.22700413944597,39.56511371397075],[16.22696273736034,39.565119528693195],[16.226538089855588,39.564799715720504],[16.22613028033522,39.56474874201909],[16.225580940656336,39.564720102652565],[16.225210825761195,39.56476573438213],[16.22476987848576,39.56484276774506],[16.224429707181038,39.56485503583721],[16.223893041924736,39.56478061815268],[16.223565273950456,39.56467514139604],[16.223226740717866,39.56448036393622],[16.222780175187083,39.56422486018028],[16.22234548952238,39.56401360758268],[16.221988318768194,39.563640043108705],[16.22168023044004,39.563263430997665],[16.22140761323822,39.56306023926771],[16.221019109777217,39.56282713685738],[16.220725592609103,39.56267953902337],[16.220539195590842,39.562573375866755],[16.22036259623037,39.56247279222034],[16.220311675123778,39.5624451694333],[16.220102324364913,39.562331599566384],[16.219813299165036,39.562126408284186],[16.219619172051218,39.5619885788903],[16.220148576811724,39.56169558431467],[16.220439806112783,39.561554794301394],[16.220749565557387,39.56129252028245],[16.22076653550857,39.560967571319054],[16.22068963655657,39.5606619919731],[16.220543093098907,39.5601763011236],[16.220312209739593,39.55974537061205],[16.219986514614767,39.55960376776529],[16.21992348613357,39.55958776936912],[16.219447249849345,39.55946646580283],[16.219292488289977,39.55939582629748],[16.21908326435303,39.55930045734031],[16.218835841471204,39.55905949397157],[16.218620612433824,39.55879956208533],[16.218538336078375,39.558700195898574],[16.218441781149117,39.55861275522245],[16.218134050023544,39.55833407308302],[16.217815684374443,39.558025566534035],[16.21751617291895,39.55777755146735],[16.217472294212694,39.557741203116535],[16.217190122275404,39.5575428867878],[16.21687319134495,39.55737373443818],[16.216601076754014,39.5571882942375],[16.216375982152222,39.5568964401782],[16.215496162741143,39.55716729135901],[16.21506429471997,39.55713576160133],[16.21464013754019,39.557373670533565],[16.214372154081946,39.557520849322124],[16.213701713216462,39.557751625819805],[16.21343810430315,39.55802448970841],[16.213198086598833,39.55828688849454],[16.21290354765498,39.55859766681867],[16.212567562606093,39.55878956680926],[16.21208286368016,39.559004249068444],[16.21165533244831,39.5590983963863],[16.211105079371993,39.55907423781179],[16.21057046286558,39.55911657684848],[16.210139071425303,39.5590760081821],[16.20972133504713,39.559124559121884],[16.20930748090436,39.55929433008061],[16.2090297021069,39.559487086059804],[16.20846381952381,39.55966182045171],[16.207891575049743,39.55959404025404],[16.207553719655746,39.5596286120487],[16.207180686351194,39.55954838826769],[16.206763265856956,39.55964188720165],[16.206344546612627,39.559694983968406],[16.205614256952636,39.55982598352432],[16.205220500092846,39.55989550288117],[16.20475350906058,39.55998758824402],[16.2042204168899,39.56000282764465],[16.203767601575013,39.56003554161377],[16.20333392850172,39.559959102713066],[16.20296065548054,39.55994637554546],[16.202648736624777,39.559992785629056],[16.202078986785175,39.56003277825962],[16.201660896651923,39.56017579195589],[16.200734574360702,39.56036394990076],[16.199668103409238,39.56072727219166],[16.198717243046023,39.5607910002382],[16.19842208292027,39.56080059083792],[16.197936794655153,39.560817073837995],[16.19717007787232,39.5610040983215],[16.19668516410185,39.56111976434525],[16.19602058980737,39.56117012678869],[16.195381837133205,39.56125937715656],[16.194982348739185,39.561340012319135],[16.19492941690749,39.56135070318036],[16.194684125372632,39.561420106685354],[16.194294647559563,39.56153030466822],[16.193400759382858,39.56178321128608],[16.193059842381146,39.56160649232314],[16.192695779794505,39.561318738739025],[16.192643821304717,39.561267292025335],[16.192374929356056,39.56100106469639],[16.192310611777692,39.56093761704221],[16.192142818022685,39.56077209106533],[16.192031763539433,39.56066253603241],[16.191896938682085,39.56052230374023],[16.1917293195801,39.56034796070964],[16.19165221868376,39.56026776699254],[16.19127811441425,39.55992617424027],[16.19125132981237,39.55990171795149],[16.191214041280737,39.55986766905493],[16.190730807180522,39.55951769692806],[16.190625349673926,39.55947007613437],[16.190001939057307,39.55918259368345],[16.18988345929782,39.55911321084366],[16.189473911993044,39.558864754110324],[16.189396583239773,39.55883007436061],[16.189129402554414,39.55871024967519],[16.188830849871216,39.558576353835484],[16.188786744093726,39.55855383142574],[16.188311585491427,39.55831124865076],[16.188241735477472,39.55827558574097],[16.188173719985528,39.55824670236428],[16.18789062265758,39.55812647872738],[16.187838287609857,39.5580947650149],[16.18780161988252,39.55807328139144],[16.187732636880106,39.55803114926032],[16.18766124384626,39.557988070163724],[16.187478348031853,39.55787770900561],[16.187313378532874,39.557827745046005],[16.187281329333743,39.55781803844657],[16.187022332013385,39.55773959707813],[16.186934025182,39.557728207082306],[16.186369796379232,39.557656191922746],[16.186262311564427,39.55764261775761],[16.186215198052025,39.557636958462595],[16.185997515444075,39.55764263726347],[16.18567184388,39.55765196679091],[16.185625487061124,39.55765303060586],[16.185579119692605,39.55765418323018],[16.185528196243812,39.55765547235398],[16.185451528319078,39.55765753198689],[16.185417431372677,39.55765644187602],[16.185377237140703,39.557655320437476],[16.185330209208526,39.557654777557616],[16.185286261424142,39.55765382009523],[16.185237387287252,39.55765197306239],[16.184916996652746,39.55763900917924],[16.18487221278484,39.55763774542891],[16.184799835286835,39.55763522473221],[16.184732732792458,39.557631486348406],[16.184523915818943,39.55761973534024],[16.184158134187044,39.55759953931222],[16.183993553971124,39.557590466427555],[16.183363134255146,39.55752166308586],[16.18322780727955,39.55750632235851],[16.182792815655933,39.557458129338215],[16.182430399966858,39.55738167863633],[16.181905455996556,39.557279338051],[16.181447653993626,39.55710984394535],[16.18101425599064,39.556853352377686],[16.180508449244368,39.55654287263405],[16.179920591567274,39.556295970738844],[16.179525986962737,39.556203525957585],[16.178919348297192,39.556209707009465],[16.17861916064185,39.55632731411946],[16.178130446373192,39.55643412732606],[16.177691217485958,39.55655586789366],[16.177415801596545,39.556730417743346],[16.17694010330015,39.556948891305005],[16.176444007995705,39.55709665668537],[16.176459734062067,39.55714336490618],[16.17685950452945,39.558330458012314],[16.17639098046089,39.558197594338885],[16.175972300546196,39.558111109760986],[16.175502775195046,39.557982800417015],[16.175106798557213,39.557876919851424],[16.174639045896832,39.55779349470111],[16.17401337138148,39.55785481927925],[16.173736165614155,39.55799798231538],[16.173373811605543,39.5580204657013],[16.17286266903669,39.558079156509585],[16.172365658252414,39.55820446294004],[16.171865430109303,39.55829847559601],[16.17134370181622,39.5584657931799],[16.170834052611095,39.55862336740372],[16.170677626933596,39.55866493598157],[16.17030381349203,39.55876425430148],[16.169944895187417,39.55880522993471],[16.16985195484055,39.55881581629405],[16.169697817663284,39.5588333161472],[16.169046779543642,39.558860182486704],[16.168593694701656,39.558834306931914],[16.168010494979825,39.55874450701973],[16.16732086408364,39.55867928503714],[16.166794559672795,39.55856347019864],[16.16658380732426,39.55852208116438],[16.166524047916273,39.55851021751821],[16.166116753665108,39.55843003466918],[16.165613542604778,39.55820030897448],[16.165302965800056,39.558035116491915],[16.164992375632647,39.557869914956036],[16.164906906384115,39.55784707277837],[16.164547662947545,39.557751123917235],[16.164475107178493,39.55773174047498],[16.16440573731693,39.55771321044205],[16.164255936054698,39.557673207995634],[16.1643315297509,39.55738096289398],[16.164408621995978,39.55708288105111],[16.164493827868974,39.55696593771777],[16.16453301963126,39.556912122067004],[16.164624996842686,39.55678595251339],[16.164651219653017,39.556762788038874],[16.164865868457962,39.55657317118718],[16.16505898919806,39.55632157708251],[16.16507033077699,39.55621972336441],[16.165080758247534,39.556121932779135],[16.165099910763058,39.555942347183766],[16.16505673270217,39.55545468298362],[16.164977170345793,39.554924276469066],[16.164880437097843,39.554592887278915],[16.16484856717792,39.55426534650484],[16.16483703853186,39.554159204042556],[16.164851948812885,39.553699430429205],[16.165007305593925,39.553248936079655],[16.165164690663573,39.55288829120483],[16.165321137200227,39.55240624222519],[16.166311851188972,39.552242109807175],[16.16653627891146,39.552204927606354],[16.1667502379409,39.552199070925695],[16.16685026254818,39.552196332873734],[16.167446070538386,39.55218002059643],[16.167317656635195,39.551988881902915],[16.16728169454366,39.55193489099645],[16.167109502860693,39.551679054838395],[16.16703813179606,39.551560142906446],[16.16681148044304,39.55118252311805],[16.166570636782513,39.550781250610065],[16.16788695291152,39.55085260650645],[16.166768145150186,39.54864568259478],[16.166092325986117,39.54868022137623],[16.165635642431123,39.548396772189285],[16.16542193103578,39.54819857583224],[16.165456356881382,39.547988645334854],[16.165495980815397,39.54774862527462],[16.16576010000206,39.54739487125203],[16.166106941803736,39.54739135959233],[16.166304312700426,39.54739741804946],[16.166507232110348,39.547403648697625],[16.166660334332562,39.54740834765074],[16.16673794749573,39.547410729289616],[16.16701322456695,39.54726320871446],[16.16735030226129,39.54717933230243],[16.16793386156615,39.547273613662306],[16.168245872138538,39.54720028050253],[16.16851050414169,39.54706240824027],[16.16887826560011,39.54676969923714],[16.169087239169794,39.54665012032555],[16.169248241699027,39.5465579331557],[16.169936752838954,39.54666787305965],[16.170273788506876,39.54670995121811],[16.170681454718697,39.5467611375537],[16.171043422874202,39.546819671503094],[16.171371449755032,39.54694327122019],[16.171675098597515,39.54702791701532],[16.17200160634305,39.5470526422492],[16.17233652499626,39.54690590552108],[16.172624769880212,39.54675756647146],[16.17298565067693,39.54660921734608],[16.173320456539987,39.546489478327935],[16.17413594693175,39.54639592946062],[16.174260782611903,39.54638164435197],[16.174897814564446,39.546220666979394],[16.175133516459333,39.546170796343226],[16.17525887859021,39.546144271863376],[16.175498778921114,39.54611004971995],[16.175593845293943,39.54609648870847],[16.175641326772418,39.54608301340433],[16.175695248875765,39.54606767631577],[16.1759183665591,39.54600428581381],[16.17631127064874,39.54589891606931],[16.17690133269258,39.545578877943306],[16.17745337362343,39.545256701264364],[16.177763636116538,39.54501251317882],[16.178176902404036,39.54475293686067],[16.17851504675611,39.54474994492454],[16.178830822642134,39.54481130325519],[16.17915226803644,39.54487508700368],[16.179485010716775,39.54494173032262],[16.17958069060364,39.54494239482372],[16.17981063532428,39.544943988936765],[16.1799777217608,39.54484761163718],[16.18006420903325,39.54479778567894],[16.18024266050559,39.54458712340853],[16.18032573671929,39.54448940377688],[16.180532789028867,39.54447626096491],[16.18084854586257,39.544456599620275],[16.181153944304004,39.54459058616301],[16.181192808423546,39.54464036057518],[16.18133483818432,39.54482226164322],[16.181951494295724,39.544815448305584],[16.182261010304448,39.54463427520795],[16.182584652845687,39.54456497024917],[16.1827682419379,39.544520621155634],[16.18288687033006,39.54449193178827],[16.183100797981233,39.544437223858196],[16.18314006991958,39.54442757099732],[16.18326074426308,39.54439679455527],[16.183337497612577,39.544380250526174],[16.183607103678685,39.544321224132275],[16.18395478113353,39.54429944323025],[16.184336189889912,39.54422195290891],[16.184650644311017,39.54407664530102],[16.18473335316843,39.544039166321475],[16.18483251167107,39.54399316053992],[16.18516900627519,39.543918279464954],[16.18605683030701,39.54381923927726],[16.186136578867593,39.54380765632959],[16.186598203192055,39.54374846937374],[16.187071980034535,39.543743367436946],[16.1871234608907,39.54374281342208],[16.187202107205827,39.5437435991882],[16.18762221290597,39.543747795461954],[16.1877404340585,39.543748123440956],[16.187832502867344,39.54374839824309],[16.187966516549135,39.54374894893237],[16.18834539637924,39.543750424135],[16.188449004238546,39.54375038141208],[16.188688462622938,39.543780250752945],[16.18885812283496,39.543801412591016],[16.18935763660054,39.54381875485339],[16.18946168367559,39.54382230705543],[16.189524532453966,39.544094826099276],[16.18956194465959,39.54425697869186],[16.189640791426612,39.54463894845932],[16.18974464224425,39.54498229678658],[16.18976322974994,39.54504143903137],[16.190057320399692,39.54526532743256],[16.190216620843117,39.54525066678097],[16.190512010477853,39.545223560308386],[16.19103490409147,39.54520902240985],[16.19111516035862,39.54524133481373],[16.191313914770443,39.545322144717154],[16.191403377796988,39.54538811305879],[16.191691397077246,39.54560006028784],[16.19192824782734,39.54579676525043],[16.191955021906416,39.5458203161328],[16.192319766850247,39.546141137493095],[16.192508330011513,39.5461814243913],[16.19297353473718,39.54628055623884],[16.19333363008321,39.54632113311114],[16.193519436947184,39.54633007636986],[16.193822712282387,39.546344672633246],[16.19418581737433,39.546358083370436],[16.194353873985897,39.54636440582885],[16.1945535781057,39.546371920314655],[16.19459124077914,39.54637333658514],[16.19504800159988,39.54642137946186],[16.19538408861263,39.546454452126234],[16.19572374898374,39.54664224931437],[16.195774397729032,39.546686589389964],[16.195960764807477,39.54684591431377],[16.19616161621296,39.54703134591404],[16.196350185203265,39.547207636674166],[16.196599237332734,39.54744047017114],[16.19670234618368,39.54746510302573],[16.196746233316606,39.54747558891317],[16.196805862992342,39.54748983635095],[16.197136974967272,39.547568942230214],[16.19722135756687,39.54754405222702],[16.19754292643622,39.547449201987284],[16.197724135394598,39.54709604412308],[16.19792366224947,39.54696740190901],[16.198032508970872,39.5468980719407],[16.198148913619026,39.54682217127208],[16.198495618278262,39.546719603123556],[16.19859686962338,39.546698592302484],[16.199053044853013,39.546603931258105],[16.199167670035692,39.54659985023679],[16.19939025813236,39.54659192546112],[16.199745603977245,39.54656979778272],[16.19989107975136,39.54656073766926],[16.200352085035234,39.54657219414163],[16.200700321193885,39.54658642190265],[16.20074710457203,39.54659838673761],[16.200806352680722,39.54661477826732],[16.20091552906994,39.5466449810058],[16.20102293104874,39.54667469224617],[16.201137210796333,39.54671656198148],[16.201255328717718,39.54675983631013],[16.201432190691413,39.54682463357381],[16.201515304655928,39.54682510140106],[16.201557135506803,39.5468253371271],[16.201895849363506,39.546827241654114],[16.202092049298873,39.54678449720844],[16.202237667550985,39.54675270029516],[16.202314784446745,39.54675443903738],[16.20266518447967,39.546765827728535],[16.202797556807596,39.546799329554176],[16.20325001080647,39.54691383634058],[16.203714724190483,39.5470243276854],[16.204093646734137,39.547005099030244],[16.20414674699422,39.54700190457432],[16.204285637723718,39.546858151212035],[16.20441035906637,39.54672906151731],[16.204461396951938,39.54645148183873],[16.20445218508106,39.54594372082924],[16.20439000188283,39.54558320451981],[16.20425276247724,39.545101424367374],[16.204131176430547,39.54481210386832],[16.20402938893956,39.544364081238854],[16.203995443105544,39.54423834380088],[16.203930252644145,39.543996931198635],[16.203843873611696,39.543682917578856],[16.203884323060997,39.543275524562],[16.203817087398864,39.54285236270443],[16.203798065029236,39.542792598786946],[16.203720982900503,39.54255691316508],[16.20361033496161,39.54230289624108],[16.20347633827165,39.541991849969605],[16.20330300165552,39.54183923559405],[16.203170943906297,39.54172296176986],[16.20265341638875,39.54146729866672],[16.20223318500476,39.54143499254842],[16.20139358304596,39.54126688034471],[16.200926368246492,39.54118800523477],[16.20038980459154,39.54101449840393],[16.200002332746624,39.54096214238845],[16.199314132741538,39.54082506710097],[16.198988732499732,39.54076884260977],[16.198499374802452,39.54070034580531],[16.198112344852564,39.54066595722824],[16.197703907483138,39.540565425097114],[16.19742401199703,39.540429913764946],[16.19715908703238,39.54015849934993],[16.197196716909875,39.5394858759961],[16.197182214709564,39.53943614915224],[16.197097495396818,39.539145662602316],[16.197082317616314,39.538831706823515],[16.197080405950317,39.53874845029149],[16.19707530096737,39.53852623568701],[16.19712796094559,39.53820807709948],[16.197192278314745,39.53787567828984],[16.197199761744944,39.5378309591838],[16.197255186469334,39.53750288370306],[16.19724989238237,39.53711634203629],[16.19725979184415,39.536951146725315],[16.197276524152432,39.53668731162748],[16.197292598359287,39.53625446324185],[16.19729425646657,39.53602943809961],[16.197296445871928,39.53587184666145],[16.19732491085004,39.53546070545972],[16.197355622539423,39.535098916728046],[16.19727648906914,39.53465848736215],[16.197296365519833,39.53436035211801],[16.1972298342772,39.53402709661351],[16.19715534478828,39.533631373622654],[16.197403381624518,39.53327853681543],[16.197961329934078,39.5332527959989],[16.19851108115315,39.53335803724992],[16.198860497821805,39.53340825675434],[16.199511559805714,39.533300242811954],[16.199724464835217,39.533258374378974],[16.199846078946784,39.53323445944118],[16.200105445808166,39.533253704510834],[16.200335919855362,39.53327080117071],[16.200408719823926,39.53327419240324],[16.200697607863642,39.5333618868057],[16.20089662407367,39.53342095782085],[16.201277777743208,39.53335443970673],[16.20133741629493,39.533344031532],[16.20167934337513,39.53327620426172],[16.20176718186795,39.533258779752636],[16.201869482169712,39.53326230299939],[16.202232143656712,39.53327479631636],[16.202438977446015,39.53329187490516],[16.20290058080124,39.533328596038835],[16.203018913651885,39.53333811925788],[16.20315702955295,39.53334923592613],[16.20339799319815,39.533368628449935],[16.20358946465592,39.53338553735363],[16.203875835038303,39.533410829876566],[16.20403011903963,39.53343527593855],[16.2041961136994,39.53346351049104],[16.20428311158266,39.533475314029474],[16.204428755606223,39.53347870213131],[16.204777184516377,39.53348665066214],[16.204867068139276,39.53348868842904],[16.205252101917154,39.53351419318783],[16.20536144771326,39.533518649002865],[16.20577395996531,39.53353546058907],[16.20581607619637,39.53353413869012],[16.205943586466894,39.533530136497724],[16.20607398502526,39.533526043229735],[16.206355930442278,39.53351719227546],[16.206437911573026,39.53350973544902],[16.20652162756964,39.53350214614442],[16.206671009938415,39.53348857098746],[16.206993925295983,39.533423447767916],[16.20709158382093,39.533396443303445],[16.207329943024693,39.53333053096481],[16.207659902190272,39.533268051937796],[16.207694392094012,39.53326272329619],[16.2079801542235,39.53323892110532],[16.208050389066443,39.53323356384091],[16.20816659292474,39.5332326311516],[16.2082359582693,39.533232209797596],[16.208324993965064,39.533231683153595],[16.208435729573342,39.53323498233068],[16.208665137996217,39.53326791122637],[16.208783374020943,39.533284891266426],[16.208823870423036,39.53329513603663],[16.208898815657342,39.53331409519865],[16.208975636726603,39.533333528464915],[16.209299400677708,39.53341543020182],[16.20943607123823,39.533450003772295],[16.20982471157629,39.53357974408366],[16.210022126689307,39.53364487374003],[16.2104445042852,39.53378411435596],[16.210623813715106,39.533844319685606],[16.210963043808555,39.533958219168376],[16.211111195673087,39.53400796078358],[16.2112264673682,39.534053003255046],[16.211572254084366,39.534188117320504],[16.21162872060855,39.5342076324633],[16.211825193226264,39.5342263621962],[16.2120937472613,39.53425256432206],[16.21227047787677,39.53429335021545],[16.21241302439643,39.534324879677975],[16.212537405423436,39.534354965346985],[16.21301363052213,39.53447886031856],[16.213110463827004,39.534504050118656],[16.21359186457586,39.53453250003759],[16.21406581878263,39.5345569175888],[16.214183174033437,39.5345523485319],[16.21444913853775,39.53454199139986],[16.21475504616934,39.53446510465964],[16.214853951947703,39.53444024523598],[16.215321803086738,39.53432873831592],[16.215493121135736,39.534287906291226],[16.2155539702023,39.534269486068574],[16.215713573641462,39.53422115246617],[16.215829654901793,39.53418597586887],[16.21588688886346,39.534182947427695],[16.21630343402924,39.534160922070974],[16.216469280909006,39.53418986666357],[16.216663393717518,39.53422374600036],[16.2167590460445,39.53424044028874],[16.217059224121737,39.53427627651554],[16.217179650101265,39.534290653957974],[16.217589091716356,39.53437307143668],[16.217665689527234,39.53440796062727],[16.217901630224212,39.5345154767693],[16.21794003305058,39.53453555855853],[16.21823473218845,39.53470160250508],[16.218667021485157,39.53485006482498],[16.21929910536289,39.5350760041338],[16.219779661288474,39.53517195565066],[16.220393803346212,39.53538553328035],[16.22061945747922,39.53540173529478],[16.22124791595766,39.53543562943515],[16.221635570294314,39.53542951058599],[16.221863176791082,39.536001355069494],[16.222025156359027,39.53640837799388],[16.222110622155,39.536657213957774],[16.222294056214288,39.53709334588603],[16.222358482670707,39.53723777706401],[16.22246108939348,39.53746977828135],[16.222558392931237,39.53778480874854],[16.22234547391245,39.53790041544392],[16.222295774175432,39.53792738014302],[16.22185422584152,39.53816694390641],[16.221722910864386,39.53842902277514],[16.221695146171662,39.53848454940042],[16.222004976890798,39.538780273947566],[16.22204431716252,39.53880930624364],[16.222075980202593,39.53883432315751],[16.222237152854323,39.53895920480119],[16.22262838031584,39.53917319451251],[16.22291452672598,39.539318582627686],[16.22301112908539,39.53936768330028],[16.22330592556205,39.53950258737087],[16.22338708928755,39.53953975949152],[16.223742207126513,39.5400483805618],[16.223729099261888,39.54007236960017],[16.22350551794151,39.540401161118155],[16.22346808237924,39.54045682903266],[16.223416567350018,39.54075694168311],[16.223418604480504,39.54078681323265],[16.223433067943404,39.54099883619616],[16.223613053929544,39.5413015984469],[16.223683174314125,39.54141955100163],[16.22428146375707,39.54252918900102],[16.224743767118188,39.54338659796599],[16.224911080342146,39.54369553454783],[16.225191140249468,39.544222347204325],[16.22533725638372,39.544495575969805],[16.2253790665137,39.54457377348852],[16.225407573063684,39.54462703580423],[16.226148869834145,39.5460247236275],[16.2270267934474,39.54757579841917],[16.227522058339453,39.54863346658131],[16.228870039905765,39.55119429499516],[16.229299315833366,39.55204045239458],[16.22935883256502,39.55215484178399],[16.229387483488523,39.55221486600582],[16.229576592281173,39.55258895678383],[16.229611462654262,39.55265754584445],[16.22971504659044,39.552859902539026],[16.22986971222685,39.55315189138123],[16.229931885534675,39.55326917508099],[16.229954499582345,39.55331179046106],[16.23033702999896,39.55403407805914],[16.230713798769212,39.55474535053623],[16.2313536593097,39.55590640769338],[16.231810039274855,39.55668757748348],[16.231823986670424,39.55671525432665],[16.232130583144226,39.55732201130041],[16.232244072016112,39.557546628761166],[16.232413938181192,39.55792114968906],[16.232543065229866,39.5582058611189],[16.23259322443749,39.55831648397677],[16.232757877363813,39.558617661979014],[16.23282601967923,39.5587343419097],[16.23288527154139,39.55885068644071],[16.233026015173643,39.559108123823144],[16.23305598942424,39.55916104112375],[16.233400088807457,39.559768462603216],[16.233697340532146,39.56031288785828],[16.233731807681195,39.56037600354277],[16.233746844713423,39.560403546256296],[16.234026083258303,39.56093490042616],[16.234190411374975,39.56125410934511],[16.23426169173352,39.56139225314969],[16.234399497629155,39.5616582531809],[16.234631836716396,39.562268989244195],[16.23482673136248,39.562855093398866],[16.234877570045846,39.56301770592666],[16.23505153221042,39.56357427524317],[16.23516695421907,39.564192346469106],[16.23529133500133,39.56486832123776],[16.235307914260336,39.564957256394614],[16.23520230657128,39.56497094527528],[16.23470098530682,39.56503568099624],[16.234519307827004,39.565042487056026],[16.23434393440574,39.565049084542295],[16.233902378820577,39.565180142597384]]]]}}]}
