{"type":"FeatureCollection","metadata":{"code":"078154","referenceDate":"2026-01-01","sourceDbfExportDate":"2026-02-18","upstreamArchiveUrl":"https://www.istat.it/storage/cartografia/confini_amministrativi/non_generalizzati/2026/Limiti01012026.zip","sourceManifestSha256":"70ac8256c4785dc6ed2814c32b6965ae76f9161b51abaa1660059e1c6cbd8ca6","license":"https://creativecommons.org/licenses/by/4.0/","attribution":"Istat, Confini delle unità amministrative a fini statistici al 1° gennaio 2026, versione non generalizzata.","modifications":["Converted from WGS 84 / UTM zone 32N (EPSG:32632) to RFC 7946 WGS 84 geographic coordinates.","Converted from shapefile to per-municipality GeoJSON without geometry simplification."]},"features":[{"type":"Feature","id":"078154","properties":{"code":"078154","name":"Villapiana","alternativeName":null,"regionCode":"18","regionName":"Calabria","territorialUnitCode":"078","territorialUnitName":"Cosenza"},"geometry":{"type":"Polygon","coordinates":[[[16.487067804388975,39.86500672785782],[16.487034144160653,39.865071750261194],[16.48699043557046,39.865156186992756],[16.486828007565258,39.86547211189155],[16.486789460733725,39.86554708391982],[16.486665692822132,39.865869992908976],[16.486624250847424,39.865935155115714],[16.486556462051766,39.866041749467804],[16.48650755329703,39.86611865355378],[16.486325680421643,39.86632387970618],[16.48625134151598,39.86640917993185],[16.486039472173548,39.866652287184685],[16.48583581650882,39.86688596979561],[16.485777179011883,39.86695325096568],[16.48551075254216,39.86715558212284],[16.485375616065756,39.86725820738041],[16.48516036319043,39.86737962764403],[16.48505121771615,39.86744119371774],[16.48496774251984,39.86752821070141],[16.48467389323605,39.86783452368515],[16.484642632429523,39.86786304602305],[16.484450154352547,39.86803571955259],[16.48402703907419,39.86821836935112],[16.483886254689974,39.86831509796142],[16.483810953903603,39.86836683591562],[16.48371616409555,39.86843196295529],[16.48353482994569,39.868695630532564],[16.48343171087997,39.868841262607745],[16.48336959355833,39.86892898973782],[16.483321169825427,39.86899737842545],[16.483062188308445,39.86931505749707],[16.482875910232877,39.869543555835556],[16.482856406410896,39.869574751537556],[16.482723812861874,39.86978683047312],[16.482615041196166,39.86996081028168],[16.48234413973829,39.87025401102116],[16.482295135970503,39.870305450795385],[16.481963671910968,39.87067781441713],[16.48191423017115,39.87073899231561],[16.48182778394386,39.8708459570708],[16.481725823653967,39.87097211902273],[16.481535472445263,39.87121338204544],[16.481497651733065,39.87126131884808],[16.481326638919406,39.87156928707513],[16.481269315136924,39.87168046636937],[16.481160171884625,39.871885970155496],[16.48099909334721,39.8721478138482],[16.480912305752227,39.87228889128032],[16.48083123144758,39.87241100600677],[16.480694196211008,39.872617410037776],[16.480593984594126,39.872768348167234],[16.48033500334511,39.873099413092795],[16.480035746065838,39.873416308732885],[16.479925865515945,39.873566883873714],[16.479814473404534,39.873714047445944],[16.479591859682586,39.873962385992094],[16.479530565853132,39.87404234077369],[16.47929206632126,39.874353444534215],[16.4791818013357,39.87449727775793],[16.479155768506324,39.87451646685182],[16.47889408223412,39.874709358692286],[16.478761383838165,39.874839715847244],[16.47859555761562,39.87500261565423],[16.478531214592355,39.87506582287321],[16.47829244895571,39.87547209127419],[16.478250044214,39.87554734795565],[16.478220237076673,39.87547760062181],[16.478023123161005,39.875042660928145],[16.47774963673608,39.87476110543276],[16.47757420523961,39.874660518484816],[16.477509208659168,39.87462325188305],[16.477228056126187,39.87446204742781],[16.47695249269337,39.8743136686972],[16.47677994579394,39.87422075275754],[16.476720344116252,39.874188657951976],[16.47663942949773,39.87413540870319],[16.47630416312335,39.87391460887374],[16.475770999704725,39.873629800240444],[16.475346620734786,39.87343240068036],[16.475039721322105,39.873308360392635],[16.474686867120237,39.873124304449895],[16.47442582637215,39.872965802573916],[16.474141066825165,39.87275033949694],[16.47409268912784,39.872213698335194],[16.474102526859028,39.87216701685736],[16.47414036207658,39.87198742441039],[16.47415613158729,39.87191267007982],[16.474232637342016,39.87159734908961],[16.474234152082165,39.8711834161594],[16.474204898043954,39.8709154099633],[16.47400729534879,39.87040193613949],[16.474004650989283,39.870228487406635],[16.474002634589624,39.8701053440045],[16.474076157281694,39.86970924025795],[16.47424300700488,39.869406047584874],[16.47445962179761,39.86911761073283],[16.47465408760233,39.86890709064494],[16.4748677588123,39.86857836611919],[16.4751176472483,39.86823380637252],[16.47544148611746,39.86792493248933],[16.475478174476574,39.867843077035374],[16.475499870073786,39.86779384560774],[16.475516781242767,39.86775576952341],[16.4755333432779,39.86771850595636],[16.475545694028924,39.86769020413368],[16.475564326967017,39.86764758028917],[16.475651151076267,39.86745255006118],[16.475845157608425,39.86725104903304],[16.475876803202556,39.867195474230265],[16.47601493112396,39.8669529150334],[16.476065901600606,39.866584924425034],[16.47583243262302,39.86645532586521],[16.47557130390755,39.86631072506322],[16.47549166515545,39.86628653789477],[16.475373485452568,39.86625064693625],[16.475204986584956,39.866199471973545],[16.47507776400348,39.86616074725478],[16.474863842491658,39.86609563300242],[16.474396629622916,39.86605296856552],[16.4742300156294,39.86603775297716],[16.474196030791827,39.866034418065375],[16.473914068045794,39.866006748225765],[16.47384351397088,39.86599982464235],[16.47347890470051,39.8659926081436],[16.47331600806479,39.86598876385975],[16.473259168090333,39.865987754393736],[16.473222092573653,39.86598404098378],[16.47318383281952,39.86597946776427],[16.473097880296844,39.865970237080106],[16.473042648426176,39.86596472763415],[16.472941713942856,39.86595438580949],[16.472788857934866,39.86594031525092],[16.47267412289367,39.86592956737786],[16.472605539444352,39.865923176579976],[16.471951111885467,39.866086545279394],[16.471497986178335,39.866210279785754],[16.471206777263227,39.8663101028361],[16.47096786106252,39.866514505362304],[16.47081050566888,39.86688799752014],[16.470744214135145,39.867046282459704],[16.470495063660014,39.86746243854879],[16.469570821616188,39.867361635006816],[16.469393724757293,39.86734314635648],[16.469171588764958,39.86731908518078],[16.468837888707288,39.867332540453575],[16.468740736532737,39.867335794681594],[16.468641951974398,39.86734037445863],[16.468437355693837,39.86734868881247],[16.467780843014918,39.86734616964987],[16.467208237456855,39.86734283927424],[16.46677900549838,39.86738409852764],[16.466427549756833,39.867433659325364],[16.46599398686438,39.86735843955374],[16.46537174528293,39.86734919241753],[16.46486737590329,39.86730086369744],[16.46427078080819,39.86729000634418],[16.463672640036076,39.86719826928995],[16.463086086329373,39.86707878886195],[16.46255146051199,39.86695205894745],[16.462476060614808,39.86693418002406],[16.461944245789308,39.86667136501064],[16.461819974958498,39.866566752616066],[16.461552221991692,39.86634135392898],[16.461313898506866,39.86612286818121],[16.461106883279164,39.86581688793492],[16.460856492161245,39.86559468806028],[16.46058166983995,39.865418196725294],[16.460512850855203,39.86537400599713],[16.46023014604042,39.86524384467149],[16.459805395055547,39.865041914097425],[16.459463324148835,39.86495608741126],[16.45892117302183,39.86476174631962],[16.458370390568703,39.86463543008615],[16.457844270810522,39.86458869558067],[16.45735456033753,39.86470111721047],[16.456949384282176,39.864880238728574],[16.456360776565944,39.865210694326244],[16.45579094806415,39.8654589382638],[16.4554119610191,39.86577132388637],[16.455184582544586,39.86597494774548],[16.454862575361002,39.866274658346434],[16.45463431212187,39.866590785131436],[16.45440545832619,39.866767512449464],[16.453852065512116,39.86710017454234],[16.453224220259756,39.86733866910386],[16.452934456731157,39.86745185841227],[16.452788297028732,39.86775817987208],[16.45277057426005,39.868011229972296],[16.452578538996207,39.8683385177133],[16.452390171884293,39.86891350114924],[16.45238203850888,39.86893854946254],[16.45233149577671,39.8690922257669],[16.452244439959944,39.86935871097831],[16.452168228551237,39.86942966992373],[16.45176886756773,39.869789772397645],[16.451304269538667,39.87001321232814],[16.4508400402768,39.87016469742354],[16.450525138114337,39.87017601056845],[16.450502594800756,39.86967366011374],[16.45053598967339,39.86904174445246],[16.450515478105224,39.8686787191941],[16.450416246976246,39.86838375581831],[16.450305942274653,39.86813448230298],[16.45011545290531,39.867899380278566],[16.44975679608977,39.86758067650884],[16.449446450252527,39.86726336385438],[16.44916030197901,39.86699395948985],[16.44881672391817,39.86682722273564],[16.448286656833822,39.86660955057108],[16.448024671378942,39.86636107865714],[16.447459540389296,39.86567334940908],[16.447254661078187,39.86538070726682],[16.447268262090383,39.86486701641923],[16.44719788082674,39.86432727196561],[16.447201151737474,39.86412533282744],[16.44721793333942,39.863088974447216],[16.447224165651203,39.863029515067346],[16.447234052371495,39.8629549619234],[16.4472573390464,39.86271308755428],[16.447098684627637,39.862354467359665],[16.446612575256943,39.86207099304424],[16.446091616877972,39.861681777059395],[16.446035222890636,39.861571643645334],[16.44601454780243,39.861535308881294],[16.445932100357144,39.86138002935567],[16.445858553817928,39.86124250474808],[16.445742219911473,39.86110939305897],[16.445657686578436,39.86101250966369],[16.445640715682128,39.86098190672119],[16.445619382457924,39.86094264909703],[16.445510970707012,39.86074315296375],[16.445330026920317,39.860511978207164],[16.445289146381416,39.860459747941796],[16.445264555759017,39.860431438798656],[16.445220842977108,39.860375167442825],[16.445185137839978,39.860307289128734],[16.44514774630165,39.86023588054918],[16.44507840671181,39.86009494043117],[16.44505583372317,39.859683959287395],[16.445206520381582,39.85961975320638],[16.44537936964009,39.859546097705504],[16.44554969919464,39.859334550665785],[16.445708312911993,39.85913754331738],[16.445776647315665,39.85905266333463],[16.445810691810806,39.85868111122994],[16.4458160380774,39.85862277702478],[16.445910077823633,39.8582304033963],[16.445861883916084,39.8580762664655],[16.44577110722568,39.857784018439546],[16.44574934384306,39.85771395021484],[16.44570302013367,39.85759592789546],[16.44560451518076,39.85734494917098],[16.445491065417578,39.857055889101524],[16.44540665055295,39.85690789825369],[16.44534504986453,39.856799905222054],[16.445263774738034,39.85670363699571],[16.445074551146014,39.856479511382396],[16.444938085456553,39.856317870941254],[16.44471550746474,39.85605286251777],[16.444598385522514,39.85591562590428],[16.4442241807825,39.85563474984261],[16.444031040225028,39.855490274252084],[16.44395934640965,39.855441611811486],[16.443637062688474,39.85522284905577],[16.443534848497823,39.85515346388873],[16.443329854784857,39.855019519512695],[16.44312441309926,39.85488527977852],[16.44301413611001,39.854813227817566],[16.44295216291117,39.854772734295224],[16.442693818870463,39.85453718110537],[16.442536992537004,39.854394191294915],[16.442418990567536,39.85428659874002],[16.44251614252356,39.85394572298432],[16.442598272405313,39.85365751788966],[16.44264674349078,39.853487489791384],[16.442777336194016,39.85302924625797],[16.44290791986249,39.8525709960325],[16.442949563371688,39.8524248642452],[16.44303113806656,39.852269434502745],[16.443118493978957,39.852103238846524],[16.443361493514757,39.85164213004101],[16.443515014057212,39.85135092181437],[16.44360698447228,39.85117646433936],[16.443638600971493,39.851116491677864],[16.443909434910857,39.85079758365519],[16.443979165192733,39.85070262245055],[16.44402187897377,39.85064445347828],[16.444228433996326,39.85036315837422],[16.444262893430867,39.85023448797174],[16.444357153476492,39.84988253146598],[16.444405954640487,39.84977543133358],[16.444490838702635,39.84958914494487],[16.444581002155882,39.84939127029822],[16.44463122612771,39.84931106880987],[16.44489804382325,39.84888500196208],[16.444919507396165,39.84884263919689],[16.44498029917981,39.848722660125844],[16.445155129180126,39.848377606938335],[16.445201995029713,39.84828511409574],[16.44532444863654,39.84791685560875],[16.445354849902365,39.84782542632801],[16.4454465793802,39.84764291784359],[16.445542037835747,39.84745298846855],[16.445579170129633,39.84737910696863],[16.44572411118432,39.84699695087719],[16.44583380923932,39.84670144272212],[16.4458927552371,39.846529618416476],[16.445908770988357,39.846458188481094],[16.446057762203978,39.846070228805154],[16.44609904721273,39.84596010016446],[16.44624814799805,39.845734554943235],[16.44640037664354,39.845605142565496],[16.446614998498877,39.84543197799533],[16.44677734630336,39.84512413047064],[16.446860579109526,39.84496630192582],[16.44690006274405,39.84490728441135],[16.44706850200715,39.84465551095336],[16.447121622213906,39.84457610852471],[16.447293769689978,39.8441911446275],[16.447368110087705,39.84402490055686],[16.447383990349497,39.84399039381017],[16.44750488486795,39.8437276916854],[16.44753452077539,39.84366329470592],[16.447728504021967,39.84340785784121],[16.44784083507291,39.84325617852024],[16.447881753470973,39.843200928501446],[16.447910426867573,39.84316221030632],[16.448186010804527,39.84285203490989],[16.448258245919064,39.84277940383614],[16.44840360482789,39.84263324840596],[16.448539774990532,39.84249633179846],[16.448693594055015,39.84230147045289],[16.44881291717827,39.84215030952959],[16.448921104675634,39.84202558863616],[16.44909825567189,39.841822851531646],[16.449314298783474,39.84151516643044],[16.44943455367373,39.84138075387377],[16.449454089782243,39.84135311805701],[16.449600460263294,39.841195313825615],[16.44986341103808,39.84087645757571],[16.44989433675157,39.8408389591603],[16.44995309268927,39.84078281560621],[16.450347427566683,39.84040405533773],[16.450474990954937,39.84021587441258],[16.450672461669367,39.83992456105179],[16.450694428786623,39.83989215552211],[16.450836705402295,39.83946413048318],[16.450847236884837,39.839432446465054],[16.45093484383383,39.83907816216818],[16.45094751539613,39.83900810113259],[16.451052961557984,39.83860049376414],[16.451071068809668,39.83854931886899],[16.451234291477235,39.83808897460798],[16.451369413027308,39.8377078441459],[16.45139606404417,39.83763158205704],[16.45153887019268,39.83726008515461],[16.451536619816498,39.837169772409496],[16.451531930945606,39.83698163889061],[16.451644023070294,39.83671301275937],[16.451676601911842,39.83663493727437],[16.451496779790432,39.8362727012136],[16.45128041818771,39.83583685308864],[16.45113399581268,39.8355418913675],[16.451064058555115,39.83540100437296],[16.450847708330862,39.8349651590844],[16.450778736562164,39.83482627153314],[16.450715246849423,39.83469954581047],[16.45062996534036,39.83452937539669],[16.45060648659929,39.83448252205813],[16.4505793841285,39.834428437450924],[16.45043369778076,39.83413770411893],[16.450333987564537,39.83405046312083],[16.450302332752162,39.83402284599459],[16.450016301985645,39.833773306002925],[16.449903003391714,39.833622015217486],[16.449877352961277,39.833587762127074],[16.449823501635866,39.83351585441552],[16.449618581005485,39.83316024421385],[16.44927225038283,39.8329262106574],[16.44900836458762,39.83275099040497],[16.44884619635458,39.832643308665865],[16.448571680103242,39.83238980953709],[16.448513435635363,39.8323358746542],[16.448200260452445,39.83193382183287],[16.4480009084112,39.83181737845454],[16.447832717814478,39.83171913539108],[16.447406225910655,39.83144529745167],[16.44694497824149,39.83114669025536],[16.446673460275573,39.830984824673536],[16.44659180306551,39.83093647905598],[16.44630695721069,39.83076504589392],[16.445880997986524,39.830563133442695],[16.445294773613725,39.830376059054636],[16.445028084487607,39.83004240845065],[16.44497382849242,39.82965007353914],[16.444779056680893,39.82925330007753],[16.444716651092218,39.82900092898475],[16.44480016178425,39.82865833028752],[16.444812588699445,39.82860740330768],[16.44482363202728,39.82856218664268],[16.444653036321583,39.82819985505028],[16.44459110242993,39.828171868156566],[16.44449424763122,39.82812810113735],[16.444192218729295,39.82799161872389],[16.4439060105104,39.828083639456864],[16.443704913279998,39.82814829555719],[16.443321049650613,39.828069359005006],[16.443139813329353,39.82803208941996],[16.44276576751846,39.82783986027193],[16.442709636743277,39.827811018424654],[16.44268109076887,39.82779634600356],[16.442278801069122,39.82758390119674],[16.442079320241252,39.82743892268628],[16.441955134063047,39.827351507431956],[16.441673204938073,39.82717764362817],[16.441507414200736,39.82705345633755],[16.441393218996264,39.82696791591485],[16.44135187289905,39.82693582470519],[16.44117151506171,39.82667447877737],[16.441137320466158,39.826624597983425],[16.441121386843378,39.82656563319877],[16.441048566836812,39.82630028462177],[16.440983158477728,39.82604333033717],[16.440961899726958,39.8259505068586],[16.440903955713786,39.8255188306883],[16.44090011303123,39.82548406581481],[16.44085824715083,39.82504398806736],[16.44080148940193,39.824702214184924],[16.440790991758544,39.824639002349215],[16.440841008591903,39.82418595513967],[16.440905590817597,39.82388039694083],[16.44105796684177,39.82347023688972],[16.441117002731637,39.82309995635454],[16.44113187823184,39.82300095900522],[16.44093937000129,39.82269968059966],[16.440943635782133,39.82264288116059],[16.440966323119305,39.822329168979216],[16.440991232220085,39.82227412572798],[16.441019888639595,39.8222108095787],[16.441111016100113,39.82200945277809],[16.44116754984117,39.82190165993402],[16.44128639348024,39.821675062327486],[16.441347872849803,39.82155784053906],[16.44137180358298,39.82149928960724],[16.441483480103585,39.82122897216723],[16.44152537186808,39.821123568446],[16.44165822269418,39.82078550064044],[16.441776587215568,39.82042819692509],[16.441891608525136,39.820243738624065],[16.441925675886147,39.82018911299052],[16.44215946243521,39.82000987207765],[16.44220171583624,39.81997788167485],[16.44228010969979,39.819931952632004],[16.442428655805635,39.81984477434417],[16.442477357490738,39.81981619499873],[16.442818592357014,39.8197435800151],[16.442996091909098,39.81969818700034],[16.443195972322727,39.81964647640109],[16.443559672436255,39.81952135734418],[16.443973287818636,39.819208541161494],[16.443999113661413,39.81917580356102],[16.444091812359243,39.81905389061607],[16.444188220590007,39.81892719141524],[16.444237180837504,39.81887972987875],[16.44425979531218,39.81885753553417],[16.444304675637973,39.81881371901475],[16.44432826389111,39.818790704318836],[16.44438074685061,39.81873999169626],[16.444617855883124,39.818510879923174],[16.44488028693924,39.81825729874801],[16.444979635765534,39.818161299630795],[16.445145255225007,39.8180013779402],[16.445377028429462,39.817781936654065],[16.445692688674875,39.81765647647461],[16.44620206328849,39.81739866712075],[16.446245951007764,39.81739371950122],[16.446575193334613,39.81735660232254],[16.446820650206764,39.81731377615031],[16.44722786005285,39.81724258118625],[16.447394589656305,39.817227449174304],[16.447511481243133,39.817216840358384],[16.447546159356545,39.81721344126847],[16.447727460879047,39.81719684362709],[16.447971663782386,39.81716404788459],[16.44854651707339,39.81709190393239],[16.448788935934243,39.81706084370422],[16.44910791649939,39.817024799242844],[16.449160612157822,39.817018844589796],[16.44953418264587,39.816913766287115],[16.449672075060292,39.81671383279977],[16.449755346429328,39.81659309564417],[16.449792035889985,39.8165400205147],[16.449829671188336,39.816487200977335],[16.449874361916393,39.81642420423394],[16.449887199810153,39.816000492398985],[16.449971448069146,39.8155677287796],[16.449938864087173,39.81507951769573],[16.44997728355258,39.81469468776981],[16.449900329980842,39.81430831574754],[16.449857689357472,39.81398270618409],[16.449580948823456,39.8136973413359],[16.449545483887402,39.8136601978275],[16.449446532583824,39.81328503757869],[16.44952784532774,39.8130670392881],[16.449539149534882,39.81303674962874],[16.449601274426747,39.81287020233754],[16.44994579275141,39.81257807204254],[16.45028067645607,39.81239900914106],[16.45053509442101,39.81217415752559],[16.45067111848563,39.81205465735945],[16.450814658788836,39.81170328115869],[16.45093763154192,39.81146593563281],[16.451094844182528,39.81121260785166],[16.4511720942447,39.811127624923905],[16.451346564876577,39.810935614292546],[16.451589272992848,39.81069318742527],[16.45217571761024,39.811290607619576],[16.4522469001337,39.81125531390729],[16.452866025070396,39.81093639110237],[16.45327756439676,39.81059043340188],[16.453553499234566,39.810325201130844],[16.453875309057537,39.81006599649959],[16.454092379078762,39.80982256882066],[16.454298331188237,39.80958435282276],[16.454537109020578,39.80931252888236],[16.45477782265163,39.80908557076148],[16.454996358308907,39.80888252466421],[16.45526027864788,39.80870803143719],[16.455525134350705,39.8084885047686],[16.45574123081439,39.808249631827984],[16.45601669360481,39.80799341664054],[16.456199013457777,39.80777922221133],[16.45619275803374,39.80752654610668],[16.456189629244445,39.8073975186342],[16.456130515928287,39.80735610454623],[16.455954485812306,39.807232780549235],[16.455553321399094,39.80708328447736],[16.455133791567764,39.80705232979962],[16.45505800376567,39.807079215927644],[16.45480752888268,39.80717179509718],[16.454458211653574,39.80739228143433],[16.454151860772072,39.80763248925224],[16.45388506470252,39.80783415504176],[16.453634674551886,39.80805274524773],[16.453405300372985,39.80824243012703],[16.45306749302376,39.80814084641549],[16.452725988803333,39.80820948615358],[16.452246186679282,39.80830891543119],[16.45189357015914,39.8085427080761],[16.451332086204047,39.80845792257967],[16.450952633788223,39.80830243776673],[16.450539372123288,39.80808173772501],[16.450170434234437,39.8077187186928],[16.44983525879608,39.807344507518856],[16.44952675165418,39.80712153525974],[16.449265050789148,39.806927008976146],[16.449025030724627,39.806677116903835],[16.44878353693328,39.80629235953321],[16.448611022910182,39.805898670943684],[16.44841681231461,39.805479371629524],[16.44828970098109,39.80510073368256],[16.448087802509715,39.80477189758287],[16.44796360792732,39.80447404652085],[16.44781785715718,39.8043110109525],[16.44775989972159,39.80424392809729],[16.44773209116687,39.8042150324823],[16.44766233683576,39.804136168140836],[16.447504742590816,39.80394625579687],[16.447451832378018,39.80388301686331],[16.44738807362719,39.803805072538424],[16.44736384511599,39.803774811293486],[16.4471873275501,39.803554321786024],[16.44716206677119,39.803522768650396],[16.447079542202236,39.80343102829794],[16.44702939137746,39.80337515370945],[16.446949322942967,39.80328627755126],[16.446825428430166,39.80314855764096],[16.446735989504216,39.802794478492366],[16.446902855223364,39.802504814225365],[16.447075506607387,39.802214778143515],[16.44725445163735,39.80196932706936],[16.447530410730703,39.80175809274381],[16.447830506151984,39.80154080520079],[16.447957133826993,39.801412828950085],[16.448391531009978,39.80097379637303],[16.448978170590188,39.800481610512804],[16.44923372594914,39.80033994860033],[16.449694629162526,39.80008447101876],[16.450210311575482,39.79961034627752],[16.45061939667184,39.799269055056335],[16.451255217633513,39.79880067476504],[16.451728525526256,39.79852719706913],[16.452033473660123,39.798449041900845],[16.452243876633066,39.798399451014],[16.45570583366727,39.79724018190373],[16.45570319329972,39.7969682926139],[16.45573613729941,39.796853213470555],[16.45580864167516,39.796597883805646],[16.45586416760801,39.79640232695663],[16.456265921636305,39.79598053241791],[16.456363516991402,39.79589258390086],[16.456744650504326,39.79554842013186],[16.456781165732934,39.79551556601246],[16.45717393647249,39.7952688369833],[16.457204225250695,39.795249807834395],[16.45725149251217,39.795212503578206],[16.457632545402745,39.79491174833358],[16.457992814146134,39.79468538369164],[16.4581033516296,39.79461593064786],[16.458169553889686,39.79456783175066],[16.458333161066697,39.794449484760364],[16.45856546717559,39.79428019072249],[16.45916119054028,39.79389981378439],[16.45959329851371,39.79359023449986],[16.459658822577357,39.79354360817497],[16.45968854475021,39.79352767472556],[16.459725364367635,39.79350792855391],[16.459847139728403,39.79344409168896],[16.459967994332754,39.79337695586028],[16.46003765848359,39.79333935048486],[16.460525788510015,39.793143984782745],[16.460573300749672,39.79312496844152],[16.461108028300576,39.79313601533479],[16.461203867571875,39.79313799416097],[16.46169839823431,39.79320287572527],[16.462290831032696,39.793280820851216],[16.462375031441656,39.79329097523711],[16.46261780164073,39.79331085889393],[16.462878578360097,39.79333151435481],[16.46296915009521,39.793338686841366],[16.46346585059998,39.79337858118169],[16.463966870902276,39.793400351309174],[16.464549822473188,39.79331301204616],[16.464794122544884,39.79331250695215],[16.46505086785131,39.79331197436852],[16.46528940216551,39.79332372009556],[16.465402570461926,39.793328798035084],[16.46548664317068,39.79333352633151],[16.465519827330077,39.793338464895506],[16.465601326908462,39.79335046135589],[16.46582422835468,39.79338331719421],[16.465949094551178,39.79336739937395],[16.46618058235323,39.79333789090163],[16.466382445387772,39.79329028730113],[16.466705896720768,39.793213852861705],[16.466939263090232,39.793138504264135],[16.467089427612414,39.79309002024831],[16.46725863615468,39.79297047890164],[16.46741210399095,39.79285997989771],[16.467432318132982,39.79280970877523],[16.467474869965496,39.792701970514244],[16.467555693266636,39.792498343049026],[16.467508959750496,39.79208224034177],[16.467490964744425,39.79205591910856],[16.46738828082634,39.79190571842309],[16.46725141290989,39.79170551201187],[16.467235085884823,39.791681636870614],[16.466944223170625,39.79116517428632],[16.466906027020833,39.79106562498202],[16.466766318304863,39.790695382571585],[16.466585555004144,39.790266254827635],[16.466367186952343,39.78990705015143],[16.466140213345042,39.789615854176226],[16.46598369483393,39.789383073955776],[16.465726151365832,39.78886446913239],[16.465810292768527,39.788404714734256],[16.466003602332822,39.78815829000723],[16.466196420591015,39.78786693995609],[16.466388756810492,39.78761158664386],[16.466548786194714,39.78739430643327],[16.467190739055273,39.7863136990142],[16.46754164930424,39.785814183192876],[16.467780743351295,39.78551981818048],[16.468169352938848,39.78511232396293],[16.468571010502846,39.78474448041733],[16.46886798569969,39.7844193761468],[16.469221861091654,39.7840681097527],[16.469484198402622,39.78373578551829],[16.47023424701919,39.78310343209438],[16.470656645344096,39.782864555402746],[16.471069902371106,39.78256342216099],[16.47122778222811,39.78244690170945],[16.471281611119295,39.78240717369743],[16.47134456401467,39.78236071218615],[16.471484117992613,39.78225771287807],[16.471581850947075,39.78221340663389],[16.47183137671825,39.78210028695918],[16.472134633401136,39.78193554520896],[16.472293058385322,39.78184948039339],[16.47244241558815,39.781768342413564],[16.47269489835642,39.781726496645135],[16.47319963492188,39.781642831776324],[16.473267922753706,39.7816349654504],[16.473392947875652,39.78162050882651],[16.47350840215809,39.78160702638188],[16.473551373700843,39.78160212106739],[16.473863463872586,39.78157186887918],[16.473987302506515,39.781538901057445],[16.47417345695192,39.781484913517616],[16.47429923681958,39.781459909163296],[16.47437136950898,39.78144565312308],[16.47448942262553,39.781424854648634],[16.47453430752504,39.78141626427062],[16.474790062907648,39.7813677326564],[16.475530380780647,39.78122670687023],[16.47634127073485,39.78120549309083],[16.477185148701885,39.78125876158729],[16.477643621241523,39.78141348085972],[16.478166623254257,39.78145155292668],[16.478719588726502,39.78151017689642],[16.47921076931024,39.78155030739623],[16.4796430490035,39.78155828896915],[16.47998555531677,39.78157446415789],[16.480121850750997,39.78158082666147],[16.48056768494877,39.781646386116456],[16.4811293314502,39.781704435505766],[16.48119247557961,39.781713844333964],[16.48123820258662,39.78171937406901],[16.48144201043734,39.7817473393605],[16.481596870404324,39.78176856122093],[16.482030278347032,39.781795956493205],[16.482221784088562,39.78180805771967],[16.48226645508185,39.78181423217646],[16.482620741583858,39.781864292119025],[16.48268541373036,39.78187341390043],[16.48320924543825,39.78191495336293],[16.483247023176098,39.78191794983675],[16.48347360245585,39.78193121099007],[16.48375025241089,39.78194828828041],[16.483796137861283,39.781950603106786],[16.48389617861351,39.78195563286923],[16.483942803603284,39.78195797164292],[16.483996361579877,39.781960747781135],[16.484043410275106,39.781963197576545],[16.48409018061371,39.781965671703524],[16.484139084656167,39.78197099150582],[16.484183101509302,39.78197214449281],[16.48422706694638,39.78197690292913],[16.484274313269783,39.78198038518427],[16.484323230533334,39.78198937905093],[16.484372933739497,39.78199520559001],[16.48441690682449,39.78200140376887],[16.484463743241342,39.78200741621069],[16.484510578311053,39.78201342692112],[16.4845574170543,39.78201943917305],[16.48460966030353,39.78202593301522],[16.484692897724507,39.782036099430265],[16.48496864699097,39.78206714138481],[16.485305829188995,39.78209925173368],[16.485565216661847,39.78213499531089],[16.485727508383178,39.78215737211161],[16.485774651898467,39.782157694599974],[16.486101513659836,39.78215992685917],[16.48615626596999,39.78194754933186],[16.486215290722463,39.78089985305697],[16.485818720549307,39.78073330012796],[16.485829854801285,39.78056152888479],[16.48617677974525,39.78048843422786],[16.48635619373819,39.7802115288714],[16.48647971569634,39.7790600285488],[16.48636859234157,39.7781914784692],[16.486714777908947,39.77498328669383],[16.486685664974797,39.77416907022671],[16.486667943320338,39.773793927502496],[16.48604859123795,39.77326408675989],[16.485793079669975,39.77308890275798],[16.485920982224116,39.77314062464573],[16.485982698947,39.773151694357416],[16.486048258704812,39.773162713549475],[16.486170931006033,39.77314928396245],[16.486251537238232,39.77314528817855],[16.48651275748941,39.77314194044141],[16.486578191595328,39.77314703350876],[16.486724931193397,39.77318073177684],[16.48676116505423,39.773195283277595],[16.48681795590713,39.77321808843331],[16.486864040457455,39.77320076740124],[16.486886625322228,39.77316547688013],[16.486909562658926,39.77312642371985],[16.486929276963444,39.77325360752205],[16.48738507400056,39.77321900130757],[16.487367624117866,39.773393842397],[16.487338843796298,39.77367687869407],[16.48733221816386,39.773742036153166],[16.487337575545247,39.77399036191695],[16.487329436865206,39.77412730106982],[16.487321816704217,39.77425549635196],[16.487326398337757,39.77439595989052],[16.487332299412625,39.774576925587276],[16.487333197632456,39.774604468896094],[16.487300431703027,39.77472134553801],[16.487247144234367,39.774911418927914],[16.487274543941567,39.77503096813835],[16.487297816761547,39.77513342312193],[16.48725526081589,39.775287426726756],[16.487238121351645,39.77534945193292],[16.487222745428287,39.77548365799744],[16.487198048929066,39.775664786336144],[16.487120867469194,39.77588084401833],[16.487126376624346,39.77593972191109],[16.487148723832536,39.776178541966104],[16.487126807669455,39.7762968665667],[16.48710943807504,39.776390633110644],[16.487071859587612,39.77659350651155],[16.486920627086835,39.7768526948017],[16.486906371897796,39.776877126167236],[16.4868677712865,39.777085497829546],[16.486829621274076,39.77729751345226],[16.486834951071312,39.77769321616846],[16.4868385918723,39.77775771565984],[16.486848727782156,39.77793735235659],[16.486815831706203,39.77820893092146],[16.48680800671604,39.77828587403679],[16.486792968371866,39.77858412500842],[16.486794603215767,39.77866011970606],[16.48680187184633,39.778997984407276],[16.486800015968107,39.77907310263991],[16.487127345404918,39.77941237879327],[16.487075319459656,39.782331599720564],[16.48704997751423,39.78252366648389],[16.487012967873707,39.782517568997115],[16.486760238314126,39.78254658776597],[16.486800447440913,39.78261981343118],[16.48682524610409,39.78288480420279],[16.48683191902392,39.783194232545625],[16.486899964759925,39.783694495148055],[16.486963262461078,39.78397371750631],[16.486897375851523,39.784460948518834],[16.486920911727942,39.78466698914439],[16.48690658378657,39.78488825591515],[16.48691608356361,39.78533030196806],[16.486882995108257,39.78556654770245],[16.486865476274083,39.78564047817536],[16.486867716364944,39.78574361966117],[16.48696949013935,39.78603709310615],[16.486972997122788,39.786199165595875],[16.487015929199305,39.78641970116319],[16.487036907358103,39.78650786423332],[16.487038200364026,39.78656681153739],[16.48711867895206,39.78675738475282],[16.487260855968547,39.7871535121806],[16.487267530697615,39.7874629395774],[16.48733083884985,39.78774217903785],[16.487434001950678,39.78802202597633],[16.48749307033918,39.78818225454377],[16.48754173629014,39.788668022695646],[16.48756525212525,39.78887406540139],[16.487706827683997,39.78924073405207],[16.48779304314689,39.7896965204316],[16.48775649413352,39.78975535678477],[16.487719213415815,39.78981537594763],[16.487760885298403,39.789976980663845],[16.48776595851152,39.79021274030093],[16.48780445644295,39.790406502331],[16.487830220319942,39.790536173206746],[16.48799278156743,39.79099098405935],[16.488052606602135,39.791108131944725],[16.488132777844264,39.791283965793106],[16.48815503026902,39.791431077143315],[16.488120678113848,39.791608393068664],[16.488143244818488,39.79177022271505],[16.488168693610767,39.79206466823071],[16.488276222052498,39.79262337269029],[16.488423907626256,39.7931960294628],[16.48843996505992,39.79325829449507],[16.488958664085413,39.794937425940816],[16.488933593238958,39.79521617434159],[16.489023878465396,39.795414180083945],[16.489046476764738,39.795576009282335],[16.489013055134745,39.79579753790527],[16.48903501703007,39.795929891457035],[16.489030168512006,39.79599198486315],[16.489020040436348,39.796121703609714],[16.489128411603016,39.79639163052908],[16.489161325978824,39.79647361250198],[16.489203007495394,39.796635214192754],[16.489213236476058,39.79677446387583],[16.489223821383472,39.796917948419775],[16.489230141764306,39.797003437836196],[16.489268075696017,39.797239910020046],[16.489296165385802,39.79741512282412],[16.489260837955214,39.79754822888397],[16.489322259469766,39.79773904227052],[16.489310802736423,39.79809292614236],[16.489473718475114,39.798562470910284],[16.489579344636844,39.79903276638793],[16.489582520838855,39.799180100957486],[16.489766268393204,39.79949194302543],[16.49014698424831,39.800031455571975],[16.4910666174862,39.80287525647346],[16.49119308606938,39.80389100747458],[16.491807521575492,39.805844598787516],[16.492350714192114,39.807427917774774],[16.492208327939952,39.80756227727739],[16.492217569051856,39.807989582308394],[16.492397097630935,39.80834104072637],[16.492597647831,39.808780657005805],[16.492700133048334,39.80910359440296],[16.49274151407258,39.8092504376485],[16.492800068109975,39.80930865104658],[16.49284176755378,39.809470232952215],[16.49292007938854,39.80955767054873],[16.493089698819546,39.81010706175075],[16.493125268895533,39.81014901257236],[16.493680393667177,39.81058886054561],[16.49437704433021,39.81205032770772],[16.49549333232076,39.814555653598056],[16.49596791126621,39.81565814611418],[16.495992507729344,39.81570784858841],[16.497771955485362,39.818869423906314],[16.500293393429683,39.822732954453556],[16.500881000732193,39.82358973378788],[16.501472450150786,39.82456051406339],[16.501810971063815,39.82513011422888],[16.502295789199767,39.82593513883591],[16.50254471122878,39.82640452677685],[16.502744884477032,39.82671046487828],[16.50337754637866,39.82758334208682],[16.50355977709053,39.827838079947526],[16.50412826161182,39.82846281743472],[16.504316628928407,39.82871715476576],[16.505291131753896,39.829948625928445],[16.50716600008922,39.832297352818394],[16.50735291737506,39.832594623918865],[16.507256929552362,39.83263367966094],[16.507496383627466,39.83287149420047],[16.50754634236368,39.832921109455235],[16.507560482076055,39.83296181238204],[16.507627898030957,39.83315587050725],[16.507743343132624,39.83321309586495],[16.50788107130315,39.833373674098084],[16.5079607148537,39.833520030300285],[16.507983422649936,39.83355772039189],[16.508040006806848,39.83365163199583],[16.508158504584387,39.83382696410244],[16.508238449440245,39.83398805801266],[16.508394506709166,39.834133419063086],[16.50852145501689,39.834237545520544],[16.508589067841992,39.83429300303322],[16.508626630208266,39.834370001583096],[16.508689099140305,39.83449805667407],[16.50872989285093,39.83461543525917],[16.508847397416304,39.834746557724756],[16.50902120458348,39.834866893394164],[16.509119023540546,39.8349346181433],[16.509237850246173,39.8351246860368],[16.509394533183194,39.83529950194782],[16.5097266981384,39.83563418350277],[16.50990347195311,39.835852958223825],[16.510086265405093,39.83602697636579],[16.51027583912411,39.83623953819244],[16.510485126734455,39.836405823782215],[16.510878632447632,39.83675406576845],[16.511307963129124,39.83716115991856],[16.511636905815166,39.83734846736864],[16.511849632015995,39.83746361992319],[16.51229387256419,39.837678900733515],[16.512448625697203,39.837765309780785],[16.51265785125801,39.83782707084874],[16.512744153735472,39.83791854319495],[16.512911050925325,39.83805805829797],[16.512998187372133,39.838130897875544],[16.5131667929394,39.83827183966987],[16.513304446209617,39.838490174573906],[16.51334719261803,39.83855797507423],[16.513440111717472,39.83870535602701],[16.513656337913332,39.83896116793559],[16.51368538039067,39.83898588621229],[16.51370921820031,39.839006165589566],[16.513788343859492,39.83907406109971],[16.514170555098563,39.8396574924544],[16.514908558461062,39.84055914062761],[16.51578014463001,39.84158061469188],[16.516620656518754,39.842318473653656],[16.517225401420596,39.84254688132224],[16.517487311001318,39.842695970083504],[16.517694664153996,39.842864697635136],[16.51771989252694,39.84288528761205],[16.51784281146851,39.842970311874126],[16.51799148131044,39.84307340797777],[16.51836193842929,39.843347527055286],[16.518401980599698,39.84337651008054],[16.51847723837418,39.843431691487226],[16.518813798772786,39.84367645061042],[16.518859101264475,39.84373221972883],[16.518765579773326,39.84377294466041],[16.518324784863186,39.843964905677666],[16.517642493131664,39.84428824733123],[16.517362618927155,39.84440996021437],[16.5171741662451,39.84451907853027],[16.517079221504165,39.84457405414525],[16.51704860322408,39.84459146295871],[16.517009381942945,39.84461390089701],[16.51690083303681,39.84467973716696],[16.516693961902856,39.844804377173986],[16.516617305906095,39.844854969570505],[16.516574898886212,39.844882957873466],[16.51638379578255,39.845009008662295],[16.51635514955225,39.845025449433756],[16.516190480463447,39.8451199707961],[16.51596796728759,39.8452477466061],[16.515863732872205,39.84530879905499],[16.51580156099497,39.84534618876851],[16.51556361453978,39.845485294537255],[16.5153349201901,39.845625626833375],[16.515259006064678,39.845672209864894],[16.51507972439768,39.84578217665399],[16.51471466239563,39.84602991396325],[16.514676438539073,39.846055853189675],[16.514578420397292,39.84612485888228],[16.514514024006374,39.84617021244521],[16.51417305726007,39.84641136736443],[16.513975074008037,39.846551355241154],[16.513883434290573,39.84661978920881],[16.51366492717087,39.846782961135546],[16.513632493478703,39.846804490700315],[16.513364381205353,39.84698246997686],[16.5131160334905,39.847119597282806],[16.513087602259095,39.84713373461671],[16.5130411173506,39.84716099322528],[16.512695152602316,39.84734546000819],[16.512535238802815,39.847441518092886],[16.51232559697502,39.84756744484673],[16.512218430865076,39.84762789972658],[16.5119864541877,39.84775876216232],[16.511955994049025,39.847775945273305],[16.511586476329278,39.84802491610282],[16.511449197254436,39.84813249380447],[16.511220377731313,39.84831863749789],[16.510905448556635,39.848544505005265],[16.51080035476248,39.84861987720869],[16.51066850377447,39.84871443915765],[16.51036608664574,39.84894786878097],[16.510242099067646,39.849043572661614],[16.510158925439253,39.84911145796998],[16.50982986523786,39.849380008238505],[16.5095600045894,39.84960025601944],[16.509379664671272,39.849747442593085],[16.509292761783307,39.84980327485539],[16.50891757987618,39.85004573142364],[16.508845670200596,39.85009227915218],[16.508750120558755,39.85015300568329],[16.508713968199977,39.85017618215737],[16.508587563750925,39.85025747577103],[16.508473737682994,39.8503308226181],[16.508202459151377,39.850505501590625],[16.508059457510626,39.85059757762307],[16.50799641912217,39.850638165760195],[16.507757715368893,39.85086961859574],[16.507667804950163,39.85095209916337],[16.507526080996616,39.85108210987836],[16.507483274417837,39.85112137992735],[16.50716064554885,39.85142576505582],[16.507138308892713,39.85144584761351],[16.50700483592125,39.85156585116166],[16.506804684685473,39.8517458042975],[16.506605103822167,39.85190580841452],[16.506420594674637,39.85205371274063],[16.50623058783019,39.85220592757486],[16.506066734420052,39.85231918175743],[16.50577079678623,39.85252373113074],[16.50572470828026,39.852548711164786],[16.505520403414685,39.8526594439472],[16.50496950197118,39.85295803046203],[16.50478154898629,39.85305989904232],[16.504591867667113,39.85316270295069],[16.504427644207052,39.85333922776067],[16.504236015430003,39.85354520820339],[16.504159790131837,39.85362714218457],[16.50389688044918,39.853821770664226],[16.50364017660363,39.854011804339855],[16.50360658267528,39.854036003970215],[16.50339944510389,39.85418492252132],[16.503356791378394,39.854219092872256],[16.503124447280875,39.85440522235107],[16.502952869354694,39.85452833647125],[16.502817659843835,39.85462535305839],[16.502765972860367,39.854662439989724],[16.50235248882733,39.855017205314695],[16.50231782888105,39.855046942815676],[16.50228358586804,39.85507785509878],[16.501952671954424,39.85537657706278],[16.50181272255175,39.85550212960354],[16.501752346464404,39.85555629498245],[16.50148236676039,39.855798501061116],[16.501221562479675,39.85599482395726],[16.500873977290414,39.85626540537593],[16.500680825537376,39.856430806035306],[16.50062450127997,39.85647903875729],[16.50048175838938,39.85660127279099],[16.500171521439064,39.85683286669245],[16.50014368663587,39.85685555102622],[16.500004241875796,39.85696918902688],[16.499631666555544,39.857272811797884],[16.499607790961036,39.857291721886014],[16.499397256535687,39.85745847396265],[16.49907070838584,39.85771711078981],[16.499000584714356,39.85777265172447],[16.498764497515825,39.85794943167152],[16.498531576679014,39.85812383897697],[16.498138815398715,39.858417929929615],[16.498108641535,39.85844188682069],[16.49799280028065,39.85853385956288],[16.497491552424712,39.85893181926141],[16.49745580288501,39.85896020211119],[16.497021863177185,39.85930471730516],[16.496918360715885,39.859382539963185],[16.49686543424896,39.859422334626515],[16.496655136361607,39.85958045352365],[16.4964119245497,39.85974468959631],[16.49637714691327,39.859770472883596],[16.49617989224988,39.85991671003346],[16.49595303299197,39.86008489422539],[16.49583640734324,39.86016278351426],[16.49567697216277,39.86026926466768],[16.495481817073248,39.86041189613583],[16.495366213777505,39.8604963857492],[16.49529452295687,39.86054469797188],[16.49507811878023,39.860690527905625],[16.494743183794217,39.86087422674737],[16.494645335820277,39.8609160723538],[16.49420000716758,39.86111191830783],[16.4938520705467,39.86132796213064],[16.493638257180777,39.86142499657661],[16.493435959370395,39.861512437196644],[16.493074058659634,39.86172298511994],[16.4928349961177,39.86193333253261],[16.492812922441182,39.861953261377344],[16.492566650063914,39.86219220209623],[16.492368152772638,39.86241347715066],[16.4922644409635,39.86252867418987],[16.492034970337084,39.86276399260789],[16.491926205612685,39.86289200280997],[16.491840933237583,39.86299249629803],[16.491613243921446,39.86323219374632],[16.491514168715888,39.8633369599571],[16.49148230517672,39.86337065472332],[16.49141834017892,39.86343829269279],[16.491097763405698,39.86362531852941],[16.49096750707579,39.86367588121194],[16.490804762412186,39.863738997800766],[16.490622449308066,39.86378473917264],[16.49039386421138,39.863842140918365],[16.490012756259585,39.863889388388124],[16.48983112949402,39.86393552206858],[16.48962017284278,39.86399584114208],[16.489258999676842,39.86406562663254],[16.489164300895624,39.864083923878326],[16.488701740582847,39.86430754985264],[16.488551673507665,39.864380099638936],[16.488291763295788,39.86447744568898],[16.48814270738253,39.86453327245299],[16.487581953568736,39.864743291123396],[16.487113317344143,39.86491880660916],[16.487067804388975,39.86500672785782]]]}}]}
