{"type":"FeatureCollection","metadata":{"code":"079052","referenceDate":"2026-01-01","sourceDbfExportDate":"2026-02-18","upstreamArchiveUrl":"https://www.istat.it/storage/cartografia/confini_amministrativi/non_generalizzati/2026/Limiti01012026.zip","sourceManifestSha256":"70ac8256c4785dc6ed2814c32b6965ae76f9161b51abaa1660059e1c6cbd8ca6","license":"https://creativecommons.org/licenses/by/4.0/","attribution":"Istat, Confini delle unità amministrative a fini statistici al 1° gennaio 2026, versione non generalizzata.","modifications":["Converted from WGS 84 / UTM zone 32N (EPSG:32632) to RFC 7946 WGS 84 geographic coordinates.","Converted from shapefile to per-municipality GeoJSON without geometry simplification."]},"features":[{"type":"Feature","id":"079052","properties":{"code":"079052","name":"Fossato Serralta","alternativeName":null,"regionCode":"18","regionName":"Calabria","territorialUnitCode":"079","territorialUnitName":"Catanzaro"},"geometry":{"type":"MultiPolygon","coordinates":[[[[16.512746219577377,39.01817150877088],[16.512500325194196,39.01859672523972],[16.51232600865273,39.01901730528993],[16.51229252274329,39.019037872380935],[16.512264340220938,39.019054162291816],[16.511835398629028,39.01930997807722],[16.511721621017,39.019206471572645],[16.511493885918128,39.01899888514417],[16.511432011107264,39.01877117305558],[16.511378982090545,39.01857503485828],[16.511248380304306,39.01829993845111],[16.510793290127086,39.01809114190767],[16.510495997503867,39.01818235225831],[16.51024302135417,39.018365142092804],[16.510136456755475,39.01871836360035],[16.51015788809799,39.01883951376177],[16.51017658009406,39.01894518032585],[16.51019073569739,39.01902519343027],[16.50990483594718,39.01923797319006],[16.50952168249136,39.01918543774718],[16.509264082901147,39.01902671636518],[16.509097649148124,39.01877663154787],[16.509009048899404,39.018445035940175],[16.509048786428497,39.01815461356315],[16.509203555687286,39.01776678556579],[16.509220367914644,39.01750483716158],[16.509000214810836,39.01683095891581],[16.508750791350444,39.0165727413191],[16.5084812648421,39.016396791088155],[16.508130643375335,39.01623058547823],[16.507793819734157,39.01615344135737],[16.507413034488945,39.016178088271644],[16.507079026312333,39.016208697328025],[16.50676744131791,39.016219874208346],[16.506199203465883,39.01612172406142],[16.50587577262328,39.01600772949307],[16.50545174475537,39.01567985427632],[16.50527291458147,39.01547553524619],[16.50481379233974,39.015482148345505],[16.50444748196657,39.01517790953847],[16.50390443937722,39.01520381304086],[16.50348292982935,39.01494814963182],[16.503431453333736,39.01465403114344],[16.50355139552349,39.01431794778264],[16.503811086785923,39.01406276159821],[16.50404648700698,39.01374170153947],[16.504142572478056,39.01337116332194],[16.504490179922467,39.012871920668296],[16.505019859655214,39.012756701606015],[16.50546884465735,39.01272315441921],[16.506027980791323,39.01270089919828],[16.506496557514172,39.01271060739659],[16.506809384887447,39.01271701921156],[16.507220064540988,39.01252045601274],[16.507018276550923,39.012236085935086],[16.5066438689004,39.01199494375576],[16.506510865544563,39.01174718425136],[16.506632187037017,39.011491975781354],[16.507041699716844,39.01118211829204],[16.507489296103397,39.01101370908898],[16.507771284768527,39.01093116302992],[16.50784431215533,39.01090978221118],[16.50840926453785,39.0108282250067],[16.508808215855463,39.01060900175745],[16.508974435632922,39.01027445814846],[16.50927936879935,39.01040375852268],[16.509812200755672,39.0105761634579],[16.510013251700276,39.01062495833839],[16.51020716139167,39.01067196458577],[16.5105773647105,39.01073793211527],[16.51092655219866,39.010850264915476],[16.511062342559214,39.01103358977721],[16.51121264912712,39.01123651448641],[16.51129031733234,39.01137657945855],[16.511307037122176,39.01140673317398],[16.511336511640042,39.01145988787333],[16.511357107533225,39.01149702915208],[16.51144106916319,39.01167128356398],[16.511513034752326,39.0118243111723],[16.511788224964036,39.01206734937421],[16.512180361640592,39.012230855360976],[16.51260482476912,39.0126306515732],[16.512795557901168,39.01291963284124],[16.513150398577093,39.013274453655974],[16.513511538470578,39.01340398378245],[16.514123669481474,39.01344078277114],[16.514481512770534,39.013444588247665],[16.51485175528461,39.013443094294544],[16.515233908032542,39.013472293220744],[16.515567887871335,39.01346865148188],[16.515907589821694,39.01354558539438],[16.51654117180998,39.013607970132306],[16.517095118080082,39.01359905910707],[16.517488737594423,39.01364101111227],[16.518080344427222,39.01366113547496],[16.517899402737342,39.01395168857611],[16.517532938784417,39.01408337566201],[16.517178840153182,39.0142502596294],[16.516976469879715,39.0145017409354],[16.51679742672409,39.0148101835963],[16.516570730967842,39.014995798067716],[16.516185589660203,39.01530410992336],[16.5159960448682,39.0156357249484],[16.515692451851113,39.016060173990816],[16.51522714789779,39.01634668937595],[16.514650701491494,39.016496487843824],[16.514353857264847,39.016646151355275],[16.514091372361445,39.0167935855312],[16.51381837458971,39.017004668655495],[16.513523884050812,39.01724413316884],[16.51328663164981,39.017506877222296],[16.51322258205711,39.01757296735614],[16.512936252755104,39.01787134958072],[16.512746219577377,39.01817150877088]]],[[[16.579385221999534,39.01691246172022],[16.579390673365896,39.01699700654711],[16.57939388880391,39.01704685680287],[16.57940525805547,39.017175396669394],[16.57942002934926,39.01734240209899],[16.579298956959857,39.017452747986376],[16.57914942428935,39.01758903265065],[16.579094919850107,39.017583085859776],[16.578799831900177,39.017550886293485],[16.578558742607118,39.017524195639126],[16.578508818254825,39.01750624395324],[16.578232334760376,39.01741060448099],[16.577908012206986,39.017229575663116],[16.57763768731473,39.01711151677711],[16.577567061928985,39.017080775125045],[16.577307524719068,39.01704455684037],[16.57727249514878,39.01703966829967],[16.577150048132935,39.01702258182964],[16.577074903092328,39.01707851782573],[16.576972099821116,39.01715504342753],[16.57686580689514,39.017234165339424],[16.57675982773327,39.01731305437829],[16.576706232320486,39.017352758373335],[16.57671828861267,39.017170490890926],[16.576725121766348,39.01699168324364],[16.576510843721056,39.01673527723779],[16.576472084037583,39.01668889123738],[16.576383346493344,39.01655644512538],[16.576235493059663,39.01633600719037],[16.576214623426594,39.016304878381064],[16.57618364187724,39.0162586686911],[16.576125424895174,39.01617183339948],[16.57605671228876,39.01613454420696],[16.575917906180802,39.016059215751696],[16.575720720577525,39.015952207623634],[16.575681609128612,39.01593098203469],[16.575468119400274,39.016021962958916],[16.575394944497177,39.016053146852066],[16.575140005658653,39.01618381075085],[16.575032905679084,39.016238703176505],[16.574916106358344,39.01625019074121],[16.574798429539936,39.01626176428386],[16.574488100175206,39.0162922840566],[16.574335120338397,39.01627696912049],[16.57399212459135,39.016243601299514],[16.57391528172369,39.01623635560987],[16.573760033150922,39.01622171966676],[16.573598260439514,39.01620646791706],[16.573490889186747,39.01627331947006],[16.573321624753337,39.016378648575994],[16.573291615020295,39.01639745696158],[16.57330030904539,39.01649527155517],[16.573319437229998,39.01671047022994],[16.57324493210149,39.01679376114007],[16.573105984827787,39.016950969468034],[16.573024879068964,39.01696300914938],[16.572760401450736,39.01700782705783],[16.57269100358071,39.01697598661746],[16.57223545675363,39.01676325255644],[16.572078862075177,39.016671578948014],[16.572014687917825,39.01663397566361],[16.5719667335432,39.01660515314852],[16.571937792179607,39.01658470867966],[16.571566370488764,39.01633020028173],[16.571520166064374,39.016296318701976],[16.57145706320212,39.01625004670538],[16.57135165573737,39.016172752539354],[16.571143989950706,39.01602047065561],[16.57100256809882,39.01591666451999],[16.570831309789522,39.01579095977762],[16.570794306590702,39.01576330724734],[16.570730698221336,39.015714688608035],[16.570322167851742,39.0153994695098],[16.5699346293462,39.015091956597665],[16.569510819609878,39.014755326587995],[16.56930033570653,39.01456666252039],[16.569068276083087,39.01406909108],[16.568966964381115,39.01363494035334],[16.568914843961597,39.01336400366932],[16.568793082818598,39.013088603025444],[16.568877377209066,39.012718810844326],[16.569137758654094,39.01247242886432],[16.569232049907406,39.01207499423563],[16.56892853974394,39.01185194650587],[16.56851721633445,39.0116044324403],[16.567945556907425,39.01131342162503],[16.56757243866501,39.01119383782604],[16.56706092343926,39.01093937083229],[16.566782762067533,39.010818101928606],[16.566279349014152,39.01054510429851],[16.566037286912593,39.01041649971399],[16.56591720157658,39.01035286413455],[16.565648547362088,39.010212974678815],[16.565420488075436,39.01016485237474],[16.56527402461487,39.01013394654091],[16.564870910945455,39.01015125077219],[16.564738962106237,39.010188672779734],[16.564666145887006,39.01020997485352],[16.564447360335215,39.010271374241206],[16.5642736870646,39.01032062995611],[16.56417612485188,39.010312832571536],[16.564102097251695,39.01030686174575],[16.56386798428392,39.01028837435324],[16.563464394969667,39.010314694436566],[16.563086558951348,39.010352836418825],[16.562993394484355,39.01037084080117],[16.562854997405925,39.010396955964765],[16.56281991651782,39.01040364656391],[16.56272782495662,39.01042119578225],[16.562619000828832,39.01043256786816],[16.562573039119044,39.01043560521135],[16.562405336232,39.01045121465647],[16.562024646273116,39.010449066433566],[16.56197522935201,39.01042186940391],[16.561880660451177,39.010369822901716],[16.5618303983212,39.01034215019688],[16.561673898821127,39.0102559837053],[16.561437681837564,39.01006899978949],[16.561168560349067,39.00983153692768],[16.56066419201807,39.009521242386725],[16.560565335471246,39.00910941760642],[16.560665571375594,39.009001496486036],[16.5608896389865,39.00875994495966],[16.560936257335147,39.008239691418794],[16.56118038057896,39.00780101194223],[16.561428853261546,39.00753744420871],[16.561696343832587,39.00712872263941],[16.562011570317466,39.006761857833126],[16.56222084573973,39.00629396551706],[16.561879211523348,39.00598342904102],[16.56145222603018,39.005844844445164],[16.5611344117187,39.00554174248539],[16.5606535029541,39.00530324719466],[16.56045071783908,39.005091589994876],[16.560365709878354,39.00471483938892],[16.560210125166385,39.00450010420359],[16.559811787676164,39.004386632206746],[16.559487887450704,39.004389762854316],[16.558946906407314,39.00434405644356],[16.558754598358515,39.004068746164386],[16.55870063032237,39.00375293651005],[16.558660138476878,39.00357717589328],[16.55861182018766,39.00336744320672],[16.558574478197322,39.003275389590684],[16.55847673177671,39.00303442812548],[16.55831115810056,39.002801406184346],[16.55808643985213,39.00259212798778],[16.557971314199712,39.00248575705198],[16.55785454381311,39.00237786683203],[16.557572123536954,39.00220287599501],[16.55750983628328,39.00217320876721],[16.557291149511617,39.00206905103103],[16.557090936343037,39.001924121321764],[16.557033494499958,39.00188266569494],[16.556975412360924,39.00184019212175],[16.55694281917389,39.001818213916486],[16.556627438682593,39.001585070628984],[16.556565965013068,39.00153982328915],[16.556489041298246,39.00140035323667],[16.55643186960365,39.001296694261946],[16.55638888268266,39.00098915942046],[16.556386166846334,39.000957300938296],[16.55636066994143,39.000658185871885],[16.55636075352502,39.000608230239294],[16.556360847229378,39.00050919449331],[16.556361071268224,39.000271372756636],[16.55627007693404,39.000129124822244],[16.55623024728257,39.00006796527814],[16.556208612374768,39.000034684761154],[16.556046753889557,38.999915661211816],[16.555890363830116,38.99980339638553],[16.555857818851266,38.99978003483448],[16.555774742692584,38.99972039506597],[16.55559221056143,38.99965977297228],[16.555480417094884,38.99962264386846],[16.555269661794927,38.99960361286837],[16.554959519017235,38.999575607382376],[16.554675439520853,38.99950309461899],[16.55437075602781,38.99942532143781],[16.554080808548488,38.99933249860618],[16.554018421225738,38.99931252727744],[16.553844715204654,38.99925693152139],[16.553480602076615,38.999109569600165],[16.55341396455646,38.99908259939335],[16.55291279135275,38.99903905259443],[16.552715764916105,38.999067364044656],[16.552573013067715,38.99908787669977],[16.552323815732567,38.99907181271778],[16.552121770527204,38.999058786009265],[16.55195210954286,38.99899731724763],[16.551730909230663,38.99891717529682],[16.551586921346317,38.998865005999434],[16.55154069277643,38.99884273368132],[16.55131606979602,38.99873342643077],[16.551124985689757,38.99864086489437],[16.5510531567085,38.99860606988337],[16.55084954055904,38.998507436945644],[16.5505169482441,38.998412163563295],[16.550096818551083,38.9984080268769],[16.549943404901878,38.99837106635229],[16.549637822697793,38.99829744412996],[16.54947769358616,38.99825886553517],[16.549391323550775,38.99823805525925],[16.549350604931526,38.998217334898364],[16.54906219873131,38.998070575878266],[16.54874671678658,38.997959829123126],[16.548619048436414,38.99791501164015],[16.54816695298583,38.997928030201],[16.548123462507302,38.997929282433816],[16.54757435904191,38.997945591366786],[16.54704114441346,38.99810764141546],[16.546780687280837,38.998218147943206],[16.54657188759256,38.99830918186739],[16.54648471299008,38.998365929841334],[16.546373178217245,38.99843848306793],[16.546334782735794,38.99846337720641],[16.546241729286237,38.998523949930345],[16.546292420196156,38.99866585201681],[16.546328090502552,38.99876570356418],[16.546399387389194,38.99879504105968],[16.546536524129152,38.99885147131909],[16.546638373184084,38.998893382441565],[16.54672447837875,38.9989288130561],[16.54714044056741,38.99910924604112],[16.54721937319031,38.99914348422144],[16.547274475904093,38.99916738656093],[16.547438958095334,38.999291050400835],[16.547495088031464,38.999333247707504],[16.54767088220812,38.99946541413484],[16.5477650477937,38.99956057474245],[16.54788412477656,38.99968091010116],[16.547908620757266,38.999710247058616],[16.548204705677854,39.00006483545309],[16.548167148444367,39.00014317915464],[16.54808453216047,39.000315513411685],[16.548110904076875,39.000438110178344],[16.548136561202753,39.00055738294746],[16.548144525205018,39.000594407099896],[16.548158954309567,39.000661484507724],[16.548166147889102,39.00095785010844],[16.54817503640192,39.001043918029936],[16.548185636103916,39.0011492214882],[16.54819526819053,39.00124379906123],[16.548262337411444,39.00148625407941],[16.548284489597886,39.00156632890117],[16.548233674962113,39.001631311260404],[16.548091805560595,39.00181273574865],[16.5480087933256,39.001841287632686],[16.547609991325892,39.001978458231626],[16.547452832672512,39.0020325134085],[16.547393477491944,39.00205292846912],[16.546911308551397,39.002219495159856],[16.546860389626673,39.002248413850246],[16.546592556684736,39.00240051663412],[16.54635155919712,39.00251077229947],[16.546169448240356,39.00259446743227],[16.546124841903293,39.00263995001368],[16.545968445238188,39.00282510573929],[16.5459046493281,39.00298892827238],[16.54586611208116,39.003087891009294],[16.545839168679198,39.00316016090126],[16.545819907590477,39.00327691341704],[16.54579379415618,39.00344589717985],[16.5457740506933,39.003573661541694],[16.545736891537647,39.003818652058904],[16.545707646472085,39.00390126595386],[16.54564717380014,39.00407216285645],[16.54548023850687,39.00428990251345],[16.545393651223993,39.00433878592128],[16.545328277300555,39.00437569206909],[16.54524120380187,39.004424849868194],[16.544976003067763,39.004574568840795],[16.544848530082163,39.00463171537246],[16.544623955556293,39.00473239183182],[16.544293258085997,39.00482967344855],[16.54423135373156,39.00484788343961],[16.544178731944616,39.00490022383015],[16.544158618204968,39.00492023220951],[16.544028152966696,39.00505000026661],[16.543768274260735,39.00531119286888],[16.543702802902807,39.005377873300105],[16.543674663529167,39.00563968892356],[16.543676954061503,39.005818644892706],[16.54367835099231,39.005969465229846],[16.543697100712706,39.00621391996438],[16.54367833662473,39.006282048645204],[16.543620097629226,39.006493595558936],[16.543522481384294,39.00664560389457],[16.543488222293504,39.00669908857476],[16.54345799211969,39.00674611621015],[16.54342138628526,39.00680302775909],[16.543357174389232,39.00685879499224],[16.543147093811744,39.00704125005185],[16.54311234933364,39.00713771305151],[16.5430826018888,39.00722030155684],[16.54303927247324,39.00734060160503],[16.542912827133513,39.00768110037678],[16.542878463818976,39.00777363551371],[16.54286469254097,39.00781071979809],[16.54260563296254,39.00811091617666],[16.54245460326179,39.008160655411885],[16.542347139217927,39.008196046764766],[16.542146237087973,39.00826220931609],[16.54178066892872,39.00828947772453],[16.54167441420796,39.00829740291775],[16.54126747441282,39.00840343964599],[16.54121450869634,39.00841723950373],[16.540479333998114,39.0085909696664],[16.540023271101884,39.008787044685654],[16.539831472159786,39.00909634684347],[16.539752278064146,39.00971765959048],[16.539773729401034,39.010175012214795],[16.539839569254912,39.01050805966741],[16.53994212225747,39.01086119604006],[16.54004994403201,39.01115553504877],[16.540127231517374,39.011568784598005],[16.54010049959292,39.01191232578744],[16.53996882360101,39.01224472921773],[16.53971549420432,39.0128008908308],[16.53944544130374,39.01314678387552],[16.538972145288913,39.013654295426726],[16.538748379624856,39.01386673007822],[16.538473544853993,39.01411396699698],[16.538353799231558,39.014423081185626],[16.538381943275894,39.0147001078372],[16.538471627046363,39.01509457346178],[16.538476856244237,39.015346081168836],[16.538441538721116,39.015744176341485],[16.538120438177746,39.01584149848776],[16.537939987845704,39.0157724658787],[16.537768836038108,39.015706964691724],[16.537371863642175,39.015525882644745],[16.536945329080538,39.01540517503199],[16.536455329860292,39.01528409285488],[16.53592143912596,39.01518386074023],[16.535230094843907,39.01528275448847],[16.53465278806456,39.01520781079814],[16.534127959771656,39.01504401451705],[16.53362700066536,39.01486066491649],[16.533241987327084,39.01466980137112],[16.5328021156032,39.01445099779313],[16.532403753454233,39.01428347295588],[16.531879410827273,39.014137613313004],[16.53147577025513,39.01417732857586],[16.53112937247952,39.014199820987166],[16.530737681980757,39.01413529836058],[16.530410389391793,39.014066593385316],[16.530028210719486,39.014010441530594],[16.52957449405798,39.013877982846715],[16.52920191464141,39.01369528970313],[16.528841240142093,39.01344883473158],[16.5284510071758,39.01318182233698],[16.527948205435468,39.012872651186356],[16.527537480868958,39.012589002699684],[16.529320958715445,39.012243867833305],[16.529820011721597,39.01235538420997],[16.530319042226918,39.012480403553106],[16.530650637186305,39.01233294085923],[16.530678839852516,39.01204326311819],[16.530814377180757,39.01171962795824],[16.530745244708086,39.01136880788122],[16.53056401590283,39.010966792601856],[16.530304034598966,39.01070483355197],[16.530181949488455,39.01041140999246],[16.530301254938397,39.01005734579723],[16.530224494304694,39.00974299903982],[16.529990764560406,39.00951081837828],[16.529821458316665,39.00920697414117],[16.530233667292194,39.00903178631934],[16.53071507693132,39.00891057544627],[16.53098943112395,39.008591430529385],[16.531083007947192,39.00822555147293],[16.531282962767182,39.007776294688476],[16.531721453814463,39.00730705326228],[16.531913263463412,39.00701124611265],[16.532044492209895,39.00678235841107],[16.53214137174334,39.00647471839418],[16.53245771584583,39.00613035032256],[16.53287473356469,39.00566249960037],[16.532958269838463,39.00520282125493],[16.533097133067297,39.00477552729536],[16.53333236817849,39.00441393206079],[16.533350046995935,39.00416091627774],[16.5333868290756,39.00376274538128],[16.533359105347177,39.003476873530744],[16.533362582940054,39.00303570668651],[16.533424172900776,39.002788847001824],[16.53361072795148,39.00236295036685],[16.533813028822347,39.00208444018392],[16.534189436445402,39.00184412136847],[16.534539833853977,39.001678803194075],[16.53480534503668,39.00132255132978],[16.53493040796205,39.00115446123125],[16.535281473124453,39.00068025702302],[16.535340635911286,39.00060095162206],[16.535490672329562,39.00040120983038],[16.535521485187136,39.00036010846035],[16.5356222897675,39.00022564731975],[16.536082490240176,38.999611768314324],[16.53637778758545,38.99894937139423],[16.53696878475999,38.99903241085276],[16.537553612876522,38.998814518038486],[16.53792331285551,38.99876800008934],[16.538265791009064,38.99865578925176],[16.538586840905708,38.998531484346586],[16.538918352301987,38.99841099449491],[16.5392880490474,38.99832399925591],[16.53966487149591,38.99822305493491],[16.539997833016393,38.99814294098078],[16.540495814966505,38.99819151622305],[16.540910797639107,38.998178042302804],[16.540956196119428,38.99815003208376],[16.54112162035518,38.998048067154286],[16.54116362265779,38.99802217294074],[16.541194371495106,38.99792930139968],[16.541212949135257,38.997873642811],[16.541221939864755,38.99784603933579],[16.54123407407682,38.997808653375834],[16.541259221498432,38.99773323961896],[16.54127183410137,38.9976039821416],[16.54128814270415,38.99743389340312],[16.541340879097486,38.997182872990294],[16.541575398390556,38.99698650907729],[16.54175989541408,38.99683202786222],[16.54208090577011,38.99672120095934],[16.542458212733838,38.996570753412435],[16.54251884132449,38.99651792130093],[16.54253923298956,38.99649676272503],[16.542866018805846,38.99620688695947],[16.542975237013966,38.995880456430235],[16.543004348406892,38.9956266972265],[16.543057225355884,38.995414361929],[16.54311022314489,38.995201541119194],[16.54320782450424,38.99506871262603],[16.54324523772431,38.99501779550972],[16.543311516642696,38.99492759648686],[16.54350373123474,38.994730691422696],[16.54355427120723,38.994597210727136],[16.543613922951927,38.994440176282836],[16.543535893434083,38.99414786413092],[16.543515716931847,38.994072280575665],[16.543477033272342,38.993927364515834],[16.543381418220346,38.99369169719958],[16.54320743840788,38.993258918473444],[16.54316676936375,38.99300208065355],[16.543229971056633,38.99273358165617],[16.543648256245394,38.99231959163168],[16.54377330602288,38.99221185021158],[16.54422749447168,38.991818950621294],[16.544511546474624,38.9917147464476],[16.544926981990567,38.9916112749887],[16.54552460344118,38.99156788917781],[16.546157980075716,38.99130632544311],[16.546425552039082,38.99100556952159],[16.546557177797673,38.99071365791643],[16.546633467184154,38.99044334371198],[16.546693082914693,38.99005717209407],[16.54673408358537,38.98965870790156],[16.54685949857578,38.98924126738572],[16.546929021501192,38.98908265942488],[16.54697531044808,38.98897684189448],[16.547029382490365,38.98885322833426],[16.54707027723267,38.988759821571925],[16.54716783107534,38.98851662327528],[16.547310173188176,38.98817303728865],[16.547366367980477,38.988051890524595],[16.547508079406708,38.98774638518283],[16.547538665743254,38.98769782348082],[16.547778005285434,38.987319541022764],[16.54796732125867,38.987055357990734],[16.54816324660854,38.986800105047635],[16.54822531131848,38.98671924508479],[16.548310254816514,38.986611958165575],[16.548427345053163,38.986463640183885],[16.54889758034583,38.986293619013516],[16.549263716943948,38.986175156450294],[16.549621868363044,38.986088881763486],[16.549953310497568,38.986022342729505],[16.550833661498487,38.98563223300765],[16.55123470782514,38.98540822029964],[16.551555657634943,38.98535135042669],[16.552097434012246,38.985325088933934],[16.552589581068048,38.98511763520837],[16.552888574986273,38.985017223344904],[16.553212388143443,38.98501411910959],[16.553533822317423,38.98501568263284],[16.553903444344595,38.98502309814725],[16.55431738201175,38.98498715204062],[16.554745629553057,38.98501771646228],[16.555172948756145,38.98503936885458],[16.555637449426634,38.98509906899893],[16.555961264014094,38.98508247403317],[16.556372827281102,38.984997194615154],[16.55707719949547,38.98499629642912],[16.557483998979603,38.98502824774028],[16.55789891050271,38.98509566496877],[16.559128876813777,38.98529437580687],[16.559543328220535,38.98531684933689],[16.559756049682658,38.98526353268067],[16.5598363136094,38.985243558180265],[16.559898710323633,38.98522805820773],[16.560199955702792,38.98515260783273],[16.560600549905093,38.985059038461515],[16.561370201870332,38.984860448591],[16.561667286538768,38.98472865569518],[16.562023496766223,38.98462447107297],[16.56238021762392,38.984619214684884],[16.562773658435553,38.984688014691564],[16.563082975100954,38.98475468799223],[16.563334135504558,38.984808797174644],[16.563367459156332,38.98481646250974],[16.563713680386886,38.984910053852985],[16.563983168996216,38.98508589388449],[16.56425984558935,38.985322882915405],[16.56429053732825,38.98534933678809],[16.56436440018523,38.985440732244065],[16.564383158212912,38.98546406936361],[16.564658180907028,38.985806438675404],[16.56473143486504,38.98598249336058],[16.56475480050869,38.98603807968587],[16.56478375618947,38.98631997128823],[16.56473113198406,38.986731169741546],[16.56472645322581,38.98676937128925],[16.564714995706826,38.98685971523978],[16.564702828798897,38.98691916763298],[16.564687981242532,38.986991723519814],[16.56467006696686,38.98707991321716],[16.564652986996776,38.987164473847685],[16.564657905427687,38.98719110159822],[16.56474264544247,38.98759095695351],[16.565220572198132,38.98781614701054],[16.565400990652556,38.987905100009286],[16.56567170714199,38.98803857037925],[16.56573707900329,38.98807073795473],[16.56599301198164,38.98817891766148],[16.566086285060624,38.98821844295354],[16.56657377296348,38.98843850951469],[16.567016887911738,38.98859398799646],[16.567405644532823,38.98880700573915],[16.567707120846567,38.98899872807464],[16.56797102135286,38.98949872306194],[16.568028382515735,38.989913247090875],[16.567873025898646,38.9902247089474],[16.56764946626318,38.99061259360009],[16.567473122324937,38.99095690712008],[16.567419290507466,38.99113608180367],[16.567311777075204,38.9914938807293],[16.56735482635787,38.99181489111401],[16.567428371309468,38.992111419756895],[16.567516714560792,38.99245196750569],[16.567963249136888,38.992800629538],[16.56845023214721,38.992854315750414],[16.568889518188044,38.99289311288839],[16.569228180000717,38.99298793760408],[16.569599750104654,38.99306714724201],[16.570005220246344,38.993220574747646],[16.570302914193757,38.993471007199986],[16.570480480088314,38.993810224998214],[16.5707899774328,38.99370007170405],[16.571015981324823,38.99352341174829],[16.571427717589813,38.99386981699772],[16.57174542386404,38.993984019001466],[16.57244894825341,38.994055014908135],[16.572853420242225,38.99409157525484],[16.573236438236812,38.994170025370025],[16.57370201077602,38.99433301871643],[16.574051230989475,38.994499113534005],[16.5744290729475,38.994757766900385],[16.57496507889236,38.99454287572213],[16.575263623941893,38.99446490754597],[16.575512970853914,38.9942372334616],[16.575633986040106,38.993981980593944],[16.57572020668205,38.99373797266821],[16.576097317293343,38.993412017644644],[16.576508904411455,38.99339412362654],[16.57681566146534,38.99352700584924],[16.577253628573697,38.99380872912569],[16.57762122854691,38.993541842344605],[16.57789438815003,38.99329462849826],[16.57815471966963,38.99312919608727],[16.57857718232687,38.99291719379108],[16.578941931250608,38.9926774961719],[16.57940018223098,38.99254409657843],[16.579733457834497,38.99233344099702],[16.580014720938472,38.9920676938826],[16.580410403414888,38.99176748282297],[16.580808991403323,38.99150756918595],[16.581229975797903,38.991241678586285],[16.581607605741016,38.99105508806209],[16.581995234207337,38.99085435834031],[16.582566447673802,38.990592146023126],[16.582904085276112,38.990570074743935],[16.583401108918483,38.99066351238337],[16.58374591508411,38.990667956896864],[16.584058310102442,38.990679015178834],[16.584415989342105,38.99065562818295],[16.58472741566086,38.990644254973226],[16.58505265450473,38.99061399753457],[16.585383106828726,38.990538412273416],[16.585772194696144,38.99040503573342],[16.586081150509482,38.99026339424016],[16.58633144184675,38.99009860178049],[16.586616047561343,38.9899315834368],[16.586949321960148,38.98977484587431],[16.587450921865848,38.98958913690434],[16.587778072130252,38.98957672614197],[16.588177212974372,38.98952362858178],[16.588581591580624,38.989465691279555],[16.588909340875645,38.98963314394044],[16.58919941360206,38.9897985667246],[16.589607762454982,38.989992226535506],[16.589909712154352,38.99006691653893],[16.590262801425677,38.99033614527414],[16.5900144976298,38.990599740534044],[16.589740359372254,38.99073012379765],[16.589525414250527,38.99095557602747],[16.58956852908739,38.991263067968156],[16.589840114957372,38.99159160523436],[16.590313701468705,38.99158760330884],[16.590777776062495,38.99164269218778],[16.591276158388606,38.99165504374547],[16.59174593642037,38.991655779922915],[16.592123015678496,38.991410722152516],[16.59265716829222,38.99142074357875],[16.59297916515657,38.99152108267749],[16.59342629504756,38.991887601200446],[16.593571966948012,38.992183880664726],[16.593520684823332,38.99249756821817],[16.5934474182921,38.99276771004641],[16.59378861462133,38.99303320994154],[16.594185553628908,38.99322759940314],[16.594655766096437,38.99316533071193],[16.594996119392114,38.99292717998839],[16.595199068410714,38.99261704630274],[16.595468336806356,38.99233406922633],[16.595928989297363,38.99227691633747],[16.59625378892541,38.99229611734315],[16.5968298933018,38.99228087967638],[16.597114947552832,38.99207780923377],[16.597494061250472,38.99201250617174],[16.597828377826243,38.99201310019391],[16.597975538540346,38.991940104583314],[16.598138822285666,38.99186369597435],[16.59820769773694,38.991830614416],[16.59832310025379,38.991658831655684],[16.598360842820053,38.991601150763636],[16.598372898163042,38.99155974600894],[16.598381454234875,38.99153005437502],[16.59839983249074,38.99146660428915],[16.59843576127463,38.99133894249043],[16.59861510367118,38.9911400967258],[16.59896447413784,38.99112439913935],[16.59987339041077,38.99101538764319],[16.60043008474983,38.99116780555851],[16.600755872913087,38.99123641046346],[16.601240445337318,38.99126762064524],[16.601585206770668,38.99123152325019],[16.602249210473428,38.991403888104635],[16.60292239529593,38.99112590259113],[16.603342071048985,38.991129875187205],[16.60373858466209,38.99137372115923],[16.604049018361533,38.99132638229991],[16.60433315933161,38.99119532861461],[16.604612539814323,38.991302196243886],[16.604834971086685,38.99138724316252],[16.604854420924973,38.99172785457002],[16.60473922189257,38.992186669050625],[16.604596963124028,38.992297832216344],[16.604340484280552,38.992494634349036],[16.603964363996038,38.99269470169179],[16.603598209895598,38.99282663614594],[16.60326299497599,38.99291157558812],[16.602768019675153,38.99298449386851],[16.60223906558149,38.992929228887014],[16.601792007497625,38.99269766280431],[16.601384112023474,38.9926377313607],[16.60128401003935,38.992623023626955],[16.600937809198427,38.99268618250634],[16.600710943108037,38.9928674512569],[16.600556143157206,38.993102466535014],[16.600558731232795,38.99330855805478],[16.60055919177971,38.99334513653205],[16.60053556836125,38.99367976129051],[16.600526655589928,38.993806002446455],[16.60047344520962,38.99406134759902],[16.600397450845975,38.994313957145124],[16.600342510652126,38.994390528885965],[16.600240128421124,38.99453087495978],[16.60014166003169,38.994578981844626],[16.599782924519857,38.994754241220896],[16.599278424999074,38.99488623817053],[16.598946623987256,38.995056380668444],[16.5983864112311,38.995313457893516],[16.59813711968532,38.995514189225204],[16.59786496956868,38.995743385281266],[16.597732553186326,38.995972436325665],[16.597543375330137,38.99618273214347],[16.597344332640535,38.99645049791244],[16.597287746487147,38.996514126243284],[16.597240145706962,38.996561435569824],[16.596968528769345,38.99688125629279],[16.596732197585766,38.99720257031373],[16.59647884958193,38.99770039099805],[16.59604502588417,38.99799414794339],[16.595782995603578,38.99815995206105],[16.595700924777784,38.99829223081857],[16.59554985953598,38.99853479002456],[16.595395610756967,38.99889569434088],[16.59519551002163,38.99920562559722],[16.59520580841602,38.99943445971715],[16.59521191252185,38.9995697334854],[16.59521732776393,38.99968991916448],[16.595455080852414,38.99998468053973],[16.59551486450431,39.0000332964143],[16.595751948156327,39.00022608859073],[16.595894046306988,39.00031154606609],[16.596055444235514,39.000408610352544],[16.5962113630082,39.000569264515256],[16.596233293619992,39.00059186108227],[16.596309882369958,39.00067077566138],[16.596407742960267,39.00077681206996],[16.596584501546594,39.00093974466932],[16.5966943072179,39.001041627133034],[16.596787012196426,39.00123441674245],[16.59682425375876,39.00131192778485],[16.5967286527909,39.001682495989435],[16.5961987702548,39.00173969435468],[16.595851525143903,39.00172643957056],[16.5954051885617,39.0019040929919],[16.59534732980166,39.00235762695138],[16.595201567330896,39.00261004373868],[16.594908520165543,39.00239085743915],[16.59458308704016,39.00220529325874],[16.59409162799412,39.002003592014724],[16.593656149690954,39.00202760990051],[16.59341543794111,39.00224127213208],[16.59324768130673,39.00245014068252],[16.59287297522718,39.00274451170336],[16.592398313268912,39.00268563196576],[16.591370884170413,39.00269892692818],[16.59088918065231,39.00278890622182],[16.590651365951814,39.00309682212399],[16.5904741382605,39.00340524943706],[16.590420652265742,39.003516751271206],[16.590334094759243,39.00369777576414],[16.59014260477465,39.00406110983859],[16.590067397803818,39.00431337955358],[16.589944989518518,39.00455527160986],[16.589846874443488,39.00480903942812],[16.589569120606676,39.00530844488062],[16.589006726620134,39.005318276506614],[16.588367517196566,39.005283631397184],[16.58801024725179,39.005311501268956],[16.58762820636072,39.00577681938714],[16.58771430268779,39.006045731945946],[16.58800731700085,39.0062244471006],[16.588210675835253,39.006427027191314],[16.588398767432743,39.006648583268436],[16.588627335828097,39.00706052967831],[16.58876738390052,39.00714130691882],[16.588922881013943,39.007230066365594],[16.58899974961984,39.00737330737139],[16.589051905768795,39.007469378920206],[16.588965836209574,39.00751317933187],[16.588595540307892,39.00770162152372],[16.5884119723253,39.00772326214771],[16.587996410418707,39.007772272532385],[16.587841448683374,39.00777838173791],[16.587650561123404,39.007785910049456],[16.58761420483669,39.00783978335469],[16.587562052985614,39.007917066082165],[16.587415603742418,39.008134086947166],[16.587487306899284,39.00820786629127],[16.58769883631765,39.008426521146404],[16.588174834364686,39.00852067883086],[16.588661477840827,39.008610273689115],[16.58870447635533,39.00899965863535],[16.588642863775693,39.00929510155802],[16.588399283035766,39.00952306288706],[16.588260503175082,39.009652943710066],[16.587684780665526,39.00984802436895],[16.587353774786624,39.00986516617832],[16.587008937405688,39.009941701274066],[16.58628251847872,39.01015562263775],[16.58592965701496,39.010385597209456],[16.585863066772603,39.0105422542988],[16.585821511375798,39.01064001947803],[16.58600259518837,39.011050952976646],[16.586401602283846,39.01134417676313],[16.586449302419467,39.01138665705309],[16.586712271552866,39.011620844737905],[16.586792050089606,39.01169406742773],[16.586780218744824,39.0118865728049],[16.586773813839777,39.011990181274086],[16.586737295423053,39.012043705226866],[16.58662346944223,39.01221053271024],[16.586552198077257,39.01231499140208],[16.586418349511575,39.01262509027982],[16.586111859564223,39.01283504092584],[16.585910164300984,39.01297311383535],[16.585526671589385,39.01299828398447],[16.5852156956734,39.01308158832838],[16.584990612165512,39.01326720719623],[16.584848127134318,39.01351040818539],[16.584622650830077,39.013786006380656],[16.584201596769322,39.01410587667025],[16.583915272804887,39.014290986444436],[16.583842490253396,39.01456389246249],[16.58407039093273,39.014883527117135],[16.58438255417734,39.01509248230572],[16.584746212679736,39.01529806795585],[16.585142787878013,39.015488015943454],[16.585252618079387,39.0157686532767],[16.58489537704474,39.01580102707301],[16.58440724781497,39.01567104140569],[16.583934943221944,39.015701928303734],[16.583601990447434,39.01580915983538],[16.58347806891861,39.01587652516786],[16.58339307250886,39.01592176648038],[16.5833173758718,39.01596282950476],[16.58310331178847,39.01621069110239],[16.583029541807125,39.016516857737365],[16.582681726241617,39.01653095384771],[16.582514748940397,39.01621793296727],[16.5824672754249,39.01616231329895],[16.582391830964475,39.01607422678075],[16.582325033105395,39.01599622868095],[16.581874195534724,39.01601221825399],[16.58181120796554,39.01603512223778],[16.581406743288888,39.01618219330027],[16.581257561512803,39.016247955863825],[16.58087967984128,39.01641453382505],[16.58081807636825,39.01645395983837],[16.580710569960242,39.01652276254451],[16.580480510403227,39.01666999634914],[16.5801503245153,39.01667421802794],[16.58005302340547,39.01667546294259],[16.579788703632637,39.01652124233893],[16.57967866460829,39.016457039097155],[16.57956819044166,39.01654324863226],[16.579502342396896,39.016598142278866],[16.57937163386188,39.01670174196991],[16.579385221999534,39.01691246172022]]]]}}]}
