{"type":"FeatureCollection","metadata":{"code":"079069","referenceDate":"2026-01-01","sourceDbfExportDate":"2026-02-18","upstreamArchiveUrl":"https://www.istat.it/storage/cartografia/confini_amministrativi/non_generalizzati/2026/Limiti01012026.zip","sourceManifestSha256":"70ac8256c4785dc6ed2814c32b6965ae76f9161b51abaa1660059e1c6cbd8ca6","license":"https://creativecommons.org/licenses/by/4.0/","attribution":"Istat, Confini delle unità amministrative a fini statistici al 1° gennaio 2026, versione non generalizzata.","modifications":["Converted from WGS 84 / UTM zone 32N (EPSG:32632) to RFC 7946 WGS 84 geographic coordinates.","Converted from shapefile to per-municipality GeoJSON without geometry simplification."]},"features":[{"type":"Feature","id":"079069","properties":{"code":"079069","name":"Maida","alternativeName":null,"regionCode":"18","regionName":"Calabria","territorialUnitCode":"079","territorialUnitName":"Catanzaro"},"geometry":{"type":"Polygon","coordinates":[[[16.41367442829636,38.90259333269221],[16.413564372892804,38.90260563429156],[16.41350498882145,38.902612175213996],[16.413427393382346,38.90261972961181],[16.41310275628339,38.90265136243182],[16.413038982440924,38.90266942978035],[16.412861771702143,38.90272019930609],[16.412617028253926,38.90279031737222],[16.412546006719896,38.90281137586584],[16.41223039608401,38.902904961563415],[16.41219456698029,38.90292040781557],[16.411990925199714,38.903008133654374],[16.41188753379816,38.903052800165554],[16.411636844545253,38.903248193499444],[16.411592134625245,38.90328304343461],[16.41145190276313,38.9033577176292],[16.41111228951377,38.90353856406942],[16.41094362898438,38.90374222421421],[16.410919525319812,38.903771330920044],[16.410809469829697,38.90390422689637],[16.41055096683051,38.90422118605423],[16.41043750521046,38.9043095861092],[16.41040296396778,38.90433630488489],[16.41020838441485,38.90448682572722],[16.409873829224924,38.90471699853276],[16.40978853791391,38.9047790562927],[16.409585485931476,38.9050528863747],[16.409503209633375,38.90518355321634],[16.409396640517354,38.90535279747303],[16.409362575464243,38.90539260488439],[16.409130020817432,38.905665200983286],[16.409014988688632,38.90583472504819],[16.408924552360038,38.905970908488236],[16.408879695193203,38.90603798312642],[16.408822934531397,38.90611853815707],[16.40857510036738,38.90647100412991],[16.40850994969578,38.906596083332836],[16.40835687575482,38.90689346124785],[16.408315268862445,38.90704929568941],[16.408286277373097,38.90718053873817],[16.408265606478583,38.9072688676556],[16.408249872323083,38.90732533997067],[16.40817246897157,38.90760316419313],[16.408040232877593,38.90794892779457],[16.40797695734817,38.90802092769847],[16.407680097381782,38.908358716981645],[16.407642537524985,38.90837873423673],[16.407487975746736,38.908461116445466],[16.407392440294707,38.90851201312313],[16.407215207539938,38.90872691774186],[16.407176380990236,38.908940836066186],[16.40715233786219,38.90908059431934],[16.407214958195965,38.909377391836465],[16.40727685034005,38.909670773327896],[16.407023677771242,38.90959696802139],[16.406150867125056,38.90934233837909],[16.40457819080222,38.90901536884935],[16.403720447395916,38.90883617327266],[16.40316052306663,38.90867067317328],[16.403107122611992,38.90865488860718],[16.402595232283495,38.90850762821058],[16.402145155762042,38.90841488041781],[16.401971104931352,38.908383664892185],[16.401737903510476,38.908346378816745],[16.401323427118584,38.908318823317146],[16.401000523377824,38.90829575150238],[16.40086020486676,38.9082857143487],[16.400757888607217,38.9082783677692],[16.40009761028038,38.908212514256924],[16.39946125983661,38.90811362885901],[16.398893139200656,38.90796542207817],[16.3983698889967,38.90779187547841],[16.397999097013084,38.90761760310679],[16.397626065676445,38.907380501110566],[16.397250290037505,38.9071030792597],[16.396898718822975,38.90686460834039],[16.396538988013408,38.90664463587599],[16.396298418032124,38.90642575836683],[16.396197198130636,38.90633366985139],[16.39595062846115,38.90601203037832],[16.39591388055129,38.90591194485296],[16.395885087050388,38.90583351901876],[16.395828202615597,38.90567856565103],[16.395705415350797,38.90533053359603],[16.395617878845442,38.90504569011187],[16.395592298055764,38.90496245102755],[16.395582181284585,38.90493406528435],[16.39540314890017,38.904558101628396],[16.39526837247172,38.90429525142038],[16.395188045213427,38.904197305381786],[16.395117440249773,38.904112388377825],[16.39508385550708,38.90407164568617],[16.39499139740261,38.90395948073689],[16.394962937415436,38.903924954203575],[16.394856728351062,38.903848584634524],[16.394531983879506,38.90361507465723],[16.394145597317017,38.90340128768093],[16.39367214411768,38.90334599219066],[16.393165255431892,38.90331530143603],[16.392845702729108,38.90332944531271],[16.392701151121393,38.90333584349213],[16.392390226237055,38.903329347436745],[16.392275685197433,38.903326953477574],[16.39194172966704,38.903312234987425],[16.391630260350066,38.90325109621326],[16.391259321860407,38.903157779107026],[16.39081095362138,38.903031405905054],[16.390691895783117,38.902997907154955],[16.39060647158684,38.90297386831965],[16.39044777450104,38.90293646590321],[16.390202757503484,38.902878719915066],[16.390097227732586,38.90283507494227],[16.390065484583246,38.90282397953241],[16.390020098685884,38.902805878459546],[16.38977484540661,38.902708065043015],[16.389502412034307,38.9026312498506],[16.389423446649985,38.90260898411428],[16.388977633288278,38.902749794212575],[16.38894133570988,38.90276399025989],[16.388840590091007,38.902803362039556],[16.38869598720971,38.90286061597556],[16.38856372472639,38.90291270350955],[16.388520003084025,38.90292675025576],[16.388374405330886,38.90285166197268],[16.388307420178247,38.90281672811044],[16.388277444177316,38.90280099037524],[16.388115542857406,38.902716445623994],[16.388181162802024,38.90249444921816],[16.388207318638358,38.902405960390944],[16.38799074354402,38.902249810332926],[16.387882915674485,38.90217206077366],[16.387774806311572,38.90218302462619],[16.38772950823205,38.90218761965505],[16.38752549140121,38.90220831002919],[16.38719286050384,38.90217822016806],[16.38715240079068,38.902175100915684],[16.386968117751348,38.90216131337931],[16.386692266709264,38.9021406274121],[16.386631078514807,38.90213526166946],[16.386575898149427,38.902129095384886],[16.386423856535426,38.90210831984519],[16.386210303632676,38.90207740753273],[16.3860815498529,38.90206604936598],[16.385945262597144,38.902056958636436],[16.385813236086506,38.90204953620241],[16.385470342154697,38.902028454808736],[16.385409997937465,38.90202557513174],[16.384825078945475,38.90199753617391],[16.38448528885235,38.90199219043192],[16.384258198512065,38.90198860191491],[16.383935735830587,38.902009110230786],[16.383682025356926,38.90201478612645],[16.38310774713427,38.902027633039204],[16.38253346720178,38.902040478085055],[16.382299018726457,38.90204572051975],[16.38196074781909,38.902068601151825],[16.38179814670985,38.90207964320838],[16.381469668053057,38.90210190614127],[16.38138820399935,38.90210742780036],[16.380978274555428,38.90213521099064],[16.380158406967844,38.90219077175155],[16.379420985323183,38.902323107873244],[16.378797559560766,38.90222330238281],[16.37873492560828,38.90221249365501],[16.378264158902113,38.90213125570604],[16.377767138768586,38.90197392684931],[16.377130062204994,38.90181198988406],[16.37671748683825,38.90171315775791],[16.376654844016983,38.90169826252999],[16.37620455931395,38.90171338408435],[16.37563943681161,38.901731284607],[16.374555534783873,38.90171466768351],[16.374059469012124,38.90174617324806],[16.373536938444712,38.90168939719802],[16.37320205845003,38.90166569280978],[16.372756126099603,38.90165353333249],[16.37248228280553,38.90162631727169],[16.372339056428874,38.901612830882435],[16.371887906914072,38.901591990831285],[16.371335234732726,38.90159109874909],[16.370907306592958,38.90161377061161],[16.370494117594955,38.90165348617028],[16.370113896158877,38.90165063085902],[16.36963774780616,38.90161061348644],[16.369534659331187,38.90160194989952],[16.369353435192476,38.90158483971991],[16.36924605550873,38.901574774995666],[16.369107463431924,38.90156168759272],[16.36881425324578,38.901543867253466],[16.368644162281765,38.901533528546224],[16.3684082702392,38.90152821270894],[16.368103249652187,38.90152165796956],[16.367771162030284,38.901498052773825],[16.36769162584979,38.901489088577414],[16.36750815018802,38.90146840842697],[16.367388191378627,38.901454888667566],[16.36695903498057,38.90141015657836],[16.366924753660165,38.90139353026706],[16.366680186497764,38.901274915958716],[16.36653448673273,38.901171197767404],[16.366324215976984,38.90102349387257],[16.36598335802512,38.900842346522246],[16.365903214898797,38.90081102075917],[16.365794120196483,38.90076837687225],[16.365704952209082,38.90073352225443],[16.365537862527095,38.90066820905569],[16.36511204763353,38.900567052620474],[16.365074574791986,38.90055815050993],[16.364570006352597,38.90056316563069],[16.364535706972568,38.90056003262002],[16.36446247413332,38.900553341712296],[16.36410509005075,38.90052069159142],[16.363952956988463,38.90045242136542],[16.363917640756334,38.90043761304584],[16.36379435261887,38.9003829708601],[16.36350622328321,38.90022644180656],[16.363467905340176,38.90020566332588],[16.362922527223592,38.90015028705929],[16.362855778406583,38.90016582116327],[16.36277214313184,38.90018385813848],[16.362419894911834,38.90027198488167],[16.36220831604446,38.900321269453066],[16.36173002844163,38.90043267765716],[16.36164622570079,38.900451458511064],[16.361549767029068,38.90047307385046],[16.361142188710605,38.900564405969476],[16.361082704584547,38.90056789901675],[16.360511991982477,38.90060153577333],[16.36029047052328,38.90061442097663],[16.360177447997987,38.90062106166249],[16.35990836080898,38.900626892987184],[16.359767136491786,38.90062975238124],[16.359323728608533,38.90063907025206],[16.35913093161656,38.90074304221591],[16.358842381974753,38.90089858892768],[16.358447620746453,38.90084514257853],[16.358301174922417,38.90082530608955],[16.358231334030624,38.90082567301116],[16.357827023433718,38.90082719903312],[16.357772575929875,38.90082640312774],[16.357720332768928,38.900825560173814],[16.35765625162072,38.90082404236574],[16.357390674080158,38.90081553714698],[16.357079587233198,38.900820835827346],[16.356905136334436,38.900823806158705],[16.356503235529935,38.90081368705734],[16.35639732947545,38.9008110778726],[16.35631879363369,38.90081605344131],[16.35615045815953,38.900826348274315],[16.356042771546658,38.900833541051135],[16.355930747998247,38.9008434283721],[16.355681997323494,38.9008653874371],[16.355359531357102,38.90088581464104],[16.355210206711686,38.9008952735816],[16.354799940989544,38.90088932081576],[16.354275411000135,38.900887017907046],[16.354208121659486,38.9008840722024],[16.353861853802805,38.90086889996457],[16.35377088386427,38.900864992466836],[16.353717619609192,38.90086577134429],[16.353630739550507,38.90086704274731],[16.353124294598857,38.90087445538798],[16.353055072730367,38.900866551389214],[16.35261751256053,38.90081658577311],[16.352584528522854,38.90081303482797],[16.35247265948325,38.90080099403996],[16.35193499783318,38.90074331616811],[16.351892854837256,38.900734560549054],[16.351463972405103,38.90062422175542],[16.351295627992165,38.90058092940797],[16.35071418186257,38.9004329998374],[16.350569490840645,38.9003835149441],[16.350122767616732,38.90023237935431],[16.349590464936277,38.90003218748091],[16.34951226223835,38.89999760556792],[16.348999004831324,38.89976825142401],[16.34890669280877,38.899717803529995],[16.34869576104874,38.89960253089491],[16.348597745719495,38.899548955959276],[16.348416282447225,38.89944979800677],[16.348297488714017,38.89939361911705],[16.347938122815346,38.89922367556575],[16.347899329649525,38.8992031403805],[16.3476906993397,38.899092703909176],[16.34743720126458,38.898958515889554],[16.347085505245825,38.89880371195741],[16.346981853647808,38.898757936325794],[16.346484083767276,38.89855791756781],[16.346129720780063,38.898415522779885],[16.346022749493553,38.89837258397387],[16.345976591538662,38.89835405592799],[16.34531676659133,38.89842257987914],[16.34426775735182,38.89853390466833],[16.3435684875087,38.89863211271091],[16.342935553616314,38.89870362554268],[16.34255004660296,38.89877711184133],[16.342476859831027,38.89879102345922],[16.342429345720376,38.8988063532368],[16.34213289250585,38.89890261362857],[16.34184525164689,38.8990152572948],[16.34148952113265,38.89910971167693],[16.341168853319928,38.899111985958],[16.340834403474503,38.899106158041626],[16.34054061849077,38.899097086502245],[16.340451825355498,38.899094343223865],[16.33998163538052,38.899223036170916],[16.33942171708162,38.89940235420753],[16.339122150231653,38.89946960109951],[16.33908699476327,38.89947749320036],[16.338714268089106,38.89951937037649],[16.338653764239332,38.89952930336178],[16.338363413099177,38.89957718768402],[16.33769608121915,38.89966435150179],[16.33744293112353,38.89972803663434],[16.33739689059237,38.89973957931687],[16.337318328928415,38.89975941023992],[16.336984704517967,38.8998932625796],[16.336836126886404,38.89995304674945],[16.33671542994854,38.89999168371832],[16.336456962082497,38.90006649161404],[16.335971298356128,38.900115255184296],[16.335757610645285,38.89985332125886],[16.33566996150439,38.899544865178854],[16.335585359258324,38.89935439501359],[16.335530217502086,38.899229314099436],[16.335513742292502,38.8991921129305],[16.335489902256846,38.89913828193328],[16.33534145179601,38.898870933227855],[16.335313126860015,38.89881638964393],[16.335126961589026,38.89864307507974],[16.335031437061186,38.89855416459562],[16.33485610116988,38.898390951678344],[16.33437760546075,38.898133307121476],[16.333982370970574,38.89791539173958],[16.33338088992389,38.89767899613328],[16.332855455298958,38.897496271769654],[16.332672317791076,38.897435960157736],[16.33261058071293,38.89741565757662],[16.33255760225667,38.89739826355571],[16.33226499810191,38.89726830037863],[16.331605943604952,38.897156979126706],[16.330992004906246,38.89709229191156],[16.33068083881622,38.89710294526237],[16.330242813298288,38.897153074769626],[16.32962587768923,38.897301825162664],[16.32947659510729,38.89733788672125],[16.32936479907901,38.89736480714517],[16.329257203846453,38.89739071565431],[16.328775847242035,38.89699379728997],[16.327951017865626,38.89662598004033],[16.327910062400182,38.89661158903725],[16.327259564029784,38.89638259404706],[16.326871843218477,38.89628175249612],[16.326445597431658,38.896223179082206],[16.32594940523252,38.89614202602992],[16.325532856444894,38.89603786538005],[16.325205734382624,38.89597754746435],[16.324649313027553,38.89581473917105],[16.324326654343388,38.89570013758699],[16.32405645939633,38.89562373924814],[16.323870305303952,38.8955712428496],[16.323817070262294,38.89555218939126],[16.323724201294894,38.89551968915919],[16.32367237193542,38.89550129364898],[16.323642923259932,38.89549024067894],[16.32349224684187,38.89543781456057],[16.323175332370127,38.89532286534959],[16.32269150051784,38.895249927908644],[16.321742633018815,38.8951883105823],[16.321325355768625,38.89515693476421],[16.320994291209484,38.8951320213605],[16.320253924442962,38.89512471353437],[16.319537032360824,38.89502635032631],[16.318704851098587,38.89488050217285],[16.317793194123123,38.894663571043374],[16.317255139344955,38.89442760549288],[16.31694334968395,38.89434827829137],[16.316489831084287,38.89419245048824],[16.31602289716148,38.893920492884455],[16.31559498800461,38.893664077800075],[16.315149072148213,38.893386331222565],[16.31475667720323,38.89319514081],[16.31467137636464,38.89304525780297],[16.31464823030957,38.893004582630844],[16.314598556919762,38.892917311727686],[16.31443343799178,38.8925858595369],[16.31435556282713,38.892305527962634],[16.314300799256035,38.891897039151516],[16.314156583728085,38.89150579276106],[16.313877513787606,38.89133894767197],[16.313355995799846,38.89101195773733],[16.312869803664256,38.89076519429585],[16.31281980834778,38.89073949482045],[16.312723552516214,38.890690401113574],[16.31240109702325,38.89050079290097],[16.311968425653536,38.890253669082746],[16.311500941537506,38.88987827688272],[16.31131513351952,38.8896671510514],[16.3112135587172,38.889551730822596],[16.31109492507468,38.88940327309808],[16.311062131480732,38.88936223559005],[16.310931684479954,38.889198985150855],[16.31060710349275,38.889008605735256],[16.310499292508762,38.888945370516005],[16.310467659801944,38.888926816517504],[16.310375034303302,38.88888393517941],[16.309988705728443,38.88870507667011],[16.30976067521463,38.88857202622892],[16.309467152467732,38.888405060164835],[16.309160378740533,38.888266700902115],[16.3089418652745,38.88816812010551],[16.308561719581732,38.88804214945622],[16.308280620257335,38.88794896424722],[16.308169725463106,38.88791639413626],[16.30796711254378,38.887856883888084],[16.307730601730974,38.887788727171035],[16.307503940416115,38.88773340475049],[16.307442480314336,38.887718835372546],[16.30737574137467,38.887703013001726],[16.30700599432025,38.88761535560063],[16.306785580399765,38.887560900799414],[16.30632270892346,38.887446550469164],[16.306263231959598,38.88743096956344],[16.306177504488936,38.88740677372621],[16.305642845074612,38.887260307385915],[16.3056028387835,38.88725296879517],[16.305180653706866,38.887175495911606],[16.30513249044212,38.88716648419149],[16.305015237521246,38.887135645898574],[16.304956353129324,38.88712015836643],[16.30479312996613,38.887077100612764],[16.304635595442072,38.88703579800481],[16.304402538893612,38.88697159834949],[16.304077321624096,38.88688201125143],[16.303579099962512,38.886724426264955],[16.3035436700543,38.886719798440936],[16.30339806056845,38.88670077867829],[16.30324136613355,38.886680311133276],[16.303186011887306,38.886672720560924],[16.302745308838606,38.88660585700686],[16.30246892275854,38.886492795091584],[16.30173374512605,38.88612969707629],[16.301656373798593,38.88598066138045],[16.301629462526503,38.88592883362765],[16.301507568197074,38.8856940545356],[16.301482624605132,38.88566162280597],[16.301451048947946,38.88562136308187],[16.30126007917394,38.88537227022385],[16.30089922959597,38.88492823310013],[16.300821891642446,38.88483306430864],[16.300786822298043,38.88480360883566],[16.30067223815666,38.8847098601231],[16.300355467466936,38.88445305902708],[16.300178316314174,38.884221865947474],[16.300116837423037,38.88392379897475],[16.300210101889444,38.883571586100665],[16.30041438584566,38.88320789843964],[16.300569288003768,38.88303704633177],[16.30062626812261,38.88297419273588],[16.30093640027339,38.88284223772692],[16.301459016330764,38.883097255252956],[16.301751462981773,38.88336674226875],[16.301974489014086,38.88360461140025],[16.302278175408244,38.883801425898874],[16.30268617602114,38.8840051673891],[16.30306998173609,38.8839995987269],[16.303151721421102,38.8839989261884],[16.30332266517807,38.88399663294998],[16.303835319304813,38.88384743819169],[16.30417467132994,38.88357724516478],[16.303760668443598,38.88341583714746],[16.303674832169378,38.88336937264938],[16.30343199366309,38.88323763129254],[16.30333273594709,38.88315737282934],[16.303293652953037,38.88312572449042],[16.30320027940305,38.88304983863115],[16.303062924051616,38.88282972827957],[16.302967180917154,38.88267630084438],[16.302888541590484,38.88255028130318],[16.302848830409687,38.88229911782979],[16.30279928108085,38.882000929576286],[16.302794539830224,38.88173135532219],[16.302791760342288,38.88145264812196],[16.302820473000416,38.88119893286864],[16.302756005909362,38.88093762834721],[16.302650804694025,38.88065964146143],[16.302548819571328,38.880400694015044],[16.302237339959657,38.880133613662295],[16.30218077764066,38.88015085927786],[16.302143188391675,38.88016244631819],[16.30199430592971,38.880207668001944],[16.301902572071405,38.88023561527967],[16.301690632630915,38.88048284941565],[16.30153342963706,38.88087056995653],[16.301367143997254,38.881267851159286],[16.301233904422286,38.881523821930585],[16.30101554848993,38.88157395596347],[16.30091194910368,38.8815978265105],[16.30057355761014,38.88138520811164],[16.30006630077908,38.88123716507562],[16.299692896456012,38.88108971748481],[16.29933460786035,38.880851353839894],[16.29907336589721,38.88064736810331],[16.298853467869698,38.88044314410182],[16.298791857835464,38.880386174233244],[16.298758226120096,38.88026189135624],[16.29868053672512,38.879974921398286],[16.298611370343362,38.87982134013375],[16.298576124393442,38.879743078433854],[16.298486162706595,38.87961317633475],[16.2983970231405,38.87948446036074],[16.298369842096385,38.87938671627284],[16.298361150369583,38.87935546206252],[16.298308348394634,38.87916566122876],[16.298384424074506,38.87892570141419],[16.29840740507859,38.878847444825574],[16.298483244661856,38.878588431634654],[16.298495384398304,38.87847922684075],[16.29851019421421,38.87834576175093],[16.2983421265455,38.87821291312548],[16.298138862607143,38.87805218562539],[16.297833738057392,38.87775660635519],[16.297783807163608,38.87762430526492],[16.29767903852366,38.8773471891413],[16.297616756460634,38.877184999830796],[16.29752054180915,38.87693516118509],[16.29738686337462,38.87674964247161],[16.29723527255802,38.87653926637844],[16.297160531978612,38.876314060807715],[16.297137295374842,38.87624404379316],[16.29706342801917,38.876001288521614],[16.29700562451163,38.87586750518678],[16.2969311987448,38.87569475135076],[16.296419596891504,38.87544801075332],[16.296015088733714,38.87534747560378],[16.295586657260657,38.875279928139705],[16.295092518804555,38.87520302083442],[16.29524684099506,38.874325212176544],[16.295401930967202,38.874000605511455],[16.29554495031251,38.873586793794956],[16.295608161646896,38.873249977432664],[16.295615401741735,38.87284468614976],[16.29599855218341,38.872613776504195],[16.29609440257807,38.87244357091443],[16.296166573984706,38.872315249795555],[16.296196575536182,38.87202084902934],[16.29618041987434,38.871900804837615],[16.29616934428389,38.8718185041304],[16.29616202687367,38.871762061502906],[16.29612342750488,38.871477285822024],[16.296110551550054,38.87138161031206],[16.296102955653165,38.8713251662819],[16.296041210746967,38.871081685600046],[16.29594610581534,38.87078628223771],[16.295900352620354,38.87053196779286],[16.295893969643657,38.8704933669361],[16.29590062114714,38.87045994685306],[16.295908053383982,38.87042110164595],[16.29595795616054,38.87017380958622],[16.29608988170393,38.869877513702775],[16.296212620105614,38.86958656095609],[16.296377899584083,38.869207350330214],[16.296509840424065,38.868825720458965],[16.29651328580481,38.86835643288324],[16.296444807282978,38.86796167299661],[16.29636999955904,38.86764703064333],[16.296320941658962,38.867393725578545],[16.29619042056492,38.86714553848403],[16.29607991058834,38.86677996784817],[16.296243426094637,38.866359543954424],[16.29649356495328,38.86620439870396],[16.29687147704962,38.866018730631225],[16.297396287447853,38.865778860216544],[16.297762233592987,38.865602932728585],[16.298320101551347,38.865181052904035],[16.298660323691355,38.86488079352861],[16.29940106494581,38.86446090485805],[16.299743279813395,38.86426398508781],[16.300065111410593,38.86403684104364],[16.300404202736882,38.86378163750178],[16.30069068633742,38.86358821868021],[16.30097684655049,38.863475773587986],[16.301341818007764,38.86343033641309],[16.301424039179587,38.863436379992784],[16.301671993318724,38.86345467393946],[16.30173619170449,38.863459149585275],[16.301976494976774,38.86347590778426],[16.30233830667805,38.863660443316355],[16.30245866798065,38.863734889429246],[16.302581984921794,38.863811163815626],[16.30267273368076,38.8638819657759],[16.302854082731884,38.864023451953884],[16.303195246703492,38.86410204491086],[16.303375619494403,38.864143596497705],[16.30392316297521,38.86405520416376],[16.30449675360022,38.86387069353282],[16.30507365312532,38.86382991738987],[16.30565222148935,38.86384749260373],[16.306179351723838,38.86386831744081],[16.306267351157995,38.86386747370643],[16.306482832748973,38.863865408459986],[16.30676992586992,38.86386265424038],[16.30697754580903,38.86390493934637],[16.30736050091905,38.8639829329117],[16.30740390291881,38.863986871260835],[16.307888295816074,38.864030740300954],[16.308060974066624,38.864028728279244],[16.308325697488133,38.86402564851236],[16.308910724461448,38.863840414589355],[16.30940119228518,38.86358914804185],[16.309846050390536,38.86331375983894],[16.31023491710451,38.86310935887598],[16.310673349374152,38.8631627370779],[16.31111223968041,38.863220580077424],[16.311527749752223,38.86328888372339],[16.31193187993022,38.86334439822694],[16.312660544537678,38.863339002620535],[16.313118477017426,38.863260703746384],[16.313449769035238,38.86304193667667],[16.31376485262267,38.862693731396995],[16.313999332122496,38.86283070689022],[16.314161339228196,38.8629253346567],[16.314261800528076,38.86320238392703],[16.314348183790404,38.86355228161927],[16.314444174951287,38.863883593820276],[16.314600128515824,38.864224615869354],[16.31479081964605,38.86456794539164],[16.31492139668292,38.86481610660914],[16.315068973072268,38.865103672949004],[16.315243615198188,38.86541652619752],[16.315434362953187,38.865746364958554],[16.31559002894431,38.86604243145948],[16.315759076173485,38.86645458899109],[16.316012297593495,38.8669019220537],[16.31603633177995,38.86714861245033],[16.315879659159016,38.86737357776231],[16.315675154030693,38.8675663855926],[16.31537017389303,38.86778219358991],[16.31549096727411,38.8682076901758],[16.315617162775798,38.86834931188665],[16.3156753330566,38.868414531638045],[16.315760084465623,38.86851085150459],[16.315832526763618,38.86859100346659],[16.316070563168672,38.86883632587633],[16.31612866121874,38.868896202678954],[16.316177726697543,38.86893669159527],[16.31631944349569,38.86904814173837],[16.31638670364651,38.86910376009397],[16.316428467653193,38.86914133171032],[16.316512888575435,38.86921352552165],[16.31653770974659,38.86924796501232],[16.316727086454822,38.86951070609042],[16.316815550858653,38.869680060310266],[16.316904516013732,38.86985037156993],[16.31706887921565,38.870082206670844],[16.317086637036155,38.87011207391212],[16.3172158877816,38.870289560005325],[16.317382174149746,38.87054395784236],[16.317501090141395,38.87072588379643],[16.317733991677905,38.87098162753061],[16.317838915283044,38.871100413495974],[16.318008915918632,38.87122930564462],[16.318107308795803,38.8713039049896],[16.31814145012608,38.87132015791657],[16.31828161793074,38.871386881174516],[16.31835783905724,38.871423128339444],[16.318607860119485,38.8715420701386],[16.318647776704953,38.87156186507494],[16.31896357046235,38.87171807119372],[16.31909885658076,38.87178499037036],[16.319212195381176,38.871841052441766],[16.31925978065897,38.87185843244841],[16.319565075500467,38.871972372101936],[16.31976019406556,38.87204519232114],[16.320072522888836,38.87207497567014],[16.320151555869813,38.87207905361196],[16.320661128295882,38.87210534407364],[16.320732985832397,38.87212164697202],[16.320970971443938,38.87216678568673],[16.32117542297568,38.872211864261836],[16.32131939215903,38.872243704865596],[16.321399463773098,38.87226140840754],[16.321871565440535,38.8725100116537],[16.321913361282675,38.87252749460702],[16.32200841467006,38.87263175389926],[16.322181093097775,38.87281035090289],[16.322317656406806,38.87293168615972],[16.322398999401894,38.87300395601229],[16.322496605114992,38.87309067634511],[16.322560779817398,38.87312360667349],[16.32298075825378,38.873339689809484],[16.323012751566978,38.873356150419504],[16.32316292981767,38.873380871699105],[16.323486889869965,38.873434197755124],[16.323754202981362,38.87353473004884],[16.323947840083623,38.8736075526153],[16.324075524260774,38.87372043874195],[16.324388892649146,38.87399776318508],[16.324467142479588,38.87407186380526],[16.324498381535506,38.874101705428465],[16.324539488290288,38.87414097508094],[16.32464157113586,38.87423849599016],[16.324746119008456,38.87436194976029],[16.324818531666402,38.874447737023246],[16.3249344789261,38.87457307332155],[16.325022695387137,38.874670023625825],[16.325135513618317,38.87479263244302],[16.325169767316904,38.87483109262089],[16.32524221206443,38.874862569577964],[16.325302634072983,38.87488942966713],[16.325338714028838,38.87490457390818],[16.325508719826672,38.87497943739149],[16.325545445807887,38.874995610442504],[16.32563290776374,38.87501223392708],[16.32586530532435,38.875056405605555],[16.325902753773605,38.875078996595484],[16.326025481622175,38.87515332037917],[16.326169003612602,38.87523958975522],[16.326232808317197,38.87524388358895],[16.326305508170282,38.8752486490185],[16.326657158361822,38.875271827670964],[16.327251086522853,38.87528384516155],[16.32758055041212,38.875326030326605],[16.327913203452404,38.87527355626716],[16.328224088149028,38.87523604052852],[16.32830391638327,38.875226407516706],[16.32840382322238,38.87521453505163],[16.328707504291497,38.875178445922735],[16.32912997637455,38.87517423070672],[16.329537263914848,38.87517558355172],[16.329937400559345,38.87516381491002],[16.3305831005453,38.87521751861353],[16.331261822347994,38.875075724206525],[16.331607542557894,38.87495494665295],[16.331893771569035,38.87481542838162],[16.332248961645586,38.87427124927946],[16.332417516781707,38.87385578552139],[16.332711754450255,38.87359882745272],[16.33285319300856,38.87331101884346],[16.333012762038223,38.8730175701036],[16.333418327003894,38.872501693396735],[16.333804895008004,38.87226137852676],[16.33450784292165,38.87242390270733],[16.334825492733547,38.87272769090604],[16.335007385308753,38.87304005288981],[16.335173621654416,38.8734793468164],[16.335552175447177,38.87380178156161],[16.33697765438654,38.87382869108095],[16.3373803861734,38.87374477054291],[16.3379064270549,38.873378677823496],[16.33811779392399,38.873113435855444],[16.338400136623516,38.87283921372557],[16.33872281029606,38.8726209207365],[16.339084383646195,38.87244515755435],[16.339580389348743,38.87223388765657],[16.339790443902793,38.87198930679947],[16.339636928657807,38.87161856269008],[16.339566527841303,38.87150160059374],[16.339507212879944,38.8713841627928],[16.33963669677922,38.87132464933144],[16.339811971185654,38.87124750570675],[16.33991505181583,38.87092112540877],[16.339985587724566,38.87069779292314],[16.339969946936417,38.87045329207873],[16.339640291624807,38.870038903954764],[16.33960639657865,38.86999657088374],[16.339495850487967,38.8699634158621],[16.339210033872646,38.869877693560234],[16.33891968416632,38.86967112568231],[16.338887061460056,38.86963546074066],[16.338660091556868,38.86938617598915],[16.33853925248911,38.869208893232],[16.33848374139375,38.86912745103166],[16.33837273346834,38.868780708319335],[16.338285990590702,38.868400480581116],[16.338291434422764,38.86832496561924],[16.33831093969532,38.8680543649861],[16.33836588935056,38.86787046782051],[16.33840820041625,38.867728866563866],[16.338519591238224,38.867442951662625],[16.338548187034856,38.86740915621679],[16.338644620312998,38.86729519016341],[16.338813111835094,38.86709606199663],[16.339050410825244,38.86693167682844],[16.3391038724193,38.86689695596081],[16.339142500014713,38.866868909115574],[16.33917495574127,38.866845519023656],[16.339471943097518,38.866636308450715],[16.339644652341,38.8664404705744],[16.339708973312213,38.86636494853683],[16.339912567118194,38.86600124388162],[16.33992343587842,38.86597306005903],[16.340044134927346,38.86566007176243],[16.34013165804271,38.865510108241686],[16.340177978451862,38.86543074071047],[16.340256734863104,38.86529579660181],[16.340504095434227,38.86508675310497],[16.340592009122844,38.865031221894846],[16.34070463772784,38.86496007877406],[16.340844329233278,38.864871840281396],[16.34119015966586,38.86454362350257],[16.341232717767383,38.864503232575714],[16.34125559367186,38.8644815215674],[16.34159603090941,38.864199126186435],[16.34171795376622,38.86406047038648],[16.341757587847095,38.86401539821518],[16.34184312863495,38.86391811669563],[16.34201238862543,38.86359206636048],[16.342031436609442,38.86355537518279],[16.34210397986814,38.863377213221426],[16.342175956634467,38.863200007322256],[16.342296128755944,38.86284606781664],[16.342335714148234,38.86253865678847],[16.342248169467183,38.86220140389181],[16.342092597771966,38.86185139115878],[16.341912518983897,38.86157041108121],[16.34167669029453,38.86113036849541],[16.341815933389707,38.860726382619724],[16.341949660900994,38.86051105330597],[16.342503466822254,38.8599593277157],[16.34263932917169,38.8598240784791],[16.342800010996715,38.85955306620585],[16.342813105030405,38.85946379508864],[16.34284058078484,38.85928059343028],[16.34294682580166,38.859101873196735],[16.342995705999904,38.859019872721866],[16.343301181955507,38.858824356851464],[16.343643269525902,38.85861381519246],[16.34416027534843,38.858356231162496],[16.3445263862736,38.858225138460604],[16.34490465980785,38.85816973355199],[16.345227532882575,38.85816280131934],[16.345650913869434,38.85814052151978],[16.346006778176424,38.85809102454021],[16.34646770333967,38.857944940641964],[16.346725561357914,38.85771272534212],[16.34711801383283,38.857530473898],[16.34850494432586,38.85711888745016],[16.348997271181915,38.857137225667934],[16.34948112813104,38.857115600900066],[16.3499635965896,38.85708057622742],[16.35046341965254,38.85712989959014],[16.350887215533405,38.857125573389766],[16.351311695912,38.85705823294875],[16.35176171868677,38.85689030256286],[16.352098801321436,38.85659011014508],[16.352278104771163,38.85618293423706],[16.352349527305822,38.855872567146996],[16.35246245816181,38.85553256341622],[16.352497870644786,38.855152512310454],[16.352720558472146,38.854733600212995],[16.3528842314456,38.85430044171371],[16.353015999754987,38.85386478860112],[16.35330869583637,38.853441461019166],[16.35367825028666,38.85294128667408],[16.354432917949136,38.85199393047712],[16.354988192746216,38.85148199454206],[16.355305205066102,38.851196531790144],[16.355654636117084,38.85089105243997],[16.35591579518939,38.85064962077578],[16.35619997811478,38.85035275090127],[16.35650286095885,38.85001421749432],[16.356893441412982,38.849953500145375],[16.35728728370185,38.84992405855135],[16.357642164513504,38.849865581838145],[16.35809189317482,38.84977863601647],[16.358412215270985,38.84965038474747],[16.35856588326842,38.8492943471334],[16.358558560133233,38.84895281798555],[16.3586211212204,38.84855767161418],[16.358680251592723,38.84816943278848],[16.358653679111455,38.847844931521955],[16.35860305030029,38.84752587817179],[16.358695920347163,38.8471765473616],[16.35896602107038,38.84687610354055],[16.359039094090285,38.84671409569445],[16.3590890571499,38.846603230487545],[16.359073107989257,38.846279862771404],[16.35898461399714,38.8460021190793],[16.358457567083555,38.84552274952641],[16.357969238704626,38.845319799443345],[16.357813833465645,38.84506876905495],[16.35773180266061,38.84479059594669],[16.3576997977282,38.84441923821517],[16.357716156763672,38.844062907791006],[16.35782261086315,38.84370984415938],[16.358016272844345,38.843427712260606],[16.35823883013873,38.843188720857825],[16.358538446707175,38.84297183792984],[16.35861008295576,38.84291232021878],[16.358772766430956,38.84277707337605],[16.35891926218399,38.84249792804464],[16.358913979076988,38.84215057831688],[16.358907655136967,38.841850937358785],[16.358726642398505,38.841471111481184],[16.358592304770003,38.841124328149874],[16.35858621821906,38.8407603195407],[16.358600622060866,38.840542202773754],[16.358613333625357,38.84034932846279],[16.35864091161782,38.83987979562435],[16.358825963462788,38.839445277441115],[16.358913937533913,38.839156335042865],[16.359009208997886,38.838812969761214],[16.359109065870378,38.83852776975031],[16.359232210396044,38.83825909597693],[16.359431383186365,38.83803057578913],[16.35970262123733,38.837748022608984],[16.36013572947679,38.8372932723832],[16.360186666017007,38.837042970456686],[16.36017982898396,38.836795703696914],[16.36009453108029,38.83641919030347],[16.360168053189195,38.83642968925919],[16.360615029965313,38.83649371234852],[16.360768800646095,38.83651500929356],[16.36085129013545,38.83652643381713],[16.361261192987513,38.836583204910454],[16.361349851003634,38.83657261135117],[16.361542755522226,38.83654956091338],[16.361660872870477,38.83653544687827],[16.36191735735688,38.836499224301015],[16.362007466800645,38.83648651150273],[16.36227307983952,38.83648247328444],[16.362398673119795,38.83648234817378],[16.362434006588476,38.83648197099837],[16.36280270685479,38.83655755376171],[16.36311746241966,38.83668152632528],[16.36330764889164,38.8369213542735],[16.363556660884413,38.83739583122909],[16.3637482062997,38.83782897846289],[16.3638638682097,38.83825792718798],[16.363914487122024,38.838576794426636],[16.363839552272825,38.8388352137337],[16.363713719268926,38.83938326796282],[16.36377107169682,38.83963118312672],[16.36399478146227,38.83980591398048],[16.364473863294272,38.84007239576384],[16.364892775595784,38.84041015691939],[16.365245165347403,38.84070266715039],[16.365445288609354,38.84096885114193],[16.365656368913783,38.84126569575937],[16.365682065177804,38.84130109765678],[16.36571316335376,38.84132883534309],[16.366092171505578,38.84167453200753],[16.366198308670867,38.84172671340701],[16.36627304553929,38.841763456515686],[16.366491409729047,38.841870811496825],[16.36658228048499,38.84191548658933],[16.36662699530324,38.84193746948891],[16.36710236790615,38.84201528280272],[16.367380905772187,38.84202688546376],[16.367522773627567,38.84203279652785],[16.36757311816823,38.84203489031873],[16.368048290473865,38.84201376042749],[16.368528781087836,38.841960787061616],[16.369153052253814,38.841907699978044],[16.36982131659535,38.841946255309466],[16.37027000688054,38.842030242461995],[16.370665106566644,38.84220756983523],[16.37093564473372,38.84250076167005],[16.371112096646865,38.84273243674408],[16.37129290851355,38.84293686369666],[16.37157108942442,38.843054143095664],[16.371916892483025,38.84315813817349],[16.372312748394105,38.84341188644063],[16.372398409419002,38.843516729979314],[16.372773879130637,38.84397626504025],[16.37322557623392,38.84418599006965],[16.37340396905343,38.84440854859357],[16.37351557401865,38.844680335972214],[16.373632997994235,38.84491125937247],[16.373759496535115,38.84507700794649],[16.37383269846941,38.84517295274084],[16.37408934603735,38.845332086116514],[16.37445114006009,38.84558703066373],[16.374436429240223,38.8457034216945],[16.374423170873197,38.84580865032235],[16.37441153376758,38.845900841006916],[16.374256214004603,38.84612210744131],[16.37390590770957,38.8464322087044],[16.373635678344417,38.84694573349528],[16.373573199840262,38.8470654985664],[16.373472313698723,38.84725583835129],[16.373394092576177,38.84741031702283],[16.373366421872827,38.84746496234445],[16.373260537717922,38.84767407678269],[16.373139900630544,38.84800100793483],[16.373145621601164,38.84824382765678],[16.373099076871764,38.848570319757904],[16.37308554762819,38.848663725298856],[16.373111209759685,38.84903781858187],[16.372783758460645,38.84932813481925],[16.372517125033117,38.849527098912716],[16.372680280100443,38.84980700023839],[16.372872960156236,38.85020857349267],[16.37316330893189,38.85059298446591],[16.373071324138525,38.85113602526777],[16.37262060253347,38.851600932642384],[16.372110356397826,38.851894191367975],[16.37181293615326,38.85200752435681],[16.37158411985976,38.852015894770986],[16.37147628323461,38.85201987236302],[16.37116163361164,38.8520303507786],[16.37102916411199,38.85203476217729],[16.370774937888594,38.85229526277246],[16.37063142035924,38.85244232121208],[16.370486071502032,38.85266294995286],[16.37025865392583,38.85283492371604],[16.37016730430429,38.852981490739424],[16.37003926733508,38.85318692052777],[16.369996210339977,38.8532535001808],[16.370364408814712,38.85343076597858],[16.370663083979526,38.85355125645919],[16.371196824529296,38.85373331919835],[16.371547663958825,38.85394045927491],[16.372227071463058,38.853946804355566],[16.372839205977836,38.854011395711005],[16.373260379764965,38.85374628237464],[16.373463893910937,38.85349047180307],[16.373955369059978,38.85327936858278],[16.374416484324993,38.85337153862695],[16.374920049799673,38.85318659893956],[16.375030100840597,38.85344975002469],[16.374868686830823,38.85394552331255],[16.37482976778818,38.85442926306447],[16.3748148953862,38.85489975905341],[16.37490452981297,38.85530160715822],[16.374916806200652,38.85580005917092],[16.374933482063337,38.85629524706169],[16.37491699967956,38.856604569051854],[16.374962819287237,38.85699808932367],[16.37502875460721,38.85743919108576],[16.375073558883194,38.857953595399664],[16.37507880718236,38.858232116031516],[16.37493601432069,38.85863700531005],[16.374847523381735,38.858961971636525],[16.374799793329245,38.859246084467216],[16.37495271928976,38.85950402671819],[16.37524507620538,38.859687877669955],[16.375312138409083,38.859688730661865],[16.375827557934823,38.859696629054135],[16.375933666942935,38.859698207234544],[16.37643230842829,38.85983681371176],[16.376651612079023,38.8600228086366],[16.37667900354998,38.86004617706704],[16.376748262074052,38.860105265095626],[16.376860000983473,38.86017676071719],[16.377215075988104,38.8604039532944],[16.377597516326816,38.86055506719751],[16.37806220689992,38.86068309922237],[16.37817160965806,38.860687029839475],[16.37842041769431,38.8606961674881],[16.378830444374472,38.860503683717106],[16.379186198894192,38.86030117822207],[16.379221647515028,38.86031613313229],[16.37982403502247,38.86057098905618],[16.38017401349435,38.86075566169907],[16.38067487907369,38.8609667054404],[16.381132907181403,38.860807161536236],[16.381610870947963,38.86047993279409],[16.381972281250484,38.86030403232164],[16.383054435754865,38.859452631095785],[16.38336615508711,38.85924219215038],[16.38316938287185,38.85900902777034],[16.383015215002626,38.858784946446164],[16.38297922521274,38.858525405762784],[16.38324944758828,38.858243800369735],[16.38362618605428,38.858021949329],[16.384025303250066,38.857794180141454],[16.384216838375878,38.85721729737499],[16.384177409498573,38.85689841328173],[16.384136912679633,38.856589876501424],[16.384376874115482,38.85635498072435],[16.384874268271382,38.85642230630852],[16.385084220693244,38.85675776131883],[16.385006905425648,38.857263325102195],[16.38511360256619,38.857680013449446],[16.385156637511308,38.85795718036322],[16.385137792359608,38.858244802904146],[16.385133046266127,38.8583285833289],[16.38513017105086,38.85837204464255],[16.385362533698935,38.858595036053714],[16.38575433570496,38.85862859517472],[16.386156796922467,38.85858500235258],[16.386491742412936,38.85861764438475],[16.386751187481064,38.859034123231915],[16.38672328185496,38.859122934401974],[16.386604457886193,38.859501085895836],[16.386576159023384,38.8597853309674],[16.38666542951967,38.86023934627443],[16.386868219711076,38.86064024898006],[16.387071265640095,38.86094668071341],[16.387332732090066,38.861129934696606],[16.38738308140782,38.86116522404869],[16.38753996176683,38.86118824812393],[16.38773372088994,38.86121668499784],[16.38791765320733,38.86124370729238],[16.388318841842338,38.86114622198776],[16.38875024495137,38.86077246062918],[16.389054071977935,38.86056871566533],[16.38946912514627,38.86043886302933],[16.389860070261378,38.860436464045854],[16.39031008398204,38.860421334639824],[16.390802114320763,38.86036752979915],[16.39122867199751,38.86020994990218],[16.39158369022378,38.86009739579373],[16.392211659076253,38.85994047863659],[16.392525299179223,38.8599969893846],[16.393116464001373,38.86028769466174],[16.39366133859405,38.8604239196539],[16.39403006288112,38.86035996998078],[16.394115461129942,38.859895762349375],[16.394334834191014,38.85936455141097],[16.394556876507014,38.85890063439152],[16.394743705806878,38.85863685896628],[16.39508983537321,38.858452902005595],[16.39532827615896,38.858298275856576],[16.39562065135739,38.858095261666094],[16.396138333796042,38.857846396496456],[16.396541924653384,38.85792414008841],[16.396865638088727,38.85795300874114],[16.397195714430808,38.85790499529123],[16.397516444883042,38.85758771821298],[16.39780539611281,38.85721397097586],[16.398153523045895,38.8567870054539],[16.39862068639164,38.85635693439855],[16.39889309293825,38.8561281956633],[16.39912655080336,38.85585694931029],[16.39923835144409,38.85549450228789],[16.399311547652708,38.855148000884306],[16.399371838213973,38.85481582595634],[16.39960415002251,38.85422982403601],[16.40019238469784,38.85435429956704],[16.40055275816457,38.85437630759132],[16.400809057116525,38.85451740090398],[16.400911686580386,38.855212518058984],[16.40104689564774,38.856040487803796],[16.40089604830244,38.85660783688907],[16.400684293421886,38.856963150112556],[16.400365466244587,38.85729831364962],[16.400050990252257,38.85759272494377],[16.399630432457453,38.85784890397851],[16.399287796365606,38.85817657435493],[16.398923840901908,38.85845163958626],[16.398581549761367,38.85903118317754],[16.398460493568134,38.859484178218366],[16.398180414238006,38.859929303456155],[16.39794195781646,38.86048423196776],[16.397613705287483,38.860963910411016],[16.397323808268546,38.8613287089239],[16.397071867700994,38.86154715112362],[16.3970730784131,38.862041841513104],[16.397584111521454,38.86240509296117],[16.397788179310567,38.86269345746763],[16.397954261346058,38.86293475682073],[16.398403082538216,38.86343240094],[16.39871751759932,38.86377218953833],[16.398806877094998,38.86404986092119],[16.398661116959534,38.86447294556917],[16.398604454362914,38.86457434288074],[16.398520448727098,38.86472421013975],[16.398472887278537,38.86480858440214],[16.398446511000547,38.86485404218539],[16.398424259605214,38.86489021451932],[16.398408016456273,38.86491649206383],[16.39824130114202,38.86519231147724],[16.398114886650234,38.86545957327394],[16.398083365984597,38.86552621160539],[16.398099586462234,38.8656215563768],[16.398112135027198,38.86569530340888],[16.398161340396907,38.86598450911512],[16.39834382622324,38.86634171301429],[16.398387169874443,38.8663896686693],[16.39861507469436,38.86663932824658],[16.39898793487595,38.86684945403733],[16.399441774017376,38.867049923092026],[16.399895586506588,38.86726389718605],[16.400491791507317,38.86767118881609],[16.40094812997924,38.86803341279426],[16.40100361175744,38.86808101664578],[16.401047276808274,38.86811848515088],[16.401100822345352,38.86816443569683],[16.40115388257996,38.8682099799533],[16.40133360484782,38.86836422765438],[16.401799948361763,38.86872580944682],[16.402076193755853,38.86912649720879],[16.402265962479778,38.869442753817424],[16.402558776188318,38.86967145467514],[16.402743338395336,38.8697553574263],[16.40279938596051,38.869780856076595],[16.402966383617986,38.869856742074354],[16.40336470939732,38.87018667365952],[16.40350465992538,38.87042513467077],[16.403594516031877,38.87070726510507],[16.4036127195184,38.87107491370045],[16.403368744267627,38.871562741039575],[16.403320536807197,38.87202460085803],[16.403356475923978,38.87206091829136],[16.403542428333882,38.87224882256148],[16.40360287303931,38.872264151481495],[16.40390227939615,38.87233382003942],[16.404052203097425,38.87224733691361],[16.40416716566692,38.87218103708401],[16.40425608498822,38.872129797557605],[16.404334381763018,38.87208486743233],[16.40436837505684,38.872067147457145],[16.404445541489643,38.87180457431692],[16.404448831847198,38.87177236153019],[16.40447328747533,38.8715329279576],[16.404489496422194,38.871395433775106],[16.4044984569499,38.871319417576196],[16.404510680667652,38.87121571514712],[16.404618319128772,38.87099047237543],[16.404681643442732,38.87085795774891],[16.404710206063083,38.87079818557788],[16.404765139102906,38.870511318549305],[16.404785242969677,38.87040152106331],[16.40484950675595,38.87005166694148],[16.404889202214427,38.86994516576571],[16.40496742582243,38.869735293647146],[16.40500234435348,38.869641607309454],[16.405049951353988,38.869612989863015],[16.405287878466954,38.8694699659067],[16.40541245255564,38.86939508019627],[16.405600358225882,38.869374000658475],[16.40615733053217,38.86931158075748],[16.406677649012583,38.86944482965686],[16.406761702798438,38.8694761567813],[16.4072576135475,38.869660980893634],[16.407307282907954,38.86967945459061],[16.407360123293234,38.86969726362942],[16.40758546400465,38.869773209458806],[16.407865531327868,38.86986759894368],[16.407923416912404,38.86988710811307],[16.407955831021475,38.869892355725995],[16.408096963079394,38.86991520570226],[16.408501340334254,38.86998067423133],[16.408539461952632,38.869971733956525],[16.408949208601864,38.869875645513744],[16.409090800160154,38.869741785929484],[16.40916408546649,38.869672504560015],[16.40929615007258,38.86954765449754],[16.409606757996496,38.869354565763494],[16.410176268743733,38.86929993346759],[16.410789383215654,38.86947890423541],[16.41103966564738,38.86955313190381],[16.41138738487941,38.86969589992867],[16.411865077868708,38.869891973756836],[16.41193436636701,38.86994550413724],[16.41199357272044,38.869991246345855],[16.412472122154643,38.87036095777576],[16.41259105056427,38.87045283683701],[16.412619321259925,38.870473814674675],[16.413025753989185,38.870775397076265],[16.413082204530518,38.870817281850194],[16.41324938327673,38.87099760262363],[16.41341291481563,38.871173987379166],[16.413432117726824,38.87119923296796],[16.41371636480797,38.87157290619183],[16.41378287796599,38.871626617037236],[16.413900359993306,38.871721487153],[16.414258356323085,38.872010574818326],[16.41431197923799,38.872042614734845],[16.414522407841904,38.872168348353945],[16.414713998435726,38.87228282540499],[16.41503319720393,38.87244634209239],[16.415132112440695,38.87249701253906],[16.415283929542202,38.87257478389628],[16.415731885051837,38.872730577009435],[16.415830246587493,38.872764785109275],[16.416061887357962,38.872830429643166],[16.41632549343735,38.872905131092054],[16.41637426102723,38.872918950887815],[16.41675997098672,38.87316867123623],[16.416832228602757,38.873230986441364],[16.41694501023809,38.87332822691835],[16.41709977433425,38.87346170360272],[16.417272712891375,38.87365253932164],[16.41745424673209,38.87385285765543],[16.41755258003684,38.87408443973996],[16.417603135172246,38.87419417391345],[16.4176174812195,38.87453007056553],[16.417618388676,38.874624994628746],[16.417582777817696,38.874982063642406],[16.417567828131997,38.87513195990491],[16.417516916696666,38.87543604784122],[16.417475726490203,38.87568207151551],[16.41748095282038,38.87575143214673],[16.41749106518669,38.87588748095723],[16.417508830224918,38.87612650227383],[16.41749785471968,38.8762304973362],[16.41748664865646,38.8763376151134],[16.4174780759051,38.876419636027194],[16.417877877031064,38.87677640649432],[16.418273516099994,38.876845586969594],[16.418909587719387,38.87694439362856],[16.419257846120257,38.87699498480312],[16.4196617776939,38.87705363015982],[16.419710608608344,38.87705615758421],[16.419766527448335,38.87705896074885],[16.419987674643554,38.877070493897186],[16.420361801831127,38.87708985116403],[16.421160415255105,38.876992120596725],[16.421285013560883,38.87697687046388],[16.421604010632265,38.87679456621721],[16.42176733694114,38.87667015707928],[16.42184249346373,38.87661291106781],[16.42254307656534,38.87588447792204],[16.422777421957157,38.875635622105946],[16.42320309199509,38.875441979329175],[16.423754535870902,38.87546070543776],[16.42419550368376,38.87548199688988],[16.424772193482326,38.87549461612869],[16.42520798308183,38.87550724185807],[16.426186490043587,38.87535922394606],[16.426829307178583,38.875165185438284],[16.42729376686238,38.87486110826787],[16.427711618460417,38.87451054659397],[16.427936588630303,38.87415883517531],[16.427868422972615,38.873699917923766],[16.427607952883495,38.873190350749766],[16.427406024730764,38.87293788595779],[16.427097936855745,38.87267424989207],[16.42687570140553,38.87235112454399],[16.426531880839857,38.871842371226094],[16.42642134588421,38.8714519614713],[16.426330925474094,38.8711395361006],[16.42641621910525,38.87083329109851],[16.426691429393614,38.870604289654544],[16.427008882521513,38.87045886702618],[16.42733419842496,38.86992899797828],[16.427490859626886,38.86969409072946],[16.427715655150966,38.869573307856186],[16.427784968624337,38.8695358562579],[16.428314873683593,38.86934903337908],[16.42850350637047,38.86928355780225],[16.428600777798632,38.86924979473228],[16.42962475473701,38.8691797732639],[16.43000925318786,38.86919767212198],[16.430151371971814,38.8692040767489],[16.430614902515757,38.86911642126004],[16.43078000421235,38.869044151966854],[16.43082665714287,38.86902373158228],[16.430999989585974,38.86894786154033],[16.431286598925176,38.86871811951981],[16.431604299379234,38.868427933210185],[16.432055919784535,38.86807070003474],[16.432203966843552,38.86794350769904],[16.432587713490566,38.86761386366354],[16.433072245297385,38.86748839741184],[16.433542401663747,38.86740434188206],[16.434032858579123,38.867143565592464],[16.434353550942106,38.86703307717069],[16.4349587937563,38.86675593975244],[16.435101016780454,38.8667271375721],[16.43528143621473,38.86669048247496],[16.43565722003513,38.866641984047924],[16.435739016593143,38.86663242075709],[16.436023743494847,38.86659629116112],[16.43626888531709,38.86656518471882],[16.436562225628983,38.866527960721086],[16.43685555875222,38.86649073734172],[16.437233812849115,38.86641093130571],[16.43759011287587,38.866335755897936],[16.43829430431612,38.866371601677855],[16.438822526576296,38.866373658351364],[16.438954417304288,38.86631743739188],[16.439056851113314,38.86627334103952],[16.43927795407506,38.86617815930598],[16.4395618051246,38.865881111828564],[16.439667601603393,38.865720205077615],[16.439712581482286,38.86565293362961],[16.439742338362397,38.86560790010547],[16.439810074100762,38.86550539354563],[16.440044930815247,38.8651799995241],[16.44031632606564,38.86491525072224],[16.440393329396013,38.86481997531207],[16.440653695425155,38.864497825045525],[16.44096877224405,38.86407639630333],[16.441036967920166,38.86400846808931],[16.44106957761364,38.86397586678777],[16.441295756119498,38.863750333455876],[16.441375539300484,38.8637065135636],[16.441600564398758,38.86358292049528],[16.441790214610794,38.86347875727485],[16.441851973268676,38.863444835718035],[16.442022644695417,38.863353892812],[16.442145457179315,38.86328845142144],[16.442283759483935,38.863214756081206],[16.442579311875832,38.86298758302974],[16.442627023547086,38.86295051153817],[16.442910757219067,38.86272030713643],[16.443122907597253,38.86259534331717],[16.44325345537801,38.86251844674021],[16.443387112712106,38.8623613034041],[16.443455759341667,38.862280594776735],[16.44353935692546,38.86223591730812],[16.44388610542271,38.86205060184051],[16.444467460017165,38.8617794602746],[16.445100143242833,38.86155898566495],[16.44553434326331,38.861521727151356],[16.44572160693535,38.86150565697921],[16.446116144115194,38.86160629693584],[16.446161443202698,38.861622068899536],[16.446240916841187,38.8616497410603],[16.446471228220904,38.86173023761249],[16.4465417176804,38.861754621165886],[16.4470442151353,38.86193829276487],[16.447657998672554,38.862209278668196],[16.447817182374756,38.86223128816542],[16.44814688606239,38.86227687147891],[16.448767007229563,38.862169633084974],[16.449133293884667,38.8620831694881],[16.4495746591652,38.86238318438029],[16.449768932410677,38.862546097697596],[16.449918449315053,38.862671479576846],[16.45015367979938,38.86295323054054],[16.450279187777173,38.86332137189632],[16.4502887324005,38.863349365153894],[16.450419800185987,38.863570335519974],[16.450688144579733,38.863661038018485],[16.450732946274233,38.86367618154184],[16.451103131353936,38.86358114681928],[16.451315612152726,38.86352490291648],[16.451786917034184,38.863509603802115],[16.452257700916345,38.86359632040598],[16.45268089724528,38.86365462378155],[16.45283610026458,38.863968495427294],[16.453088705685957,38.86441555423498],[16.4533281818241,38.86461714058693],[16.453495600894,38.86475804245271],[16.45376630988363,38.86491159165619],[16.454053700100786,38.86503256557387],[16.45442552405827,38.86508065657388],[16.45483149305739,38.86519403558829],[16.45526126186332,38.86531547255748],[16.455505920030593,38.86538459535334],[16.45587441966402,38.86541491397937],[16.45620956619574,38.86545636385966],[16.456507508670118,38.865540674804585],[16.456949201713567,38.8656825292829],[16.457021028597666,38.865705596878925],[16.457301291621384,38.86584052487792],[16.45751862975306,38.86594568556108],[16.457577641171174,38.86597422462645],[16.457637703122067,38.86600334386668],[16.45791794352721,38.86613825284338],[16.45836668737664,38.866359582268316],[16.45847819416139,38.86641458712058],[16.458523277006364,38.866436819419356],[16.45904492124202,38.86658322837611],[16.459367750885516,38.866589461083315],[16.459884130545564,38.86643936229469],[16.46000870766009,38.8663863652299],[16.460095484158753,38.866349554907465],[16.460407296426908,38.86621685016441],[16.460841024474146,38.865937112175686],[16.46108921960966,38.86576069752073],[16.461136915582607,38.865726436935105],[16.461183025511623,38.865692445550074],[16.461262380624902,38.86563567361929],[16.46154401458106,38.86551428987277],[16.461613757123054,38.86550035716565],[16.461683704772394,38.8654860226357],[16.46173083466499,38.8654773011108],[16.461814932409677,38.86546024201082],[16.461879670825002,38.86544734852358],[16.461956562948632,38.86542889477403],[16.462103004488405,38.86539321816703],[16.462150946025503,38.86538164584323],[16.462236687943825,38.865360845739566],[16.46234344174851,38.865330018364816],[16.462612925371257,38.865251979189956],[16.46286256487523,38.865163660967596],[16.46309397387331,38.86508167990504],[16.463139318864865,38.86504015290567],[16.463500660728197,38.86470921846731],[16.46369378072289,38.864507902823206],[16.46373814114048,38.86446601341067],[16.464066155404005,38.86415114971407],[16.464303579371887,38.8639469846295],[16.46455380823553,38.86375548193513],[16.464606901954536,38.86373607888769],[16.464851557588165,38.86364638402731],[16.465181586034383,38.86359819886661],[16.465517362135714,38.86353611958077],[16.46592068291249,38.86351470355488],[16.466244435059828,38.86352986778785],[16.466726110395488,38.86353362316752],[16.46688650416481,38.86353487370404],[16.46699290358206,38.8635357026535],[16.467478511637175,38.86343940978211],[16.46756348677893,38.86342255913022],[16.467708234278756,38.863420665077435],[16.468179318439425,38.86341435583991],[16.46889823559473,38.86331422492057],[16.468990857524044,38.86334872992674],[16.46902427749698,38.86336118085528],[16.469320332103088,38.86347145394969],[16.46933465410224,38.863521628349986],[16.469443594891192,38.86390436429459],[16.46953036796756,38.864182138459476],[16.469628503470876,38.86448614894522],[16.46976240151431,38.864774395527924],[16.469926814911187,38.86498536242919],[16.469975294761248,38.86504849760797],[16.470442425172198,38.86538724407311],[16.47078074647856,38.86555438210742],[16.47106750388115,38.865675334058],[16.471476064725753,38.86587507129278],[16.471571632576257,38.86592177655999],[16.471645191877023,38.86595663412433],[16.471956123276325,38.86610393831162],[16.472390598055433,38.86630293842253],[16.473006808502607,38.86672465923622],[16.473406667142278,38.867189180224436],[16.47364798598517,38.86823055700487],[16.47368403526355,38.868485818477225],[16.47366185118551,38.8689223093073],[16.473665061471664,38.86912977799394],[16.473668506711526,38.86935381183741],[16.47369506550103,38.86943303117224],[16.47372664087146,38.86952724854702],[16.47378060360835,38.869688278320446],[16.473826510995327,38.869846971394175],[16.473839673728,38.8698924692751],[16.473918561809942,38.87016515996194],[16.474096353269292,38.870405586117386],[16.474264093727687,38.87067363064051],[16.47428593255378,38.870713322107356],[16.47431828659051,38.870772123857655],[16.474374137436723,38.870873683892206],[16.474430584517606,38.870976325440736],[16.474481621926145,38.87107278992786],[16.47454033817859,38.87118382915526],[16.47456244193467,38.871225628214944],[16.474588218120722,38.8712726762544],[16.474615557026354,38.87132257597611],[16.47466283957529,38.87140891760216],[16.474802656258777,38.87166417718653],[16.475003795896257,38.87190759466484],[16.475181118444198,38.87213007005274],[16.475219160803025,38.87237195602118],[16.474996079867218,38.87273566110432],[16.47473586819367,38.87290084075598],[16.474543249625043,38.87309313381436],[16.474485580962895,38.87321938004874],[16.474435987560984,38.8733290074393],[16.474411901003318,38.873380725985214],[16.47439853502796,38.87343516909753],[16.47455555530341,38.87354217431077],[16.474645940985933,38.87360377013169],[16.474892153027987,38.873728474465075],[16.474960898996095,38.873763650250176],[16.47516671098465,38.87387499418567],[16.47536936276061,38.87398455949813],[16.475589985473132,38.8740875864354],[16.475638775431143,38.874110369993126],[16.475682537984838,38.87413080647134],[16.475885065355488,38.87424441865255],[16.475998985204914,38.87430832477905],[16.47604683274574,38.87433272233038],[16.476323419059103,38.874473753590244],[16.476359044048632,38.87449191888415],[16.47667561838138,38.87475051667256],[16.47687202357642,38.87491541879202],[16.47701505850704,38.875035510570996],[16.477076419583966,38.87508702747235],[16.477098523837782,38.87510558641038],[16.47724237418117,38.875253838439704],[16.477685904981463,38.875710910108786],[16.477756896971915,38.875786537346784],[16.477798405729366,38.875830426895135],[16.47814771817102,38.87620286216065],[16.478221231982236,38.87626091704374],[16.478383321744776,38.87638894243255],[16.47867412407971,38.87661863143346],[16.47873106920064,38.87666544566506],[16.478968790625995,38.876860876536725],[16.479038112672903,38.876917885726776],[16.47916632849339,38.877023299667314],[16.47926195371278,38.877110595656966],[16.47951091143273,38.877337881833114],[16.479589700671497,38.87740981131213],[16.479788160572525,38.87763009049548],[16.479884672915098,38.8777374091068],[16.47990082199647,38.87779198439167],[16.479944078122642,38.87793814747741],[16.47996751465332,38.87801734044708],[16.479915075132404,38.87808828721121],[16.479880290208275,38.87813525654897],[16.479657515346037,38.87843535117996],[16.47937438871071,38.878655975725714],[16.47906500847998,38.87882190417096],[16.47903128387978,38.87883999104397],[16.478892999472983,38.87894118877812],[16.47882460305629,38.87899133655925],[16.47868239322364,38.87909541084649],[16.47840713512389,38.87926279556786],[16.47819256665673,38.87947900270303],[16.478013982268095,38.87988630857304],[16.477994607063902,38.8799473378218],[16.477942594657804,38.880147032193435],[16.478075612907844,38.880525499993816],[16.478492568561002,38.88072802090633],[16.47881963492371,38.88102019033813],[16.47876046124304,38.881331451685256],[16.47844116263101,38.88149593356279],[16.477984199875653,38.88169177467953],[16.4776873697098,38.88180983784533],[16.47712373202092,38.881990070755435],[16.476746972488442,38.88203231319383],[16.47626531615887,38.88217128408002],[16.475839360167672,38.88232015076852],[16.475475299679427,38.88246950883825],[16.475213176095338,38.88261683315424],[16.474834919814572,38.882713143510735],[16.47448130740564,38.88287982390807],[16.474150137117093,38.883027077757646],[16.473889369015314,38.88322827259394],[16.473583301366205,38.88347735154504],[16.472848156299506,38.88368208850131],[16.472446595811448,38.88373492136173],[16.4719745569363,38.88377429126187],[16.471609930325624,38.88398665889446],[16.47130433803377,38.88422671155525],[16.470986780293252,38.88451699640909],[16.47064219576598,38.88470108358386],[16.470326091828774,38.884950819103004],[16.470009444439526,38.88525003294996],[16.46948610974479,38.88555357173629],[16.46867716450118,38.88606886223808],[16.467664339405594,38.886615259465934],[16.467355462759897,38.88679704078802],[16.46717655513501,38.88697227981349],[16.467017725319597,38.88712902451561],[16.466760166287173,38.88748260895611],[16.466268103085394,38.88773033490822],[16.46567834334968,38.887799742027816],[16.465422517114586,38.88795385835426],[16.465352381579628,38.88799622697097],[16.465307534779747,38.888075430422305],[16.465204381052427,38.88825761588187],[16.46500805209731,38.888675017168715],[16.464760763886716,38.88907322034678],[16.464622054069963,38.889073692483095],[16.464163878332897,38.88907550721175],[16.463903594610848,38.88888535475513],[16.463670900198053,38.888711410022545],[16.46337852522263,38.88849416499019],[16.463262728823818,38.88840818803604],[16.463191746674774,38.8883554128701],[16.462932103855017,38.888061756689815],[16.462514486244025,38.887996702318084],[16.46242846419166,38.888238129434804],[16.462349954151094,38.88830562267146],[16.4622567195737,38.88838577248365],[16.462190964866615,38.88844229896868],[16.462022564321103,38.888776432633726],[16.461968403308834,38.88888389453092],[16.461750896794946,38.8890480259921],[16.46166740874749,38.88911101537887],[16.461616501351045,38.889149377311675],[16.461178965474588,38.8890816600745],[16.461082669897667,38.889066755606166],[16.460965095059716,38.888878445864485],[16.46094465289006,38.888845705394175],[16.460904470348442,38.88878134785315],[16.460750040861353,38.88850341952591],[16.46054576105692,38.888533032720666],[16.46041561187838,38.88855189767032],[16.46019188389145,38.88879115662804],[16.46015674033891,38.88889633436966],[16.46010434377211,38.889053149910055],[16.460031720207684,38.88911717440825],[16.45988972783349,38.88924235780403],[16.45974388819019,38.889372627780965],[16.459672722831144,38.88943619766916],[16.459542779167855,38.88952834706226],[16.45950234082939,38.88955654258786],[16.45947494112076,38.8895755697168],[16.459413505463058,38.8896186182044],[16.45914489934253,38.889860887260866],[16.459106680626263,38.88989536101972],[16.458973008031432,38.88999441142143],[16.458787693804787,38.8901317292729],[16.458466987785624,38.89021530049696],[16.458406008671737,38.890209348763356],[16.457994553925715,38.890169191903595],[16.45784058780553,38.89017099478605],[16.45756632122272,38.89017420517913],[16.45753120970498,38.89028065938196],[16.457447894811228,38.89053643007757],[16.457458171438823,38.89074235899116],[16.45746560431607,38.89089133135773],[16.457466961899733,38.89091854630051],[16.457468561736466,38.8909506041349],[16.457448925813782,38.891046566025814],[16.457395099175926,38.89130962348279],[16.456911959001026,38.89140811770783],[16.456278867850564,38.89143529233334],[16.455852956999838,38.89147612954245],[16.45548371861314,38.89153583816003],[16.454818139326928,38.89162354623584],[16.454224709429017,38.89189102663192],[16.45402045731267,38.89213801524846],[16.45369396625464,38.89259076524969],[16.45338188903917,38.89294811768553],[16.45301664806558,38.893196448410585],[16.45268662497293,38.89345152642729],[16.452257352402356,38.893501557512785],[16.451582320887017,38.893526903761355],[16.451204003997844,38.89359615292203],[16.45066539346133,38.89381063422205],[16.450219689800235,38.89400564740493],[16.449863203764984,38.894118480615155],[16.449531446450163,38.89424770541245],[16.449098247883143,38.894369953422924],[16.448709287995708,38.8945298351855],[16.448286044765773,38.89467843166448],[16.447883310155472,38.894816719131825],[16.44755346641025,38.894950311637004],[16.447207067869538,38.895046162953626],[16.44691345314555,38.89512740579794],[16.446852393771284,38.8951445194603],[16.44661977088272,38.895208571283945],[16.446293676235946,38.895300169843836],[16.446165189561455,38.8953362225887],[16.44578540448392,38.89541903458703],[16.445731233549214,38.89542493107489],[16.445536920829962,38.89544607825925],[16.44538278174821,38.89546285430401],[16.44516198273066,38.89548487535201],[16.445004017910133,38.89550062784906],[16.444742828547227,38.89550934927127],[16.44457449016003,38.89551505177667],[16.44401817170016,38.89555423520086],[16.44393113340224,38.895560431833196],[16.443443431732685,38.895561919782025],[16.44319466893149,38.89556267877181],[16.44286670543478,38.89555068437042],[16.442670265543015,38.89554349851999],[16.442569242271706,38.89553980315797],[16.442283484847355,38.89547758713594],[16.44215240704254,38.895449047177635],[16.44207447012389,38.89543207841476],[16.44187455068071,38.89536452657537],[16.441761182267467,38.8953262189301],[16.44168985773223,38.895305325910826],[16.441320269961547,38.89519705747732],[16.441104593363285,38.895212955573335],[16.44085915183536,38.895231193513894],[16.44053916265191,38.895308679028524],[16.440480275634258,38.89532293887498],[16.440042228753025,38.8954814435275],[16.439983757655575,38.89550062402431],[16.439638037902448,38.89561318425688],[16.439429818127138,38.89570656585264],[16.439222329741625,38.89579934250197],[16.438877512611043,38.89592811384617],[16.438844317726566,38.89594050997554],[16.43846273315389,38.89595145433514],[16.438293307494245,38.89584562207734],[16.438110099418758,38.89573118039918],[16.43808721964915,38.89570962653911],[16.43781951738638,38.89545744478081],[16.437660720323798,38.895281165615685],[16.437571813045444,38.89518094548144],[16.437252141742043,38.89486357578717],[16.43715901511865,38.89477111977203],[16.437010581968902,38.89459075294362],[16.43688434821243,38.89443736115333],[16.436733571125252,38.894254144941954],[16.43647956454213,38.894013514388725],[16.436404478359805,38.893942380332355],[16.43636522998697,38.893925104776756],[16.43577824778115,38.893671246445386],[16.435418284554057,38.89363506123104],[16.435187998886516,38.89367562560059],[16.43502496526946,38.89370303225338],[16.434946055773572,38.8937161992665],[16.43471009548682,38.893784777537114],[16.43462630284184,38.893809130858685],[16.434489480784805,38.89384889685297],[16.434083992138248,38.89400529495185],[16.433813932348446,38.89414401088318],[16.433678755377397,38.89419262840756],[16.43352137067703,38.894249232555495],[16.43326623600919,38.89434099375122],[16.432959972803932,38.894384143801695],[16.432622503421346,38.8944316898425],[16.432394349591828,38.89447876538942],[16.43211688192706,38.89453601547791],[16.431829524831286,38.8945810099511],[16.431679450281894,38.89460450867083],[16.431272817037947,38.89466200194728],[16.431208044512022,38.894672916783804],[16.431119703404903,38.89468875385471],[16.431084447315907,38.894694935094414],[16.430979944521116,38.89471312069402],[16.430817599779335,38.89474083722223],[16.43070060834359,38.89479124881175],[16.430586120048538,38.89484058074333],[16.43030271868491,38.89496269562605],[16.43015732539323,38.8950991211584],[16.430012419731934,38.89523508623233],[16.429988910988136,38.89525691705302],[16.429952919163863,38.89529091531656],[16.42993097442465,38.895332286108314],[16.429775098061373,38.895626149064334],[16.42966348067318,38.89580282419847],[16.42957345770204,38.89595387971512],[16.429333368868225,38.896216624072686],[16.429179370961144,38.89627993241826],[16.429133955187694,38.89629680314935],[16.42897055085437,38.8963657785222],[16.428706131286166,38.89645515646262],[16.428578057859475,38.89649785161054],[16.42853197213995,38.8965131430706],[16.42842955152331,38.89653173297168],[16.42810689186422,38.89658288838331],[16.4280114414755,38.896591098144945],[16.427694801581087,38.896618309618944],[16.42743933658837,38.896624098672575],[16.427150733235433,38.896630639648635],[16.4268657635765,38.89664307886699],[16.426486129040626,38.89665964830117],[16.426291499024707,38.89665544997761],[16.42590782529692,38.89664717271349],[16.425714467947472,38.89664200234346],[16.425459036748826,38.89663531331153],[16.425138503032098,38.896637987470434],[16.424812068871862,38.896640708816484],[16.42456240821746,38.89663288683453],[16.42398456418624,38.89661429107499],[16.423855248701507,38.89661248179222],[16.42340749629652,38.89659669704971],[16.423254380040245,38.89659189751003],[16.423201013560664,38.89659719765008],[16.422872709108496,38.89662978784227],[16.422837539192507,38.89665003743298],[16.422768105761733,38.89669000276909],[16.422546854769664,38.89681748667188],[16.422515392584554,38.896836131805394],[16.422486985988957,38.89685344004836],[16.422383783142873,38.897164273974724],[16.42234042507581,38.89728562691823],[16.4223134255518,38.897376187379585],[16.422312400969783,38.89741482790317],[16.42230627737496,38.89762697360679],[16.422289456332663,38.89794444295026],[16.42224716781863,38.89807257498537],[16.422224550700342,38.89814116684817],[16.422203193142863,38.898206330018496],[16.42201560601048,38.89853714093678],[16.421980893650105,38.89859835771757],[16.421897506893227,38.898666913902034],[16.421696407250153,38.89883224376011],[16.42145055382365,38.89902303369147],[16.421424538273914,38.89904322310164],[16.42136823530562,38.89910931549586],[16.421120907037217,38.899400023550506],[16.4210400625255,38.899473032338584],[16.42100633286538,38.899503044992244],[16.420980207526966,38.89952713733704],[16.420848845849655,38.899645748779754],[16.420633156733956,38.89984049861551],[16.420462237853386,38.89998574798394],[16.420332690406624,38.90009353004668],[16.41992922061192,38.900443152938216],[16.41990361025074,38.9004712592887],[16.419796371169134,38.90058894963573],[16.4196245931821,38.90077746782282],[16.419499487273942,38.90094686418502],[16.41935614111501,38.90114095593127],[16.419286253124092,38.90121458672441],[16.419088523845183,38.90142290317102],[16.41900618423992,38.9015096508093],[16.418767787236558,38.90175902809435],[16.41866830729394,38.901863088996144],[16.418629348497436,38.90189719983217],[16.418293555858636,38.90218036843447],[16.418238565484902,38.902203771355396],[16.417833408772186,38.90237620117986],[16.417686130915563,38.90241523966904],[16.41737720668854,38.90249980235412],[16.41712273824321,38.902541857757015],[16.416929820141483,38.90257377813023],[16.416846762569996,38.90258764788426],[16.416554151098403,38.90260914129996],[16.416376921697157,38.90262215812365],[16.41597735437985,38.90259782965807],[16.41572809669939,38.902582652547096],[16.415399921782218,38.90258042787416],[16.415084071317597,38.90257828502131],[16.414824820734903,38.90257811740774],[16.41424787827316,38.90257261033753],[16.41388192573605,38.90257012473444],[16.41367442829636,38.90259333269221]]]}}]}
