{"type":"FeatureCollection","metadata":{"code":"080088","referenceDate":"2026-01-01","sourceDbfExportDate":"2026-02-18","upstreamArchiveUrl":"https://www.istat.it/storage/cartografia/confini_amministrativi/non_generalizzati/2026/Limiti01012026.zip","sourceManifestSha256":"70ac8256c4785dc6ed2814c32b6965ae76f9161b51abaa1660059e1c6cbd8ca6","license":"https://creativecommons.org/licenses/by/4.0/","attribution":"Istat, Confini delle unità amministrative a fini statistici al 1° gennaio 2026, versione non generalizzata.","modifications":["Converted from WGS 84 / UTM zone 32N (EPSG:32632) to RFC 7946 WGS 84 geographic coordinates.","Converted from shapefile to per-municipality GeoJSON without geometry simplification."]},"features":[{"type":"Feature","id":"080088","properties":{"code":"080088","name":"Siderno","alternativeName":null,"regionCode":"18","regionName":"Calabria","territorialUnitCode":"280","territorialUnitName":"Reggio Calabria"},"geometry":{"type":"Polygon","coordinates":[[[16.262108712127233,38.31840716123352],[16.261653247693566,38.31854796795353],[16.261221237863833,38.31872329426402],[16.260927615373102,38.318890789408584],[16.260822976559126,38.318950476872644],[16.260486216705434,38.319164842930554],[16.260169082030178,38.31941846133302],[16.259898099169902,38.31961974099499],[16.259558655829586,38.31989274668783],[16.25923583847784,38.32027230350011],[16.259206923277485,38.32022550858057],[16.25912466468366,38.32009253054491],[16.259102005777788,38.320055916314764],[16.258986877743183,38.319869871829155],[16.25890372975182,38.31960522042861],[16.258789251442945,38.31928192383802],[16.258760362803834,38.31920033872634],[16.258639636631784,38.31889299876811],[16.258543255352915,38.31854366930837],[16.25841450094457,38.31835565808522],[16.258320989299875,38.31822015273155],[16.25829888922574,38.318176013673735],[16.2581550055253,38.3178886550562],[16.257873474123695,38.31751484562114],[16.25783375069839,38.31741127576161],[16.257810260873264,38.31735002945069],[16.257728576842705,38.317137047556514],[16.25768846101307,38.31705374341607],[16.25755123391688,38.316768904212104],[16.257386355656674,38.31645668634433],[16.25717279181428,38.31612192448779],[16.25696200904839,38.31583987888661],[16.256874426541852,38.31569190765099],[16.256728356356376,38.315445127910685],[16.256676474128295,38.31537335106707],[16.25659421957902,38.315259554140695],[16.256423466473123,38.315023318507194],[16.256170474854894,38.314836018670064],[16.256042492762038,38.31474124428883],[16.255972379670208,38.31468923660325],[16.2559254788014,38.31465397824464],[16.255850244852898,38.31462195731935],[16.2558209491012,38.31460930783694],[16.255785617439546,38.31459385013706],[16.25557299264486,38.31450391567599],[16.255543859031487,38.314491550197786],[16.255439664356434,38.31444669756726],[16.25540408022408,38.31443286658847],[16.255369183388847,38.31442002646968],[16.255326161846714,38.314398891045606],[16.25496945151424,38.31431956212861],[16.254772934779723,38.314275872033214],[16.25451728064923,38.314265537761095],[16.254248101153756,38.31425465677465],[16.253897324536563,38.314411270108245],[16.25374907061808,38.31448289169621],[16.253487422326153,38.31460768643715],[16.25302046639199,38.31469068073716],[16.25256398912809,38.31478942558332],[16.252495195790004,38.31480430636636],[16.252312339639598,38.31483373789538],[16.25203982993131,38.31487759938021],[16.251757713739497,38.31492475339513],[16.251721253064968,38.31492883508323],[16.251652592178704,38.31496062911958],[16.251406948741327,38.31507437710205],[16.250925025229414,38.31529753568953],[16.250796525004937,38.31539294412648],[16.25000011122511,38.31598485938455],[16.249049042937504,38.31659269529781],[16.248225464057544,38.317219593347666],[16.24726927379259,38.31761137211407],[16.246899858389202,38.31735143226616],[16.246562519211817,38.317075514749625],[16.246285961583414,38.31683631466539],[16.246254796538505,38.316804088780316],[16.24588796216508,38.3164247563552],[16.24577554144493,38.31624502410228],[16.245441121038766,38.31571036390606],[16.245395343223034,38.315629831852625],[16.245309697760813,38.31547916324002],[16.245170601433454,38.31523446120517],[16.24508547908474,38.31508470807087],[16.24507632368689,38.314988685821824],[16.245068423833512,38.314904927865506],[16.245063338631596,38.314850764980605],[16.245060715568894,38.31482026562574],[16.245145639076664,38.31455922539529],[16.245343774079302,38.31444385664543],[16.246086418003316,38.31401952663414],[16.246552004346185,38.313788552790896],[16.246584611690643,38.31368774444998],[16.246641990137594,38.313507179812554],[16.2466939895649,38.31334333244149],[16.24657541287706,38.313085329328224],[16.24650479965936,38.31297881763247],[16.246420750985205,38.31285204430531],[16.24622521899208,38.31255492277593],[16.246173345797285,38.31247610097784],[16.24590629342127,38.312146348224225],[16.245795219829375,38.31199280263707],[16.24567252870759,38.311823202134775],[16.245609392307692,38.31173745198932],[16.245544149911222,38.31164884058579],[16.24540357947796,38.31145792085395],[16.245311732734365,38.31133488376153],[16.2451216687216,38.31107960279855],[16.24474917121315,38.31067993868672],[16.244413431268324,38.3104041194283],[16.244175757021463,38.31000978406336],[16.244078045343553,38.30966052153968],[16.24400472527999,38.309432420451174],[16.243970312685,38.30932536582904],[16.243952670683164,38.30902061685085],[16.24392763644519,38.30877028825645],[16.24395577111929,38.3084806779593],[16.24396351470081,38.30820132502808],[16.244049905955226,38.30796657232878],[16.24404679207207,38.30775753285764],[16.24404605048398,38.30772095962986],[16.244045088835357,38.30765137282364],[16.244040228935617,38.307345812301755],[16.24391684273241,38.306939668144],[16.243912266966714,38.30658012767258],[16.243804540877942,38.306244972209974],[16.243615365914568,38.30602283387818],[16.24332567458045,38.30569448046226],[16.24320683309209,38.305405004261694],[16.243001804868488,38.30509291651684],[16.24297118527472,38.30504630645252],[16.242960579912406,38.30489067144331],[16.242942975354516,38.3046322888796],[16.24294223636825,38.30459769725242],[16.243093853685565,38.304528217435994],[16.243133603613934,38.30451000174518],[16.243224475923974,38.30446836012502],[16.243553674066604,38.30424909593526],[16.243596576152086,38.30422060818922],[16.244060964901724,38.30399836868974],[16.244238848303215,38.30378249787261],[16.244342208934277,38.30365706220768],[16.244388499518806,38.30357744661241],[16.244403311356713,38.30355197019404],[16.244496853415153,38.30339108343332],[16.244605133857412,38.30304701109481],[16.24465880064459,38.30293678527323],[16.24472707763414,38.30279654722414],[16.244763019557496,38.30270408396848],[16.24502345972773,38.30203599891644],[16.245201222740242,38.30177307824747],[16.2454707549864,38.30132905048125],[16.24567285282692,38.30110960791273],[16.245882111744308,38.300962561141986],[16.245988827047796,38.30088757041659],[16.246295391543303,38.30074259070664],[16.24661358852879,38.30062837306642],[16.24708818320514,38.30043697403286],[16.247552318082015,38.30016976579116],[16.24779254248711,38.300056768359575],[16.247881894713746,38.3000141176167],[16.24816443117748,38.29985712128393],[16.24846173269773,38.29976219558409],[16.248701537293652,38.29935360284888],[16.248727485778684,38.29930938676642],[16.248596996449546,38.29907462046952],[16.248501270851403,38.29878819148198],[16.248255552771475,38.29845713675772],[16.24813406734408,38.298223050144024],[16.2481017771979,38.29816083052062],[16.247945867484127,38.29783286728441],[16.247922925219846,38.29778512679213],[16.247804378730134,38.29752712271622],[16.247594017944753,38.297013965990814],[16.247424991573855,38.29660163548309],[16.247354692043732,38.29646070186179],[16.247311783752714,38.296369850281124],[16.247246540965477,38.2962438863538],[16.247183625299996,38.29614751343687],[16.247012328889408,38.29588512382432],[16.24678505872207,38.29562267307394],[16.24672033604544,38.29554793003118],[16.246234979294364,38.29531720125568],[16.246015292224637,38.29521861042405],[16.245821172363282,38.295131492504176],[16.24459590051561,38.29458260283376],[16.24454255081942,38.29455870369739],[16.24450721415215,38.294535256857785],[16.244268705898644,38.29437700142091],[16.244196371508433,38.294329005234715],[16.2441024171469,38.29426668051661],[16.2434684687972,38.29407662972833],[16.24328273995822,38.293981160076534],[16.243018558494366,38.293843683599015],[16.24269711022955,38.29362525796346],[16.242463883892228,38.29334737545609],[16.242285503244997,38.293061574314365],[16.242143565094768,38.292683570067744],[16.242010371707654,38.29235001093888],[16.241959826197842,38.29210126518172],[16.24190999940539,38.29173102953359],[16.241915972616507,38.29143380424343],[16.241911847843294,38.29116417869711],[16.24201910946453,38.29083817328951],[16.24210940231046,38.29058520092626],[16.24210503336934,38.290411493114945],[16.24210022668096,38.290221533656634],[16.2420952490697,38.2900989661193],[16.242093781668164,38.29006275640008],[16.24209280481536,38.290016022624876],[16.242078671346114,38.28969206290676],[16.242053158824103,38.289647380812546],[16.241890167450446,38.28936191639062],[16.24164851695233,38.28915651562733],[16.24139199347428,38.288988018709496],[16.241151217308204,38.28879157096183],[16.240885300713845,38.28861466528864],[16.24054856318397,38.28842864875745],[16.24003081119907,38.28817290961851],[16.23970725725754,38.28807603340551],[16.239352194688053,38.28803509128564],[16.23926930130001,38.288030397717755],[16.23915407360748,38.288023880454446],[16.239097917808014,38.28801728968491],[16.23898775480836,38.28801412566073],[16.23856385756217,38.28792664275793],[16.238518311542386,38.28791172642966],[16.2382325623006,38.28781814040243],[16.238159723299916,38.28779428737543],[16.237482608810698,38.2876428780483],[16.23722393732674,38.28765891903018],[16.236955886128236,38.28767631027532],[16.237321085870143,38.287352301041565],[16.23743102558453,38.28725475066602],[16.237493370393757,38.28720993319455],[16.237851837807074,38.2869522434268],[16.238178141444845,38.28671767344771],[16.238384286812103,38.286569479846904],[16.238856314453702,38.286229665892755],[16.23891686163022,38.286188042997],[16.239408938062194,38.285845674400136],[16.23944918485035,38.285804130366586],[16.239516055810466,38.28573510403315],[16.23971027900306,38.285534621158284],[16.23996992455513,38.28530429352048],[16.240027055059894,38.285253614582906],[16.240119166416292,38.285171903153035],[16.24049029766012,38.284800854737306],[16.24052660197096,38.284764860718006],[16.240939868865684,38.28443281758605],[16.241018001713048,38.28437087396881],[16.241125176048307,38.28428590534659],[16.24133379416807,38.28412051097621],[16.24155804030833,38.283947289874625],[16.241652073758782,38.28387465089121],[16.241752339395774,38.28379719915758],[16.241852972329696,38.28371946187418],[16.24191178887402,38.28365407188441],[16.24207625925613,38.28346689702804],[16.242221816600054,38.28331316455605],[16.242586682129804,38.28293684877366],[16.242681581193988,38.28283998270516],[16.24271863288889,38.282802201903884],[16.243021150567508,38.282446097139506],[16.243102385486402,38.28236569645974],[16.24344681660848,38.28203735729304],[16.243636265944502,38.281889153433276],[16.24382975264035,38.281743705975],[16.244153823139374,38.28148762447037],[16.24422509649445,38.28143130698327],[16.24426694674168,38.28139225722241],[16.24467671420474,38.28100991697988],[16.24471051664777,38.28097837890152],[16.244804434338857,38.28090910383333],[16.24520754715834,38.28061176872462],[16.24529644845882,38.280546197042],[16.24546080883574,38.280418568814206],[16.245737372788657,38.28020376833862],[16.245837846305967,38.28012572478106],[16.24607047284176,38.279930884853556],[16.24620905695168,38.27981481267793],[16.246265613658558,38.27977968253951],[16.246650947812885,38.279540014040805],[16.246797146658615,38.27942818846078],[16.247217121826207,38.27909561409904],[16.247328004013667,38.27899062742366],[16.247370173302308,38.278950700445385],[16.247679760974794,38.27865757423113],[16.247849107256187,38.27847271162735],[16.24823873599679,38.278056142314476],[16.24831171589784,38.277992643188426],[16.24836480653075,38.277946448495136],[16.248482794194164,38.27784377042706],[16.248614576977122,38.27772910044218],[16.24867836337003,38.277673507289016],[16.24882448755985,38.27751102078177],[16.248885152206068,38.27744356350654],[16.249046770913342,38.27726386526751],[16.249226545389316,38.27703623498169],[16.24939383344599,38.27682447499391],[16.249427929772242,38.27678131469765],[16.249585425661667,38.27656415718617],[16.249663624109182,38.27645633485928],[16.249795293543258,38.27614678925962],[16.24979457928087,38.276101380746795],[16.249788978294845,38.27574830591743],[16.249788029854336,38.275704572571165],[16.249779873383787,38.27565240998128],[16.24972492824999,38.27530097914002],[16.249706780475204,38.27520716612932],[16.24963637317273,38.27484319401365],[16.24963447945548,38.27476187392621],[16.24962727342953,38.2744524508855],[16.24962102005042,38.2743129264773],[16.249605981578384,38.27397734814698],[16.24960091994202,38.273864390655675],[16.249592498965008,38.27367647596994],[16.24957963323052,38.27341592945182],[16.24957301385022,38.27328188281351],[16.249496237190705,38.27297130206504],[16.24948999725508,38.272946057156275],[16.249472234280702,38.27287402681747],[16.24946383577341,38.27284362558518],[16.249423556861522,38.272571523023295],[16.249418066411405,38.272526398602096],[16.24941307983154,38.2724847854121],[16.249386028182954,38.272261936097614],[16.24936391551538,38.2720801991626],[16.249356463969946,38.27201895740799],[16.249343876179523,38.27191550544173],[16.249293158277688,38.271634810804194],[16.249274230781026,38.271530056919296],[16.249253817359634,38.27141770755204],[16.24924636694936,38.27137406862037],[16.24923216204375,38.27129723568489],[16.24920503212586,38.27119050124766],[16.24909248249437,38.270747708621506],[16.24904645655322,38.27056663021909],[16.249067170288573,38.270299497352745],[16.249074492101553,38.270205067477164],[16.249132418195934,38.26984566567517],[16.249148452525716,38.269746205761535],[16.2492288908712,38.26946527359143],[16.24925577565452,38.269398813535],[16.249593157297415,38.269129355565525],[16.249753861114193,38.26900948725382],[16.249893560687255,38.268903908873284],[16.250171187853923,38.26873362418414],[16.25028652449328,38.268632356502444],[16.250404125137255,38.26852942688926],[16.25043961753018,38.26849649339599],[16.250537522445637,38.268409183128384],[16.25057778401901,38.26837327887869],[16.25078735682642,38.26819372164702],[16.25081063714957,38.26816508836959],[16.250917582936726,38.268068373315366],[16.25101757249676,38.26792952247014],[16.251081820859277,38.26784055338435],[16.25115843910498,38.2677336635458],[16.251199483696706,38.267676399532434],[16.25123704447872,38.2676239964602],[16.251235935292723,38.26746617112352],[16.25123511906765,38.267363123379965],[16.251298522011,38.267340266096774],[16.25177891163488,38.26716738240972],[16.25184755065218,38.26712540918698],[16.252136180146554,38.266948907793],[16.252394966864326,38.2668944684377],[16.252515086149014,38.266869756679505],[16.252835515704547,38.26675089321744],[16.25294854393162,38.26672517336894],[16.253379388756372,38.26662713379689],[16.253483933053356,38.26658309732761],[16.253834343622156,38.266441451023205],[16.253897054993118,38.26640108197678],[16.254047457680514,38.266304266688046],[16.254107067591768,38.266265894847145],[16.254275189963582,38.266157673320485],[16.254593661635223,38.266061316357614],[16.25485524058485,38.26598217304061],[16.25514997105748,38.26591373509574],[16.255201892995203,38.265907763766705],[16.255712264119726,38.265837448180704],[16.255870113150376,38.26581850878775],[16.25625029474596,38.26573743311654],[16.25681078455301,38.265579544016205],[16.25737205282905,38.265375718517085],[16.257639366495926,38.265268953663906],[16.257691426453885,38.265248207985664],[16.257926491393068,38.26515969053114],[16.258006172282986,38.26512968505509],[16.258347185375033,38.26496004232707],[16.258481296974832,38.26488244114741],[16.25869938721309,38.26475708524099],[16.258969578137588,38.26463795382583],[16.25901292547789,38.26461472960613],[16.259552178148027,38.26432593057278],[16.25971139067809,38.26424050485819],[16.26009583209413,38.264034523711274],[16.260147243034304,38.26400697792164],[16.260536003696245,38.26373942821385],[16.260616214671497,38.26368369003747],[16.26098368769118,38.263329738979365],[16.261010407253757,38.26326013398331],[16.261128495259026,38.26295252089505],[16.261178261916157,38.26282288316593],[16.26119400588703,38.26279893136423],[16.261502262365564,38.262329971999485],[16.26161889589457,38.26215253220283],[16.261668395507108,38.262077226042415],[16.261793542274717,38.26186206823451],[16.26206497616593,38.26139539872418],[16.26210643992896,38.26132411062634],[16.262127112415435,38.26128856877158],[16.262293391938623,38.260931406316566],[16.262471337249504,38.26054917997043],[16.26249802549534,38.26049185580338],[16.262514707112388,38.26046785361359],[16.26254795931269,38.26042000546557],[16.262581558804897,38.26037166072738],[16.262687519587118,38.26021919414796],[16.26277116386207,38.26012879206989],[16.26291057428021,38.25997811742065],[16.263082895489248,38.25968122618286],[16.263171754969093,38.25952740628862],[16.263222676233735,38.25943926335205],[16.263287401124465,38.25938504141344],[16.26336597316547,38.25931888853569],[16.263459386617694,38.25924069694114],[16.26351867325673,38.25918954800448],[16.263603953613448,38.259116377376934],[16.263676246709906,38.25905436086771],[16.263741065225926,38.258986754496235],[16.26377862036544,38.25894671099123],[16.264123373594565,38.25857574501383],[16.264145334108697,38.258554442031944],[16.264369857911436,38.25834706371703],[16.264640892556024,38.25814839096165],[16.26473266210885,38.25808112256589],[16.26479900338778,38.25803249352662],[16.265169335397335,38.25772901679756],[16.26533421915675,38.257593897954166],[16.265666202261915,38.2573218440198],[16.265696721474978,38.25729915880785],[16.26594126650634,38.25711775233915],[16.26623238510884,38.2569177692505],[16.266410016845455,38.25671780264858],[16.266557489280387,38.2566181872082],[16.26675595119274,38.25648412903519],[16.266828088859356,38.25643539983635],[16.26711131895453,38.256287330473015],[16.26729399041593,38.25612547026113],[16.267440182311525,38.25599699446894],[16.26782586486383,38.255776014190026],[16.26787174291763,38.25574972917074],[16.268106739761006,38.255622164667145],[16.268366731137892,38.25548103225508],[16.26880767974544,38.25524166737972],[16.26890782935578,38.25518841015571],[16.269033497008383,38.25512106688633],[16.26943351645332,38.25490860087203],[16.269928234472566,38.2546275167098],[16.26998676635973,38.25459679322374],[16.27041557987149,38.25436775880655],[16.27053223898991,38.25432279048629],[16.27072175632491,38.25424973750155],[16.270757799177844,38.254234879526344],[16.271082513780197,38.254099437499356],[16.271132662179177,38.254081023604975],[16.271516168638406,38.25388090680007],[16.271624681510527,38.253840202406145],[16.27188997374628,38.25374068796946],[16.272172941188146,38.253619318774824],[16.272308433823564,38.25356120304136],[16.27234389760419,38.253545992062556],[16.27272147563271,38.25340121138204],[16.273009249936738,38.25329086263099],[16.27327075634898,38.253190596036795],[16.273604517694146,38.25306262921146],[16.273649820902563,38.25304863170668],[16.273734144550073,38.25302257901763],[16.27381893239434,38.25299780080808],[16.27393903282048,38.252960441840614],[16.274297488821123,38.25284854848203],[16.27437550089885,38.252830983855695],[16.2744534426728,38.252813435253806],[16.275595738661952,38.25255649534956],[16.276042300535646,38.25247890680035],[16.276614800833933,38.25240520286149],[16.27681912279393,38.25238090369378],[16.2768712913102,38.25237009318887],[16.277173570941553,38.25229395616935],[16.277236309047332,38.2522785311524],[16.277364579220794,38.25225530691645],[16.277577972126785,38.252216675781504],[16.27790808258319,38.25212413248324],[16.278179019354273,38.251967813703594],[16.278475205959598,38.251828117027465],[16.278537766512173,38.251794945968484],[16.27878309600917,38.25166465025585],[16.279016472497275,38.25149675660418],[16.279057077097626,38.25146766487935],[16.27966243119129,38.25120502360206],[16.279945109635293,38.25109502103168],[16.280116691861224,38.25102825783031],[16.28028870940736,38.25097729049126],[16.280328443391458,38.25096541175618],[16.28044948560544,38.25093538548505],[16.280496365712178,38.25092594584704],[16.28083667121757,38.25085730578097],[16.280858528082973,38.250833448910264],[16.28122682168219,38.250482142066616],[16.28137047670683,38.25019431456233],[16.281422568283826,38.24994274433563],[16.281775185161088,38.250548432129285],[16.28198189312277,38.25077871773828],[16.282173699320868,38.25101879959844],[16.282614261092792,38.25115494125229],[16.283263936932933,38.25221519480004],[16.284062263095674,38.25340302170621],[16.284848210056666,38.2546927684112],[16.284900359092497,38.25484605015723],[16.28549170652864,38.255991400830005],[16.286357017297647,38.257169078449635],[16.28805952317775,38.258943045461834],[16.288517721509585,38.259372598548445],[16.289101065143058,38.260015823639094],[16.28926011703754,38.26011861984551],[16.28972377065934,38.260503453609665],[16.289896352724355,38.26064560135634],[16.289968290269965,38.26070857205854],[16.29013376788941,38.260851163173506],[16.290281443302586,38.260972370836114],[16.29041506828837,38.26106746748073],[16.29062778566505,38.26121160202263],[16.290709948938723,38.26130541790431],[16.29077858562029,38.26138514158828],[16.290816536397493,38.261429235595806],[16.29095203095099,38.26152872874514],[16.291082826670902,38.26162400039642],[16.29137596164672,38.261781071905176],[16.291484864410414,38.261833091949946],[16.291581029981586,38.26192787463593],[16.291635378557004,38.26194855752549],[16.29178534702617,38.2620320930689],[16.291962090626722,38.262104671188375],[16.292085077247656,38.262188492427626],[16.292289007031584,38.262271419144575],[16.292425668858343,38.26236573432196],[16.292683973247154,38.26246936003785],[16.292916052421976,38.26261590540913],[16.29317456468527,38.26273019739536],[16.293501671006656,38.26290759586441],[16.293760161552594,38.2630218563384],[16.29404622880679,38.263167773382875],[16.294224118899923,38.26330422193949],[16.294441384864534,38.26337634406601],[16.29463276697872,38.2635126476216],[16.294742633635074,38.263617900965855],[16.294933651262877,38.26373291182053],[16.295165349347396,38.263858128853514],[16.295370063836092,38.2639836306431],[16.29552001598356,38.26406714405036],[16.2956566839725,38.264161453842156],[16.29584752234354,38.26426582626424],[16.29598473817478,38.26439206524208],[16.296066279568063,38.264423113459095],[16.296121410387933,38.2644863930666],[16.296313002266928,38.26463332942254],[16.296401743601482,38.26472341295004],[16.296592854123272,38.2648509062538],[16.29679122381374,38.26495810299625],[16.296954877433716,38.26505212450558],[16.297091731441256,38.2651570697489],[16.297241713487505,38.265240596880915],[16.29755571474365,38.26543941936979],[16.29774731304588,38.26558635185008],[16.297856982261802,38.26568096539498],[16.298034152066624,38.2657748219204],[16.298197810270068,38.26586884215484],[16.298280471796275,38.26596374360273],[16.298500018404248,38.266163606264676],[16.298759674336612,38.26634174375097],[16.299006595207672,38.26656258996267],[16.299211118516627,38.266677449275846],[16.29949833276613,38.26688720684734],[16.299840865415185,38.2671708784621],[16.300086463221444,38.26731721132539],[16.300292136874585,38.267495941301995],[16.300497054198544,38.26763206951948],[16.300750257178326,38.26786972530567],[16.300993548097384,38.26804790511601],[16.30128086859238,38.26829528938179],[16.301514113908027,38.26850108574337],[16.30166850828535,38.268718035507895],[16.301693876760876,38.2687517017017],[16.30208328086977,38.269240907196156],[16.305032768489372,38.27207304901665],[16.305990620583387,38.27296511157161],[16.307695265985068,38.27436430318951],[16.30802104875549,38.27468194040201],[16.30814539243063,38.27484025145864],[16.30842051367418,38.27512465359987],[16.30870778942258,38.275334402083146],[16.308770759283398,38.27539642929298],[16.310352932058503,38.274356774428064],[16.310460661508717,38.27442557597955],[16.308837413569055,38.27546207576899],[16.308900200471996,38.27552389307072],[16.309082664874964,38.27578139733253],[16.309317800552808,38.27602377481533],[16.309597653922868,38.27628663728402],[16.309896534648416,38.27661928777813],[16.310267422002177,38.27700711604725],[16.310449317887056,38.27725008169268],[16.310659106413645,38.27746405312275],[16.3114278211775,38.278158213268675],[16.311852011605207,38.27869689841244],[16.312099511504485,38.27920500303392],[16.31301079654408,38.28098053953145],[16.313698931926027,38.28216903162239],[16.314935988320244,38.28427524947314],[16.315193768095277,38.28482147946952],[16.31522465748893,38.284871646492654],[16.31535605145099,38.285027823644114],[16.315510472527198,38.28522207942698],[16.315628505953782,38.28536775238732],[16.315782658957954,38.285548005126],[16.31597269103441,38.28574887000426],[16.31612787062773,38.28598511761861],[16.31628217349748,38.28617237937236],[16.31639158240993,38.28633213221085],[16.316582008686304,38.28655399185061],[16.316727172334673,38.2867273460105],[16.31690846199969,38.2869353168629],[16.317035886316322,38.28710887985027],[16.317225948372144,38.28730972254155],[16.317352982546183,38.28746228899768],[16.317588286673267,38.287711638063676],[16.31781384231755,38.28791209506162],[16.317986141629092,38.2881131481403],[16.318211967699305,38.28832760764456],[16.318374518612103,38.28847976948059],[16.318617820337607,38.28868001571616],[16.318843137363523,38.288866484935006],[16.318987533544643,38.288997861771364],[16.319222235845576,38.2892122048897],[16.31945194701247,38.28942501831764],[16.319798913380602,38.28968211188502],[16.319874681887086,38.289740327590685],[16.31995981512929,38.28980685943132],[16.31969247814229,38.290097978877135],[16.319580826998077,38.29033438084747],[16.319381971177464,38.290625698640135],[16.31931242063732,38.2907254953899],[16.31923104744475,38.29084315750779],[16.319200805283163,38.290903592573024],[16.319138954732175,38.290973831988595],[16.31894724318958,38.29125121682083],[16.318810184395716,38.29146217345694],[16.318736408068464,38.29157928409867],[16.318541721052814,38.29184111207143],[16.318521675467554,38.29190927049783],[16.318483808843766,38.292105174991406],[16.31846908064461,38.29229336368655],[16.318465092457103,38.292338583069935],[16.31847810679227,38.29258064967263],[16.31848612809991,38.2928859788278],[16.318419009396866,38.293077564396114],[16.318397528426516,38.29313891513879],[16.31822135798115,38.29342882651954],[16.318104207279113,38.29372402680297],[16.318089848009567,38.29376540255747],[16.317820536435903,38.29406565140354],[16.31742835181191,38.294378101953534],[16.317120578009327,38.29462228833462],[16.317072680478933,38.29465677725112],[16.317043315099596,38.29467581371886],[16.316927864460254,38.29475077104746],[16.316771421983344,38.29485126978514],[16.316467119721928,38.29503067904697],[16.31631895730294,38.29511803193108],[16.31558210478716,38.29557802632741],[16.315296688650527,38.29574459218491],[16.315141306888695,38.2958348142977],[16.31468930149966,38.29611963432782],[16.31445259887436,38.296318885047086],[16.314228069670587,38.29653984650027],[16.31398129378321,38.29676671611937],[16.313576815369437,38.29707091736557],[16.31327905806472,38.29718852965057],[16.312960624688227,38.2972849619355],[16.312551712136212,38.297432034597776],[16.312039837767784,38.2975630646002],[16.311199109816815,38.297800145097185],[16.310673062688874,38.29793207533113],[16.310373392572068,38.2979879687496],[16.310150540233685,38.29802940245861],[16.31005802111452,38.2980467045463],[16.30998858711952,38.2980815874752],[16.309893528901274,38.29812927702837],[16.309616348237167,38.29826839463275],[16.30930927860766,38.29840395623058],[16.309164836558836,38.29847146080241],[16.308677151270718,38.29873560671809],[16.3083939320103,38.29892005942587],[16.308189947056917,38.29904433653664],[16.307850858765654,38.29925092271776],[16.30747664005027,38.29944528760051],[16.307360752568716,38.29951599678944],[16.307303895399947,38.2995506886852],[16.30718092039596,38.29962572587869],[16.306844147378794,38.299876615684994],[16.30637917355568,38.300094222098686],[16.305669599185748,38.30040422076099],[16.305585105800663,38.30044081870808],[16.305526945463637,38.30045051184733],[16.305360837061087,38.30047819516885],[16.30515288136911,38.300512852321674],[16.304994462637428,38.30054076878894],[16.30495756430497,38.300543047596406],[16.304832481548665,38.30053974006597],[16.304464176035598,38.30052937568756],[16.304339550062203,38.30052305790018],[16.303768201868298,38.300425664032105],[16.3035356697109,38.30038577793188],[16.303449866252503,38.300371059439335],[16.303169372655198,38.30032294488165],[16.30245021731071,38.30032297260592],[16.302357983074742,38.300304768817234],[16.302000355337718,38.3002341821498],[16.301788886126612,38.30020959167885],[16.301577407834586,38.30018500048252],[16.30154154446917,38.30018083017842],[16.301233780702958,38.30014504120065],[16.300969478416622,38.300114305644406],[16.300777496042144,38.30007259151309],[16.300639578689314,38.30004267216928],[16.300522789518272,38.300017337973465],[16.300454457723223,38.300002515253304],[16.300268483891106,38.29995806114668],[16.300222408653017,38.29994704779091],[16.300156193757317,38.2999312207634],[16.300029972522463,38.29993682722529],[16.299413244058563,38.29996422061321],[16.299326822136017,38.29998248752122],[16.299279379472598,38.29999251538747],[16.299221187187097,38.3000045722857],[16.299080545356006,38.30003425065976],[16.29862837156662,38.3002199614659],[16.298185622961103,38.30041408916333],[16.297822953799113,38.3006526540006],[16.297463885104875,38.300926988353616],[16.297194483087278,38.30122719979427],[16.29694633407856,38.30152608056453],[16.29637588397611,38.301824024740306],[16.296222432778663,38.30190418073516],[16.29570068496619,38.3021077349749],[16.295188627181545,38.30226569416219],[16.29467424841963,38.30241478629535],[16.29407067241183,38.30254248219242],[16.293824211550035,38.30268832369366],[16.293778216741426,38.30272207918405],[16.293713211556128,38.302769805839304],[16.293653165226072,38.30281360892897],[16.293575912468054,38.30287119391489],[16.293402502369236,38.30297382456423],[16.293310332714746,38.303028964046845],[16.293215616501247,38.303087237492434],[16.293157591255508,38.30313347774696],[16.29282599538471,38.30339773890706],[16.292424010326393,38.30372036708366],[16.29209691285503,38.30377860691693],[16.291762402895216,38.30383816639716],[16.291462501115586,38.30391237299723],[16.291397603925404,38.30392843078598],[16.29098088057663,38.30419736127704],[16.290917985908884,38.30426915185048],[16.290743862529006,38.304468101470825],[16.29041765611127,38.30487079735657],[16.290104023319103,38.30521423175715],[16.28965854317236,38.305282542860475],[16.28921319889621,38.30532387314247],[16.288609656530095,38.30533908629619],[16.288025728680253,38.305407050103895],[16.287592372867284,38.30541162661326],[16.287147871989212,38.30556083472473],[16.286798884099092,38.305794016644676],[16.286432429189926,38.30605042851637],[16.28619882018404,38.30611127821279],[16.286151274897517,38.30612389893101],[16.285970477618992,38.30616961351988],[16.28565397525712,38.30632880385849],[16.285378949115938,38.30645124967722],[16.28510392205997,38.306573695830394],[16.28491367730089,38.306658394806895],[16.284682435907534,38.30676828362125],[16.284641289603602,38.30678783742989],[16.28422172144554,38.30695797427668],[16.2839388677438,38.30711930342584],[16.28385865768053,38.30716505152405],[16.283395158189556,38.307423373329975],[16.283080707386098,38.30764539751747],[16.282740788239707,38.30785552627818],[16.282229874212472,38.30813929709716],[16.281916798855306,38.30846018191559],[16.281677999051023,38.30866849135871],[16.28153447466016,38.30891584116432],[16.281301568222695,38.30921792607415],[16.28125159282574,38.30928274357425],[16.28115194189955,38.309411990983904],[16.281078156276674,38.309515545415444],[16.28094454355842,38.309755939518006],[16.28084249223566,38.30993953712007],[16.280664925755698,38.31015641481977],[16.28055142405625,38.31029504416794],[16.28049118548889,38.31039862276133],[16.280467296391127,38.31043970164004],[16.280291761857388,38.310741431316025],[16.280141405124592,38.31099989656221],[16.280047277772084,38.31116733590612],[16.279965863086833,38.311312207018446],[16.27975116930656,38.31151900882215],[16.279524825502396,38.31169505149822],[16.279346347550998,38.311935571899554],[16.279289836913474,38.312168482796736],[16.279240552285607,38.31237395223141],[16.27918877522529,38.312696526183586],[16.279047235489195,38.31310566990079],[16.278718858041593,38.31336003835034],[16.278368537541827,38.31365177290995],[16.277907014178933,38.31397292050037],[16.27787639697437,38.31400005169955],[16.27751385844677,38.31432128639872],[16.27690236082125,38.314669784360035],[16.276358490726967,38.31500954903481],[16.275676551743967,38.31526798071354],[16.275122371251236,38.31559040148442],[16.272439777021024,38.31672491302658],[16.272215819791,38.31681963558971],[16.27176905975307,38.31693293177939],[16.27074797853406,38.31741037495859],[16.26944975544981,38.3177431612593],[16.269069911235956,38.31795589648898],[16.26899331150516,38.317998829219874],[16.26864573729247,38.31819355893375],[16.26828007339758,38.31824782753033],[16.26800674884039,38.31826749291107],[16.26781374116369,38.318281386646326],[16.26736878274732,38.31834058156725],[16.267292087527974,38.31835881151745],[16.266956506287745,38.31844263572716],[16.266537774081122,38.318522699311494],[16.266363763884247,38.3185380340745],[16.266201757021033,38.318554033272015],[16.26611508795631,38.31856259796848],[16.265759422539425,38.31854582906325],[16.26562176002548,38.318539360183976],[16.26496426215165,38.31828795174326],[16.264412766735767,38.31818287066253],[16.264038310919677,38.318206187379175],[16.263682661257626,38.31824633241969],[16.263330365860604,38.31827725740369],[16.26295103895513,38.318323351545814],[16.26281815549172,38.318320058609096],[16.262484333893884,38.31831185358856],[16.262108712127233,38.31840716123352]]]}}]}
