{"type":"FeatureCollection","metadata":{"code":"080060","referenceDate":"2026-01-01","sourceDbfExportDate":"2026-02-18","upstreamArchiveUrl":"https://www.istat.it/storage/cartografia/confini_amministrativi/non_generalizzati/2026/Limiti01012026.zip","sourceManifestSha256":"70ac8256c4785dc6ed2814c32b6965ae76f9161b51abaa1660059e1c6cbd8ca6","license":"https://creativecommons.org/licenses/by/4.0/","attribution":"Istat, Confini delle unità amministrative a fini statistici al 1° gennaio 2026, versione non generalizzata.","modifications":["Converted from WGS 84 / UTM zone 32N (EPSG:32632) to RFC 7946 WGS 84 geographic coordinates.","Converted from shapefile to per-municipality GeoJSON without geometry simplification."]},"features":[{"type":"Feature","id":"080060","properties":{"code":"080060","name":"Platì","alternativeName":null,"regionCode":"18","regionName":"Calabria","territorialUnitCode":"280","territorialUnitName":"Reggio Calabria"},"geometry":{"type":"Polygon","coordinates":[[[16.069413996357447,38.256250526572245],[16.06927229847465,38.256281765931924],[16.068680721979632,38.25641654406793],[16.068397033843603,38.25656418560142],[16.067839150245202,38.25673739886718],[16.06746091629322,38.25666133578553],[16.067103350371887,38.25643107787927],[16.066596584744413,38.25619184626772],[16.066111990340627,38.25584333953579],[16.06574295185665,38.255685736827814],[16.065239736300303,38.2556442230739],[16.065080262978878,38.2556359233173],[16.06492007971615,38.25562758532858],[16.06455318078411,38.25554213400312],[16.064105985962886,38.25548342118803],[16.06358929521348,38.25540704309812],[16.063544550778612,38.25540042873842],[16.06315390853394,38.25528462257433],[16.062351926657044,38.25510371142536],[16.06191624594526,38.25510771402246],[16.061826142082833,38.25510854144133],[16.061683531716852,38.25510165776188],[16.06149401240689,38.25509259991358],[16.061141785692904,38.255105261173796],[16.060707263405458,38.2551447211847],[16.060400864407498,38.25529369973571],[16.060105139707474,38.25546450824886],[16.059800029568045,38.25568539183657],[16.05944846900167,38.25586858596953],[16.058958842402046,38.25595215657401],[16.058604475059077,38.256018574709884],[16.058250161103736,38.255968027294394],[16.05759945886898,38.255993858697224],[16.057581704677027,38.25563507479968],[16.057689161495713,38.25515625742015],[16.057787012487243,38.25481298235087],[16.057851339001445,38.25452120520531],[16.058063155879907,38.25410355097442],[16.058275923013966,38.25379830464123],[16.058477561765258,38.25352521794993],[16.058633833964073,38.25325487452484],[16.059073553328666,38.252863919977514],[16.059380194047424,38.2526879390552],[16.05978768372948,38.25247886710678],[16.059933349784455,38.25235629199735],[16.060104192487845,38.25221225700517],[16.060443609978783,38.25199389682209],[16.06085152827482,38.25178929194936],[16.06121682525199,38.251600768106684],[16.06159050854545,38.25142522275473],[16.061797576949544,38.251335452595406],[16.06197639211806,38.25125792773303],[16.062316666515443,38.2511204033541],[16.062689921777434,38.25088190445163],[16.06324694241709,38.25064129886082],[16.06352365142261,38.250441079530155],[16.0636879168841,38.250322221328666],[16.064040759919315,38.25021092419069],[16.06430174141561,38.2500646867546],[16.064573235079873,38.24990880176196],[16.064714839551442,38.249840999568356],[16.064971098959255,38.24971829716664],[16.065223863819195,38.249546781583796],[16.065400500059624,38.24942692335512],[16.06543308495899,38.24935765725099],[16.06551158814903,38.24919079318661],[16.065441465269554,38.24890868476691],[16.065416721155096,38.248809139838876],[16.06540143017329,38.24874761815212],[16.06533931527937,38.24855935857859],[16.065318489720028,38.248496236618855],[16.064970493605102,38.248202433509356],[16.06487661888057,38.24815659205808],[16.06438386657458,38.24791855006839],[16.06406241463676,38.247780559126774],[16.06360011523454,38.24748465584794],[16.063278229519916,38.24734219325333],[16.06269334501471,38.24713466083888],[16.062391348106193,38.24687403080525],[16.0619885997719,38.246633000068464],[16.061722263528335,38.246401699365855],[16.06150237050074,38.24620808828707],[16.061143151476617,38.245901426882334],[16.060854353710692,38.24564450785409],[16.060599456450138,38.24545750721615],[16.060251198563535,38.245028723355716],[16.06016699336327,38.24470544747768],[16.059867690105783,38.24463357657658],[16.05926173829517,38.24457574856038],[16.05863199988116,38.24453735653131],[16.058493135164127,38.244370328161146],[16.058434716058144,38.24429737771378],[16.058843511727343,38.24404325794358],[16.059161718632975,38.24400152331789],[16.059480907087007,38.243955232888204],[16.05986934081361,38.24393174740934],[16.060413453420942,38.2436469619568],[16.060489106704843,38.2434946599684],[16.06054701007517,38.24337797541218],[16.06058865416501,38.2430875693276],[16.060573033864078,38.24280963593901],[16.060331281706173,38.24261677804977],[16.06023664581177,38.242541557866694],[16.0598702720745,38.24235731086259],[16.05978521688843,38.24223065332112],[16.05968183135314,38.24207632025976],[16.059701133300074,38.24180526647638],[16.05972084403615,38.241538664687965],[16.059614039993672,38.24130291847981],[16.059511828294333,38.241210086892465],[16.05934797787214,38.24106191362181],[16.059217997142387,38.240968281974794],[16.058967730540797,38.240788002763814],[16.058518951741917,38.240900009803546],[16.05842062746303,38.24092455013791],[16.05806963363633,38.24115717269171],[16.05791888419721,38.241278752776],[16.05761742210835,38.24152188409736],[16.05751202368927,38.24146887956407],[16.0573634078479,38.241394143038406],[16.057226148620792,38.241325116530035],[16.057113082886627,38.2412922469634],[16.056893060508038,38.24122828307751],[16.05661017175824,38.24133984410325],[16.056291798944986,38.24151202935392],[16.055895895072414,38.241751874013545],[16.055425724219923,38.241667818783185],[16.05508162668706,38.241589650177325],[16.054703711818366,38.24154501084308],[16.054350501856696,38.24159334218104],[16.054078165884988,38.241740243410895],[16.053945569288032,38.24200465427049],[16.05387604704083,38.24219818414845],[16.05385802590876,38.2422483636979],[16.053750888918497,38.24237854177001],[16.05364375435768,38.24250871331335],[16.053362939898705,38.242818062480076],[16.053023828494528,38.24304097962776],[16.052785282630012,38.24321282967876],[16.052528754288932,38.24361065838648],[16.052532120135577,38.24388036179929],[16.052400567349583,38.2442436692617],[16.052221711221165,38.24456036202684],[16.05203076057817,38.244796807309555],[16.051760877243666,38.24504251484917],[16.05130915449047,38.24539816398084],[16.05106051933431,38.24564258781975],[16.050768119195784,38.245979622878885],[16.05049662909241,38.246135474698086],[16.050123348951185,38.24637391715662],[16.049725364178272,38.246519403368325],[16.049360948379235,38.2466583669298],[16.048836901819715,38.24679795495062],[16.048450359887585,38.246929241305295],[16.04790585208495,38.24719603315057],[16.04746365690329,38.2473711541344],[16.046916564106056,38.24755262492576],[16.04646177511952,38.247656535378184],[16.045972385275675,38.24777154125625],[16.045504000534738,38.24780879622494],[16.045036433280448,38.24791349020337],[16.04466144296874,38.24801707467196],[16.044389700700563,38.24819992166005],[16.044016155390434,38.24846535325188],[16.043735596263577,38.248792666527976],[16.04333798809576,38.24900108557284],[16.042660156708273,38.249496295520686],[16.042399822906606,38.249723406470316],[16.041930765633555,38.249724721999],[16.041624803175807,38.249819638425485],[16.04124869898488,38.24994128094967],[16.04075687977824,38.249898970183146],[16.040397920128278,38.24962371422866],[16.040109457316742,38.249443185385815],[16.03975477601726,38.24932962577186],[16.039433841346977,38.24929950352682],[16.038965015157594,38.24927378310391],[16.038589394496263,38.24934140143194],[16.03829430026862,38.24948963949542],[16.038021983187836,38.24968149729633],[16.037706376515462,38.25001540430334],[16.037458060786022,38.25016082091889],[16.03700221997312,38.250327734470815],[16.036616183084117,38.250449961756935],[16.036213402132066,38.250649677725754],[16.035538977929434,38.251018688992175],[16.03520790449741,38.25111959757655],[16.034833220919758,38.251241151292284],[16.034513714586367,38.25131436823693],[16.034127985380856,38.25145456960893],[16.03386724088113,38.25161871029606],[16.03372217579403,38.25155447934408],[16.03354536823284,38.25147614344448],[16.032971892149128,38.25137124666124],[16.03265055066534,38.25127815323641],[16.032341002048156,38.25118882720544],[16.031963220089533,38.25117560581667],[16.031459431063595,38.25109799933659],[16.0311346821768,38.25074868402747],[16.030901737739708,38.25043433946993],[16.030534287266384,38.2503215190953],[16.03003181328287,38.2503607636664],[16.029723153138818,38.25038384404044],[16.029557843688387,38.25034772123288],[16.029093775746965,38.250246310488805],[16.0287944672569,38.25017435884262],[16.028370726021,38.25006941551327],[16.0280644391572,38.24995276783994],[16.02794287340111,38.249906763776586],[16.02791171546786,38.2498946042043],[16.027646720277254,38.24973512784638],[16.027243263974523,38.24952999885544],[16.026699405021624,38.249067902879915],[16.026238405566147,38.248798760047535],[16.025847277995712,38.24858838742989],[16.025593940709978,38.24844618817771],[16.025050489680208,38.24804703647049],[16.02480867799913,38.24783217339613],[16.02454301518787,38.247484146057495],[16.024493521543803,38.24741931947325],[16.02420097382124,38.246960092932355],[16.024048645107435,38.24666785686852],[16.023919422814206,38.24637874615043],[16.02376517307324,38.24603715386783],[16.023612416278915,38.24574044719155],[16.02342719944495,38.245535682647784],[16.02317293700979,38.24533954639568],[16.022747062436476,38.24510875578524],[16.022389368270645,38.244860375389365],[16.022077354344486,38.244627230455976],[16.021720578589157,38.24443275964836],[16.021397858961816,38.24423624082555],[16.020744358113742,38.24405511336767],[16.02034342741936,38.24399376294847],[16.019759309196086,38.24392540293345],[16.01945066855774,38.2439484519381],[16.019004685783845,38.243907788589034],[16.01884177309532,38.243638696234186],[16.01897071306809,38.243113621060026],[16.019409947338193,38.24264189987325],[16.019783327110027,38.24240353010975],[16.020008509584226,38.24215157099142],[16.020103029425837,38.24156560574272],[16.02007893499023,38.24130164611568],[16.019933225954937,38.240797571970845],[16.019790487548676,38.24044177640142],[16.01956865227634,38.240108754836065],[16.019348688688673,38.23988355535773],[16.019048232570043,38.23968119426178],[16.018678478401398,38.23941102861429],[16.018311052892752,38.23925319033978],[16.017770686989653,38.23894378570924],[16.017459336451505,38.238746571471346],[16.01713645927966,38.23862203574046],[16.016723274118927,38.23840394547328],[16.01637745294559,38.23810084519043],[16.016188870855427,38.23780178485997],[16.015991117488134,38.23752577161251],[16.016574558008205,38.2359343011174],[16.015548958629807,38.235339152696916],[16.015784807040877,38.23500560131163],[16.016048869572927,38.23493281741646],[16.016514118344638,38.23480457384282],[16.016814183955233,38.23472186090167],[16.017069643247513,38.2346514440965],[16.01721873143462,38.2346103457577],[16.017412495159512,38.234556934372854],[16.01743148282109,38.234522197680356],[16.017591369379208,38.23422643975986],[16.017680565565612,38.23405905797415],[16.01793086595408,38.23359418208689],[16.018031987010076,38.23340637067622],[16.018089579062032,38.23329420090467],[16.018158389970594,38.23317160352103],[16.018064025828192,38.23313576413618],[16.017445861253105,38.232900597404715],[16.017104797811655,38.23276645005084],[16.01705570578492,38.232747137270735],[16.01687903572843,38.23267762899437],[16.016411985635376,38.23249387471863],[16.016285101799333,38.23243277594775],[16.01612042326509,38.23235347547595],[16.01568704112797,38.23214477526436],[16.01551737528144,38.232063044767735],[16.015289782527798,38.231953483096326],[16.015088983873625,38.23185677200843],[16.014622766634652,38.23163220380554],[16.014487846532106,38.2315662208608],[16.014459738876262,38.231553530423064],[16.014352967438413,38.23150197166519],[16.01431120347674,38.231390041914906],[16.014291238594904,38.23133750955293],[16.01415103910144,38.230960787674064],[16.014012719432248,38.23001545961087],[16.013997066380455,38.2297644907442],[16.01395852397329,38.22937994933978],[16.013962248482105,38.228916386088734],[16.014039133450424,38.22866435447083],[16.013728515664905,38.22844460502308],[16.01343871715699,38.22821909075497],[16.01324255411756,38.22803294582971],[16.01282814889891,38.22780142630381],[16.01252745599869,38.227581077418456],[16.012228123446437,38.22741910892768],[16.012066936685112,38.22731054185647],[16.011952157896364,38.22723326002171],[16.012039166911965,38.226908652860224],[16.012056593148113,38.22660171046036],[16.012073823135403,38.22615983345988],[16.012069447685988,38.22586321031709],[16.01196232449679,38.22549177679934],[16.011719215795054,38.22527696046739],[16.011212398729466,38.22503299781415],[16.010258292306606,38.22454145649472],[16.009923290587405,38.22430515862017],[16.009439542573002,38.224019322953346],[16.009186261179202,38.22383208467263],[16.00896644824195,38.223651848516845],[16.00856177174046,38.22334326202441],[16.008282664558454,38.223036131619004],[16.00791028316112,38.22250066853078],[16.007780895085784,38.22219354472094],[16.00763744247443,38.221770318750956],[16.00755327532777,38.22147395773847],[16.007504701652625,38.2212069562569],[16.00741956210015,38.22081171921946],[16.00717531058922,38.22056994890583],[16.006758813093025,38.22021259372826],[16.006608287873384,38.2199967053109],[16.0064306664797,38.219440562560536],[16.006216727691136,38.21898106442926],[16.006008108244842,38.21876866075102],[16.005754179696652,38.218500492377885],[16.0055552949564,38.21825601596653],[16.005324179523015,38.21797299021564],[16.00507863432971,38.21761434837227],[16.004903425387415,38.21736395414126],[16.004751720243924,38.21712114147091],[16.004610778024727,38.21684169856978],[16.00420552645817,38.216393668916766],[16.004009977604035,38.21619847912463],[16.003753693257288,38.21583148481235],[16.003336189658064,38.215537134983656],[16.003025881024264,38.21539380098107],[16.002716273916445,38.21522792569662],[16.002119225870526,38.215052288965765],[16.00181045317448,38.214998829490334],[16.001338562469677,38.21471674161146],[16.00170024222761,38.214461133586894],[16.00199376086663,38.21422311655225],[16.00239065727607,38.21403738260087],[16.002821075426986,38.21380016593724],[16.003151430919292,38.21366339480588],[16.0035809255362,38.21337224456917],[16.004022017030696,38.21305340524609],[16.004292840357824,38.21281674373134],[16.004677100200322,38.21251479625603],[16.00501400505722,38.21217970393028],[16.00538951591551,38.211905272121186],[16.00543156556941,38.21186618450969],[16.00583952474197,38.21148693134775],[16.006067412171998,38.21133747961137],[16.00610267667972,38.21131397995475],[16.006269854371208,38.21120471151182],[16.00672534923677,38.2109572773396],[16.00678184558067,38.21092658759835],[16.00697627284112,38.21080786720042],[16.007254588508086,38.210637920946525],[16.00755038481683,38.21047112867298],[16.00786720856401,38.21020922051722],[16.008284245481217,38.20983332763321],[16.00853266672205,38.20961600200156],[16.00860414020752,38.20956061629745],[16.008803237569154,38.20940633825427],[16.009254317974236,38.20896991773148],[16.009525968513003,38.20874218690657],[16.0100474728761,38.20850397505873],[16.0100827775438,38.20847649529795],[16.010341802593043,38.20827488143335],[16.01082774573706,38.20794882910629],[16.01145451806905,38.20770877082984],[16.0119984855578,38.20754117110962],[16.012421017788277,38.20738535474617],[16.012897451771142,38.20727129456523],[16.01335078455419,38.20705063130226],[16.013882908926167,38.20673078642338],[16.014177153598602,38.20645671222542],[16.0146853515793,38.206066331980956],[16.014966911544008,38.20583801320554],[16.01523815796748,38.205547316116125],[16.015454896550096,38.20538095874285],[16.0155433567618,38.20531306184999],[16.01561144416859,38.205211784255674],[16.01571037576832,38.20506462671783],[16.01619830643518,38.20477442020637],[16.016549082825335,38.204510432095745],[16.016933314962404,38.204253444471554],[16.01739790144154,38.20398711302342],[16.017862152452217,38.20370281729511],[16.01825906609352,38.20350354522852],[16.018554684598676,38.20312592044465],[16.019142232173824,38.20293766797047],[16.019337213534943,38.20279091424977],[16.019492991126295,38.20267367539114],[16.019998860377523,38.20217094650434],[16.020475159529823,38.20190841426165],[16.02080319683568,38.20170426326102],[16.02114323497128,38.201476909964434],[16.021517036463994,38.2012745029734],[16.021869710989648,38.20116333294978],[16.022140567099374,38.20101660046085],[16.02226745194875,38.20098688324477],[16.022616125645875,38.20090521426965],[16.02281228271792,38.20085927456686],[16.023052224956057,38.200798975803956],[16.023256058730016,38.200747119123726],[16.023549951061085,38.20062947484912],[16.02366856755409,38.2005825045564],[16.023977386957895,38.20048910124438],[16.024166169000562,38.20043149678777],[16.02441543546229,38.200401597688995],[16.024542304722697,38.20038638077736],[16.02504369713147,38.20032474048919],[16.02518294196506,38.20029373074214],[16.025375717493027,38.20025080163141],[16.025759652155944,38.200020777519],[16.02617010545404,38.1999960930524],[16.026238557317928,38.19999197579841],[16.026586961590397,38.20021122222489],[16.026630049187407,38.200238336637725],[16.026950371918023,38.200531603613314],[16.02708173475187,38.20065237671801],[16.02713573403829,38.20065975252223],[16.027502559404702,38.20070785023859],[16.027588161513343,38.20071922014139],[16.027711269161866,38.20073556873737],[16.028066189016872,38.2007951931146],[16.02847671540048,38.20081097292797],[16.028947224621326,38.200931112176484],[16.029136086889167,38.20098532281449],[16.029348828538932,38.20104638572266],[16.029726264836295,38.20117661894325],[16.03011490439503,38.20115772591344],[16.0305243749204,38.2010249852398],[16.031433359492603,38.2006735152985],[16.031614384767288,38.20060999969318],[16.0317738178058,38.20055405788021],[16.03208175708694,38.200481534210354],[16.03279901034208,38.2002944170104],[16.032983200294993,38.20026395151005],[16.033139947532828,38.20023802953286],[16.03350269801312,38.200171391267055],[16.033891589636447,38.20011179031669],[16.034622323924815,38.19994634737959],[16.03533924509076,38.199903170600194],[16.036115249110473,38.1998519160982],[16.036499680218895,38.19981538438453],[16.03689048439596,38.19977824526857],[16.037283298727687,38.19967990366361],[16.03736950086343,38.19965828169808],[16.03748181482549,38.19963015188875],[16.037597344412486,38.19960241842343],[16.037628128403583,38.19959502815205],[16.037759471366844,38.19956349618215],[16.038132231858288,38.199474005320425],[16.03818547840775,38.19946397498842],[16.03858850016478,38.19938805086376],[16.038745972454205,38.199365448758854],[16.03918109361772,38.19930298976436],[16.03930818960854,38.199284746333724],[16.039650019050338,38.19923567692714],[16.039870405103887,38.19920404131121],[16.04043261902674,38.199123334585764],[16.04047894467094,38.19911668383587],[16.041001051414707,38.199106876777705],[16.041128750494977,38.19910451996143],[16.041540947764123,38.198943281637156],[16.0416506868289,38.198879160005845],[16.04182149853936,38.19877935475306],[16.041952047075554,38.19864867545265],[16.042046250838872,38.19855437964842],[16.042082852857323,38.198505230489424],[16.04210761602038,38.198471809503026],[16.042159668560018,38.198401374911896],[16.04217982930722,38.1983764686857],[16.04227072429169,38.198252957713365],[16.04256715051305,38.19809115075526],[16.04261357609746,38.19809931959668],[16.043138349677296,38.19819165557735],[16.043193565812967,38.19820231613183],[16.04368888544962,38.1982996093565],[16.043771217168313,38.198287917171704],[16.04424543370586,38.198219362820225],[16.044333306822228,38.19819931019053],[16.04487134704949,38.1980755409706],[16.04533823055354,38.197937536043696],[16.045443537775594,38.19789162382634],[16.045781246470685,38.19774438289749],[16.045810109896706,38.19772869270834],[16.04592850102159,38.19766432784325],[16.045988378103853,38.19763177318477],[16.046302445341063,38.19746103350593],[16.04651913072566,38.197393391950676],[16.046713245061113,38.1973327965427],[16.047095421067528,38.19729132270101],[16.04718002903528,38.197282140323196],[16.04751052634597,38.19732517688471],[16.047671940749204,38.19735852860644],[16.04808345744299,38.19744355397176],[16.04825027091564,38.19744442344905],[16.048632378246044,38.19744641663996],[16.04882100148373,38.197451862041966],[16.048985330005035,38.19745660589395],[16.049376641109408,38.197432991095944],[16.049725430213048,38.19749245713546],[16.049786423326644,38.197502743380305],[16.049969206474135,38.19753628214823],[16.050302908430744,38.19759751522545],[16.05055228933015,38.197671154588164],[16.050770879551205,38.19773570125592],[16.05112987316327,38.19774930766039],[16.051228587436327,38.197753048191785],[16.051700309462433,38.19775369081814],[16.05181149208406,38.197753842440655],[16.05200571068807,38.197804651963146],[16.052188713130846,38.19785252526052],[16.05228255510275,38.19787989167414],[16.05254654629733,38.197956872946065],[16.052887165689555,38.19810725342469],[16.053041318331765,38.198191952079185],[16.05345684999264,38.1984258859339],[16.053708618221954,38.19860148257022],[16.05406535269879,38.198850284048945],[16.05408849075341,38.19886886727234],[16.054273203106828,38.19901721198714],[16.0543883335847,38.19910967401957],[16.05468497458124,38.19914174942625],[16.05478870244489,38.19915296607904],[16.054928971423116,38.19914929053069],[16.05497580649702,38.19914806235328],[16.055172479806696,38.199142908733414],[16.055254897920385,38.19914074941973],[16.055314635251044,38.199139183553],[16.055829639774842,38.1991890518284],[16.05619581050044,38.19920667722662],[16.056402298772678,38.19921661682506],[16.05661709800951,38.19922695543569],[16.056977514723997,38.19927015950535],[16.05716346983322,38.19929245077264],[16.057440400013625,38.19932564507785],[16.057553715840406,38.199333860755516],[16.058127776121513,38.19937547773888],[16.05825269724855,38.199384533495305],[16.05869407277995,38.19933718934148],[16.058925451250136,38.19931239062479],[16.059258083697767,38.19927516755905],[16.05944987341855,38.19925370492715],[16.059821510731645,38.19920723521773],[16.060076425063777,38.19917535831221],[16.060387144963887,38.19916205577061],[16.06084134873854,38.19914260820262],[16.060955350248705,38.19914337222638],[16.061310170362297,38.19914576156676],[16.0615244641463,38.199134029652086],[16.06167540118417,38.19912576589754],[16.062096131210023,38.19910280776219],[16.062486476252875,38.198987460863215],[16.06255744950213,38.198966451427204],[16.062635249908716,38.19894615282856],[16.062996263512005,38.19883469460327],[16.063155288554245,38.19878680765501],[16.06319895736259,38.198767699859054],[16.06363237207562,38.19857804071064],[16.063745221317223,38.19852311116641],[16.063928913122357,38.19843369876877],[16.064107255116035,38.19834688934729],[16.064291205367926,38.19827567875204],[16.064630532221873,38.19814431604667],[16.064842746133646,38.19808548919524],[16.06510788547281,38.19801198938394],[16.065396654503765,38.19791973060893],[16.065507396754636,38.1978851762505],[16.065835945777213,38.197702542223546],[16.065938195192558,38.19762667186474],[16.066218755456767,38.197418490884424],[16.066271863034103,38.197392340707644],[16.066396408236773,38.19733101358252],[16.06647568795458,38.19729197501768],[16.06661449593001,38.19722362222555],[16.066942475692127,38.197005861307446],[16.066952294128882,38.19698148230642],[16.06698470909265,38.19690155290275],[16.067002914621884,38.19685169754922],[16.067164859189642,38.19643866878931],[16.067341840032753,38.19599034277858],[16.06747660504327,38.195860375443836],[16.067643484815402,38.195699434938504],[16.067803100313835,38.19550040978091],[16.067867176590976,38.19542051135104],[16.067988845912446,38.19526597379672],[16.068138632566694,38.19507572079368],[16.06818444329747,38.1950275137721],[16.068406232595617,38.1947941215029],[16.068504663295194,38.19470846439006],[16.06869009757165,38.194547094336734],[16.06872288444348,38.19451856160859],[16.068790949972964,38.194442452673314],[16.068816793392884,38.19441361677609],[16.069037789744385,38.19416664622038],[16.069060855151434,38.19412318273478],[16.069136781352178,38.19398010745112],[16.069193168810255,38.19387385241315],[16.069210968149104,38.19383559359327],[16.069305143274846,38.19363317587763],[16.06945836009336,38.193259536027206],[16.069671822836373,38.1930532959558],[16.069806075900782,38.19292351470126],[16.07012540722339,38.19277823588137],[16.070432082760846,38.19262021759654],[16.070735519493613,38.192340957165015],[16.070901767210803,38.192101488896654],[16.07108109061314,38.191820750101826],[16.0711801030078,38.19154934832545],[16.071186835537755,38.191252064553616],[16.0711834122643,38.19098238773145],[16.071439835415966,38.19051253268289],[16.071597581358002,38.19034058510884],[16.071933274243676,38.189974401181274],[16.072353308719293,38.18969257400646],[16.072906052049223,38.189281274056256],[16.07325523520814,38.189062195520826],[16.073473141167636,38.18894611023229],[16.073516151117854,38.1889231972526],[16.073550555023537,38.18890489337327],[16.073958689159905,38.18874976992043],[16.074008466678322,38.18873798853777],[16.074064723450302,38.18872457955745],[16.074313886253524,38.1886653883507],[16.074749381711076,38.18866186652172],[16.074997281018682,38.188659985062856],[16.07527873000441,38.18870711707194],[16.075352078456056,38.18871936571928],[16.075531781317505,38.18877627344542],[16.07568576979656,38.18882506720855],[16.07602885189765,38.18893922682513],[16.076833280618285,38.1885081480199],[16.07713883301564,38.188368182196726],[16.0777420775707,38.188183205339975],[16.07790791224311,38.188301852031564],[16.078066772234234,38.18841549080406],[16.07835319830803,38.18859155684625],[16.0788037817885,38.18894659946157],[16.079046628093273,38.18914330547981],[16.07941724345759,38.189467208369564],[16.07976260688016,38.18970716866436],[16.08009719301073,38.189938790893635],[16.08035169551192,38.19015276866663],[16.080654776841868,38.19054373659654],[16.08082236607811,38.19110934563695],[16.081009955244514,38.191426336019546],[16.081161945149326,38.19165553664548],[16.081374254820567,38.19200701089934],[16.081521329980973,38.192156689721365],[16.081662084423197,38.192299934013874],[16.081720024950766,38.192339275998876],[16.081779455959914,38.192379595470605],[16.082112115153244,38.19260541018189],[16.082426203323585,38.192834478398524],[16.082527750301345,38.192908524787626],[16.08273639751945,38.193002869572524],[16.08293023064157,38.193091043713],[16.083365870855822,38.19320406357398],[16.084008625917416,38.19338100202807],[16.08415930140084,38.19339452358085],[16.084636820414072,38.19343736800196],[16.08479981801956,38.19343264240231],[16.085391998353593,38.193415469157806],[16.085445441906383,38.193413919662774],[16.085631462603516,38.193408525082916],[16.086246859644483,38.1934468289761],[16.086332455823428,38.193452154949206],[16.086875845232882,38.1934859748843],[16.087062051292044,38.19368608108327],[16.08732972050817,38.1939087022887],[16.087354660237402,38.19392879311214],[16.08766352038816,38.194184870256215],[16.088226527486107,38.194420589255124],[16.088547219211097,38.19450909559891],[16.089100108767543,38.19488937398938],[16.089344070428933,38.19518492797],[16.089839767839813,38.195460724712184],[16.090127409617548,38.19551311642893],[16.090244256455566,38.19553439859688],[16.090320969355624,38.195548370086236],[16.090647833836588,38.19565296085962],[16.090724524114695,38.19567932960022],[16.090836933871785,38.19576332728039],[16.091010395139826,38.19589282719029],[16.091345490312765,38.19614300080938],[16.091447578023377,38.196184350872244],[16.091730848657484,38.19629908441906],[16.091818735909566,38.19633468033285],[16.092040379433378,38.19641836288297],[16.092311391823632,38.1965206837646],[16.092631953744547,38.196699696226645],[16.092830088167855,38.196813053382684],[16.093038818686594,38.19690056421501],[16.093235414071177,38.196982985506324],[16.093439249515946,38.19706844118042],[16.093486463232217,38.19709211064571],[16.093573625871926,38.19713580543699],[16.093618645054242,38.19715837471153],[16.093833047045095,38.197265902055946],[16.093892626884887,38.197295770046445],[16.09407159413157,38.197385508432646],[16.09477260274165,38.197720778119084],[16.09525712337498,38.19804220387883],[16.09568321788529,38.19829071463402],[16.096180793572312,38.198629324248266],[16.09673144627919,38.1988837509541],[16.097168900410605,38.19913156478573],[16.097642847585792,38.19941763945483],[16.09775240699818,38.19957312823368],[16.09779415763354,38.19963256185153],[16.097864537529553,38.199732528815986],[16.097896709369756,38.19993318940486],[16.097928850781543,38.20013380415025],[16.09794087331541,38.20020907049127],[16.097949094244612,38.20025731960891],[16.09799093356218,38.20050290177798],[16.098063427710745,38.20076389948585],[16.098304404065733,38.200969647518896],[16.09852077578318,38.20109647529183],[16.098652055334565,38.2011734253283],[16.09875883487308,38.20126019487577],[16.09880617398985,38.20129866332537],[16.098950790409006,38.201416176768625],[16.098987454214296,38.20146679313178],[16.099158289047697,38.20170264528165],[16.09918795940822,38.201743607991894],[16.09933838688863,38.20205832903511],[16.099400954446107,38.20220297166594],[16.099456788838474,38.20232932274921],[16.09947826584344,38.20244883954917],[16.099511233345268,38.2026440443461],[16.09951860862422,38.20268336903128],[16.099530315695283,38.2028115080366],[16.099533906075234,38.202850775796485],[16.099547095684525,38.202993703793155],[16.0995347979774,38.20305062017536],[16.099527666351854,38.20307906658187],[16.099482084302974,38.20328209478477],[16.099517482843094,38.20352223625842],[16.099522008138024,38.203549649343074],[16.09953268676631,38.2036253803948],[16.09958285747996,38.203831062940495],[16.099604715047423,38.20392091441381],[16.09961811030696,38.203976133218106],[16.099608670016412,38.20407132374665],[16.09960089139826,38.20414974928128],[16.099597229014545,38.204182235608094],[16.099567904260464,38.20448238837761],[16.099527264504122,38.2046263815804],[16.099482897997614,38.20478358757722],[16.09945036850491,38.204898848157946],[16.099482966409475,38.204909226841906],[16.099528767997136,38.20492380941788],[16.099561525912478,38.2049342386283],[16.099661688390604,38.204966128404564],[16.09971287647914,38.20498244455081],[16.099806330241844,38.20501220501724],[16.10016020976481,38.20508965053373],[16.100584048144196,38.2052123111327],[16.100860021114578,38.205352969793346],[16.10110265138098,38.20553163684406],[16.10136263931169,38.20562668738503],[16.101608137747483,38.2057168201641],[16.1021561895652,38.20571048644758],[16.10252085551589,38.20567931941011],[16.102828029417157,38.20566733541112],[16.10313840433206,38.20565520810139],[16.10363012628408,38.20567029487856],[16.10408501689926,38.20562912098686],[16.104760356000142,38.20564202440979],[16.1051935636519,38.205656148671],[16.10542891183482,38.205380942388686],[16.105642908451852,38.20531617375675],[16.105726501589974,38.20529087149307],[16.106272455214054,38.20513170625299],[16.106588479818683,38.20498203171819],[16.107099882019526,38.20483395596602],[16.107782032051297,38.20463950353204],[16.107903917007903,38.20463500533752],[16.10794935181511,38.20463332885287],[16.108088102987434,38.20462820706264],[16.108158349336584,38.204625614252464],[16.108365639156865,38.204698908178045],[16.10842838048,38.204721197023595],[16.10853773613761,38.20475994051591],[16.10866098318716,38.2046798937396],[16.108820476872857,38.20457630498265],[16.109126434185068,38.20438226383885],[16.109598275013788,38.204587438714626],[16.109669416660356,38.20471770140509],[16.109750919564583,38.20486602410109],[16.110320635606303,38.20480435054887],[16.11068480915775,38.20471021364123],[16.110992653982766,38.2046374878987],[16.111650240992525,38.2043230743207],[16.112365062155316,38.20405463998494],[16.11413948002747,38.20361383665444],[16.11412341144259,38.20364282001847],[16.114080170758616,38.20372165887873],[16.113950369644694,38.203958141517546],[16.113931677822645,38.20404124092587],[16.11392566884105,38.20407097718928],[16.113875499711426,38.2043000509024],[16.114008363376755,38.20469679415758],[16.11429173920996,38.20501658111458],[16.11433442635672,38.20506377010946],[16.114876615996184,38.20539958663712],[16.115289608881618,38.205585826099906],[16.115852906954295,38.20580789976087],[16.116220159984188,38.205894556238],[16.116322646577874,38.205918739009654],[16.11682628130106,38.20604097206292],[16.11691285937563,38.20607609787936],[16.11724174957383,38.206209034695675],[16.11741198291245,38.20630580578769],[16.117770002274895,38.20650971534285],[16.118160767199353,38.20670181391941],[16.11869128679938,38.2069528426215],[16.119068582827357,38.20705230541906],[16.119217946085396,38.20709168010621],[16.11932167438805,38.207101070990156],[16.1195763477919,38.2071256753888],[16.1196362850278,38.20713105481007],[16.119709754023425,38.20713853578995],[16.11974425447956,38.207173594489205],[16.11986002571596,38.20729989879963],[16.119961170305018,38.20741012136659],[16.12000145059744,38.207453472158335],[16.120044009085177,38.20749781398117],[16.120340325297537,38.20781043370533],[16.12054761495793,38.20804969093989],[16.120701651122456,38.208284159137634],[16.120704994179096,38.20854902637878],[16.120707802061997,38.20876862185733],[16.120586626058888,38.20905939293368],[16.12049437016248,38.20923158751884],[16.120442016625784,38.20932909380148],[16.120155901847802,38.21001675636179],[16.120047077484738,38.210360737378515],[16.11967772073877,38.21089591018756],[16.12006533649021,38.210849985928554],[16.12048878440612,38.21090053713305],[16.12093427625277,38.21094963202078],[16.121217074498784,38.21069423622301],[16.121361576713912,38.21043802542232],[16.121265527915686,38.21009752423392],[16.121272130636278,38.21006677896019],[16.12132914611277,38.20980127391795],[16.121541557343825,38.20955442738679],[16.12176698722306,38.2093747148786],[16.121868320922427,38.20941792874099],[16.12208897186802,38.20951205337253],[16.122335468735198,38.20993332452366],[16.1223767454601,38.210340137100346],[16.12235366669443,38.21054166861445],[16.1223465774432,38.21060843592598],[16.122326175101787,38.21078403977537],[16.122356618352917,38.210969880685944],[16.122375782783784,38.21108687538038],[16.12267813785766,38.21136531918992],[16.12273953811033,38.21167193081552],[16.122744154506332,38.21199552792604],[16.122703097387433,38.21230389198986],[16.122651690329324,38.212608392749516],[16.122688696159326,38.21289477966748],[16.12270240998912,38.21300294580625],[16.122728390571314,38.21320196932679],[16.123077235552756,38.21357653542545],[16.123169600780898,38.2136200799204],[16.12349116712387,38.21377167499086],[16.12427365058047,38.21410628155809],[16.12487264472232,38.21448807757226],[16.125074214689324,38.21454889881908],[16.1255174398369,38.214682635111615],[16.126218902530912,38.21506264813153],[16.126306904572512,38.21510428722476],[16.126562989599954,38.21522545651333],[16.126768945122205,38.215322903427094],[16.126816761489625,38.21534552847883],[16.127151473283316,38.215532023044275],[16.127588287920986,38.21569878068499],[16.12804859474128,38.21594505824192],[16.128473882797312,38.21613950648623],[16.128878069560397,38.216380214383534],[16.129315907261784,38.216600884723974],[16.129626498847678,38.21677154977875],[16.129718344703335,38.21682371367223],[16.130202200077264,38.21707755237733],[16.13061454005815,38.217245625872714],[16.13072930883902,38.217306581986385],[16.130961037578448,38.21743154022388],[16.131387358731615,38.21767989692186],[16.13158394559111,38.21776871001252],[16.131755735694455,38.21784631820702],[16.132100264635874,38.217987206006455],[16.132455961421286,38.218082419535655],[16.132813378476833,38.2182675108466],[16.133115324253076,38.218482960933386],[16.13337911434473,38.218687254642674],[16.133725524028755,38.21889099699787],[16.134140193436735,38.21912205409746],[16.13471387287839,38.21917247444504],[16.135124031001478,38.21918339672208],[16.135558867496908,38.21924229514549],[16.135971360906595,38.2193205415882],[16.136653551705763,38.21976463881458],[16.136837570823435,38.219969304650235],[16.136990931646817,38.22023883544508],[16.1371439732699,38.220455553397315],[16.137341171201584,38.22075718739173],[16.137587999896322,38.22115142898008],[16.137797725227934,38.2214579720849],[16.137944732163977,38.22162418676179],[16.138043032965065,38.2217353258796],[16.138217974267008,38.22202151728197],[16.138188313808723,38.222329188311335],[16.13819400637251,38.22264820430821],[16.138038680812276,38.22296807128687],[16.137496096113942,38.22330709476537],[16.137365444790706,38.223413332701675],[16.137214907825722,38.223535696265486],[16.136980282219934,38.223812947514155],[16.136915297010535,38.22388973924138],[16.136821513645295,38.22400055866724],[16.136690167637244,38.224147528318184],[16.136602530852016,38.2242455904294],[16.13638986960107,38.22448375281955],[16.136325317780514,38.22456107914199],[16.136275011248195,38.22462269918384],[16.136180621682502,38.22473828003205],[16.13608350381596,38.2250352395164],[16.13608878411299,38.22508389860728],[16.136137273780896,38.22553074235916],[16.13616717822645,38.22580631990768],[16.136188724261714,38.226004878734294],[16.136211163502022,38.22661074761292],[16.13616782878219,38.226851803265454],[16.136120322815316,38.22734049492883],[16.13612407520572,38.22772709821238],[16.136072041476552,38.22799677445147],[16.136064305366943,38.22805080180241],[16.136077853291297,38.22835966018854],[16.135695291824,38.22939959025409],[16.135543739480646,38.22989825493183],[16.135524807079175,38.22996054220448],[16.135489448299122,38.23007324150765],[16.13544318131676,38.23022915869387],[16.1353124161577,38.230610496073986],[16.13514711204575,38.23094453746957],[16.134550086759603,38.23087757098542],[16.133999809102754,38.230776253917696],[16.133470716252685,38.23055668514317],[16.13315927827202,38.23040477142108],[16.132744400179558,38.230128752367754],[16.132306113735662,38.22996106218222],[16.13204257898992,38.2297758002474],[16.1314904145207,38.229611594232345],[16.131190714479363,38.22940499487584],[16.130960261804752,38.229221157299676],[16.130681982640724,38.229076047640994],[16.130527133414816,38.22899765428589],[16.130443170467085,38.22895541796602],[16.130349278447913,38.22890761375425],[16.130040644097736,38.228885981905556],[16.129685209433585,38.22880872925377],[16.129141008410674,38.22840563507273],[16.128589687186217,38.22813343395421],[16.128060902728798,38.2280037856475],[16.127685156686702,38.22805369446996],[16.127251146345223,38.22800372639532],[16.126735069720002,38.22794526104433],[16.126356856725174,38.22788287345143],[16.125991990634258,38.22786915772207],[16.125463151862007,38.2277572106442],[16.124467926643845,38.22748987816141],[16.124133767329628,38.22741129187456],[16.123801702224025,38.22736857637839],[16.123436094499453,38.22739088104332],[16.1229024418792,38.22753140145695],[16.122344537754508,38.22775884997321],[16.122196725392925,38.227840089576],[16.121960486906573,38.22797119358772],[16.12192176364986,38.22798812663732],[16.121494320621718,38.228175042336815],[16.121435221341777,38.22822767462074],[16.121379844406654,38.228276989638985],[16.12105510478762,38.22856618610087],[16.12097993034841,38.228705250759155],[16.120872213537226,38.22890401834813],[16.120843903041223,38.22895689504246],[16.120767959822512,38.229167987698176],[16.120736351024924,38.22925584701498],[16.120716152218456,38.22931354854593],[16.120638389608725,38.22953621158982],[16.12058111886963,38.22962920997204],[16.120548807347422,38.22968171704797],[16.120400640493372,38.22992231155426],[16.120359218451714,38.22998957569772],[16.120280844048672,38.23009932996176],[16.120044698802992,38.230431572313584],[16.120022614156397,38.230461356256356],[16.119943749755468,38.23056771441635],[16.119899491476197,38.23062740014613],[16.119753086914955,38.23082484459311],[16.119719822894904,38.2308697024218],[16.119514395306897,38.23104370607694],[16.119439424310762,38.23110720833962],[16.119380276419133,38.23114652095059],[16.11909476348025,38.23133589459313],[16.11883926165923,38.23144595090094],[16.118734205415166,38.23149115044752],[16.11860985539175,38.23154542488337],[16.118289703232897,38.2316595670579],[16.117882091998947,38.231805948562275],[16.117842224484612,38.23180801981553],[16.117751680536404,38.23181509542037],[16.11735906122602,38.23184577184127],[16.11694875705482,38.23196524255856],[16.116550317608482,38.23201651812487],[16.11635285341303,38.23207278930331],[16.1161289047178,38.23213932235043],[16.11605674824041,38.23215143135565],[16.115875835471467,38.232187215122785],[16.11570772537144,38.2322208240051],[16.115547563688384,38.232271121385985],[16.115457864928203,38.23229929588328],[16.115389586058278,38.23232074478574],[16.115306856083166,38.23234644065814],[16.115137877982686,38.232399934935295],[16.114587324441484,38.23261846714981],[16.114536860687544,38.2326384981417],[16.114192349162025,38.23272326419269],[16.1140022941288,38.23277002615775],[16.113950686622875,38.232784040563025],[16.11388921568583,38.232800734911365],[16.113725205033248,38.23284527458229],[16.11366065310949,38.232862805147654],[16.1132709151467,38.23296893449185],[16.113001811746262,38.233042213961845],[16.112669744592477,38.23308060607944],[16.112410024600585,38.233093713654604],[16.112235639105695,38.23310257125277],[16.111492968385342,38.23308932616105],[16.111150494109502,38.23311474437496],[16.11071864616015,38.23314550964373],[16.110362246535967,38.23313122966451],[16.109917358794853,38.233203293862125],[16.10966531296364,38.23324957618084],[16.10955359902038,38.233270388064355],[16.109096782020035,38.23331173500101],[16.10895439529424,38.2334007276949],[16.108677795079714,38.23357565735524],[16.1083522647217,38.233807150107005],[16.108241181015813,38.2339028755977],[16.108068736138573,38.23405353818048],[16.10776364313984,38.23424305158472],[16.10749514677372,38.23433466659267],[16.107412909598445,38.234362726318345],[16.107330409674965,38.234390875750634],[16.107209220587176,38.23448934216034],[16.107113990679945,38.23456671621636],[16.106994413472606,38.234663873403605],[16.106947402162866,38.23470206975349],[16.106675146772552,38.23483081575582],[16.105957370670062,38.23497363871087],[16.10591236443313,38.23497255862443],[16.105616000096674,38.23496742160575],[16.105456327996297,38.23499930954185],[16.105227235672352,38.23504506197663],[16.10488713513649,38.235182715606456],[16.1048442264492,38.235209252312906],[16.10479604283388,38.23523908146578],[16.10458053549998,38.23537222547872],[16.104162160510636,38.235613597090456],[16.103819078246325,38.23583395658815],[16.10369753934528,38.23591250846537],[16.10362171895955,38.23597580091747],[16.103292083430556,38.236251284962],[16.103072674815788,38.23650079088527],[16.102853269813867,38.236750289933546],[16.10261871991644,38.23709291836636],[16.102559024471553,38.23718728350064],[16.102472289507926,38.237323240016245],[16.102214685724345,38.23761228231306],[16.101966626419742,38.23780530534251],[16.10193247650346,38.237831877805846],[16.10150107816455,38.238042545356734],[16.10137722980275,38.23816596377349],[16.101265640403675,38.238277163417855],[16.101164766642142,38.238377683001374],[16.100858804100714,38.2385898808175],[16.100577891744294,38.23888136024571],[16.10052864109843,38.23893656943704],[16.10035302084879,38.23913342944628],[16.100162008598097,38.239202142975],[16.099886074646058,38.23930127822586],[16.099454773931647,38.23943994798056],[16.09910075147674,38.23947947349388],[16.098922884998018,38.23947257885347],[16.098706804532082,38.23946420888441],[16.098381575064124,38.239451606317466],[16.09815182178646,38.23944270264778],[16.098105740203327,38.23944516838787],[16.09787088621509,38.23945773379426],[16.09753482152996,38.23947571405715],[16.097425441417847,38.23950400805635],[16.097133132331752,38.239579760042155],[16.09687563561902,38.23964622799124],[16.09666757911872,38.23967824984461],[16.096247725718506,38.23974287062352],[16.096044119845395,38.23980527529938],[16.095914988245553,38.23984084802858],[16.09588469434409,38.23985613327657],[16.09537310074211,38.24004338753152],[16.09510043059218,38.24018590643321],[16.094750083143797,38.24047798794315],[16.09463864622729,38.24059379658464],[16.094525766951946,38.240711121402704],[16.09447310364174,38.2407460740949],[16.0943955746643,38.240797531020675],[16.09410735423347,38.24098892195855],[16.093959036286154,38.24111021397239],[16.093738294890148,38.24129073005427],[16.09367620926977,38.241341502904156],[16.093632637878137,38.24137713539889],[16.093560431326768,38.241457171309605],[16.09332903313991,38.241715057514796],[16.093037502923035,38.242043021399475],[16.092955894584588,38.24211995127328],[16.09271107927876,38.242350733701116],[16.092475583278954,38.242625948888026],[16.09199131295081,38.24283910628828],[16.09164574420386,38.24299121117657],[16.091431881406844,38.24301531072561],[16.091212752902347,38.24304000677088],[16.090868937840956,38.24307132725453],[16.09054989733053,38.24307127044268],[16.090436320512485,38.24313356943983],[16.090243949961245,38.243238296867204],[16.089868879661008,38.24336902130868],[16.0897799711823,38.24341792760541],[16.089381705948522,38.2436369988689],[16.08909852759742,38.24378915249239],[16.088838909345377,38.24394884725367],[16.088564716228195,38.24409197497749],[16.088268301980804,38.24421507728211],[16.08812221970394,38.244275746167645],[16.0877945569508,38.244498050028525],[16.0874903481946,38.24474142502244],[16.08728070514354,38.24483726057842],[16.08694569920171,38.24499040317253],[16.086609307871758,38.245106592263724],[16.08627290463557,38.245192346073594],[16.08589812953894,38.24528788389568],[16.085190818643134,38.245447703103366],[16.084866891577388,38.24545190838738],[16.084814796897344,38.24545258457092],[16.08439338570695,38.24550958067933],[16.08429682390634,38.245529401999946],[16.08414066792672,38.24556154755885],[16.08383481830424,38.245624508556226],[16.083541703883125,38.245835713909216],[16.083338220334277,38.24605948128331],[16.08313737641355,38.24636854133894],[16.082892460919844,38.24675224199041],[16.082688973045826,38.246976008662905],[16.08237338014956,38.24727854253643],[16.082217451886738,38.247521901355505],[16.082149302722556,38.24762906914312],[16.08202703964004,38.24782133688747],[16.08177842519058,38.24802084624821],[16.081699716484202,38.24809051004863],[16.08142923446497,38.248329911220665],[16.081330432525334,38.24857429986716],[16.08123338281052,38.24901202305686],[16.081167616761956,38.24913817869765],[16.08107840807089,38.24930930719634],[16.0808982519398,38.24950916045299],[16.08062715238744,38.24968304001387],[16.080044828230236,38.24975878590911],[16.079726708752755,38.24976463689268],[16.07939574456089,38.24986566254964],[16.078881106775068,38.24997106788226],[16.078802937292977,38.24998707800963],[16.07834675946405,38.25009119749913],[16.077737471090277,38.25009566247554],[16.07724948653537,38.250099235481294],[16.076966060083244,38.25021987042226],[16.07651442606341,38.25063410798291],[16.076358333803437,38.25087519552838],[16.076235914043053,38.251064270961734],[16.075874455039102,38.25138360940169],[16.075512474283634,38.251576472924036],[16.07492040246152,38.251778781632034],[16.0744337105224,38.25201018646261],[16.07439449436224,38.25205416886884],[16.074310494300416,38.25215016483123],[16.0742412695566,38.25222927597409],[16.073874033543465,38.252526448498585],[16.073778600588945,38.252603674604984],[16.073540953502814,38.25278450383713],[16.07319237956875,38.253129491229494],[16.07302450479158,38.25338257395597],[16.0729024317266,38.253637376543765],[16.07280973531024,38.253987257983695],[16.072782522789677,38.25408996638458],[16.07278749048443,38.254404526304256],[16.07281150654864,38.25451378195136],[16.072819124996098,38.25454843842427],[16.072848968784598,38.25468419209398],[16.072868412302853,38.25502521826064],[16.07287912869835,38.25521316350985],[16.07274669212187,38.255522559664584],[16.07248753617242,38.25573168250449],[16.07206752154698,38.25580330398906],[16.071996520342328,38.25581541101255],[16.071817068058557,38.25599986002179],[16.071704431441198,38.256115632410314],[16.071591649936046,38.25628136049936],[16.071525190932444,38.256379253992534],[16.071147954463576,38.25635710936796],[16.071024363563403,38.25633811686425],[16.070770069956865,38.25629903814106],[16.07069001273853,38.25628921045642],[16.07042651773386,38.2562568679397],[16.070002902870172,38.256232959694124],[16.069614450174267,38.25620708448994],[16.069413996357447,38.256250526572245]]]}}]}
