{"type":"FeatureCollection","metadata":{"code":"080058","referenceDate":"2026-01-01","sourceDbfExportDate":"2026-02-18","upstreamArchiveUrl":"https://www.istat.it/storage/cartografia/confini_amministrativi/non_generalizzati/2026/Limiti01012026.zip","sourceManifestSha256":"70ac8256c4785dc6ed2814c32b6965ae76f9161b51abaa1660059e1c6cbd8ca6","license":"https://creativecommons.org/licenses/by/4.0/","attribution":"Istat, Confini delle unità amministrative a fini statistici al 1° gennaio 2026, versione non generalizzata.","modifications":["Converted from WGS 84 / UTM zone 32N (EPSG:32632) to RFC 7946 WGS 84 geographic coordinates.","Converted from shapefile to per-municipality GeoJSON without geometry simplification."]},"features":[{"type":"Feature","id":"080058","properties":{"code":"080058","name":"Pazzano","alternativeName":null,"regionCode":"18","regionName":"Calabria","territorialUnitCode":"280","territorialUnitName":"Reggio Calabria"},"geometry":{"type":"Polygon","coordinates":[[[16.40896490669502,38.49326093786059],[16.409169083432932,38.49372918937421],[16.40923245489502,38.49408046523317],[16.40928826387736,38.49458064927698],[16.409248825991273,38.494933971383624],[16.409180324870803,38.49515294697976],[16.409132592005555,38.495305668210726],[16.40880942811155,38.49533521662406],[16.40841845417751,38.49523415305703],[16.407965908696465,38.49496610248206],[16.407422581625138,38.49480276986913],[16.406917870732002,38.494708935531165],[16.40637389151276,38.49445568388013],[16.406023951691676,38.49410013578677],[16.40571875550996,38.49383169603479],[16.40551012449587,38.49358410407474],[16.40550425535194,38.49336718294867],[16.405502899812163,38.49331921369335],[16.405421102686418,38.49327880040774],[16.405202477205947,38.493172602215125],[16.405125354296256,38.49317596026779],[16.405058158180378,38.493179262834786],[16.405016509589963,38.49318123974075],[16.40490271690407,38.49318746425909],[16.404788920769157,38.493193688884574],[16.40456156911503,38.4932643660184],[16.404334197687184,38.49333502238675],[16.40413850350339,38.49303219645947],[16.404085336742607,38.49294899403569],[16.404068157737022,38.49288534618668],[16.404000082980257,38.49261867651233],[16.404062909972907,38.49236730979081],[16.404207174379263,38.49212876380212],[16.404275153425058,38.4919643083906],[16.404316002464068,38.49186548099336],[16.404322525059523,38.49159519996369],[16.40404846832623,38.49143642683453],[16.403930045122365,38.49136830363484],[16.403670409195,38.491312843834926],[16.403540567261825,38.491285090945766],[16.40341070709726,38.49125731567731],[16.40317721341565,38.49108775203432],[16.402610901069295,38.49086738330446],[16.402322824376245,38.49073728331875],[16.402054488544834,38.490506964592186],[16.40201104900168,38.49048111841384],[16.401938808918366,38.49043916500258],[16.401509323989902,38.490186304324034],[16.401179925259484,38.48979345626442],[16.400873802110905,38.48937663459068],[16.400726685569598,38.488864265443745],[16.40071502253525,38.4886187640566],[16.400707542739095,38.48846967824063],[16.40070981838171,38.48842028894079],[16.400724349955475,38.48811786513989],[16.400671389781674,38.487783921208084],[16.40045960372463,38.48750503593947],[16.400192624324898,38.48730161378603],[16.399822842413297,38.487100228015876],[16.39937175696702,38.486998456489516],[16.399002771189192,38.486846479798146],[16.398975370544623,38.48652439604546],[16.39915238092084,38.486270291437165],[16.399125654207623,38.486183808354546],[16.399053471896206,38.48594823275975],[16.39879540466334,38.48562282063125],[16.398613456208867,38.48549612654352],[16.39852743507354,38.485437440520755],[16.398327048442905,38.48514434192956],[16.398287608301583,38.48487276932922],[16.398309191351707,38.48477779611514],[16.398352534549453,38.48458500941506],[16.39852821167892,38.48415107931754],[16.398636981316354,38.483907296537915],[16.398679442882397,38.483813150598124],[16.398742392402966,38.48354491899359],[16.398730283445055,38.4835004499148],[16.398716875218252,38.48344768424717],[16.398705722680194,38.483404169083656],[16.39861926823656,38.483074874601805],[16.398420995359327,38.48287157941245],[16.397970777667105,38.482652396367946],[16.3978080963517,38.48257317846508],[16.397759516581313,38.4825689128164],[16.397253045189018,38.48252442602406],[16.39720320417661,38.4825202366352],[16.397153865772786,38.48251626087818],[16.3970572593786,38.482685833180966],[16.396995504177195,38.482795637631256],[16.39659516922955,38.48268611744999],[16.396306304039193,38.48252007247691],[16.395743546428957,38.482542301825795],[16.39525216135179,38.48260498447136],[16.394943579814928,38.48267855348242],[16.394566046723863,38.48269352993685],[16.39417450093577,38.48264191633131],[16.3938062502342,38.482566346112414],[16.39341531900002,38.482478729392],[16.3930679598491,38.4823838328841],[16.392724628126597,38.482369645649015],[16.392414092052995,38.48231288273216],[16.39207600113143,38.48200152344147],[16.39188745021913,38.48172564208745],[16.391653774984736,38.481484106541856],[16.391350849144974,38.48127844922352],[16.390913948656774,38.48120273047059],[16.390516751751136,38.48129089913752],[16.390138805315985,38.48142731047086],[16.389728294866366,38.48152531197654],[16.389444161523738,38.481655785799234],[16.388723469969776,38.48174197766018],[16.3883344629062,38.481784650900316],[16.387941917543706,38.48175107697461],[16.387565479085342,38.481720975150616],[16.387187710444373,38.4816639857025],[16.386658122053106,38.48167507689223],[16.386192789738747,38.4818799834835],[16.385920426778593,38.48202770310831],[16.385544666769547,38.482213441864374],[16.38523054672773,38.48252570224715],[16.3847074294539,38.482167559475606],[16.38463345764554,38.48190689414187],[16.384455403085656,38.481621343270746],[16.384266144714683,38.48128252478781],[16.384020715784775,38.48102371992638],[16.383832934658482,38.48081074197222],[16.38353705247061,38.48035274574742],[16.38309620972839,38.4800433762821],[16.38269258228545,38.47992952003413],[16.382717033339222,38.479428744064215],[16.382835827173473,38.47903891504052],[16.383031964804424,38.47846878434372],[16.38332469568648,38.478184883874974],[16.38374371501402,38.47794694734358],[16.3842131117076,38.47779575241234],[16.38462131841224,38.47767542343829],[16.38526064941077,38.477549430227306],[16.385683379763293,38.4774731643285],[16.386175134356705,38.47742848010705],[16.386759280694314,38.477377954901925],[16.38729871180995,38.47737972420563],[16.387757418601005,38.477445084753555],[16.388344787425616,38.47756524947391],[16.388691088040897,38.47767820919197],[16.389127575375454,38.47773598177062],[16.389587926373235,38.47773376740928],[16.39009121332721,38.47778728253821],[16.39073472590937,38.477827419918384],[16.39118299251732,38.47790241888116],[16.391677278745142,38.477952019301995],[16.392180304782727,38.477933582784964],[16.392559301386566,38.47790503641101],[16.39283368259458,38.4777822655881],[16.392910825598182,38.47774774633879],[16.393344427471067,38.4776528195588],[16.39403252074289,38.47731992053356],[16.394072097389785,38.477300787774176],[16.39443881996853,38.47710281966221],[16.394581227261497,38.47702586165167],[16.39463849734636,38.47699502615933],[16.394730588150765,38.47694822368108],[16.39501382089227,38.47680472215169],[16.395456438121617,38.47657421481675],[16.39576120781927,38.47635247941282],[16.396261297611634,38.476068859630054],[16.39638413217448,38.4759898392034],[16.39650949154114,38.47590916692168],[16.396770033164007,38.47574421450902],[16.396862433525637,38.4756643060905],[16.39724744136763,38.47533133838856],[16.397325690370362,38.47526366593828],[16.39742170022933,38.474897984126656],[16.39743748628455,38.474837861021406],[16.3974494873162,38.47479214945569],[16.39746139002689,38.47474681743771],[16.397514700170618,38.474654659344004],[16.397542715924747,38.47460622706854],[16.397591491372573,38.47452191026289],[16.397640396629473,38.47443293373438],[16.397681134120692,38.474358790086725],[16.397783035233996,38.47417320194402],[16.397880643748262,38.474023913364675],[16.398049968011144,38.4737650250688],[16.398298803512382,38.47355582584639],[16.398569358300026,38.473363244464295],[16.398945449889045,38.47319542482497],[16.39936646676204,38.47304726200299],[16.399663158963772,38.47296994401552],[16.399970692842103,38.472914429264215],[16.400325199812244,38.47282894112171],[16.400748044317,38.47269861907266],[16.401053363570274,38.47259377899477],[16.401519673343245,38.4723437668012],[16.401767991550937,38.47214358246848],[16.40208281289861,38.47188071979006],[16.40235535515403,38.4716520074745],[16.4026026002139,38.47148337313343],[16.402910397391025,38.47134686954455],[16.403252922799176,38.47129813142192],[16.403845846668858,38.47113900890053],[16.404105891990355,38.47096955887424],[16.404512675747167,38.47066934180721],[16.405000408150073,38.470377481500456],[16.40530671170171,38.47025457044902],[16.40660392296517,38.4697538252853],[16.407025441062302,38.469583110349916],[16.40742341480828,38.46936440915216],[16.407671122583444,38.46920023104373],[16.40823588914735,38.46879550569222],[16.40858843024365,38.468566205234175],[16.409052346113228,38.468307326843096],[16.409390842994053,38.46802494056313],[16.409709889327647,38.467914691783875],[16.410211569776166,38.46784228868821],[16.410705389053597,38.46787384207588],[16.411163701946386,38.46789416566983],[16.41175022816773,38.467951298951895],[16.412150558497476,38.4678943444002],[16.412674719150683,38.46774854306133],[16.41288930425071,38.46756848237257],[16.413446425323343,38.46732614944796],[16.414637610084878,38.46724134664782],[16.415038131653446,38.46726981011162],[16.41543758947914,38.467176921761805],[16.41572113664782,38.46705543176075],[16.415992615296148,38.466844754705065],[16.416226645203324,38.46649253080513],[16.416344384961903,38.466093697404894],[16.41633732402938,38.46573440118299],[16.416489599796176,38.46532441526761],[16.41680457040889,38.464980541095855],[16.417131541364643,38.46473934142458],[16.41752979879893,38.464565576050035],[16.417825534074236,38.46447928338829],[16.418304574886122,38.46436781384255],[16.418636648179096,38.4643151841151],[16.418956083109542,38.46422288449515],[16.41921692469511,38.464075845185576],[16.419476445005404,38.463901900339906],[16.420046157670665,38.46371269382321],[16.420410643552398,38.46358603683909],[16.420853017230556,38.463395990022725],[16.4213032685667,38.46342130494007],[16.42182583653353,38.46331605603466],[16.42194643248458,38.463043023582976],[16.421910430232796,38.462914166846],[16.421848926620193,38.46269386626862],[16.421831351292198,38.462384650016894],[16.42199660013651,38.46205929131458],[16.422243481344264,38.46183218849877],[16.422619693759216,38.46173624386794],[16.422924938693292,38.46176963141052],[16.42321697065131,38.461801536618005],[16.42325764122684,38.46180807155521],[16.423677926580257,38.46187560142867],[16.424100251051517,38.46193971025734],[16.424137002112545,38.461945289309625],[16.424610111861995,38.4620815427413],[16.42494120620827,38.46216325354979],[16.425059138256866,38.46219235808977],[16.425474212499697,38.46225134236711],[16.425944598328687,38.46234729009246],[16.426382206763908,38.46247231348711],[16.426509474390954,38.46252529446464],[16.426728858593187,38.46261661931708],[16.42706725347907,38.46267465902751],[16.42716852167806,38.46269202724019],[16.427634094848738,38.46268477210292],[16.428288402167542,38.46266560836026],[16.428717272212918,38.46287212617112],[16.42903944218542,38.46297301748627],[16.42936748644592,38.46291988196647],[16.429451579116115,38.46290626054902],[16.42985788497148,38.462705159379155],[16.42995227525699,38.4626584408026],[16.430010033460242,38.462629227032565],[16.430247197727752,38.46250922089931],[16.430744135735505,38.4621805924196],[16.431289516690825,38.461939003812546],[16.431772938245206,38.46168887661927],[16.431844747737888,38.46165171970883],[16.432195276688567,38.461431468988096],[16.432660468441124,38.461172418705395],[16.433217883965877,38.46094795481822],[16.433265235742965,38.46092619032628],[16.43335789418292,38.460883619332066],[16.433672523365708,38.46073903722197],[16.43409121671668,38.46051443147291],[16.43433897279944,38.460296238130404],[16.43454180339837,38.4600584191036],[16.434728191344878,38.459607710439826],[16.434772962036632,38.45949947014584],[16.43498146028585,38.45957618400201],[16.436121904919485,38.460002535285646],[16.436358756261345,38.45926332905154],[16.436598262006832,38.45859139475707],[16.43671674329769,38.45834744034712],[16.43673007986136,38.45831995182057],[16.437082915245917,38.457593479815856],[16.43713645057738,38.45748210937879],[16.43732081832251,38.45709845441309],[16.437357196619146,38.45702279862276],[16.437542192155885,38.45654323996018],[16.437645160090092,38.45621759783096],[16.437648828771493,38.456179309889166],[16.437657370756067,38.456103188709456],[16.43770189615861,38.455777457486676],[16.43783025377844,38.45541396122253],[16.437974915179613,38.45504365541385],[16.438016631756923,38.45493431928678],[16.43811512280648,38.45475263408296],[16.438164368366014,38.454661787857304],[16.43821361667161,38.45457093604362],[16.438570644925647,38.454026417466714],[16.438714443875398,38.453796200618406],[16.438836894535303,38.453600159012844],[16.438953664108286,38.45344971361653],[16.439082981308466,38.45328310151471],[16.43926479149041,38.45302883727763],[16.43933594355973,38.45292932739213],[16.43935419012073,38.45290380896915],[16.439386757063975,38.45285826335908],[16.43941563958521,38.452816296485764],[16.439439182652134,38.45278219674712],[16.439662239207852,38.452481533489994],[16.440069224605978,38.452185701023],[16.440477354361565,38.45198422441923],[16.4407946028182,38.451788568872914],[16.441329665740298,38.45156999182658],[16.44177237922657,38.45135731137173],[16.442652082519167,38.45113920667682],[16.442989265540383,38.450915284064536],[16.443223020857374,38.4505900169353],[16.44321471643695,38.45014979058124],[16.44320843294797,38.44983882182788],[16.44320145907195,38.449473491491354],[16.443196796022253,38.449228968255795],[16.443268022687334,38.44887879532451],[16.443279524274864,38.44882300717495],[16.443301698967616,38.448785023778925],[16.44342384415113,38.44857581632074],[16.443647181696818,38.44826020489936],[16.443753306948103,38.4478621468354],[16.443809383387777,38.44781787219509],[16.44406926071636,38.447612607423835],[16.444315734545594,38.44731351576972],[16.44434263816452,38.44697898981855],[16.444815332066565,38.446517017885974],[16.445098740571073,38.44639546829653],[16.44542695141995,38.44615411579132],[16.445819897750738,38.44576471454892],[16.445849090983145,38.44546600262701],[16.445589261470406,38.44508234181658],[16.446019238536614,38.444843473164454],[16.446406275295576,38.44472878315506],[16.44660643889576,38.44438318530086],[16.44681790011159,38.444077334640056],[16.44711980061088,38.44374770658004],[16.448007686015885,38.44343009939191],[16.448278909843907,38.443246357261536],[16.4485628639413,38.44308877047261],[16.44884366347336,38.442859447907324],[16.449103955941787,38.442694383020495],[16.4493651053093,38.44256525817778],[16.44968357924881,38.442409956507554],[16.4501262375842,38.44219726941495],[16.450547733177963,38.442111845345224],[16.45087788633595,38.44201426396434],[16.45119764373293,38.4419128696918],[16.451539698666224,38.44176758035961],[16.45157155701913,38.44175408947505],[16.45194598978814,38.441559225582374],[16.45226188527421,38.44129616806221],[16.45226200774679,38.4412556880961],[16.4527205292582,38.44074061819957],[16.452955490237464,38.44048273602584],[16.453155648056388,38.44069030886905],[16.45314792941133,38.44093365508862],[16.453143716103973,38.440968779346],[16.453108773213277,38.441259958389445],[16.453171575967247,38.441507800989726],[16.453438133903056,38.4416661586813],[16.453886158912194,38.44175441805612],[16.45426307188963,38.44169432571747],[16.454442714789227,38.44141299297732],[16.45478319065134,38.441346222704105],[16.455145460193133,38.44165586465602],[16.455526192168833,38.44178441779542],[16.455835508252726,38.44169265152719],[16.45594258719987,38.441456431393235],[16.456248763635944,38.44129292848306],[16.45672045703169,38.44137516635301],[16.457030434443,38.44140031195435],[16.457339152860015,38.44135805872607],[16.457528200383656,38.44108510926781],[16.45748714397771,38.44086449881043],[16.45743751339238,38.44060064686736],[16.457828440931102,38.44062959413594],[16.4584369770341,38.4406940760643],[16.45879331971361,38.44072523936716],[16.459340693637838,38.44064073267387],[16.459800423358338,38.44057981510532],[16.460033671269557,38.440623331792665],[16.460189335106453,38.44064935623301],[16.460172969595213,38.44096072159732],[16.460178782313935,38.441297041941745],[16.46018238874798,38.44136939053721],[16.4602897030034,38.44161887211939],[16.460455158773605,38.44188815603739],[16.46063503710943,38.44228937092977],[16.460747964820754,38.44275887019497],[16.460707899037942,38.44308974416658],[16.4605939056411,38.44337034971621],[16.460522187682145,38.44354688196279],[16.46053287212141,38.444022929483616],[16.460669956122118,38.44449088108627],[16.46070721730367,38.44474035420667],[16.460851678200747,38.44509988269007],[16.461156632535847,38.445449152629706],[16.46140759408925,38.445600586548686],[16.4614463721356,38.44562396898832],[16.46162675607942,38.44599919460024],[16.461712149570527,38.44631304507176],[16.461700933470432,38.446853457088835],[16.461665562820116,38.44739539997967],[16.461674471593117,38.44782659248606],[16.46164719553399,38.44814316522366],[16.461782943631427,38.44858421222805],[16.46180132091582,38.449023789682634],[16.461497811043426,38.44925459801164],[16.461227570683906,38.44942032807198],[16.46097675267196,38.449593803279654],[16.460763180670146,38.449823362800096],[16.460597765825195,38.45010379443327],[16.460443008014625,38.45037473644824],[16.460440316926245,38.4504080984536],[16.460401699844933,38.45071324166492],[16.460383470807905,38.45086351339063],[16.460455110342174,38.450956443926586],[16.460583022918527,38.45112116935469],[16.46092831157344,38.45154332414243],[16.46135903099799,38.45206991317748],[16.461580593942806,38.452262597172634],[16.461597852979256,38.45242293178524],[16.46160975208508,38.45254407407494],[16.461596916308327,38.45281980605816],[16.46159379217015,38.45288690449549],[16.461685179676298,38.45347921801838],[16.462048406005046,38.45382473325887],[16.4622125926204,38.454057085245466],[16.462369763681696,38.454164617843894],[16.462549584372944,38.454287342723056],[16.462645753538226,38.45454505432068],[16.462641178802926,38.45462759831259],[16.462629315698194,38.45480842863311],[16.46261200998428,38.454844903657516],[16.46245367877414,38.455178681668905],[16.462374499811155,38.45540622549445],[16.46225831574875,38.455740688314826],[16.462254359916066,38.45595125416301],[16.462252425767186,38.45602890216606],[16.46228546998781,38.45607284334909],[16.462328218814438,38.45612968682098],[16.462354208905925,38.45616424653951],[16.46254929308188,38.456423651742156],[16.462857284653715,38.45650270717289],[16.46321943658965,38.45672251288536],[16.46307282543373,38.45690012765752],[16.46285099127838,38.457168873425516],[16.46298395751945,38.457610116600335],[16.463120354120644,38.45775883101298],[16.463169995753745,38.45781295590787],[16.46312964550221,38.45806401094494],[16.463011627361794,38.45831893715275],[16.462877020249394,38.45855803615081],[16.46285969517273,38.45858880878264],[16.462801495498823,38.458692188965536],[16.46272469277769,38.45894447460234],[16.4627294452697,38.4591980965822],[16.462731948366038,38.45933168436037],[16.46273262831864,38.45936790045864],[16.462734794805943,38.45948352254435],[16.46273903315436,38.459652623774986],[16.462742996466307,38.45981069049718],[16.462755773304885,38.46007053657532],[16.46276243456781,38.460205829679296],[16.462751212668753,38.46024412331324],[16.4627279208063,38.460325509760565],[16.462653633133385,38.46057710454644],[16.46257175570043,38.46074776385706],[16.462466641750694,38.460966854685545],[16.462423312267568,38.46103188106556],[16.46238116407547,38.46109513710437],[16.46230592613504,38.46120977296752],[16.46220055865141,38.4613661812297],[16.461965095628756,38.461676138901],[16.461821826400755,38.46186473104565],[16.46178018672145,38.46191954402235],[16.461708531558507,38.462013866070464],[16.461460884676804,38.46223210786463],[16.461383349598528,38.46227315396069],[16.461340698776674,38.462295732364346],[16.4611496730056,38.462396855299886],[16.46093894032389,38.46250840962573],[16.46079855146902,38.46257177412129],[16.460545761392495,38.46268553388505],[16.460474845657522,38.46271772176556],[16.460428004908206,38.46273902015395],[16.46008295877347,38.462870168564145],[16.459929938184136,38.46292833144523],[16.459692121804437,38.46301654359269],[16.45935842031506,38.463140321532606],[16.459250754256093,38.46315129059731],[16.4590833132463,38.46316834935829],[16.45893150414652,38.463183815078374],[16.45876406850131,38.46320087213604],[16.4583639440153,38.46321750259904],[16.458181829553002,38.463167969556835],[16.457948978985854,38.46310463805328],[16.45783044614216,38.46307286373334],[16.457556239946122,38.46299935667358],[16.45721068397334,38.46302903775608],[16.457145188618092,38.46303466250328],[16.456666200034803,38.46314593932356],[16.456387611142787,38.463240711604875],[16.45614262353643,38.46332372854882],[16.455950189166025,38.46339544771028],[16.45551612372676,38.46355721827728],[16.455398803823112,38.463592088831675],[16.455130431388557,38.46367185547526],[16.454951331002313,38.46367731060438],[16.454726642424465,38.46368369677622],[16.4543597415516,38.46361773759127],[16.453970969658688,38.463633625485045],[16.453621093882287,38.46381792156309],[16.453649076029368,38.46418491362728],[16.453493677817463,38.46441074011787],[16.45314145782055,38.46451721153002],[16.453059634582594,38.46454193530833],[16.453074584234777,38.46481342022128],[16.453079130562873,38.46489598704321],[16.453294816061312,38.465410818483946],[16.453124871368868,38.46593199976382],[16.45347856639436,38.46593635683265],[16.453785671579965,38.465822257556155],[16.45417547638107,38.46577482117464],[16.454560320319416,38.465624261797814],[16.454900264472776,38.465440599082335],[16.455325650583703,38.465363912020464],[16.455732713240145,38.46522091828427],[16.455924291721725,38.4651422892287],[16.45604363384949,38.465093316654844],[16.456096255080617,38.46507172011467],[16.456322385155026,38.46503247989761],[16.456634346701254,38.464978806675475],[16.45702546889804,38.46497176666042],[16.457394329984332,38.465164017251254],[16.457764647616717,38.4653427069125],[16.45820357338764,38.465534982745055],[16.458471097289685,38.46572922214956],[16.45875251093129,38.466057510955395],[16.45886983401956,38.46617799117027],[16.459024596866143,38.46633691476772],[16.459123323453102,38.4664031016214],[16.459223252587492,38.466470093788175],[16.459428782893337,38.46660787840664],[16.459603483004507,38.466800926046446],[16.459640359892557,38.466841675725156],[16.459946783507377,38.467204335169654],[16.46014824727821,38.467576550117805],[16.46019617430271,38.46766509563287],[16.460383135108636,38.46789599202767],[16.46059549180415,38.468206204808794],[16.460576214066965,38.46844848116774],[16.46056739163275,38.46855131935629],[16.460402164903186,38.468866232201975],[16.460224463695504,38.46912497847122],[16.46016991349061,38.4691553896893],[16.460126465198044,38.469177986513905],[16.460029111582273,38.46923062755872],[16.459941436386615,38.46927803695378],[16.459820008646485,38.46934002097594],[16.45974555239194,38.46937800872663],[16.45957873553768,38.46946315602998],[16.459237369693845,38.469646923991725],[16.459046545216033,38.46984803881949],[16.45886923799424,38.47013824148129],[16.458739631468408,38.47049081290735],[16.45871719134315,38.47054822126044],[16.458552660483694,38.47083760455592],[16.458272541226805,38.471156881725484],[16.458203660828165,38.47121661050662],[16.45782219648284,38.47155900747462],[16.457597073509753,38.47184328038333],[16.45738303248298,38.47204136559171],[16.457298829258512,38.47240207310126],[16.457156631661068,38.472658524446665],[16.457116490207646,38.47280018788523],[16.457059251845287,38.473002125889145],[16.45701841424694,38.47324309751522],[16.45700022690571,38.473523110164784],[16.45702194979584,38.47393998339189],[16.45713005743392,38.474279369639156],[16.457302544965373,38.474826004360594],[16.457020225368087,38.475055467349314],[16.456459045462193,38.47506440621477],[16.456057591692705,38.475013656169104],[16.455795902226676,38.47513589548436],[16.455709822164433,38.47517631784073],[16.455522845185975,38.475263771336415],[16.455338439302515,38.475734310293845],[16.455273862450497,38.4759948001617],[16.45530305306713,38.47624668608153],[16.455329017716977,38.47649948278851],[16.455565864027463,38.476866608852646],[16.455891646337836,38.47707062752472],[16.456261930119922,38.47728977660788],[16.45687152141495,38.47761539219338],[16.456923598347576,38.47764320885117],[16.457126394266464,38.477737807731195],[16.45725570963482,38.47779812905289],[16.45746617993985,38.477896305304405],[16.457612273304385,38.477980821690025],[16.457853114411858,38.478118877679094],[16.45825464321032,38.478313544384115],[16.45839433251242,38.47838049144191],[16.458463783544804,38.47841377647733],[16.458834120851872,38.478591261008326],[16.459070415271412,38.478746560160715],[16.45912640322672,38.47878335688333],[16.459332957901495,38.47891910779825],[16.459691711026764,38.47918816292907],[16.459776392175506,38.47925051863689],[16.460032032835333,38.47962484736535],[16.46021484489415,38.47989253592719],[16.459856039818614,38.48041918844564],[16.459571346173796,38.481053588831664],[16.459154604581425,38.48084190348277],[16.458750031763753,38.48069242129256],[16.45844827351702,38.48052734443314],[16.45812296326893,38.48031431391233],[16.457809852926683,38.48013645974889],[16.457495074935878,38.479873289306184],[16.457189161345397,38.47946110998286],[16.456917908159756,38.47902423664908],[16.456593017156422,38.47882915293887],[16.45613774293486,38.47850749654138],[16.45589344752111,38.47827576877041],[16.455773724027573,38.47804507410359],[16.455346145695636,38.477825078900196],[16.45515659306884,38.477878597683144],[16.454911324876306,38.477947793997814],[16.45482268304342,38.47797531811562],[16.454598986686033,38.478044495868566],[16.454490294927243,38.47807910745194],[16.454031822127476,38.478102662392864],[16.453580514322482,38.47790217629571],[16.453187110660572,38.477827547717354],[16.453013330394853,38.47782628049958],[16.45287503993262,38.477822181780006],[16.45268242979049,38.47783265570276],[16.452501812615814,38.47784301680013],[16.45226237178183,38.477851794557],[16.452188016784106,38.47785205699733],[16.452112317516548,38.47785327251759],[16.45181244155844,38.47785808843891],[16.45154136733022,38.47786475077437],[16.45097067919968,38.47787877482165],[16.450896268553915,38.477886613819486],[16.450612496802083,38.47803540659615],[16.450274278817478,38.478212757723675],[16.449966223387378,38.47830441672516],[16.449821821926964,38.47835994306685],[16.449623904267938,38.47843604921771],[16.449545282294988,38.478466280061305],[16.44923480155689,38.478396183908714],[16.44911739751705,38.47837336284896],[16.448764751972384,38.47830480971515],[16.448163212313183,38.47815887635468],[16.44759909396761,38.478001558258974],[16.447361208930992,38.477918205905326],[16.447251762206974,38.477879800175714],[16.446985499571344,38.47788949119085],[16.446936230599704,38.47789115790257],[16.44676003319355,38.47789761230157],[16.44653415461468,38.47807845750472],[16.44619769514574,38.47835183020553],[16.44592271704556,38.478472864728175],[16.44555567997655,38.47847833001439],[16.44518699502144,38.47838495629816],[16.444830797929733,38.47821882704446],[16.444491038496345,38.47793472438351],[16.44428223899324,38.477727690659705],[16.443976272111268,38.47736945154617],[16.443603833513365,38.47708743358961],[16.44323889892212,38.47742910200452],[16.443213976609094,38.47744917679549],[16.443140521488612,38.4775173292358],[16.442883624286857,38.47723241949525],[16.44263822451938,38.47706587213516],[16.44259290113018,38.47703511212171],[16.44255148597621,38.47702268262372],[16.44249256109461,38.477005406361194],[16.442416759101874,38.47698335892211],[16.4420396989729,38.47687257270454],[16.44187988450827,38.4768459115978],[16.441397390952265,38.47676541746333],[16.441321888642673,38.47675063526135],[16.44094671884001,38.47667703534318],[16.440563199135656,38.47646767114062],[16.440261887918126,38.476333999572695],[16.43979841814076,38.47591834837438],[16.439434974979658,38.475634991329],[16.439248408991226,38.4754910468872],[16.438863698732384,38.47588322107267],[16.437842914826174,38.476923760494884],[16.43774302361922,38.47702558252939],[16.437583064060217,38.47699759697876],[16.437215700260154,38.47693332338725],[16.436580517039936,38.47679397104768],[16.4361969565612,38.47671621726342],[16.435924497920936,38.47666045808598],[16.435234336756245,38.47654260614116],[16.43479929127698,38.47648491707628],[16.434501654011466,38.47656688117991],[16.434137105636296,38.47670709026268],[16.43377084185316,38.47692652076919],[16.433513787557395,38.47708417793147],[16.433197224138578,38.47716284995393],[16.433140139778878,38.47715387080162],[16.43276973485726,38.47709566154343],[16.432251527951962,38.47696681980255],[16.431722290378953,38.476883646125955],[16.43146083698617,38.47684710102071],[16.4311257992446,38.47680026746646],[16.43060681919587,38.47660850054889],[16.430270846422832,38.47651300908817],[16.43008944829378,38.4764638224692],[16.430058355030642,38.476456242189386],[16.429786719166888,38.47638196580698],[16.429276836731027,38.47615363356517],[16.428906627321133,38.4759343715134],[16.428846969430516,38.475935045985736],[16.428719617339052,38.47593648278519],[16.428562644574534,38.47593861751782],[16.428402344145578,38.475993119936646],[16.428370618990026,38.47600338538612],[16.428211547021743,38.47605967120392],[16.42792702088555,38.47619925264406],[16.427516354629127,38.47639184541133],[16.42710554610736,38.476472016285555],[16.426754569373678,38.476660800546036],[16.426479272475152,38.476684906652935],[16.426377200168616,38.47669385834365],[16.42600968618048,38.47670963477565],[16.425517385285094,38.476730701545165],[16.424829249270097,38.47672959991144],[16.424451693296273,38.47677164590377],[16.42393671086871,38.47684044796722],[16.423689286152378,38.47703074959365],[16.423598775325633,38.47710036306283],[16.422928189851557,38.47742193463034],[16.42277181028711,38.47750486972673],[16.42266781704195,38.47756000310005],[16.422307265504546,38.47778086766706],[16.42192204762151,38.478012310640146],[16.4216158081356,38.47827469838537],[16.421311815039395,38.478586405907514],[16.4210010837709,38.479096430755156],[16.42072319072852,38.47955040435905],[16.42051644657985,38.480125759523496],[16.420424453611425,38.48066233903826],[16.420339631244516,38.48100504891489],[16.42027634456138,38.48126544179896],[16.420258089950227,38.48151846922834],[16.420184232032803,38.481842501904104],[16.420155017060743,38.48211422605899],[16.420174599913768,38.48255372511881],[16.4202398277912,38.48292287309092],[16.42032768787402,38.483331051290556],[16.420402958498816,38.483672571976236],[16.42047991901977,38.484085939308834],[16.42058082446633,38.484578746827914],[16.42083066714113,38.485033347261016],[16.42085545983676,38.48507840146815],[16.42103276299099,38.48535494856298],[16.42118241657317,38.485481686217646],[16.4213588227781,38.48563106997127],[16.421660671329857,38.48575576715298],[16.422069624732003,38.48618395732809],[16.422100913205377,38.486667695738525],[16.422268207263286,38.48697186584722],[16.42261825367116,38.48730036830991],[16.42291101576116,38.48761452192271],[16.423738757452703,38.48819142742535],[16.424098582741887,38.48842035734815],[16.424513841691144,38.488632247978025],[16.424566125174586,38.48870932037441],[16.424820928906264,38.489084907521566],[16.424828704124806,38.4895206817661],[16.424546388048494,38.48969609434183],[16.424088228981855,38.489734289076424],[16.42373298347089,38.48972994528082],[16.423410082626425,38.489678571014835],[16.423019400822106,38.489649495300505],[16.42270086330329,38.48972377270142],[16.42234546757108,38.4897734098351],[16.422027487499648,38.489825157403736],[16.421699919009257,38.49008888871622],[16.4213819220299,38.49030704140697],[16.421075922288725,38.490474965168076],[16.420610159377325,38.490689046182744],[16.420354460127985,38.49115059788398],[16.420271250649947,38.49159214947684],[16.420022778498016,38.491846361300205],[16.419418443167455,38.4924785291526],[16.418961241614753,38.492612164213604],[16.418911439404187,38.49261529787852],[16.418821168682793,38.492622108501855],[16.4187847386378,38.49262482480172],[16.418321313204192,38.492660865369594],[16.41798715325759,38.492673060853015],[16.41794224791861,38.49267026200431],[16.41766669574952,38.49265307753405],[16.41748808606215,38.492464626597986],[16.417316753307944,38.49228408017751],[16.417343383819077,38.49191808868296],[16.417323789421022,38.491492054706725],[16.417397686330524,38.491168021105345],[16.416898664605398,38.490920946526295],[16.416336978493874,38.49088475803573],[16.41584587652555,38.49100598395],[16.41548086602006,38.49110118134147],[16.415098321233387,38.49135942330865],[16.414955830185338,38.49180924219347],[16.415569674853767,38.49215694923765],[16.416047847275195,38.492562774366114],[16.415780734597803,38.49287212246394],[16.415435592745954,38.492813151428535],[16.414949115512076,38.492646234961995],[16.414450277795947,38.49281741001542],[16.41412248791123,38.49313511216684],[16.413885648837752,38.493294121218284],[16.41310963448439,38.4934829350806],[16.412604194450854,38.49347912721682],[16.412257709386758,38.493393243691955],[16.41193552887515,38.49325181754217],[16.41157381407418,38.493031978702966],[16.411141619473593,38.4926142186508],[16.410894898946705,38.49227461063266],[16.410588328977774,38.49182636221415],[16.410298554580248,38.49162441542315],[16.40995165907482,38.49152055295049],[16.409572791041967,38.49149519293262],[16.408898286921495,38.49164154182877],[16.408639065579894,38.491833428533255],[16.408532852032,38.492177513080726],[16.408608004302618,38.49254603773354],[16.40876321286871,38.49291396574727],[16.40896490669502,38.49326093786059]]]}}]}
