{"type":"FeatureCollection","metadata":{"code":"080067","referenceDate":"2026-01-01","sourceDbfExportDate":"2026-02-18","upstreamArchiveUrl":"https://www.istat.it/storage/cartografia/confini_amministrativi/non_generalizzati/2026/Limiti01012026.zip","sourceManifestSha256":"70ac8256c4785dc6ed2814c32b6965ae76f9161b51abaa1660059e1c6cbd8ca6","license":"https://creativecommons.org/licenses/by/4.0/","attribution":"Istat, Confini delle unità amministrative a fini statistici al 1° gennaio 2026, versione non generalizzata.","modifications":["Converted from WGS 84 / UTM zone 32N (EPSG:32632) to RFC 7946 WGS 84 geographic coordinates.","Converted from shapefile to per-municipality GeoJSON without geometry simplification."]},"features":[{"type":"Feature","id":"080067","properties":{"code":"080067","name":"Roccella Ionica","alternativeName":null,"regionCode":"18","regionName":"Calabria","territorialUnitCode":"280","territorialUnitName":"Reggio Calabria"},"geometry":{"type":"Polygon","coordinates":[[[16.313534660627223,38.43097525648068],[16.31351904219455,38.43139902360814],[16.313369559017076,38.432011108066845],[16.313162178144662,38.43254585776839],[16.31305529720406,38.43294388414716],[16.31272215799861,38.433504857647236],[16.312084927860152,38.433126697281004],[16.311840203776747,38.43291266816517],[16.31158308705312,38.43261846606491],[16.31131329081007,38.43229805117695],[16.311147120074597,38.43198463826317],[16.311014403572415,38.431606157007856],[16.310686686875393,38.431221909303005],[16.310353244746757,38.43116187516353],[16.30993005109103,38.43116143067365],[16.309517664088276,38.43118280134794],[16.309026158995877,38.43121362750561],[16.308590640398997,38.431218445260065],[16.308110452720857,38.431262044077265],[16.307663969228706,38.4312855452874],[16.307193019922376,38.431279094858574],[16.30664403901899,38.43125054492357],[16.30607035024365,38.43124603488179],[16.30570308125294,38.43123307873929],[16.305279308333205,38.43125512909293],[16.30494840125778,38.431262385858474],[16.304628271337215,38.43129144096769],[16.3042839875092,38.43132202878108],[16.303839309756185,38.431363382547495],[16.30349409635331,38.43128606747808],[16.30322617085509,38.43108246401924],[16.30198155155928,38.43070617798921],[16.30159084709853,38.43060460497428],[16.301676367608735,38.430279569691415],[16.30168898703946,38.42974589428031],[16.301568285927644,38.42939577371064],[16.301505147705,38.42902640694557],[16.301467112916235,38.42877055542812],[16.301540151666796,38.42843945030832],[16.301696303688246,38.4282318231455],[16.30220970875863,38.42806470834033],[16.302761258379796,38.428147098837975],[16.303162935260264,38.42818939464581],[16.30337803312537,38.427772969707036],[16.30300056395392,38.427376469174575],[16.302467214432323,38.42714901852269],[16.302269874777952,38.426720374544544],[16.30238583771207,38.4264299848267],[16.302551846994486,38.426050754973446],[16.302828569774473,38.42557914447776],[16.303111272987465,38.42535002633335],[16.303357661556475,38.424988254484],[16.303639042396494,38.42473224727354],[16.303871663349522,38.4242768828342],[16.30401585150078,38.42400697752284],[16.30437306512786,38.42352582299155],[16.30466698940885,38.42332298887285],[16.30511017639894,38.42308380843843],[16.305460695057942,38.42281896889804],[16.30549855353003,38.42253310437644],[16.30533400088953,38.422188169240805],[16.305214648332505,38.42188535302972],[16.305176127194986,38.42162500084783],[16.305230178434932,38.421389631529095],[16.30543877055379,38.421007731537195],[16.305685403941208,38.42069092859823],[16.305909898911832,38.42045196867701],[16.30621407321375,38.4201810232563],[16.306265892249865,38.41988481390371],[16.30623583204808,38.41947794966926],[16.30605564826382,38.41902601886627],[16.305912724788627,38.418715634851964],[16.305801855302626,38.418227837243215],[16.305680765542135,38.417907093201734],[16.30560739129005,38.417527520569834],[16.305693540123233,38.41667838810386],[16.306087087039685,38.41631639688847],[16.306391797402807,38.41602292367229],[16.30681051780716,38.4156413538304],[16.307181014534578,38.415348268811115],[16.307543893504906,38.41516358180136],[16.30787427540695,38.4150529276836],[16.308136785098657,38.414879044708364],[16.308244860731147,38.414633876259366],[16.308250370270507,38.414325095883335],[16.308164122365348,38.41397777856389],[16.308090550489332,38.41371701037502],[16.308004492644745,38.41338957842062],[16.30798896656586,38.41307445173509],[16.30811910149596,38.41275719397088],[16.30872489391765,38.41264275555089],[16.3090432458458,38.41256881378794],[16.309244852251446,38.41225932449781],[16.309399596595146,38.41195277263675],[16.309474543111616,38.41170518574177],[16.309709385207213,38.41137111723006],[16.310015447195788,38.41119000439944],[16.310298592288948,38.41105080381919],[16.310559663289922,38.41087700724265],[16.310808594964247,38.41066799173172],[16.31116513536829,38.4102093565225],[16.311479670277212,38.4098297926668],[16.311943381671654,38.40952635226338],[16.312202996297113,38.40925369380681],[16.312437304898097,38.408928644222385],[16.312693474423696,38.40857974730388],[16.312941878503302,38.40837975013335],[16.31319940287704,38.40804425257228],[16.31346984642743,38.40777990247244],[16.313762114332818,38.407505192290124],[16.314021594409642,38.40725952912135],[16.31434800256841,38.406969191083505],[16.31465097377752,38.40663083814475],[16.31502305299064,38.40628365268608],[16.315324545496793,38.40584644312592],[16.315592126819798,38.40548331952711],[16.315827828241765,38.405158176740436],[16.316082971322217,38.404714884260436],[16.316291580046236,38.40420702894415],[16.316514539919922,38.40386919858007],[16.316782752614078,38.403569002199234],[16.317043114783186,38.403332268006075],[16.317244697210214,38.40312171731116],[16.31796739806281,38.40255461607391],[16.318418645355084,38.402170967555335],[16.31881372259574,38.401853811231895],[16.319128400652232,38.401532695340116],[16.31947758588841,38.40121392329401],[16.31989501053942,38.40087736303835],[16.320312074206573,38.40050935761353],[16.321005609164477,38.40010597008529],[16.321402427606724,38.39962223004179],[16.322165845707577,38.39914700108961],[16.323289698780965,38.39857714809649],[16.323567780176536,38.39817736952116],[16.323814265234596,38.39786054433729],[16.323951484822977,38.397630133796106],[16.323991568355073,38.397566049095914],[16.324061178016528,38.397437937556],[16.32416852955087,38.39724008353583],[16.324451061116147,38.39701094878808],[16.32479189108398,38.39686359626432],[16.32524450449332,38.39657878521812],[16.32513468980605,38.396158390464315],[16.325354728969398,38.39572178097984],[16.325671758856622,38.39549497179271],[16.32604226364645,38.39504888786137],[16.32624391498203,38.39481132973201],[16.32647970058305,38.39455813998368],[16.32724986833744,38.39413641700924],[16.3275342131914,38.39402409077632],[16.32792084581935,38.393891849930775],[16.328169554661056,38.39370980347761],[16.328496694584064,38.39344185923479],[16.32885638321154,38.39308642312637],[16.329022987179187,38.392743107034335],[16.329132387544735,38.39249785798611],[16.329215078619956,38.391975425362396],[16.32930086703086,38.39172265259317],[16.329409192005755,38.39139650420844],[16.329458447127912,38.39095262656064],[16.329278858380555,38.39047816868806],[16.32920950146373,38.39034739849428],[16.329135741949433,38.390208303524176],[16.32900308197765,38.38981635577626],[16.32904085101436,38.38940019054853],[16.329423357983494,38.38901631192659],[16.329750532570976,38.38873487784462],[16.330248220446666,38.38840224562975],[16.330439201437994,38.38821481686749],[16.330913787067193,38.387865636448375],[16.331162131286014,38.38765212423936],[16.33143238112144,38.38740125469964],[16.331725573795357,38.38720739539845],[16.332021236905145,38.387094366487005],[16.33244563402892,38.38708116007246],[16.33279950269259,38.38707690123977],[16.333585889099577,38.38681603633094],[16.333893538378497,38.38677868343588],[16.334224968752935,38.38670836835543],[16.334555851155944,38.38666056293237],[16.334817819040595,38.386576045968326],[16.334988814227042,38.386520870684016],[16.33530673438744,38.38640192024419],[16.335737143617816,38.38619494147949],[16.33604147566465,38.386014702458596],[16.336078708008777,38.38598017917773],[16.336202529182835,38.38586024548697],[16.336314245757237,38.38575832491459],[16.336350341884035,38.38570002785174],[16.336379434029347,38.38565543085673],[16.336403915159938,38.38561748831729],[16.336436425095503,38.38556717100484],[16.33645592089483,38.38553892625473],[16.336481559376256,38.38549635646317],[16.33653193566807,38.38543274034316],[16.336589352800484,38.38536006436266],[16.336609307810814,38.385334968793906],[16.336632496888246,38.38530573058448],[16.336666771798193,38.38526249672841],[16.336749152110304,38.38515974578174],[16.336939483241295,38.38489589469075],[16.337255093079715,38.384601288890515],[16.337275861830108,38.38458155278596],[16.33732181067424,38.38453900894328],[16.33775185810817,38.38430054303066],[16.33810514028243,38.384206347925456],[16.33857442562801,38.384199302209566],[16.339800009095004,38.38421210511405],[16.34009327787495,38.38422426013995],[16.34018007509397,38.384228717377276],[16.34025568048114,38.38422776588672],[16.34032290932778,38.38422716813479],[16.340614043958116,38.384223822096665],[16.340988712408443,38.3841012826509],[16.341092182983683,38.38403798625328],[16.341178687632617,38.38398517813247],[16.34123922048118,38.38394646408181],[16.341316898525825,38.38390070368711],[16.34135277473871,38.383879296839766],[16.341395532888328,38.3838537837797],[16.34164553845891,38.38370460739536],[16.34176325220743,38.38362703187642],[16.34214358272676,38.38337637806908],[16.342539481768068,38.38315355050644],[16.342844961340383,38.38295439577147],[16.343031658303467,38.3828355668791],[16.343095809933672,38.38279614724111],[16.34324096857434,38.382704572828914],[16.343694950788,38.38247508853533],[16.34372907236942,38.38245886225305],[16.343840936033008,38.38238856716185],[16.34401173640924,38.382282480781925],[16.344063076860113,38.38225754611216],[16.344386311211025,38.38209721428888],[16.344589476807855,38.382077808396566],[16.344809359828844,38.382057059309666],[16.345036548426577,38.382077003645264],[16.345099413706016,38.3820832015699],[16.345143261815853,38.38208639042367],[16.345256194131018,38.382096370289005],[16.345614717483667,38.38224493941241],[16.345710631316667,38.38226807825078],[16.345749596723287,38.38227755287595],[16.345829257687388,38.38229754628545],[16.345993575251274,38.38233776058441],[16.346070659372288,38.382376082453526],[16.346101876660644,38.38239247959702],[16.346252158031717,38.38246668021399],[16.34649014479819,38.382585329856184],[16.346662391046934,38.38267975821395],[16.346813909987567,38.3827628224206],[16.347130012462127,38.38307573996315],[16.347198407006573,38.38312569190598],[16.347223198672992,38.38314360460659],[16.347304971058147,38.38320350880382],[16.34740779968625,38.38327862040763],[16.347731655916235,38.38342911460616],[16.34782567466492,38.383428030330464],[16.3480855542602,38.38342557481113],[16.34855407563455,38.38335478078359],[16.348946535182986,38.38292975812542],[16.349043630247447,38.382550326140304],[16.34904505327358,38.382086986123035],[16.348937563652886,38.38177442641171],[16.348715127663436,38.38156806070392],[16.348447408126987,38.38133755983649],[16.348238350837526,38.381107855011784],[16.348072582479315,38.38081247237046],[16.348387729357636,38.38055422256485],[16.348751814593268,38.38046830503092],[16.34912439576187,38.38015696824148],[16.349324384314798,38.37983403526259],[16.349431429400177,38.37945397608136],[16.349424608716053,38.37903612402547],[16.349441167067116,38.378693252898636],[16.349514010097018,38.37834233690699],[16.349521147249217,38.37811371128504],[16.3495287881531,38.37785566412036],[16.349598753763413,38.37763588646747],[16.349625402198434,38.37755042606579],[16.34968768853059,38.37717099986392],[16.349782850903274,38.37680069775291],[16.349764863927312,38.37645550766301],[16.349748267523626,38.37612373561683],[16.34972982705465,38.375774079119545],[16.34970784507926,38.375654572001544],[16.349615092070184,38.37515163352242],[16.349565041292575,38.37489842227121],[16.349511016547353,38.3744655480221],[16.349482832820552,38.37418848239107],[16.349443810035808,38.37390309200181],[16.349583693004085,38.37346698551113],[16.34976209378217,38.373212876380485],[16.349952262346896,38.37297600609831],[16.35099913069322,38.371992478958326],[16.351122585790844,38.37170762098026],[16.3511414263323,38.371664171845225],[16.35127400588945,38.3713949517645],[16.35147241790233,38.370986636386625],[16.351625233105697,38.37062168762481],[16.35172460185533,38.37037705508253],[16.351853198156487,38.36992817252237],[16.35195125531544,38.36965663370454],[16.352033615531855,38.36917468672336],[16.352097340158128,38.36886032588206],[16.35212592733868,38.36869211314127],[16.35216907728199,38.36842853147725],[16.35218402733997,38.368013803749996],[16.3521759150961,38.36756904641561],[16.352167640618024,38.367164773161505],[16.35217631572191,38.3668737175136],[16.35218187729802,38.36668712459577],[16.352148155648443,38.36647692298303],[16.352136916405676,38.36640686049121],[16.352131161626367,38.36637098905269],[16.352127122937144,38.36632016792233],[16.352100573290716,38.36598612168727],[16.352095141881964,38.365703002537195],[16.352093937217955,38.365640178278625],[16.35209161237382,38.36551894296771],[16.35208886358956,38.36536153966649],[16.35208510353375,38.365146042283435],[16.352088796233616,38.36470503659772],[16.352115082129185,38.36455801739528],[16.352121200994326,38.364523788251475],[16.352127019743612,38.364491247574065],[16.352150786567417,38.36434581477671],[16.35221346322503,38.36409910528926],[16.352235382075037,38.36401215464445],[16.352217019219005,38.36364899238234],[16.352189455843977,38.36333591093268],[16.352090295089575,38.362950853496756],[16.351739471824175,38.36259067230785],[16.35149659372215,38.36243508302789],[16.351183464066047,38.36222095271211],[16.350996138745295,38.36200788047874],[16.350865696983288,38.3617642330368],[16.350235187420264,38.36111133567757],[16.34975776233393,38.36061521276868],[16.34960410437878,38.36038201792258],[16.349381477295942,38.36013069395567],[16.34932021294571,38.35985120050714],[16.349405329257344,38.35950850423123],[16.349535217120973,38.35916017769142],[16.349508392368932,38.359096131916814],[16.349416146812914,38.35888180002201],[16.349488362477594,38.35881171252502],[16.34953933792629,38.358761751496544],[16.34965463230763,38.35864875012398],[16.349876986332614,38.358430813250685],[16.35007764892591,38.358157308786964],[16.350099139220365,38.35811976845555],[16.350288644265646,38.35778869579119],[16.350409122935382,38.35747077689611],[16.350559606119766,38.3569845375945],[16.35056053566198,38.35653022033677],[16.35063274208651,38.35599044355264],[16.350657458401653,38.35550314309918],[16.350627112425368,38.355064282400804],[16.35061949306596,38.3547364385491],[16.35042048785356,38.35438016866321],[16.34996325509317,38.35392774141399],[16.34977583339777,38.35362921192041],[16.34980532230112,38.353357502640684],[16.349880687071714,38.353087395981206],[16.350070390789078,38.35283255752236],[16.350073308866722,38.35235562208483],[16.350192872252233,38.35202875272314],[16.35020941854094,38.351685882732475],[16.35008840773667,38.35127110869105],[16.35005149565205,38.35114457824023],[16.34985565115968,38.350473324464026],[16.349843326168518,38.35043124908737],[16.349798889903692,38.35032443387506],[16.349651603527274,38.349962477429855],[16.349549294085413,38.34960353313963],[16.349492216279643,38.34940583270041],[16.34942795517599,38.34905457055667],[16.349359959444833,38.3488069860897],[16.349330169989372,38.34869641313966],[16.349324631863713,38.348634609489736],[16.349311243871917,38.34848473474746],[16.349287256746866,38.34821802403923],[16.349287590305387,38.34813639514449],[16.349287913791144,38.348055914695614],[16.349287895523165,38.347948746707644],[16.34928793326812,38.34790416683205],[16.349287922552637,38.34773218037346],[16.349294367374558,38.34768629808235],[16.34932934527747,38.34743722549671],[16.349333670027264,38.34740595577535],[16.349357657195885,38.34723254511617],[16.349379551847726,38.34707425442958],[16.34942875408208,38.346845361587015],[16.349443329703977,38.34677727183437],[16.34946479748146,38.34667746000852],[16.349478227369392,38.34663335756829],[16.349561142130376,38.34636106389866],[16.349589151925393,38.346318315722186],[16.349794767648742,38.34600451221508],[16.34989352384323,38.345849367935735],[16.34995918453334,38.345746216682905],[16.35000653449355,38.34567183254697],[16.350219840109915,38.345424516114626],[16.350248652667194,38.34537722042705],[16.35041929732687,38.345097106670664],[16.35045177932342,38.34497368302557],[16.350465817200572,38.34491499128024],[16.35052642392011,38.34469005517759],[16.350547148899437,38.34445887761933],[16.350553186469316,38.34439152924751],[16.350586258377984,38.34400664860677],[16.350592432308748,38.3439347975581],[16.350644227536808,38.34364368381316],[16.350692523065888,38.343550185901],[16.35083893727858,38.343274997504636],[16.35104844879476,38.3430779864161],[16.35137064702779,38.34277633946797],[16.35156353543676,38.342595752983975],[16.351892108063016,38.342288133892716],[16.351990487160258,38.34219602629591],[16.35206362454926,38.342114462993564],[16.35225979138659,38.341895694897104],[16.352321810651212,38.34182578692676],[16.3524066147129,38.34173029173356],[16.35248851086434,38.34163804633445],[16.35263874762464,38.34146876030978],[16.35280395910693,38.341168290737926],[16.352849826842263,38.34108490483187],[16.352899331440835,38.34096071066764],[16.352960163614494,38.34080809840574],[16.3530019840016,38.340706010828654],[16.353102015959408,38.34046182891309],[16.353222622860482,38.340215860327106],[16.353367803422902,38.33997281652182],[16.353475091138673,38.33963772863947],[16.353503878804844,38.3393030972111],[16.35351016366691,38.33904184116916],[16.353481998526593,38.33876475760266],[16.353477185870684,38.33873000527347],[16.353442436230104,38.33850189466369],[16.353457818427938,38.338433995783696],[16.35346431127408,38.33840635387421],[16.3534705772139,38.338378322380336],[16.353505960130178,38.33822777068661],[16.35353868695687,38.33808653923098],[16.353563822295826,38.33804536944749],[16.353635044667413,38.337928703062225],[16.35372717032266,38.33777779743293],[16.353800479905242,38.33769987275528],[16.353858714844677,38.33763797027596],[16.35397454630748,38.33751484236756],[16.354221550263514,38.33727929932978],[16.354389286872564,38.337068881489124],[16.35443346224298,38.33701379147969],[16.354589515708774,38.33670357458116],[16.354600317922312,38.33665690829014],[16.354609035022467,38.336618491785266],[16.354619276880577,38.336573290190394],[16.354628685216127,38.336537887611975],[16.354746540699626,38.33600891271808],[16.354752422180937,38.335729684438206],[16.354640992733856,38.33523748517479],[16.354464227669148,38.335001258260924],[16.354013031956093,38.334719367282055],[16.353767091900306,38.334406553679855],[16.35336189649302,38.33397335066744],[16.353182015631518,38.33369234845955],[16.35288039558746,38.33336504349233],[16.352608714052625,38.33299537659782],[16.35253420994406,38.332725710827695],[16.35249560009892,38.33245829517142],[16.352418438857942,38.3320358722948],[16.35248982993398,38.33157261896233],[16.352477032543785,38.3313430449704],[16.35246750822502,38.3311721985624],[16.352456849921055,38.33098100690211],[16.352405675477886,38.33067390872356],[16.352272379086326,38.330331495663465],[16.352141664123504,38.33005638209898],[16.3519471682585,38.329699367907445],[16.351898548419708,38.329610117862195],[16.35185772960138,38.32953519050572],[16.351780498914216,38.3293713274594],[16.35171543561048,38.32923319051561],[16.35168723300014,38.328969612597945],[16.351705356546244,38.32891050061314],[16.351725086028328,38.328846153756245],[16.351773011590428,38.32868984227467],[16.351918070873726,38.32847381655624],[16.352116001183216,38.32830346281358],[16.352167211425584,38.32825896950532],[16.35237998947451,38.32799044154536],[16.352471897532347,38.327847700955665],[16.352513476576075,38.32778312445712],[16.35255505868375,38.32771854505496],[16.352565095948865,38.327634709891576],[16.35257513597453,38.327550868258186],[16.352595215366687,38.327383178738515],[16.3525739589106,38.32730210518849],[16.352496677032264,38.32698915255287],[16.352203764426985,38.32662082236702],[16.351957464318293,38.326290027786875],[16.351711079902447,38.32598622575738],[16.351523178513336,38.32571022164847],[16.35125533749707,38.32533581262227],[16.35105462696418,38.325074100775765],[16.35095755130979,38.32477888461009],[16.35101945502204,38.32444664224798],[16.35108042350914,38.3239930378436],[16.351224683669923,38.3237410850639],[16.35129667625159,38.32336773226402],[16.35160828764877,38.32288033362422],[16.351814389427755,38.3223096437739],[16.351935573127445,38.32208120683096],[16.352058766394812,38.321848975728365],[16.352279651434678,38.321466257442175],[16.352364738294707,38.3211235635604],[16.352482915338058,38.32067084789588],[16.352650064962766,38.32036347360859],[16.352779794985256,38.32008093189999],[16.35293409633168,38.31990761060653],[16.353038582818506,38.31979025540932],[16.35325010860487,38.31949806288786],[16.35358574405329,38.319135077627976],[16.353614912901424,38.31898262092449],[16.353671257669685,38.31868795650166],[16.35368509211699,38.31861561463734],[16.353760786666783,38.31821979582157],[16.353766765778055,38.31818853071467],[16.35383648358506,38.3178239714573],[16.353725815410538,38.317394673252736],[16.353513017376386,38.3170287663979],[16.35341799471871,38.31686536929793],[16.353319069823808,38.316453328153855],[16.353198074313184,38.31611913039576],[16.353180588439834,38.315778426378394],[16.353197895611473,38.31537254290148],[16.353192814592106,38.31516701321539],[16.35319061959471,38.31507616654153],[16.35311466010799,38.31470764602399],[16.353105149801564,38.31462398988723],[16.35307455602978,38.3143548640059],[16.35303173479395,38.31421349322486],[16.352988399691743,38.31406802685989],[16.352934415979032,38.313977370988724],[16.352823209853096,38.31379059355069],[16.35266938165104,38.313512442915915],[16.35259206065568,38.31301807317951],[16.35259756461569,38.31272088852151],[16.352714978219154,38.31233118900992],[16.352903752275555,38.311941485421606],[16.353160006968757,38.311570022557696],[16.353377977298415,38.311313403328974],[16.353413793127253,38.311274911526546],[16.353526307604668,38.31117461918416],[16.353560507028003,38.311144956499426],[16.3535913100148,38.31111983646308],[16.353700672553554,38.31102416026729],[16.35372867829985,38.310977543209454],[16.353763230441924,38.31091752601385],[16.35384504938104,38.31078356318178],[16.35387566253248,38.31073335990258],[16.35393176707373,38.310570408819906],[16.35396484213979,38.31047385845456],[16.353984966887197,38.3104152472846],[16.354006753381086,38.3103518196041],[16.354026889326114,38.3103283173542],[16.354218825004715,38.310104481690715],[16.354292991044154,38.31003253085723],[16.354336453006386,38.309990322049906],[16.354456359533298,38.309873848082],[16.354600593703214,38.309734324321546],[16.354516574623336,38.30948325854473],[16.354200134449215,38.30910742533513],[16.354182897653146,38.30905003884018],[16.354104063644325,38.30880763573534],[16.353972974416102,38.30851456839139],[16.353767422290655,38.30806426305456],[16.35358859397883,38.307553816607474],[16.35353742200389,38.30724670295281],[16.35344105607919,38.307014410553016],[16.353145967618403,38.3066237251479],[16.35305758106716,38.306371130704385],[16.353060316652986,38.30632776185059],[16.35305148282739,38.30620612174642],[16.353046526981096,38.306108242115364],[16.353039851962055,38.30599807169896],[16.353035862869486,38.30593321681622],[16.353027858554967,38.30583139598651],[16.353011233086967,38.305765087863094],[16.352993596169974,38.30569807079153],[16.352967214533614,38.30559576305486],[16.35295996500044,38.30507457605203],[16.352959576731568,38.305046562116296],[16.352958220830423,38.30494799771847],[16.353308440058985,38.30495448643406],[16.354164209598327,38.305069177145576],[16.355282101211873,38.30522225105214],[16.355712579379357,38.30531612573048],[16.356112042244124,38.30540323537636],[16.357044158135974,38.30562913028944],[16.357975209673192,38.30579663223187],[16.358921861677388,38.30596393394403],[16.35982144711893,38.306116419779045],[16.36173034515162,38.30645082949457],[16.36275572596852,38.30665715888889],[16.362986301928522,38.306708781996456],[16.36351381278919,38.30682826090234],[16.363635528675395,38.3068557312948],[16.36410264605575,38.306961157779995],[16.36463451246881,38.307047194499546],[16.365335292593475,38.307178884959534],[16.365604865379925,38.30722954267207],[16.36638897898866,38.30746015505561],[16.36724393719387,38.307726835606374],[16.368185660506384,38.308044731640344],[16.36895651828624,38.30833469617381],[16.36991345586379,38.308694645153444],[16.37037748092055,38.30890439037175],[16.370942579873603,38.309097577837434],[16.371892301874468,38.309424589652],[16.372795837274737,38.30978286461642],[16.37328269592044,38.30996158704207],[16.373600199326493,38.31008571547552],[16.373844401480937,38.31013515048175],[16.374081684565578,38.3102278630235],[16.374527007642122,38.310366006111266],[16.37484294968433,38.31045056164506],[16.375262267287667,38.310786797079636],[16.37570801496251,38.31093711235895],[16.376198181968004,38.311078666654346],[16.376566166444942,38.311132746402244],[16.376689228741046,38.31115471396243],[16.376839017831056,38.3112166408163],[16.37710906441658,38.31122596261365],[16.3774593433712,38.31135273860504],[16.37792165156104,38.31160192721499],[16.37908645443429,38.3119913932615],[16.38061111272646,38.312479225461736],[16.38090434146919,38.312475131991974],[16.381599411425604,38.31265950564349],[16.382785659446508,38.31292350691384],[16.38363017603103,38.31319528795353],[16.38449916462573,38.31353471322162],[16.385305671213686,38.31386424684461],[16.386442234121585,38.31434762508615],[16.38658866773889,38.31438911626039],[16.386952555216656,38.31450619951851],[16.388125913307245,38.314914732656064],[16.38960206904931,38.31539360738268],[16.39067400124248,38.31575051766294],[16.39144278182871,38.3159915439299],[16.39237631302606,38.316135335523505],[16.393096731265672,38.316238421961934],[16.393290756343465,38.31624123190613],[16.39360464286428,38.31568625309206],[16.393745715515866,38.31572480139103],[16.393394818142454,38.3163224167194],[16.393482351626115,38.31635640096909],[16.39364163799408,38.31654006035807],[16.39431169274341,38.316822819718],[16.395564444012873,38.31722086630938],[16.396861247074522,38.31770606449502],[16.39758876998874,38.3178960383804],[16.397792934751383,38.31789863731326],[16.39807708211871,38.317417673402666],[16.39819882209212,38.31744637196355],[16.398023426555667,38.31780935660954],[16.39812785384743,38.31789560672824],[16.398236495594418,38.31801327384676],[16.398361186305912,38.31811608295484],[16.398666737636663,38.318269698047615],[16.398995660254474,38.31839414990486],[16.399383972990247,38.31858403254148],[16.400010724777598,38.318786465022185],[16.400597650605448,38.31894298226272],[16.40099850355008,38.31908362392342],[16.40153617572733,38.31918790204797],[16.40195278719703,38.319396738712754],[16.40245737432133,38.31960691108468],[16.40292250006128,38.31970341403853],[16.402998038549647,38.31969056167649],[16.403275166060222,38.31920688040984],[16.40339159018526,38.3192391165598],[16.403275982059437,38.319477335625734],[16.403408318866955,38.31962959169225],[16.40401242290612,38.3198680379431],[16.40495870407551,38.32018855576083],[16.40581350164132,38.3204733548901],[16.406304740020424,38.32055287967454],[16.406895341200304,38.32091672527067],[16.4076562668942,38.32122823130041],[16.408518448807303,38.321297669609486],[16.408840181427873,38.32138138562545],[16.409245142369404,38.32139025996551],[16.409442344601004,38.32134313257915],[16.40951939954573,38.32126409994461],[16.409544840958574,38.32138515760643],[16.41157365321046,38.322104831358374],[16.411712635103925,38.32215468583057],[16.412411905527794,38.3224796183305],[16.41352079787958,38.32290892621727],[16.41458976065822,38.32331696232301],[16.415432643304786,38.3236560641984],[16.415979112859432,38.32382956265714],[16.41625022741416,38.323895621715444],[16.416605243096758,38.32392215452773],[16.41747558281914,38.324016420852224],[16.417873947231765,38.32424811847838],[16.418917966863216,38.32464817885546],[16.419270253350604,38.32490184137589],[16.421070919694273,38.32549173926449],[16.42169391097062,38.32555681210092],[16.42223710537789,38.32555080361483],[16.422463888503,38.325641086939235],[16.42334677541521,38.32576576868431],[16.423836729536784,38.325829779157424],[16.425654914261308,38.32658984184899],[16.42719074477676,38.32695601609832],[16.427216271316688,38.326894499018145],[16.427392074052104,38.32647083350324],[16.427493516571545,38.32638202818274],[16.42752043288118,38.32635846598871],[16.42755306049925,38.326358064663275],[16.427617792941806,38.32631609909219],[16.4277651454623,38.32633884351557],[16.42779261948276,38.32642991125965],[16.42756703510831,38.326765756230486],[16.427764341238852,38.32687556953961],[16.42873047298165,38.32701632597762],[16.429600711830812,38.32703228721145],[16.43023330840548,38.32686703927292],[16.430720291534822,38.3266813159441],[16.43082764918122,38.32664369646849],[16.43092810499581,38.32660143719936],[16.43094119908698,38.32600824732618],[16.431030742951897,38.325977814576376],[16.43104982992525,38.32593325157173],[16.431207906301793,38.32588390970297],[16.43140597542862,38.32600337449486],[16.431253947871028,38.32615934089313],[16.43120344079829,38.32623761332678],[16.431201691464363,38.32692671426315],[16.431697749523625,38.32712357673503],[16.432051615278695,38.32708317659046],[16.432117531265778,38.32704907659295],[16.43224704548006,38.327015203313756],[16.432241108443293,38.32694258474228],[16.43252780114285,38.3269100341492],[16.432563296215665,38.327079126260365],[16.432439962317805,38.327119974701375],[16.432451719826574,38.32718258779173],[16.432009079451326,38.3272450336399],[16.43162817476508,38.32729877013848],[16.431285226195495,38.327696057177356],[16.431145852733547,38.327883432797805],[16.431203037351473,38.32790610558557],[16.431246867014103,38.327931519183345],[16.43133131119414,38.32783591590483],[16.43138302385444,38.32785404041725],[16.431295208541925,38.32800730679879],[16.43133772351615,38.32802915756708],[16.431401133566,38.32794213373132],[16.431444205078485,38.32796437805686],[16.43228025585881,38.32834866376289],[16.43254072614239,38.3280181731079],[16.43264139045365,38.327892687389365],[16.43273069977806,38.32778243509074],[16.432826296236126,38.327826393050664],[16.433027532702877,38.32757039518727],[16.433054835840593,38.327535661416896],[16.43316525610939,38.327395702133984],[16.43325928216339,38.327281090319254],[16.43344957801352,38.3273689176558],[16.432643320276068,38.32838498266981],[16.433999014530574,38.32905220349214],[16.434193108334775,38.32881233712179],[16.434424459129673,38.328526425714585],[16.434576820985516,38.328338131107486],[16.43486402248114,38.32798319218262],[16.434947774942394,38.32788029332586],[16.43519051404039,38.32799333322124],[16.434385371073322,38.32902281147898],[16.435549885086893,38.32959132491894],[16.43652829410304,38.32836426088053],[16.43668649576691,38.328037911790084],[16.436396668025886,38.32795225683919],[16.43529929200183,38.32761695504851],[16.434822064667735,38.32745600425043],[16.43413906632099,38.327225649698484],[16.433641970926615,38.3270654772875],[16.433581834405818,38.32714730765249],[16.433342978983998,38.327036695331955],[16.433402806524732,38.32693863716391],[16.433183553143948,38.32677911789529],[16.432494429200787,38.32574943276169],[16.431737211184682,38.32538617269656],[16.431650281672468,38.32547486893864],[16.431554595576227,38.32557437829124],[16.431377940548593,38.325487338840425],[16.431427799927263,38.32540561128705],[16.43142572207811,38.32530020740327],[16.431360812412358,38.32513880711902],[16.431147310782478,38.325165012460786],[16.43090765785622,38.32518249358858],[16.430443293309775,38.32498853535437],[16.430924883771937,38.324460055235775],[16.43096133469923,38.32442005453032],[16.431018012260818,38.32445412137163],[16.43140450741326,38.32468642682825],[16.43180017800503,38.32489936648771],[16.43231202335327,38.32516534280055],[16.43287064015603,38.325467038449034],[16.43324899700087,38.3259705524462],[16.433412373744837,38.326283378765794],[16.433460481309353,38.32626557866248],[16.433492387223307,38.32625377285588],[16.434050271335835,38.326390756282585],[16.435038653640348,38.32682158224814],[16.435901911451193,38.32728417541323],[16.436566469171034,38.32750359244778],[16.43677198774243,38.32756057924719],[16.437281733857407,38.32770192126335],[16.437790666836825,38.327977093829475],[16.43967045180055,38.3288228158875],[16.44241172060568,38.32999255660446],[16.442069822175476,38.33044388657214],[16.441992233695572,38.33063624833921],[16.441772114439644,38.33118163602588],[16.44166810411227,38.3314393328168],[16.441622231700872,38.33148115149484],[16.44158559669374,38.3315146234586],[16.441420054765985,38.331665491877175],[16.44126487357978,38.33180691630678],[16.44120305846773,38.331847507003296],[16.440915889721687,38.33203607622104],[16.44087632766046,38.33207948976526],[16.44080461071271,38.332158594271114],[16.44072099779119,38.33225088967966],[16.44063376500701,38.33234640861896],[16.440549945631467,38.33272504955943],[16.440514409684976,38.33324002336587],[16.440437348314774,38.33354727020698],[16.440427802848014,38.33358539446458],[16.44041926458874,38.33361942112461],[16.440424724096275,38.33368038144074],[16.440428434276868,38.33372117786237],[16.440434588814416,38.33378186715997],[16.440441070986314,38.33384526461957],[16.44044821398909,38.33391443244943],[16.440452691449803,38.333972527568214],[16.440445491017982,38.33401347773624],[16.440428148346307,38.334122516430355],[16.44040938851514,38.33423164464603],[16.440196127099973,38.33443414526399],[16.440143400089607,38.33468487312623],[16.43982455029755,38.3347771700893],[16.439516284135127,38.33481933046073],[16.439194590818353,38.33475889113534],[16.43885096110904,38.33476283289895],[16.43846496965987,38.33486839961661],[16.438089503026028,38.33493733551927],[16.437781590807248,38.33501095018217],[16.437655995831147,38.33512239739846],[16.43732049870754,38.335413634048756],[16.437072964682116,38.33568577470284],[16.43677012626675,38.33596144275377],[16.43644215512323,38.33606770501443],[16.43633772229582,38.33610148002469],[16.435951983139592,38.336278994974904],[16.435604264629685,38.33637004436897],[16.43552092422576,38.33639174274178],[16.435261252516828,38.33639903497783],[16.43514227143962,38.33640238546182],[16.434685570334707,38.33644498789164],[16.43430673362465,38.3363701990086],[16.43415490979169,38.33636214349601],[16.43388283238253,38.33634777831807],[16.433540485132674,38.336387560377716],[16.433122748913746,38.336670543615135],[16.43306510277293,38.33671353605037],[16.432898563239426,38.33683784980631],[16.432628181708353,38.33703938459547],[16.432150102453413,38.337263245803136],[16.431774489431323,38.33737262336493],[16.43136485454014,38.3374707023607],[16.431013713609314,38.33761000225732],[16.43066115579367,38.33774940850896],[16.430389895981733,38.33788812834048],[16.430164273690973,38.3380958951813],[16.42992694777794,38.33825942153933],[16.429813403643262,38.33829613976737],[16.429426856629163,38.33842170953051],[16.429131175426516,38.33850351226802],[16.428884181595475,38.338603905845076],[16.428803668941374,38.33863682773924],[16.428665412616034,38.33878311951222],[16.42845565568887,38.33900508226607],[16.428432829959647,38.33902923432509],[16.428336174210386,38.3391126100406],[16.4281528702447,38.339270721813605],[16.428106283925597,38.33931090441259],[16.427894538628088,38.33961222997826],[16.42783302708269,38.33975028442798],[16.427784968631354,38.33985823825026],[16.42752788440929,38.34017847225159],[16.427437922098964,38.340339347472465],[16.42739768111431,38.340415987229704],[16.427343751303788,38.34067813232049],[16.42730111247779,38.34089581369145],[16.427216356157057,38.34119017425103],[16.427112720546972,38.34128066978633],[16.42695773671903,38.341416892143194],[16.426640531511364,38.341581023194806],[16.42626315059833,38.34163202709471],[16.425885183406155,38.341684112331556],[16.425773240677692,38.3416992231743],[16.42539502424401,38.34171430007809],[16.424996339772225,38.34178017775521],[16.424656069271727,38.34191427163375],[16.424349359706383,38.34204173296196],[16.424161081268238,38.3420809338087],[16.42388250029227,38.3421389352603],[16.42358579476336,38.34223876903776],[16.42322449973351,38.3424326677484],[16.423070987476116,38.342503210558725],[16.42287278120068,38.342594286971526],[16.42281550452752,38.34262060675826],[16.4227039766349,38.342663954286934],[16.422580279254866,38.34271203236323],[16.42235538965381,38.34279943997917],[16.422123560181156,38.342889543953966],[16.422093125825313,38.34290833239895],[16.42187255218131,38.3430445008749],[16.421636192398235,38.34319041056635],[16.42154981938614,38.34326641275394],[16.42134418557213,38.343447353959526],[16.421003919144354,38.34356795285302],[16.420897574970358,38.343577046713165],[16.42059208567553,38.343603169024256],[16.420269943966563,38.34352472672676],[16.419927258887515,38.34348276494507],[16.419857903980287,38.34347447793775],[16.41967957455553,38.34344905500898],[16.41944353163484,38.34341540528419],[16.41905882481705,38.343368157551915],[16.418985166268563,38.34335911119018],[16.418574822267054,38.343489903978266],[16.418509607472703,38.34351079987923],[16.418214464556538,38.34370946471716],[16.41791820264001,38.34381376990091],[16.417336903467927,38.34392270399983],[16.416835182793918,38.34397261499857],[16.416446394027165,38.34403781636371],[16.41640437610892,38.3440494199468],[16.415984226369794,38.34416543869613],[16.41583272551118,38.34420727418218],[16.415789346931362,38.344228121961685],[16.415655986764918,38.344292214127044],[16.415390525358895,38.34441979534929],[16.414901668926984,38.344581308558574],[16.414376670986748,38.34466866681964],[16.413769792244313,38.34463979411742],[16.413392446259476,38.34481668560508],[16.413349852184126,38.34483289603685],[16.413229848670838,38.345096882333046],[16.413210612630763,38.34534096169872],[16.41326422749464,38.345710855450065],[16.413428901135582,38.3459522477279],[16.413639967296184,38.3461726928438],[16.41403669652058,38.34657474248097],[16.414157881905425,38.34680989094498],[16.41417947596683,38.34685350413083],[16.41418695860138,38.346884510245495],[16.41424142530485,38.347137405072054],[16.414270787902193,38.34740987455704],[16.414298189931657,38.34770496179617],[16.41462711941243,38.348169790739895],[16.41473992293729,38.34838088879284],[16.414756407786427,38.34841173709563],[16.41477849163187,38.34845306573378],[16.414800066535076,38.34849344086947],[16.414641398893437,38.348865975381386],[16.414337875266234,38.349164124792225],[16.4142291269953,38.34945438557197],[16.41415050412743,38.34951486823353],[16.413902104251395,38.34970454892796],[16.413256688620848,38.3500244352879],[16.412699912303342,38.35027571766854],[16.41250970924034,38.35046769742855],[16.412435804723863,38.35055817544094],[16.412296583020584,38.35072861530043],[16.412172086044677,38.350751434205854],[16.41192067020062,38.3507974729345],[16.411521434090123,38.35081386734554],[16.41125716408045,38.35089484908399],[16.411225171008052,38.35090465251562],[16.411184989356197,38.35119504689476],[16.411263268780377,38.3516803115722],[16.411093552144134,38.351795303298495],[16.41099224410329,38.35186394338594],[16.410781853249787,38.35189484664841],[16.410400566851422,38.35195052507518],[16.4103502613454,38.3519241066417],[16.41005178817462,38.35175731072557],[16.40953008155255,38.35140368053987],[16.40920782018174,38.35135218472477],[16.40916478248126,38.35135820353923],[16.40885461090702,38.35140000127145],[16.408766544533297,38.351492296268546],[16.408669711597426,38.35159252420508],[16.408641391352017,38.35162201505185],[16.408635401149088,38.35188328626151],[16.40856028731266,38.352153406484085],[16.40843966758581,38.35245340599725],[16.40790604148252,38.35269420592026],[16.40755031536552,38.35260885390892],[16.407273689991513,38.35248701091661],[16.40715107405579,38.35245515955897],[16.406870290223228,38.352382218128795],[16.406694625810445,38.352744183642685],[16.406791543372297,38.35302137270093],[16.406922076456528,38.35329191434104],[16.407077868200417,38.35364183252496],[16.407221354324143,38.35395570256794],[16.406800353825915,38.35421619813517],[16.406546431920773,38.35437276673958],[16.406180604056605,38.35459833023439],[16.40588530474233,38.35468454820765],[16.405494971988674,38.354623882238805],[16.405168076707696,38.354549573905025],[16.40509293123367,38.35453249260827],[16.40474595213861,38.354379114908575],[16.40442707964358,38.354256170050114],[16.40436493248014,38.35423232245206],[16.404305413523797,38.35422437773113],[16.404115641783644,38.354199041816635],[16.404068588051814,38.35419276020752],[16.403952909553695,38.354173242552974],[16.403829399971578,38.35420351627339],[16.40354447897047,38.3542706769193],[16.403524578074183,38.35429205814046],[16.403450420439196,38.35437829144172],[16.4033583948811,38.354484008374946],[16.403316175580905,38.354534255291206],[16.403284839079884,38.35457083483222],[16.40319901705778,38.35474263905452],[16.403064421044114,38.35501208875389],[16.402858438708154,38.355056858227954],[16.402655158036488,38.35510103934597],[16.40242472828121,38.355086513412914],[16.40226423174841,38.35507639592786],[16.40221415936907,38.355097125130534],[16.401927856233993,38.35521565192494],[16.401879297911332,38.35523575146303],[16.401597621792185,38.35548300384603],[16.401282739753047,38.355754856659146],[16.400942239718727,38.35591590526492],[16.40022148198546,38.35597513708595],[16.399866158213598,38.35590773437786],[16.399466580723036,38.35592410250929],[16.399158434515755,38.35602460360342],[16.398887359277555,38.35620822897852],[16.398767607716355,38.35651715577513],[16.398762640736155,38.35685928888836],[16.39882829428034,38.35729137291012],[16.398428570742297,38.35734821983027],[16.39825882654323,38.3574394853037],[16.3982305805084,38.357454225160865],[16.39818470823744,38.35747878441554],[16.398022790057404,38.35756547459657],[16.397942551275303,38.357608430739724],[16.397411596367142,38.35807039086474],[16.397368222064717,38.35810812577928],[16.397046753326496,38.357850433658314],[16.39693731788208,38.35776222977368],[16.396898847440568,38.35773325196147],[16.39661241184603,38.35751749245627],[16.39641512003852,38.35740742419063],[16.396284871454032,38.35733475857158],[16.396185346389345,38.35727923349563],[16.39564349063555,38.35714718001295],[16.395409075443222,38.35708289958101],[16.395241027037436,38.35703778250193],[16.394599207999782,38.356961563566514],[16.394149569541597,38.3568236554465],[16.393873448481518,38.356692758120495],[16.393593425831035,38.35645415537928],[16.39334684929695,38.3561234757219],[16.39313512495188,38.355826563712206],[16.393121043347072,38.3557805637502],[16.392989164728654,38.35537700884013],[16.39298363722953,38.355071518466495],[16.393036055996546,38.35481632882327],[16.393028386219164,38.35444802599711],[16.3929842980037,38.35394709095126],[16.392693930792714,38.35370464567212],[16.392380235478825,38.35349965748599],[16.391899240440214,38.35341770321788],[16.391518353381503,38.353477110255376],[16.391464442728413,38.353486553509114],[16.39123200547144,38.35384678818778],[16.391316201300537,38.3540978123855],[16.39162048431465,38.35442034215437],[16.391751567732403,38.354654909007465],[16.391637109384778,38.35519735979938],[16.391088319738504,38.355290619602165],[16.390627741936303,38.35517140608819],[16.390220048310344,38.35481495385613],[16.389750292722773,38.35475926676185],[16.389465182316226,38.35488978345132],[16.389253151996275,38.35507861677181],[16.388826494663718,38.35552842115792],[16.38875077084599,38.35554492682649],[16.388302669753568,38.35564258204001],[16.38787359308493,38.35541347822951],[16.387832162062068,38.355006751043334],[16.38781070086599,38.354886405605335],[16.387755232884277,38.35457535476869],[16.387610897004482,38.354224700066645],[16.38742622934063,38.35389355452769],[16.387409823916972,38.35386413520254],[16.38719820303326,38.35355371991316],[16.386950753341566,38.353214091600066],[16.38684816719242,38.35308376152247],[16.386704602828264,38.35290136691945],[16.38656412048214,38.35280495372079],[16.386527543698225,38.35277985151747],[16.38638089159295,38.35267920536906],[16.386334482401153,38.35269310041539],[16.38625020192431,38.352718724195746],[16.386144535407464,38.35275075968131],[16.385857110791292,38.35283810825217],[16.3858046875357,38.3528635596827],[16.385334720530793,38.35309159634452],[16.38520426862923,38.353112262982016],[16.38426220843606,38.35327196751085],[16.384066253375913,38.35330896050263],[16.383943526649116,38.35333275261952],[16.383909253993025,38.3533392900807],[16.383823576219054,38.35338502939516],[16.38354638747435,38.35353316972051],[16.383372280401662,38.35365626393132],[16.38334314400986,38.35367714812451],[16.383307556970074,38.353702440936445],[16.383181503909885,38.353792850176724],[16.38314104989359,38.35382521911833],[16.383038274745502,38.353903611908486],[16.382922062130007,38.353993281789364],[16.382779278623104,38.354103470801306],[16.382342176214124,38.35454941782982],[16.382216431971457,38.35465108929016],[16.38208472949166,38.354757689424595],[16.381901692049663,38.35490572408505],[16.3817425911563,38.354992672201504],[16.381632225666067,38.35505298629799],[16.381558341306093,38.355093363819606],[16.381458000082475,38.35514819924462],[16.38142698387602,38.35516514964124],[16.381200645805684,38.3552789269186],[16.381007288277253,38.35537612299234],[16.380656644379467,38.35554509437893],[16.380524992974784,38.35560853406585],[16.380469397632414,38.35563532458844],[16.38039484180341,38.355671251685784],[16.380326516560956,38.35568474333135],[16.380197552548037,38.355708107860906],[16.38012999620876,38.35572076184321],[16.380007625134517,38.3557437394661],[16.379777317885623,38.35578679820472],[16.379138851065022,38.35586921501618],[16.379080621460677,38.35587672836537],[16.379025688795576,38.35588381716018],[16.3789546382277,38.35588300171665],[16.378533455727805,38.35587440097364],[16.378041688002178,38.35571064232402],[16.37799620296171,38.35569545696821],[16.377795827601773,38.3556287161693],[16.377082997541265,38.355457946977445],[16.376831508510257,38.355458661631786],[16.376745750273255,38.35545907660472],[16.376396413564805,38.35546056702979],[16.376040893334512,38.35546090575381],[16.375590320356405,38.35534021472043],[16.37552421379696,38.35532249534255],[16.37548628745834,38.355304175458926],[16.375352791389204,38.35523889043421],[16.375278635142042,38.355202708138314],[16.375250980433552,38.35518924269696],[16.375154917481826,38.355142255519574],[16.374945535816572,38.35503994074676],[16.374496971958038,38.35488392420154],[16.374318708320853,38.35481656311907],[16.374269842195265,38.35479809720066],[16.37396792712284,38.354683948618614],[16.373932236812017,38.35466518905053],[16.37369727061562,38.354539518023515],[16.373618035781206,38.35449717375593],[16.373400515556956,38.35438206665699],[16.373287106680873,38.35434880763986],[16.372948363469153,38.35424951269656],[16.37287063381357,38.354226671626016],[16.37270373854547,38.354197580054446],[16.37263566669471,38.354185463135586],[16.37254630098596,38.35416978916945],[16.372342855321104,38.35413410805149],[16.37219047719916,38.35408732438894],[16.372104474550984,38.354060903976524],[16.37206049136139,38.354047261979325],[16.371992161645917,38.3540261153182],[16.371947799876242,38.35401232270203],[16.371914354212926,38.35400187883273],[16.37187106134422,38.35398851964706],[16.37183294194123,38.35398053638994],[16.37175104050241,38.3539633815321],[16.371491705119027,38.35390906235597],[16.371252761151744,38.35383873367046],[16.37112693454899,38.35380165364557],[16.371076573547356,38.35378687532775],[16.370584521872726,38.353750518049566],[16.369988787959123,38.35374769851632],[16.369338712108167,38.353856247405005],[16.368908248243184,38.354031878689185],[16.36847868195463,38.35434237668448],[16.368386227630324,38.354892429017255],[16.368543251887516,38.3553682445445],[16.368753644588928,38.355611312583704],[16.369174534079058,38.356083955044966],[16.369202330497256,38.35617371921913],[16.3692852126234,38.356441259074614],[16.369452378945287,38.35686245406587],[16.369560636010185,38.357111975358016],[16.369669549610098,38.35743792583553],[16.369802717141145,38.357847785057984],[16.369903194978008,38.358273195087705],[16.369921488295557,38.35833718098592],[16.370007058808742,38.358639633726085],[16.37004970778718,38.35878567074889],[16.37007413400595,38.358884361421794],[16.370106602857682,38.359015547474065],[16.37017355823334,38.35928607397936],[16.370188459978877,38.359333091385935],[16.37034405281793,38.35982399943003],[16.370592895343567,38.360289513664924],[16.370707826039276,38.36042826652204],[16.371039076094828,38.36082801048433],[16.371087025007675,38.360880871582815],[16.371174393042534,38.36097718954778],[16.371436491842207,38.36126613254021],[16.371596203442337,38.36137275390194],[16.371819863513483,38.36152197619552],[16.372138983850647,38.36172445853296],[16.37222422268393,38.361778535239004],[16.37297127730673,38.36253636436906],[16.372725021354057,38.362880256530126],[16.37254743797838,38.363197330467614],[16.372512018494554,38.3632704835006],[16.372438666124065,38.36342082453448],[16.372371652512737,38.36355936411293],[16.372093684694292,38.36401309134902],[16.371861854092447,38.364414541179656],[16.371731710619443,38.3646253011435],[16.371627745020483,38.364793662664376],[16.371474542750423,38.3651677226871],[16.37143108063214,38.36527383447634],[16.37139554601366,38.36535055937527],[16.371359397445286,38.36542861390616],[16.371341824006183,38.36546579155548],[16.371276695983678,38.3656075730065],[16.3711036059137,38.36610876750915],[16.370984075339127,38.366449139318085],[16.370730126011743,38.36694194239605],[16.370498834855884,38.36744679669582],[16.369967986835803,38.36775921091128],[16.369579766256802,38.36787370644901],[16.369231721109045,38.3680047126422],[16.36909150754245,38.36805748971386],[16.36892518323323,38.368111684782036],[16.368715425921806,38.36818005311814],[16.368308430546815,38.36837667719693],[16.367876059155478,38.36853443087858],[16.367546706566365,38.36870816610584],[16.367208531836365,38.368963405860605],[16.366713584856424,38.369403966977785],[16.366353392495917,38.36972356195869],[16.366209323343593,38.37004750136804],[16.366207509469685,38.370176186127445],[16.366204937540342,38.370353781381425],[16.36616576089963,38.370698063544495],[16.36611266062162,38.370975780249154],[16.365937909460417,38.37140509789211],[16.365809806617843,38.37187194188216],[16.36571292066816,38.372098449170025],[16.365622721103684,38.372306552330635],[16.365446455088577,38.37263702018626],[16.365388101424244,38.37270170031472],[16.365153862317385,38.372961332610124],[16.36484867072829,38.37312004907697],[16.364564619892892,38.3732956332628],[16.364501873366535,38.373324491297254],[16.36444506022478,38.37335062133621],[16.36427047064134,38.373430919580066],[16.363964362615356,38.37358068290445],[16.363611073617808,38.37370194254986],[16.363315606221505,38.37378806751243],[16.363240842792667,38.37383625920752],[16.36304487074036,38.373962580560494],[16.362716691445748,38.37419020673417],[16.36223343236306,38.374647993808615],[16.3614032656962,38.3752997886269],[16.361330140673438,38.37535720212139],[16.361047577572265,38.37556941687504],[16.3608790197321,38.37569600907939],[16.36080283660868,38.37581743738142],[16.360667668784313,38.37603317640802],[16.3606395428021,38.37633180961749],[16.360781314211067,38.37660169877195],[16.360877624610126,38.37688798067773],[16.360827403358773,38.3772644424865],[16.36061034335612,38.377853843978684],[16.360413179980572,38.378316054982456],[16.360222955936262,38.378579935163344],[16.360024879607643,38.37903321157421],[16.35986419249247,38.37960105544389],[16.35979406492801,38.37987900267283],[16.359768553046322,38.37998040324723],[16.359501880156078,38.380433515351655],[16.35911961002273,38.380817453362816],[16.358693823700527,38.381195147017515],[16.35847788954954,38.381375186291606],[16.358344999454832,38.38161295047641],[16.35805376180639,38.38193718008809],[16.357850942637732,38.38214787350203],[16.357514632705705,38.38250643036573],[16.357159086707416,38.3824659024209],[16.35684844924152,38.38243152764443],[16.356370305120684,38.382533658011454],[16.3560183233536,38.3826683178688],[16.355588118016875,38.3829608183514],[16.355444994246312,38.38326668804731],[16.355358183199034,38.38356450977563],[16.354458829837938,38.38383714274362],[16.35407242166303,38.3839424848975],[16.353653169287476,38.38421628892973],[16.35352023666914,38.384454069948866],[16.35355045258161,38.38482096177032],[16.353932670019272,38.385053217294264],[16.354419192563405,38.38534185923368],[16.354686840246746,38.38559933935985],[16.354691901561296,38.385873366008],[16.35446016042987,38.3863332557965],[16.35416934278371,38.3866619455599],[16.3539420344085,38.386968968715124],[16.353833947088557,38.38711477480836],[16.35347420495052,38.387524265417476],[16.353090878800298,38.38780031519583],[16.35267090849152,38.388011213061816],[16.35223768724368,38.38810599951968],[16.351771998649728,38.388274807728195],[16.35131674577602,38.388433947161865],[16.350628899857824,38.388441324007616],[16.350331189989035,38.38836564331414],[16.349757875982625,38.38836131745101],[16.34946273143393,38.38846538558621],[16.349099569972594,38.38865918559012],[16.348599122967162,38.38887963743737],[16.348506337450065,38.388924932931765],[16.34812276302838,38.38911206031199],[16.34769101918031,38.389305701954974],[16.34706647608138,38.3895564440294],[16.346680148169057,38.38974720183797],[16.34587517612237,38.39016225214675],[16.345602628966834,38.39029185884643],[16.345182221310814,38.390484778185794],[16.345133405993952,38.3905109460713],[16.34506597972298,38.39054708857757],[16.344649779600772,38.390770178856705],[16.344196379488558,38.39104612070113],[16.343836206169595,38.391311693018864],[16.343441136727474,38.39166940169747],[16.343058010761094,38.391990377759896],[16.34254736663078,38.392265425256355],[16.342093371989286,38.39245143967254],[16.34165234378188,38.392708595853136],[16.341152217310643,38.39294699512953],[16.340550763140058,38.39321424887828],[16.339971150326413,38.39345763038457],[16.33944984882721,38.39375617367765],[16.339224265891545,38.39388531551638],[16.33907853048231,38.393968772380724],[16.338735733334232,38.394165072878955],[16.338105071160026,38.39435636040966],[16.337793073098915,38.394561731795164],[16.33754393523791,38.39473932849192],[16.337263846790954,38.39507629543746],[16.337028013891512,38.395356516136474],[16.336918617286305,38.39560177173007],[16.336831862146923,38.39573696112568],[16.33665098040681,38.39601892300718],[16.33652044619123,38.396337466211094],[16.336422650956425,38.396640482685335],[16.33626010789026,38.39714994624929],[16.336014368008946,38.39752973645963],[16.335675665192305,38.39773995704298],[16.335322710394795,38.397852106018824],[16.335016037557256,38.39798385570074],[16.33452881558472,38.39829337587291],[16.33411662795739,38.39853809604518],[16.334042881743244,38.398579554339484],[16.333960736918375,38.39865342642038],[16.333433259484774,38.399126891084514],[16.33315086699494,38.39932904839045],[16.332766489030536,38.39959611275412],[16.33247302337689,38.39984395250834],[16.332181483759303,38.400195114286014],[16.332060714107886,38.400441099590786],[16.331919901756734,38.4008412529013],[16.331767145249334,38.40126465152751],[16.3316354698996,38.40162825151099],[16.331539665869762,38.40200759352594],[16.33138702041772,38.40240399564692],[16.33117537690866,38.40276812968503],[16.330802156304376,38.40296250916918],[16.33047099008249,38.40306430301359],[16.330118512508225,38.40316741716518],[16.329568735140057,38.40315701963418],[16.329057281372968,38.4033690935539],[16.328651942240107,38.40376787705013],[16.32829209155032,38.40415031346804],[16.328066929268374,38.404353375641776],[16.32784080147413,38.40456099228761],[16.327582802543017,38.40480661033615],[16.32724948227677,38.405070429722215],[16.327036917705566,38.40563700663986],[16.32671665027869,38.40626884469344],[16.32635403162665,38.40652551328258],[16.325816370111898,38.4065503148617],[16.325427635001756,38.406606231291455],[16.324940880634454,38.40689319012744],[16.325297222900804,38.4069967347743],[16.325304317138162,38.40732012229056],[16.325077833834655,38.40749627301402],[16.324421971658182,38.407933280614195],[16.32412567763414,38.40805534242728],[16.32381730136984,38.40812869790155],[16.323497213678607,38.40807235463408],[16.323115928507594,38.40793439199017],[16.322805716999994,38.40789091152089],[16.322687549891562,38.40828963539705],[16.322451594409028,38.40856981809091],[16.32249114478765,38.4088326944826],[16.32250907088677,38.40916441308187],[16.322061433872214,38.40916104819349],[16.321773032857557,38.40899475224885],[16.321275287358453,38.408765152009195],[16.320998601539962,38.40862960266921],[16.32075467605198,38.40846500574581],[16.320252402008798,38.408514549697856],[16.31990717486614,38.408464271122895],[16.319786342359176,38.40807604662329],[16.31981548217426,38.40779986445075],[16.31950341819155,38.407639544365324],[16.319164378270035,38.407903719055774],[16.318975995966802,38.408230392562395],[16.318820296884603,38.408554995750684],[16.31863327251313,38.4088950877348],[16.318431524606478,38.409146127427206],[16.318263896884083,38.40938153848634],[16.318085643044316,38.40966710025912],[16.317943477008065,38.410026851452955],[16.317910787557565,38.410097981680906],[16.317756150483802,38.410434385009054],[16.317670344982368,38.410786100824815],[16.317399684478378,38.41162618641494],[16.31719835597964,38.411881693211],[16.31703099403871,38.41216207496218],[16.316817403103215,38.412409360775065],[16.31640262009502,38.412885171841005],[16.316224138698338,38.41311227164702],[16.316102995138763,38.413425712088795],[16.316017420717554,38.413723453529464],[16.315817022900287,38.414086838075896],[16.315582659180812,38.414425403338065],[16.315301358931464,38.41468143149604],[16.31497308060517,38.41485496077116],[16.314610103728857,38.41506664815823],[16.314212952789465,38.41529396424617],[16.31392940849447,38.41541520060968],[16.313633972023837,38.41554619159552],[16.313063161046855,38.415667453776955],[16.312525810796863,38.41571017468199],[16.311989392213658,38.415860757726904],[16.311594788585616,38.41615538784912],[16.31139167631766,38.41637951302222],[16.31103185545594,38.41672142469741],[16.310612365342646,38.41696812965185],[16.3102941456914,38.41711402772455],[16.30996801342883,38.417435843072845],[16.309870538746313,38.417743298809576],[16.309795775426966,38.418049349077066],[16.309822946671186,38.418317503932],[16.30982753052065,38.418560102855636],[16.309816188371546,38.41880224418492],[16.309811339350027,38.41889394565181],[16.309781958709777,38.41921063427555],[16.309684875157686,38.4195360648499],[16.30951837253087,38.41982535682478],[16.30936316623866,38.420127460639804],[16.30934558896611,38.42019888086938],[16.309277829418644,38.42047013842369],[16.30929494259163,38.42076591205064],[16.309309185708408,38.42082571416789],[16.30935427453601,38.42101274116608],[16.309375883701367,38.421102637693366],[16.30941849532194,38.4212799167204],[16.30952043118058,38.42186272523191],[16.30960917363862,38.422329430444385],[16.30971458422242,38.42308744102274],[16.3099085105244,38.42363299420158],[16.31005520342256,38.42416352986942],[16.310398431934924,38.424771694551566],[16.31063397663388,38.42512123250285],[16.31082432400848,38.4255185948229],[16.31122294562053,38.426024333713436],[16.311630238715754,38.426390084058134],[16.312004371624635,38.426766904343815],[16.312468600162557,38.42710210876491],[16.312955411050158,38.427476351119125],[16.313294869511132,38.427877854920965],[16.31358854695469,38.42825072690622],[16.31384770492719,38.42862127009158],[16.313888892532066,38.429041470420444],[16.313898742796805,38.42958957688308],[16.313768365774663,38.42995309912344],[16.31361834988792,38.43057420817977],[16.313534660627223,38.43097525648068]]]}}]}
