{"type":"FeatureCollection","metadata":{"code":"082073","referenceDate":"2026-01-01","sourceDbfExportDate":"2026-02-18","upstreamArchiveUrl":"https://www.istat.it/storage/cartografia/confini_amministrativi/non_generalizzati/2026/Limiti01012026.zip","sourceManifestSha256":"70ac8256c4785dc6ed2814c32b6965ae76f9161b51abaa1660059e1c6cbd8ca6","license":"https://creativecommons.org/licenses/by/4.0/","attribution":"Istat, Confini delle unità amministrative a fini statistici al 1° gennaio 2026, versione non generalizzata.","modifications":["Converted from WGS 84 / UTM zone 32N (EPSG:32632) to RFC 7946 WGS 84 geographic coordinates.","Converted from shapefile to per-municipality GeoJSON without geometry simplification."]},"features":[{"type":"Feature","id":"082073","properties":{"code":"082073","name":"Trabia","alternativeName":null,"regionCode":"19","regionName":"Sicilia","territorialUnitCode":"282","territorialUnitName":"Palermo"},"geometry":{"type":"Polygon","coordinates":[[[13.612324526751966,38.01765517947171],[13.611985274763198,38.01778447157892],[13.611782054437475,38.017844285844895],[13.611644334198973,38.01812410443557],[13.611481821157122,38.018196594228776],[13.611360242358572,38.01823412928519],[13.611289048643961,38.01824312416656],[13.611242890650159,38.01828588394541],[13.61112974207348,38.01835185826458],[13.610853521620765,38.018444696619284],[13.610794351499525,38.018569838345954],[13.610674928567914,38.01873266756773],[13.610436291996725,38.018880170216036],[13.610356714376858,38.01899108205709],[13.610121006831623,38.01914772786314],[13.609951929140573,38.01926092128123],[13.609697781816289,38.019482621878254],[13.60938770586867,38.01965871365176],[13.609070420509475,38.01993612209687],[13.608762021787598,38.0199996756694],[13.608581390730638,38.02024237232717],[13.608273179204392,38.02052180165858],[13.608088026537388,38.02060817869185],[13.607824333058389,38.020641129415075],[13.607855634101673,38.02061793320336],[13.607803501643449,38.020583519659425],[13.607691492510202,38.020509580529975],[13.607637251017804,38.02047377458062],[13.60756113277211,38.020423527740576],[13.607159676861544,38.02015851542361],[13.607102206799,38.02012057732936],[13.607030909677595,38.020073511692296],[13.606961104349907,38.020027432108286],[13.606933230434104,38.020009031690684],[13.606811447966619,38.019928638203346],[13.60673336179697,38.01987837890259],[13.606675564037035,38.019841180221334],[13.606081766202978,38.01945899682405],[13.60584932272315,38.01930938786512],[13.605780882433518,38.01926533699581],[13.605697078683155,38.01921139738372],[13.605639466895916,38.01917122975112],[13.605480675615063,38.01906051859681],[13.605448840722758,38.01903832242982],[13.60502528352698,38.018743008853406],[13.604505666588734,38.01838137650266],[13.604354732944055,38.01828490696407],[13.603958482419143,38.01803163847304],[13.603911197215595,38.018001415126214],[13.603855764972508,38.0179659845567],[13.603623991616772,38.01781774412973],[13.603577906601299,38.017787122324194],[13.602642745553014,38.01716571535974],[13.602602261440515,38.017139551066414],[13.60246875633008,38.0170808384466],[13.601327412835616,38.016582061816536],[13.601213140842962,38.015926601493796],[13.601177617887116,38.015722834575485],[13.601172963531653,38.015695367403815],[13.60115123109223,38.01534025444538],[13.601113104740527,38.01471725940787],[13.601118186770702,38.01444893236923],[13.60112317701488,38.01418553511308],[13.601141241497801,38.01408133810706],[13.601224569617969,38.01360069063164],[13.601445065400414,38.01281556088447],[13.60145134035719,38.01272763138884],[13.60146274004386,38.0125678983054],[13.601468280373684,38.01249026425867],[13.601474713508432,38.01240011762817],[13.601483565197436,38.01227607998964],[13.601515789924328,38.011824528583496],[13.60152194056696,38.01173834028131],[13.601522831859953,38.011424204614826],[13.601522974845206,38.01137395820273],[13.601523302303638,38.01125861044115],[13.601523884972593,38.011053815805035],[13.601535104479526,38.010911648435055],[13.601554660305375,38.01066383641323],[13.601556727523208,38.01063763754865],[13.601563096053214,38.01055692614651],[13.60156983332395,38.01047154427123],[13.601583766054905,38.0102949943192],[13.601595792668626,38.0101810294603],[13.601637238102105,38.009788295504215],[13.601673905543732,38.00944083207803],[13.60168063093543,38.00937710247204],[13.60170717833421,38.009072105720946],[13.60176571740472,38.008399559458944],[13.601768332122798,38.0083695278535],[13.601798359078275,38.008259409518416],[13.601852586290674,38.00806054161261],[13.601928721218734,38.00778133900283],[13.60196443005699,38.00765038526798],[13.60197428821649,38.00759378878436],[13.602090813927491,38.00692487341562],[13.602130287904469,38.00669826698108],[13.6021296336634,38.00644117446603],[13.602128937796385,38.00616697250687],[13.601477673005684,38.00611371844175],[13.601403753714074,38.00610767331046],[13.601310319237536,38.00610003202181],[13.60078678462357,38.00559733763002],[13.60063001153557,38.005445879309676],[13.599969095336393,38.00474319612024],[13.599289121445302,38.0042806012168],[13.59907287838732,38.00417111876126],[13.598133018602928,38.00368493803748],[13.597321081267115,38.00327096217902],[13.596691508078608,38.00295855220748],[13.59606794346529,38.0026491184594],[13.595740501506027,38.00250081962698],[13.595682408942855,38.00247450919473],[13.595621409243106,38.00244688245125],[13.595494962503825,38.00238961460292],[13.595463987238112,38.00237558700059],[13.595385429955646,38.002340156968444],[13.595333081192173,38.002316548333326],[13.595241979708272,38.00227546112362],[13.595097639666342,38.002210328030856],[13.595024543449584,38.0021764625639],[13.59462416146815,38.00199666819733],[13.594554863074483,38.00196539691251],[13.594114482335286,38.00177099495254],[13.593880012545872,38.001712446180555],[13.59342721388014,38.00159937413157],[13.593290033175352,38.00156511785814],[13.593241582763143,38.00155301915257],[13.59293682641732,38.00143451350742],[13.592684948265706,38.00133657024032],[13.592530888172686,38.0012766621228],[13.59231571146736,38.00119298885076],[13.592233389419585,38.00112839707839],[13.592149892315868,38.00106288399603],[13.59194098077262,38.000898966674086],[13.591832152818085,38.000813576145305],[13.591676165795613,38.00069118392718],[13.591484823080588,38.00055456943806],[13.590675337871996,37.99997384640088],[13.589522825683858,37.99949209515274],[13.589209076935392,37.99931235522976],[13.589167986346839,37.99929116192736],[13.588956265601366,37.99916752399988],[13.58818247916083,37.9987249715493],[13.58779225549571,37.99848996841641],[13.586932705883441,37.99797231070588],[13.586552265714838,37.99772694050698],[13.585425275152417,37.99700005876265],[13.585380003112403,37.99698380236246],[13.584228358012576,37.996570265270336],[13.583887187047921,37.996447753961434],[13.584278351177824,37.995648957203855],[13.584643242626226,37.995044830234704],[13.584961703333006,37.99446051625939],[13.584965312509674,37.99427393809852],[13.584971469309513,37.993955804181645],[13.584733190853093,37.99329417874907],[13.584703066788025,37.993198612498695],[13.584661241137304,37.99306592358548],[13.584508854047954,37.99258248561201],[13.584448577329763,37.99220980164336],[13.58441621864823,37.992009731784755],[13.584408185045307,37.991253549062094],[13.584543860669518,37.99016754519404],[13.584514632009085,37.9894271527322],[13.583963083086699,37.98895194272798],[13.58367726684312,37.98868017189053],[13.583426320434203,37.988441555443416],[13.583457801960874,37.98807800537029],[13.583481194378734,37.98780785431476],[13.58349222088724,37.98768051713661],[13.583499091268557,37.98760117347251],[13.58348642218251,37.98752742543917],[13.583274716956412,37.98629508571835],[13.583236789931089,37.985789291654484],[13.583219841810767,37.985563252543706],[13.583770740558517,37.984749220078605],[13.584212923851336,37.98418053008989],[13.584471244628856,37.983848299582085],[13.584997358013746,37.98311629204494],[13.585648722036535,37.98241991007619],[13.586130737281524,37.982109984191716],[13.586282508471772,37.98201239734325],[13.58704217919165,37.981581942737016],[13.587268323162181,37.981447820096534],[13.587757423050123,37.98115773816811],[13.587949709369202,37.98100707988655],[13.588130127543328,37.980865720005994],[13.588239088189095,37.9807803473815],[13.588380467839531,37.98066957337014],[13.588651481590713,37.98014835399344],[13.588592645668124,37.979727077714486],[13.588582305100294,37.97965304023205],[13.58859921250676,37.97926131227501],[13.588602941352521,37.9791749234571],[13.588666069612621,37.97894597467144],[13.58878618944641,37.97851032640941],[13.588812579281667,37.978444219085425],[13.589025405769382,37.97791110040293],[13.589468163626865,37.97737145703375],[13.590252955320462,37.97683193747119],[13.590956830565466,37.97631809788897],[13.591442863212862,37.97534446657146],[13.59148796040948,37.97525568503019],[13.591739233002283,37.97476100188099],[13.5920453632068,37.97418615426648],[13.592157503271036,37.97368195545144],[13.592330847157408,37.9729276797696],[13.592742120173012,37.97229469526506],[13.593460820194379,37.9716091575321],[13.594004475663079,37.97136103544629],[13.594239589362687,37.9712537298831],[13.594539974139156,37.97111663261158],[13.595139396263054,37.9707952437916],[13.595285442283195,37.97071693829272],[13.5959895508656,37.97033941018038],[13.596174142673808,37.97016913768027],[13.596233005739556,37.97011483840223],[13.5966624870275,37.96971866962847],[13.597214926652285,37.96875143578079],[13.597616488287803,37.96812415637931],[13.597649567549027,37.96807248106798],[13.598081282721072,37.967528739136675],[13.5985011954042,37.967287574087194],[13.598990021189321,37.967006828721665],[13.599497182973401,37.96668075243358],[13.599555836866875,37.96660248170066],[13.59975093003603,37.96634213196345],[13.599793152285656,37.96628578492734],[13.600081208264898,37.96590137460619],[13.600552524669887,37.965058887263844],[13.600741103883081,37.96470926952998],[13.600622016948543,37.96438523118577],[13.60023606938378,37.96417947963981],[13.600047619946949,37.964079016609084],[13.599835570147325,37.96405251193505],[13.599626933616404,37.96402643419555],[13.599564074915556,37.96401857824296],[13.599456233552468,37.9640050990386],[13.59939436082055,37.963997365567],[13.599252234815244,37.963979600803356],[13.599138506403955,37.963962620826386],[13.599012409131296,37.963943794601946],[13.598756152250445,37.96390553538432],[13.598723112546493,37.96390060216575],[13.598344424047534,37.963844061605464],[13.598329532206908,37.963817498572546],[13.598307834278634,37.96376934401272],[13.598280372094694,37.96372981050565],[13.598240820072228,37.96365925705834],[13.598003547947393,37.96323602093589],[13.598467206316219,37.96216867978309],[13.598813380037544,37.961824849612924],[13.598867590800936,37.96177268301872],[13.599024140625056,37.96161551269575],[13.599306373070485,37.96142036659989],[13.599343155599323,37.96139493297352],[13.599659267209875,37.96117635921579],[13.59961847195154,37.9608762712493],[13.599905916477898,37.96073944416417],[13.600322533448182,37.96042541384437],[13.60086998474631,37.959882875059094],[13.600910515971819,37.95983766128285],[13.601369880432719,37.959222605535764],[13.60144271385667,37.95914321266854],[13.601682679019174,37.95888163726044],[13.602371576746352,37.95857544637019],[13.602576933113554,37.9584668368738],[13.603107210247465,37.95818637717446],[13.603593486634404,37.95778906152367],[13.603616811410422,37.95771466362153],[13.603714975334055,37.95740155054134],[13.60372783291073,37.957377168215686],[13.603938040962284,37.9569785354598],[13.604273168542058,37.956722246912435],[13.604881584394846,37.95650475935197],[13.605353518059461,37.95630091544568],[13.605489323634371,37.95624225522133],[13.605675783925074,37.95619932297285],[13.6057754656695,37.956176371175715],[13.605912399819513,37.95614484132792],[13.606267174948108,37.956063152630925],[13.60673450403367,37.95597727316499],[13.607393414638997,37.9560549768516],[13.60810679476064,37.95626562086757],[13.608974691751126,37.956695356212116],[13.60971753882178,37.95713899473337],[13.61006866766145,37.957210436792586],[13.610181346224014,37.95723336348121],[13.61041545823747,37.9572509095999],[13.611034948045818,37.957298898379165],[13.611345284396192,37.95734629650134],[13.611738365656478,37.95740633043129],[13.611946026124302,37.95742711990664],[13.612146142542747,37.95744715351741],[13.612352157207827,37.95746777727545],[13.612484872267112,37.95748078978882],[13.612810819196177,37.9575127461387],[13.612856264584801,37.95751720146281],[13.613204680980289,37.95755136008752],[13.613253292676289,37.95755404996987],[13.613290391240778,37.957556103465635],[13.61386108104895,37.957587687809415],[13.613965855991822,37.957593486166765],[13.614132649726324,37.95766750465768],[13.614334088243627,37.957756897552464],[13.614403565464585,37.95778772860395],[13.614443444331894,37.95780542361619],[13.614511903525306,37.95783579929694],[13.614553118585672,37.95785408746421],[13.614596146460952,37.957910972627346],[13.614634231915824,37.95799348357712],[13.614704270638269,37.958145218851755],[13.614717332170263,37.95817223348034],[13.614738137337879,37.958215264042536],[13.614752342401482,37.95824464276963],[13.614778787151174,37.95829933840501],[13.615057800622804,37.95853325331833],[13.615134858470357,37.958599537168745],[13.615275267936646,37.958735344408005],[13.615378449988784,37.95883514460981],[13.61552086191989,37.958982407444694],[13.615690265920502,37.95923726031858],[13.615833127278364,37.95936156185864],[13.615869291047487,37.95942460619582],[13.615904313202465,37.959485660996144],[13.615992438088142,37.959639294107355],[13.616185122753963,37.95972546241618],[13.61630916789581,37.95978093605866],[13.616530269546926,37.959860162246876],[13.616654901877586,37.959946599601984],[13.61672135734899,37.95999269129549],[13.616771761397036,37.9600241583835],[13.61688615913263,37.960095109037596],[13.616984166532388,37.96013535409109],[13.617095271540716,37.96018097641876],[13.617287500492521,37.96025220661913],[13.617481847551709,37.96036267882935],[13.617517660681818,37.96037964378432],[13.617758335808547,37.960433985507336],[13.61785762155448,37.96048275034099],[13.61801365626331,37.960553469546674],[13.618164895760323,37.960570251403176],[13.618229889749848,37.96057746310387],[13.618451439258102,37.96063370582299],[13.618721366264642,37.96069051590258],[13.618880805210654,37.96072861064896],[13.61892371620809,37.960738863040454],[13.618976026755869,37.960744086869745],[13.619358429458456,37.96078227125375],[13.619607720124376,37.96090780132448],[13.619723233640112,37.96097520642864],[13.619900340014455,37.96103442822256],[13.620010949591988,37.961111079553],[13.62035299110278,37.96134810122001],[13.620553279217697,37.96148689346157],[13.620605937908286,37.961523609614666],[13.620632114386627,37.96154186067615],[13.620803404534577,37.96166129127351],[13.620948565979312,37.9617754334848],[13.621070494049741,37.961871309560024],[13.621135776948135,37.961916788257454],[13.621319510119664,37.96209079683871],[13.621396185910136,37.96215837917361],[13.621549868121372,37.96229383866209],[13.621666281861208,37.962396573839946],[13.622072208697812,37.96276378514958],[13.622151094609233,37.9628329189822],[13.622186622228904,37.9628634645106],[13.622254832930144,37.96291867508688],[13.622409718449951,37.963052757621604],[13.622496725645732,37.963122868242],[13.622536236458087,37.963155557784454],[13.622596090984533,37.96321662585335],[13.622616891264501,37.96323900026366],[13.622632416680966,37.963264249905],[13.62266978756682,37.96329999287565],[13.622765669483908,37.96342120295993],[13.622877238360791,37.96359359916998],[13.622914666080232,37.963703420518065],[13.62293230514332,37.96375517375795],[13.623083974858588,37.963925522180666],[13.623114003645695,37.96395069317241],[13.623137020908128,37.9639705260902],[13.623255399235221,37.96407309121818],[13.623350440897216,37.96413654463688],[13.623373273999112,37.964158549748824],[13.623598943005515,37.96432214462472],[13.623771262960446,37.96443931367598],[13.62384572871663,37.96453406261718],[13.623865823898676,37.96455963099153],[13.623941447201338,37.9646558526437],[13.623977746299564,37.96470489118831],[13.62431956980969,37.96516849899444],[13.62433334399375,37.96523706853725],[13.62447388676409,37.96545160520644],[13.624529243444828,37.96553610591268],[13.624597730184227,37.96562153473337],[13.624626789823676,37.96563456136497],[13.624704314117462,37.96571279777477],[13.62484917657679,37.96584764811756],[13.624960844953941,37.965951596953744],[13.62525917080602,37.966263143623216],[13.625304971665178,37.966310973376366],[13.62541055044047,37.96642122888782],[13.62544736148975,37.966459670365346],[13.625545473885584,37.966562130062364],[13.625680707610483,37.96664796292431],[13.625818783293271,37.96673674468933],[13.625978177561835,37.96683676468272],[13.626077447753795,37.966880585796],[13.626143320129103,37.966913913781994],[13.626101307826612,37.967133576808365],[13.626102278216113,37.96718012453923],[13.626105753017807,37.96734667638743],[13.626106615637873,37.96738801852392],[13.626108107745772,37.96745957814478],[13.626242890376206,37.96762486800705],[13.626284186405051,37.96767551266882],[13.626444135257696,37.967769383467726],[13.626691431742644,37.967914517676235],[13.626906365121782,37.96804900246999],[13.627035595640427,37.96812986043782],[13.627072940370574,37.96815322807202],[13.627133737387807,37.96818751560881],[13.627619561010256,37.96846180677198],[13.628292949737059,37.968773059154614],[13.628499320256996,37.9688867698839],[13.628798716773106,37.9690317992778],[13.628857247799097,37.969060152177384],[13.629355355020888,37.96930329577144],[13.62938552627651,37.969318023533845],[13.62958398746536,37.96941489722431],[13.629971846270593,37.969596397494115],[13.630233708002695,37.969718934749174],[13.630298257560867,37.96974914062406],[13.630552521920679,37.96978505323432],[13.63083922386174,37.969825547416924],[13.63094146486145,37.96984098513378],[13.631127306673402,37.969880074113334],[13.63125904508911,37.96990778253514],[13.631490924059714,37.96995655395391],[13.631625118833403,37.97000803929452],[13.63170612288709,37.97003911797049],[13.63187575806075,37.97010382720232],[13.632219981619834,37.970155659378705],[13.632282862402514,37.970165127588515],[13.632387374315742,37.970180864347775],[13.632795964717873,37.97034856668175],[13.632865721455632,37.97038827107341],[13.63307498785291,37.97050738863975],[13.633216091508015,37.970587704181085],[13.633453221278613,37.97068503319081],[13.633497016799883,37.970703008960825],[13.633877539567486,37.97092599121333],[13.634042782941444,37.9710144656329],[13.634245962772921,37.97113041442249],[13.634426009261663,37.9712331606081],[13.634399411564948,37.971262595075174],[13.634292389387731,37.97134153223704],[13.634265875628733,37.971360942666344],[13.634137852282347,37.97145466686115],[13.634073253177434,37.971498102448734],[13.633937737585448,37.97158921967669],[13.633842959793052,37.97176209292645],[13.633815171300459,37.97181277561451],[13.633762692313399,37.97186058396105],[13.633624521198689,37.97197239102514],[13.633571682797072,37.972015147745594],[13.633443547629028,37.972074548423535],[13.633259734595079,37.97218749755569],[13.632947232945874,37.97238917582805],[13.63239632281451,37.972793404464745],[13.632146462759382,37.97294692318162],[13.632007727106904,37.97310173698009],[13.632018249042563,37.97319962585913],[13.631917115632952,37.97332554754883],[13.631837474989355,37.97337995196956],[13.631804531132797,37.97340245512774],[13.631666169457468,37.97353770410607],[13.631578276956514,37.97361490964111],[13.631577336918406,37.97366579772886],[13.631576265072018,37.97372378845288],[13.631559193543268,37.97377354975179],[13.631524358378508,37.97385868594271],[13.631435734750777,37.97397498449559],[13.631259417108197,37.97415868761452],[13.63114609985139,37.97427468688238],[13.631033512035643,37.97435159480131],[13.630896784984229,37.974398893970644],[13.630784927594593,37.97443668965903],[13.630683177981831,37.97448981952876],[13.63064709338292,37.974542627282794],[13.630570825952024,37.97465906455579],[13.630527249427432,37.97470209490145],[13.630482753939399,37.97474603414343],[13.630388078021804,37.974851951138625],[13.630180044020257,37.97508468668483],[13.630091971055684,37.97517165603732],[13.630040216985703,37.97529813645107],[13.630036940749134,37.97547408871575],[13.630028225080897,37.97558868587812],[13.630021052805498,37.97569991434275],[13.630024066049394,37.97577249986862],[13.630029127925928,37.97589439666355],[13.629877316376636,37.97608815963564],[13.629838803775487,37.97616592514159],[13.629711685896371,37.976359968368605],[13.629659199073348,37.976525559838045],[13.62961907195736,37.97669130948954],[13.62954171502009,37.976866385119585],[13.629453460915569,37.976963117137714],[13.629384918126519,37.977155176611014],[13.629364772541962,37.9772116231808],[13.629349218126661,37.97725520855518],[13.629246611716718,37.97745931392231],[13.629157981678198,37.9775756111731],[13.629107686994848,37.977623906007864],[13.628723416020515,37.977697638852305],[13.628214746256603,37.97781880732944],[13.628037188356302,37.97785673265587],[13.627954342549554,37.977874428315666],[13.627594964100767,37.97793867274984],[13.627359607302214,37.977975026807],[13.626713166897627,37.97816496150708],[13.626572802834394,37.9782062023467],[13.626527516876775,37.9782195076037],[13.626458383320337,37.978228935665015],[13.62622390998316,37.97826091096339],[13.626131260577656,37.97827354507156],[13.625671258111547,37.97843437490909],[13.625283515824872,37.9786938126523],[13.624959892770208,37.97882689322804],[13.624517846945121,37.97934966818791],[13.624301512047632,37.97968933049341],[13.62418198776516,37.97975123616562],[13.624032723510757,37.979828546114035],[13.623998832903494,37.979846099795154],[13.623938466159792,37.9798773658517],[13.623840051141316,37.979928336883546],[13.623542205201815,37.98000307375076],[13.62325762844329,37.98002907566848],[13.623010460693534,37.980035953903865],[13.622974520111583,37.97997687412288],[13.622839601670783,37.97992641451766],[13.622642733515846,37.97988499679772],[13.622448804111395,37.97968719111139],[13.62231197031,37.979591530646886],[13.62227812480584,37.979567868006974],[13.622144570690091,37.979619970204304],[13.622113830157277,37.979643171099646],[13.621744178294152,37.979927891121285],[13.621727389115707,37.97999888648895],[13.621697244209063,37.98012635438258],[13.62162799179358,37.98041467087232],[13.621606237653626,37.98050518903763],[13.621597217758586,37.98054259669656],[13.62156126243571,37.98069170730334],[13.621548142259382,37.980746119025504],[13.621541329694637,37.98077340822476],[13.621517947499207,37.980869289485334],[13.62148478528686,37.98100527673774],[13.621476542156046,37.98103457021394],[13.621296446386902,37.98167461933361],[13.62116060431563,37.9821584496448],[13.621143042590266,37.98222100452463],[13.621201540527334,37.98279508572709],[13.621237390191629,37.98290981364863],[13.621272191527448,37.98291672869258],[13.621329944914779,37.982928204702624],[13.62142022215152,37.98296749231613],[13.621515006154674,37.98301255071501],[13.621591211643745,37.983048771061696],[13.621721910107912,37.983110012366666],[13.621834206603104,37.983162562634156],[13.622131169226993,37.98330169146999],[13.622139870488338,37.98333501780216],[13.622151554968399,37.98336604274688],[13.622237140505876,37.98359328584927],[13.62230020430569,37.98376072952354],[13.622431475621594,37.98405253855413],[13.622547555078143,37.984326928792456],[13.622533299090746,37.98463562022759],[13.622526663867696,37.98477927153793],[13.62253614908099,37.98493681154715],[13.622564639144631,37.985074902531814],[13.622618011013829,37.98521326800184],[13.62267210286419,37.985312301175206],[13.622733137292787,37.98537203433798],[13.622789216334679,37.98540226880682],[13.622846656906182,37.98543323672339],[13.622877743466534,37.985449997694225],[13.62295094712863,37.98552463416549],[13.623354271134701,37.9857934083942],[13.623420590997878,37.985837602433506],[13.623446114629816,37.98586588553543],[13.623505858169468,37.98593208753241],[13.623610672711003,37.985977590983914],[13.623665134553873,37.98605692875398],[13.623737118693372,37.98619552039985],[13.623760150028435,37.98629418986451],[13.62368848536241,37.986470457170384],[13.623547530440835,37.98669510351647],[13.62327258413541,37.9871051300443],[13.623122181828895,37.98728758950672],[13.623076451648299,37.98759579522169],[13.62303648839277,37.98772165180034],[13.623055417646734,37.98801078489062],[13.62313787935311,37.98815621199062],[13.623257944419505,37.98826165083059],[13.62329349775978,37.98829287277673],[13.623336072541434,37.988348583083095],[13.623352894932403,37.988370596016836],[13.623351954567012,37.98842095911799],[13.623351349761522,37.988453372203466],[13.623346383148172,37.98871928676785],[13.623347131479944,37.988745496505494],[13.623357615790702,37.988965080085094],[13.623359335953735,37.98900111465891],[13.623366516591398,37.9891514875383],[13.623370316200955,37.989231059648176],[13.623372323408555,37.98927310507248],[13.62339889865652,37.98934439340923],[13.623488555409317,37.9895760065605],[13.623565835780427,37.989715971870325],[13.62359724135684,37.98977285064263],[13.623611448739457,37.98979858236638],[13.62364257310424,37.98985733909948],[13.623659263592685,37.98988909691346],[13.623683958377628,37.989936088739775],[13.623763752818956,37.99008793252296],[13.62387800766663,37.990257432417906],[13.62402672456243,37.99047805638962],[13.624074380184895,37.99063425518427],[13.624084066167342,37.99066599892527],[13.624132718337417,37.990825462639606],[13.624127896460529,37.99090126596193],[13.624122222038828,37.990947780093265],[13.624115972711683,37.990999011583625],[13.624103016593763,37.99112403132493],[13.624075084622758,37.99133418818695],[13.624101348405244,37.99151248612433],[13.624110414557151,37.99157402464847],[13.624122250397724,37.99165437335858],[13.62413072620677,37.99171191766715],[13.624204644464234,37.99197737881156],[13.62426250478291,37.99232436693069],[13.624430156081752,37.99251011049237],[13.624546805792559,37.99264711516071],[13.624616660629261,37.992664160738414],[13.62482182476513,37.99269757346825],[13.625166662541437,37.99279992198326],[13.625261037726688,37.99285328195377],[13.62532023259127,37.99288675047212],[13.625431010564478,37.993157949947786],[13.625414908888303,37.9933309224576],[13.625333141653204,37.99357441081251],[13.625339057160492,37.99368066991681],[13.625342787105149,37.993747678885825],[13.625391777774421,37.993880663349195],[13.62547813097886,37.99393509575869],[13.625671644012527,37.99405707488386],[13.625826326661478,37.994118259887934],[13.625929881227112,37.994159222134066],[13.626016583615401,37.99419351698893],[13.62630791796529,37.994385423166456],[13.626347158072036,37.994411270882864],[13.626537328308986,37.994566281019665],[13.62660189756754,37.99470889929188],[13.626648587305409,37.994812027009345],[13.626825883139386,37.99496688047136],[13.626955206720536,37.99506417535459],[13.626990899872885,37.995091029038676],[13.627030253549492,37.99516564901379],[13.627115209868283,37.99532674446579],[13.627336690248555,37.99549941905155],[13.627406996296482,37.995554230530054],[13.627555719384919,37.99586152144495],[13.6275763151698,37.99613677351984],[13.627621181215156,37.99619772489808],[13.62766120885831,37.99624637517006],[13.627694203137956,37.99627004253845],[13.627847283795807,37.996379852298325],[13.627969171214673,37.99646728431169],[13.628044761497593,37.996554750772425],[13.628080295664368,37.99667568626264],[13.6281358125005,37.99676671176371],[13.628166811970276,37.996817535256255],[13.628186251715368,37.9968494090391],[13.62831185390618,37.99705534494579],[13.628395929328178,37.99718426229006],[13.628443725839878,37.99725755089058],[13.628483437910479,37.99731844580814],[13.628673299203419,37.99760957183658],[13.628718676712653,37.99769633736576],[13.628921026188912,37.99808324543151],[13.628936037892245,37.99811194809827],[13.628997510832964,37.99822948706576],[13.629247633932938,37.99870773841112],[13.629438161078653,37.99875849223823],[13.629547802874963,37.99878249353857],[13.629727960724844,37.99878458994458],[13.629909083258779,37.99873577905246],[13.630179691173854,37.998718555095024],[13.630244715509425,37.99871931350065],[13.630411327321347,37.9987212552943],[13.630445611975764,37.99875386315167],[13.630487220957974,37.99879343791914],[13.630678464465891,37.99888257903035],[13.630714357513039,37.998896785839996],[13.630845029224934,37.9989356161379],[13.630905572972265,37.998949969539396],[13.630976832191516,37.99895176300618],[13.631066603414624,37.998954553181605],[13.631252902131385,37.99896841493774],[13.631286292521608,37.99897089939821],[13.63165902799948,37.99900059321703],[13.6319106255525,37.99826341675366],[13.631922498141956,37.99822863085945],[13.63198545931559,37.99820655913594],[13.632089552400247,37.99817006846744],[13.632280343679184,37.998130675971254],[13.632327580534383,37.99812092231906],[13.632400727018654,37.99810581861696],[13.632634588788193,37.99808624996104],[13.633106259579414,37.9980467843025],[13.63335634759985,37.99799771019815],[13.633703054010258,37.99792967740306],[13.633747904008883,37.997921926646455],[13.634028986621017,37.997873351856455],[13.634102505604982,37.9978596354859],[13.634419536628094,37.997771726049756],[13.634469350639002,37.99775791264704],[13.63459016238321,37.997748965487915],[13.634892833214932,37.99772654874581],[13.635144587008671,37.99767269057261],[13.635332923885535,37.99766525147401],[13.635344012833242,37.997637753044614],[13.635428900961735,37.99742724744276],[13.635456592641752,37.99727977086452],[13.635469925188294,37.997254284838476],[13.635513467365195,37.99717105491964],[13.635605162866993,37.996995774594694],[13.635696088041428,37.996844533011696],[13.63572235209239,37.99680084707819],[13.635724222800249,37.99653728443918],[13.635774407424165,37.996383684238076],[13.635801746032135,37.99630000912726],[13.635925381739241,37.99620729667411],[13.636107137983545,37.996156199947364],[13.636174496593,37.99605107169034],[13.636274152831197,37.995871474257434],[13.636318477121055,37.99581679375542],[13.636448470349595,37.995657984231556],[13.636658902077114,37.995519592359486],[13.636921859008899,37.99528962942451],[13.637023354044768,37.995139236377106],[13.637280780295068,37.994821659281264],[13.637188547514324,37.99453253940571],[13.637080626246815,37.994287953968026],[13.637251321143639,37.99406163416958],[13.63750687439253,37.9940076193092],[13.637718154532621,37.99383824938409],[13.637745980757082,37.9938250523309],[13.637987551281913,37.993710495996574],[13.638109336960317,37.99358857689953],[13.638053082763276,37.993283396073565],[13.638135992836165,37.992776735350475],[13.638141503396456,37.99269536067516],[13.638090896431263,37.99260186855436],[13.637942849003059,37.99220190354108],[13.637943193021977,37.991961641508084],[13.638182492447024,37.991651328076486],[13.638176456189141,37.99149111074017],[13.638296676096395,37.99144996542013],[13.638420445411528,37.99161091403648],[13.638508196588301,37.99195232171342],[13.638761052931583,37.99235025503263],[13.638893042797502,37.9924298968835],[13.639141046351455,37.99257585639709],[13.639214344719678,37.99259253098207],[13.639731029361695,37.99271006960054],[13.64026914626592,37.992830085164044],[13.640352711339368,37.99284002835611],[13.640423938205014,37.99267341956602],[13.640515504953873,37.99245923166017],[13.640613203817946,37.99223069915845],[13.64063548221805,37.99210030878511],[13.640775340897784,37.991360630406085],[13.640959367486147,37.99135627814506],[13.641015314964942,37.99136655837838],[13.641590963753591,37.99147234521512],[13.642166612734172,37.99157812826073],[13.642608243590933,37.99165928156878],[13.642742257537877,37.99168380232122],[13.64299012844099,37.99172915689158],[13.643317880626086,37.99178912583706],[13.643893506225652,37.99189444637095],[13.644469132009494,37.991999763114386],[13.644854123621139,37.99207020002893],[13.645028283420539,37.99210157651522],[13.645166711613703,37.992127389452406],[13.645536923188182,37.99219511931894],[13.64615425646839,37.991696689733295],[13.647568129110802,37.99077172432936],[13.647579415652626,37.990706133753214],[13.647589672842097,37.99064652589935],[13.647622877591115,37.99045356249079],[13.647484692643697,37.98984679787241],[13.64760664299083,37.98940747869654],[13.647714087349257,37.98932909234945],[13.64776965533574,37.989288552635294],[13.64789833405772,37.98918720628423],[13.648113160918639,37.98873568172116],[13.648162921495498,37.98833872017663],[13.64774347888638,37.988019589713595],[13.647937536424282,37.98775400642313],[13.647996110801774,37.987673841374644],[13.648082319684946,37.987527738111105],[13.648198958916435,37.98733006430445],[13.64828048317921,37.98721848877334],[13.648432159249436,37.98701090586091],[13.648451586602564,37.986984316147094],[13.648605103656983,37.986405570529556],[13.64933364609792,37.98652554457517],[13.649816898906026,37.98659432532944],[13.65039099346062,37.98667599212163],[13.651754766436353,37.9868699794793],[13.651773486899682,37.98642822994264],[13.651789035191031,37.98606134341737],[13.652309530625054,37.98618572922381],[13.653031289770555,37.986226080287544],[13.654654471651654,37.98627079373626],[13.654764709737503,37.9857025706934],[13.655162088749444,37.98552903246085],[13.655954971499776,37.98522825438999],[13.655976951910256,37.98581125799389],[13.656009149217763,37.98666524667571],[13.656068096456124,37.98672094240468],[13.656275146421113,37.9869162812284],[13.656310161932266,37.98694931615158],[13.656369471117914,37.98688410612627],[13.65647234209629,37.986772635540675],[13.656549426956257,37.986689105954085],[13.656643580751066,37.986587110154055],[13.656692184638764,37.98653446078709],[13.656831050030775,37.98638035084467],[13.656912036800541,37.98632309785096],[13.656949643289648,37.98629910403312],[13.656993047280954,37.98626586187451],[13.657066355921652,37.98621368015749],[13.657183596608048,37.98613074059394],[13.657231375990579,37.986096968099254],[13.657478230244099,37.9859224816183],[13.657755221111678,37.98633017492182],[13.657981484024889,37.987005612868955],[13.658041846997628,37.98807037492564],[13.658220842622917,37.98846359642246],[13.658392168091478,37.98883996625748],[13.658422239834334,37.988888292928195],[13.658481185337784,37.988977137255816],[13.658683731425603,37.98928241575844],[13.65889088588152,37.98959464700242],[13.659301462196801,37.99020422418089],[13.659403431510786,37.99064595498647],[13.659470175344389,37.990936002458945],[13.659335220623936,37.99147718026829],[13.659109904878665,37.99213002326506],[13.659094317692034,37.992175681202845],[13.659069779047902,37.99225732721628],[13.658924587685227,37.99274075790136],[13.659203749556296,37.993049373960105],[13.659311269993545,37.993062459891895],[13.659479265288406,37.99308290582958],[13.659566428713653,37.99309351362866],[13.65970500788408,37.99311198694502],[13.65993076167748,37.993142067702856],[13.65999633713022,37.99313498255391],[13.660039599429089,37.99313326463221],[13.660785494991073,37.993085622706964],[13.661351567235002,37.99307064993014],[13.661402562127256,37.993061112744726],[13.661690534204233,37.99304967377454],[13.661918184553352,37.993040630432496],[13.661975146217848,37.99303836757813],[13.662039075070899,37.99303582701221],[13.662241135536998,37.99304609732014],[13.662397184375676,37.99305402840354],[13.66252202182072,37.993060372463475],[13.66298267807285,37.99308378255146],[13.663328476259837,37.99307269848448],[13.663508414593547,37.99306687633333],[13.664107856805735,37.99317856401439],[13.664108892718755,37.99322533598091],[13.664111625757862,37.9932951030492],[13.664115865811539,37.99354024736682],[13.66411674936144,37.99358009914705],[13.66411790978773,37.99363258024429],[13.66411881044281,37.99367329318451],[13.664118616636353,37.99370353823643],[13.664123465415003,37.99378392351913],[13.664138062279765,37.99404249606938],[13.664142515931715,37.99412787897484],[13.664147971366711,37.99423247162596],[13.66415173133295,37.99430455644992],[13.663440841482823,37.99440138045215],[13.66304753763637,37.99457103113209],[13.662844861395762,37.99465845304107],[13.66249381361506,37.99480987322192],[13.662279420316088,37.994827244582936],[13.662240670491583,37.99483344900898],[13.662160796997334,37.994841122402335],[13.662013515385759,37.99487399411824],[13.661884269821329,37.99490726315138],[13.661725261126593,37.99494819304346],[13.66164122348899,37.994969823658664],[13.661441327673655,37.995050208302075],[13.661206357387801,37.995144697264855],[13.661169517397079,37.995157064598],[13.660959418151103,37.9952275944811],[13.660810793009581,37.9952774874255],[13.660314508043152,37.99545929728354],[13.659938666113689,37.995600302484625],[13.659734505653978,37.99573448952488],[13.659580234869459,37.99584776989818],[13.659509618201712,37.99589962403636],[13.659397414368298,37.9959820141083],[13.659339727749677,37.99603423101031],[13.659142484333799,37.99621277537026],[13.65899793919277,37.99638961445673],[13.658973086537378,37.99641175454025],[13.6588868431662,37.9964885836314],[13.658547469457604,37.99661013620259],[13.658299424029885,37.99664698452796],[13.658061186628293,37.99662492152765],[13.657801372815054,37.99662173387099],[13.65755348450751,37.99667209368457],[13.65739684898033,37.996759368544396],[13.657420727346844,37.99688900116033],[13.657452949436125,37.99695976761059],[13.657523210444536,37.9970705449199],[13.657475926620858,37.997179645696896],[13.657474359698195,37.99722617170112],[13.657530681885108,37.997259677084145],[13.657532941508046,37.99729532907271],[13.657481138375154,37.997333125878384],[13.657432483861655,37.99734935341419],[13.657375949213796,37.99738376451624],[13.657368972909625,37.99741620871981],[13.65743319011108,37.99750301331685],[13.657274615631943,37.99756649280036],[13.657197681921248,37.99756794217096],[13.657147551759659,37.99748575663296],[13.657086949921935,37.99745599435416],[13.656987608214287,37.99745636242195],[13.656880612195806,37.99747847934744],[13.656722946434904,37.99754930217218],[13.656654008169568,37.997537509873055],[13.656597711662343,37.997646967073315],[13.656536219028942,37.99767442672837],[13.656476747949114,37.99766249010282],[13.656473359238454,37.99760901204267],[13.656499017088466,37.99751044545518],[13.656193112145534,37.99744238635378],[13.655865622754884,37.997426849221604],[13.655671162078564,37.99742958962722],[13.655609655172055,37.99737879551266],[13.655532162343738,37.99736757337368],[13.655471951968924,37.997432395651465],[13.655403653415613,37.99743335537008],[13.655124048637713,37.99749931709556],[13.654906870705682,37.9976211235017],[13.654689047253889,37.99767622760829],[13.654175005114242,37.99776094997627],[13.653967677037505,37.99774721770284],[13.653730836819493,37.99766193641742],[13.653546933510533,37.9979429126978],[13.652830015365973,37.9980408732143],[13.65262730239494,37.997720062825415],[13.65238833117105,37.99775272056809],[13.652179560301898,37.9977621238618],[13.652042027993787,37.997825325918086],[13.651954193528422,37.99786569424785],[13.651973957825701,37.99795187498925],[13.651991987376014,37.998022642832666],[13.652093813025445,37.99806149571836],[13.652171983469291,37.99808341633377],[13.652160723733564,37.99811960354949],[13.652099004237398,37.99814349555625],[13.6519136174557,37.998211605181794],[13.651828468101636,37.9982221284325],[13.651770792160312,37.99816722869005],[13.6516631079187,37.998107162529095],[13.651525025365178,37.998120679861806],[13.651441695866692,37.99819010349107],[13.651141851385649,37.998292823174644],[13.65105292242876,37.99842550644542],[13.651056014091814,37.99853438867832],[13.651055578953239,37.998670223309084],[13.651036895604584,37.998803206843995],[13.651022267709772,37.99892888183173],[13.650999755585133,37.99907273927758],[13.6509691283526,37.999159732277896],[13.650915973850276,37.99924761811091],[13.650826550495134,37.9993333679127],[13.650779691961665,37.99930663200178],[13.65073372765482,37.99922267454949],[13.65068798906187,37.9991422815854],[13.650540161334145,37.99911557199457],[13.650452232955285,37.9991145546535],[13.650335767589668,37.99911321191158],[13.65013871349218,37.99917419478612],[13.650057466591338,37.99924232549489],[13.649972096601369,37.99932076533448],[13.649878611050381,37.99934234059555],[13.649730158250554,37.99935179726596],[13.64956548846108,37.99939048845212],[13.649473807364028,37.999440584950456],[13.649255754968179,37.99956359739519],[13.649137267016387,37.999618329167795],[13.64906315584694,37.99966058054666],[13.649025990314327,37.999715665618005],[13.64894061864476,37.99979410480863],[13.648851417741469,37.999883417812256],[13.648775958241503,37.99997576073776],[13.648700950774483,38.00007523352603],[13.648590123948447,38.00017970048331],[13.648534935923958,38.00023549845393],[13.648407885941113,38.000297717412536],[13.648173694755211,38.00039773900744],[13.648121809287305,38.000453523952324],[13.647987984533827,38.00044301880268],[13.647880980686914,38.000465127956936],[13.647669904393803,38.00055569383568],[13.647468605081723,38.000721133596315],[13.64738258095083,38.00081190112969],[13.647335054272254,38.00091743347109],[13.647289778360598,38.00098713576918],[13.647198544592552,38.00104436066586],[13.647115419269166,38.00108696875052],[13.646969667935977,38.00113920373285],[13.64678719579784,38.00118217137093],[13.646570614702407,38.001254077392254],[13.64654238085854,38.00128094714939],[13.646437211972446,38.001318980076384],[13.64635115930933,38.00138672226556],[13.646298449600161,38.00148623381453],[13.64626105777617,38.00160473793205],[13.646172750149912,38.0016368274832],[13.646092777826743,38.00165786476803],[13.646003792619856,38.00167925884119],[13.64591593566911,38.00171847908078],[13.645847678900052,38.00178194198932],[13.645800146696532,38.001815990376805],[13.645707558165064,38.00185182343172],[13.645609336561236,38.00187000851942],[13.64545975287644,38.00193311648137],[13.645265789851578,38.00200870415923],[13.645070878124796,38.002100543837656],[13.644955361459338,38.002242589343645],[13.644883048213146,38.002313360111884],[13.644818167811055,38.002358817896564],[13.644708457113975,38.00240962447056],[13.644639071744905,38.00245526047384],[13.644593116195422,38.002514265621585],[13.644471015360367,38.00258343330079],[13.644308363286658,38.00265420581046],[13.644088838117698,38.002688753889444],[13.643712488586932,38.00289283420781],[13.643504487080326,38.00303292770411],[13.64314423132867,38.00319181459596],[13.642734810268818,38.00338555339321],[13.642599865158205,38.00346594956626],[13.6424676223484,38.0035176455652],[13.642396882400272,38.00361337228573],[13.642305190788212,38.00366346290807],[13.64221349910377,38.00371355436476],[13.642125862787555,38.003756337493336],[13.642037550535976,38.00378842420316],[13.641944732195846,38.00382068910168],[13.641839523157104,38.00387131499917],[13.641606574482237,38.00397345683148],[13.641435380756876,38.00411321566062],[13.64131452866357,38.00416483808933],[13.641235320111702,38.00426013453003],[13.641151585229279,38.004364713817274],[13.641092257226108,38.00449811231006],[13.641009323432465,38.004631252948506],[13.641032751832906,38.00471610571768],[13.641060232738054,38.004936615998375],[13.641097178090197,38.005092417850534],[13.64111925393242,38.005227362508535],[13.641089513809346,38.00532861471782],[13.641044905031217,38.0054090097012],[13.641025528818377,38.005459814472296],[13.641014038666414,38.00549243641087],[13.641018565729727,38.00556409770106],[13.640995133770907,38.005622210708175],[13.640927094399816,38.00568923668832],[13.640898706867883,38.00574039694105],[13.640884962747249,38.00580884987162],[13.64090478628094,38.005908141790236],[13.640922806449224,38.00605039471552],[13.640838282266811,38.00608779724114],[13.64083474654271,38.006133822065976],[13.640823816895125,38.00617317520272],[13.640771732806828,38.00619982158193],[13.640686873804162,38.00619982032405],[13.640597438304932,38.00619982078061],[13.640530972951769,38.006209525097056],[13.640447558650076,38.00623405302094],[13.640347414925552,38.00627693508052],[13.640241918561415,38.00630587535033],[13.640163632523423,38.00634081621276],[13.640233577878128,38.00642362974136],[13.640211272203352,38.006499569004475],[13.640174547155334,38.00656178190117],[13.640100198426255,38.00660046290105],[13.639984395483342,38.00662648740223],[13.639850569891133,38.006653223532425],[13.639707055214107,38.00666962131981],[13.639518482973102,38.006687799552736],[13.639271256282798,38.00672639256896],[13.639188509576135,38.006761508257455],[13.639054688144427,38.00676679891666],[13.638924213180525,38.006754267200066],[13.638750467398475,38.00676467329887],[13.638670829683102,38.00675178413516],[13.638426758051406,38.00685355273283],[13.63846926911218,38.00688296812917],[13.63835346203046,38.00698047317197],[13.638238779101588,38.00709580551612],[13.638157443307575,38.00716692901814],[13.637977196544048,38.00731702017262],[13.637786469232317,38.00741438886345],[13.63768132243261,38.007537683083896],[13.637555520666266,38.00769157725884],[13.637134194060186,38.00793459148597],[13.636979109746697,38.00798241838267],[13.636679458503425,38.00800617397266],[13.636431626938313,38.00801596670833],[13.636138275199686,38.007977302801734],[13.635688425867029,38.00800698919705],[13.635435336644129,38.00805272944936],[13.635081605803421,38.00817392760439],[13.634902865274356,38.008204815267916],[13.634528863054475,38.00824341495895],[13.634275770913645,38.00828915284837],[13.634126321006823,38.0083069688437],[13.633714030385505,38.00821602668289],[13.633670988862834,38.00823572881391],[13.633376928291069,38.00819787664299],[13.63297443080249,38.0081505489401],[13.6324769575144,38.00807535927864],[13.632047891921525,38.00802907722005],[13.631610845424149,38.00806740227918],[13.631127289861062,38.008212930239125],[13.630833020513812,38.00840366892061],[13.63067357925552,38.008620695425414],[13.63067328959843,38.00866114982866],[13.630672222683971,38.008810410722006],[13.630834945139238,38.00885667256664],[13.631096368353244,38.00889383075559],[13.6309892099607,38.00901879447593],[13.630951789559647,38.00923138382299],[13.630911718415094,38.00945719463172],[13.630878798720984,38.00957890414791],[13.630676753454962,38.009717930219125],[13.630380090260108,38.00978920580094],[13.6300601660243,38.00973034786449],[13.630021174854395,38.009350644585865],[13.630045536969126,38.00933171144256],[13.630078190288375,38.00919172378105],[13.630092984541147,38.00912829796249],[13.629752930216245,38.009015274970764],[13.629202977403375,38.00895267874164],[13.627887998739316,38.009068067986924],[13.627642406616204,38.009113495855765],[13.626963840051006,38.009217694572605],[13.626626929593426,38.009260836800884],[13.626493312703943,38.00927794678226],[13.625259764722518,38.00945415300401],[13.624664289505708,38.00962687962827],[13.624134966634996,38.009834444114794],[13.623766190361938,38.00995730293744],[13.623479224778666,38.01005290433993],[13.622811635837214,38.01023725999356],[13.622122765148863,38.01050674327027],[13.621973932066133,38.01068119376863],[13.62161651182557,38.010927082127054],[13.621496891426242,38.01114252844813],[13.621189357937537,38.01112303116687],[13.62123646977311,38.01135796075802],[13.621255066219247,38.011462070789776],[13.621373387290882,38.01161943982591],[13.621712904589977,38.0114631000477],[13.62185346480842,38.011590999316255],[13.620651664840228,38.01201957656684],[13.620560369217516,38.01190879749613],[13.620772487280268,38.01183372707461],[13.620699551635852,38.01167580756737],[13.62061931462067,38.01158802516072],[13.620388000120254,38.011658245090345],[13.620257009841419,38.01168246456918],[13.620138635215058,38.01171571887649],[13.62007131798188,38.01179461858373],[13.62002863181297,38.01188208015317],[13.620061636625278,38.012023747226586],[13.620370489675228,38.01195439945479],[13.620464178514858,38.012103207659834],[13.619239522206401,38.01255173239905],[13.619110381845061,38.01241384955962],[13.61952081434943,38.01223566268836],[13.619479381604156,38.01215151388686],[13.619376069732517,38.01204120691557],[13.619184484711177,38.011855254652296],[13.618344521489474,38.01243321677509],[13.618398324685256,38.012584844788385],[13.618483041815503,38.01259104201988],[13.618550362630593,38.01251214303122],[13.61872703148245,38.01244800236014],[13.618748016342211,38.012590142992906],[13.618171610028089,38.013194229858335],[13.618079656726707,38.013264566409475],[13.617990156482378,38.013182308853274],[13.618020230042104,38.01308581353696],[13.618180101438007,38.01294608554766],[13.618090002596377,38.01285432080731],[13.617873723601448,38.012720097509806],[13.617665146459359,38.01287795854254],[13.617462308620382,38.01310117884241],[13.616902224361326,38.013491114779384],[13.616497037639505,38.01391021791724],[13.616342157931646,38.01415030767707],[13.61626876985247,38.014428079265365],[13.616126826791046,38.01489721715689],[13.616062830332115,38.01510873107481],[13.616305230648841,38.01531686612508],[13.616373088093944,38.015438100614055],[13.616549682119665,38.01562026410887],[13.617474014845621,38.01642977985578],[13.618233943079462,38.01701939510722],[13.61825180641758,38.01754290450647],[13.617984210652686,38.01773230408716],[13.617922211409708,38.01709123400473],[13.61637307226083,38.015925059915304],[13.615169892921907,38.01571028502733],[13.614805493463209,38.015798205523204],[13.614490768189148,38.015912835864555],[13.614352253597568,38.01605104108996],[13.61423505897478,38.01650145334279],[13.614151229068664,38.01660180981508],[13.61489647510606,38.01684520940609],[13.615868848177085,38.016615971529596],[13.615954102320055,38.016822302813075],[13.61568119556835,38.016927262608135],[13.615380653311552,38.017009780338164],[13.615113818432777,38.017074967320625],[13.615800791344103,38.01742506689728],[13.616197915929076,38.01725114278668],[13.61627725946505,38.01717177195956],[13.616514628824003,38.017114776976946],[13.616687063261262,38.01717471078186],[13.616768734093817,38.01732399569821],[13.616515131695431,38.01738889216309],[13.616177230105414,38.0176029406285],[13.617428332097013,38.01833780384523],[13.61901324791617,38.01815628210082],[13.619396286970366,38.01826034150822],[13.619817596128733,38.0184939456142],[13.619636508763083,38.01872744006369],[13.619271327221586,38.01879818109534],[13.61904210677578,38.018607004184645],[13.618846228847067,38.018557528575535],[13.618397358876708,38.018614305333045],[13.617115882305013,38.018714981889616],[13.61684337181954,38.01862496559228],[13.616553689735309,38.01847688139499],[13.615109350827845,38.01751940907587],[13.61498387794712,38.01738771394763],[13.614783654110624,38.017341955078514],[13.614603075420135,38.0172240821238],[13.61434641437032,38.01726446068452],[13.613850262240739,38.01740330372003],[13.613593601125123,38.0174436806523],[13.613410290522943,38.01747045701299],[13.613264637020308,38.01743979415039],[13.613174067007874,38.017395329036],[13.612324526751966,38.01765517947171]]]}}]}
