{"type":"FeatureCollection","metadata":{"code":"082033","referenceDate":"2026-01-01","sourceDbfExportDate":"2026-02-18","upstreamArchiveUrl":"https://www.istat.it/storage/cartografia/confini_amministrativi/non_generalizzati/2026/Limiti01012026.zip","sourceManifestSha256":"70ac8256c4785dc6ed2814c32b6965ae76f9161b51abaa1660059e1c6cbd8ca6","license":"https://creativecommons.org/licenses/by/4.0/","attribution":"Istat, Confini delle unità amministrative a fini statistici al 1° gennaio 2026, versione non generalizzata.","modifications":["Converted from WGS 84 / UTM zone 32N (EPSG:32632) to RFC 7946 WGS 84 geographic coordinates.","Converted from shapefile to per-municipality GeoJSON without geometry simplification."]},"features":[{"type":"Feature","id":"082033","properties":{"code":"082033","name":"Contessa Entellina","alternativeName":null,"regionCode":"19","regionName":"Sicilia","territorialUnitCode":"282","territorialUnitName":"Palermo"},"geometry":{"type":"Polygon","coordinates":[[[13.124076912835154,37.792842536962596],[13.124058497134984,37.79296477858941],[13.124032682798067,37.793136123905434],[13.124008020124766,37.79329981850745],[13.124081537708639,37.793378570026405],[13.124258587035166,37.793568871936934],[13.12409533587866,37.793626370745926],[13.12356075221971,37.793817278681395],[13.123122458278496,37.79406876735044],[13.122989155734167,37.794145255267146],[13.122676060262155,37.7943249052868],[13.122441651392164,37.794092632941926],[13.122417349462475,37.79406855232608],[13.12200267552911,37.793657653337945],[13.121816687774665,37.793473356499604],[13.121789337299335,37.793446254317494],[13.121381366597975,37.793229062187045],[13.121231110138257,37.793149067938806],[13.121039257799357,37.79304692981448],[13.120654004791332,37.79297695011712],[13.12008068201217,37.79287280439639],[13.119896139565936,37.79283843562932],[13.119515456585235,37.79291419634718],[13.118954070747394,37.79302464404633],[13.118754470195153,37.79306391286347],[13.118497181003477,37.79287972853861],[13.11837356200905,37.79279123247143],[13.11794177742026,37.79248212631562],[13.117910497185592,37.79244990496037],[13.117779558880402,37.79231502873552],[13.117542195921187,37.792070525550486],[13.117548138661148,37.7920122252489],[13.117594206508121,37.791560247519605],[13.117604619307102,37.791458094976925],[13.117446472745996,37.791565418462525],[13.117329475144492,37.79164481865173],[13.117279229769949,37.791678914075156],[13.116859942936784,37.791691341670074],[13.116174013727202,37.79137306418672],[13.115525042597945,37.79145207561996],[13.115327127773048,37.79156708129781],[13.114960039836392,37.79177808394907],[13.11467082441515,37.79202465530184],[13.114717618358128,37.79239455989017],[13.114843741261199,37.79323457741178],[13.11484900218301,37.7939932673499],[13.1141425268902,37.79407203163517],[13.113109324451894,37.79405411942111],[13.112223265621191,37.79406709934668],[13.111587435191034,37.79401275560085],[13.110593963988052,37.79421186274982],[13.109806824589482,37.79443527966432],[13.109132494173304,37.79453091361855],[13.108784356770709,37.79438094443744],[13.108778070716955,37.79416498343649],[13.109182215511238,37.7939819816539],[13.109784505500189,37.79395643661374],[13.110511101431609,37.79389499846355],[13.111026354741547,37.793732881260254],[13.11145664292274,37.79340708146364],[13.111687498310241,37.79322112585551],[13.11187779530902,37.79291721712212],[13.111650833214595,37.792445510792035],[13.111230430416004,37.792041367486235],[13.110828580901964,37.79172890093848],[13.110789006196713,37.79107950962009],[13.11089450602708,37.790449803793],[13.11082962292029,37.789945404712235],[13.110165668306536,37.78966461979664],[13.109473379079612,37.78965278342405],[13.109304768990418,37.79002796567812],[13.108977709935392,37.790410953047925],[13.108315382502692,37.79051741514875],[13.107463394285864,37.79050437511128],[13.106238426476928,37.7905201217513],[13.105445230192409,37.79039018154679],[13.105127688081703,37.78999819687324],[13.105159290110947,37.78958275411648],[13.105630506810401,37.78941992900396],[13.105820446514253,37.789069417913396],[13.105808730653882,37.78881968349185],[13.105806613032376,37.78877453473484],[13.105797655501393,37.78858316490951],[13.105619629162417,37.78823809132965],[13.105506875638362,37.788021363045736],[13.105105251980962,37.787762898854986],[13.104234995826355,37.78758610905617],[13.102862294280042,37.78754617301786],[13.102087019008385,37.7876497692752],[13.101028779871765,37.78767766944485],[13.100496160318885,37.78764972050537],[13.100225228779435,37.787629129035146],[13.099916344024704,37.78746162978138],[13.09960871843841,37.787294810890515],[13.099458677594244,37.786942000688],[13.099991856062864,37.786527098485884],[13.100588484113908,37.78631039220148],[13.100721661370416,37.785961212905235],[13.100208786833742,37.78562780356778],[13.099541467423277,37.78546415793435],[13.098725601795085,37.7853980128368],[13.098267336518102,37.78512799488313],[13.097913116134926,37.78450111326598],[13.097886749023084,37.78445444909415],[13.097872053956197,37.784399992175715],[13.09780319052645,37.78414480605459],[13.097762732176818,37.78399488042532],[13.097932173966562,37.783757678743505],[13.097981795199708,37.783688214883945],[13.098004653393373,37.78365621672226],[13.098056360055812,37.78358383112298],[13.098466798481356,37.78322094720875],[13.098551924533856,37.783145813468956],[13.098927790337397,37.782859892506195],[13.099340346721783,37.78273687859038],[13.09950069117636,37.782689067162025],[13.100151311287219,37.78249973909454],[13.100520317969998,37.782336014008806],[13.100933475601302,37.78204811040446],[13.10105098319484,37.78196622625069],[13.101108467066373,37.78178608909836],[13.101236675629147,37.78137425924849],[13.101489962254135,37.78077320208866],[13.101711536487585,37.780137203359196],[13.101711426682499,37.780060938467365],[13.101710829766217,37.779648607547756],[13.101710677794607,37.77954146120322],[13.101700712049796,37.779306590126474],[13.101396996217417,37.77911697156796],[13.101285295551145,37.77904867055086],[13.100744679863446,37.77881531143625],[13.099889669970253,37.778565879229916],[13.099035543571595,37.778400988024494],[13.098997524542895,37.778404406164775],[13.098959129811018,37.77840969021717],[13.098850171750655,37.77842468762541],[13.098752950428619,37.77843806718241],[13.098287036494133,37.778502189448886],[13.098153687341366,37.77852054186578],[13.097921778998934,37.77851493237177],[13.097722149261058,37.77851010307609],[13.09719985493279,37.778497467976734],[13.096263376185606,37.7783416272648],[13.096170430461346,37.77832615893295],[13.09611850220766,37.7783093874604],[13.096056417368562,37.7782893360142],[13.096004662491532,37.77827262060431],[13.095426930101375,37.77808602910051],[13.095002258913258,37.77794886825461],[13.094586645905084,37.77778409251186],[13.094405168195179,37.77771206410893],[13.094342175519644,37.77766519027318],[13.094145241347814,37.77751864741989],[13.094073062862485,37.777464939404695],[13.094275906824716,37.77742141102849],[13.09436583071851,37.77740211457674],[13.094683793374724,37.77733388308052],[13.094824324073226,37.77730372627699],[13.094857405997537,37.77729662706748],[13.09486412955699,37.777041245784844],[13.094869914680082,37.77682154060237],[13.095139670203068,37.77652569021328],[13.095416514688951,37.776641168664284],[13.09572262892007,37.77676885570799],[13.095836728917524,37.776817420817935],[13.096363279984374,37.77704153621918],[13.097010126600662,37.77704153342609],[13.097066637953356,37.77695721182374],[13.097139941392395,37.77683660157607],[13.09705578335318,37.77675832057765],[13.096803177933877,37.77652336106456],[13.096696551322378,37.77642418313389],[13.096459041292551,37.776227657083204],[13.096293568447532,37.77609073841617],[13.096218635695728,37.776028734477606],[13.096187834458352,37.77587847625653],[13.096137049770247,37.7756307559445],[13.096526861489682,37.77548432540927],[13.096690694451564,37.77546543849232],[13.096759384617089,37.77545752204921],[13.096970297804702,37.77543320839359],[13.097142808783124,37.7754133232389],[13.09753946549597,37.77524400084348],[13.097787891695617,37.77513795237467],[13.097933104805412,37.77507596403547],[13.098165544488394,37.7746526399743],[13.098216179987524,37.774559691662084],[13.098280612514152,37.774441425503],[13.09839551549709,37.77400075532521],[13.098457374584799,37.7737635199769],[13.09852025085806,37.773522378657304],[13.098535631844777,37.77346338348501],[13.098568760526971,37.773336336548674],[13.09857588341003,37.77330902097586],[13.098608293127457,37.77318473464364],[13.098644985877304,37.773093681613474],[13.098875201211333,37.77252240617205],[13.099258247493049,37.77220279930781],[13.099735823713923,37.77173353749599],[13.10010736591661,37.77136029771675],[13.100247786137704,37.77111990458561],[13.100273864318,37.771075259958096],[13.100138728879621,37.77100331921194],[13.099769669774535,37.77080684736911],[13.099668788353275,37.770779922347884],[13.099456439026342,37.7707232469064],[13.099262189404383,37.770671401598754],[13.09924115485312,37.77061072442053],[13.099231871625523,37.770583946261915],[13.099136467559326,37.770308740215064],[13.09896140579325,37.770176627779385],[13.098918815905623,37.77014448508487],[13.098811278763861,37.77006332940107],[13.098745710917983,37.77001384530406],[13.098380717755848,37.7699355005583],[13.098286923166082,37.76991536854649],[13.098023685652384,37.769858864380474],[13.097813305179644,37.76993447922363],[13.097750188831592,37.76995716431208],[13.097513120556075,37.77004237070553],[13.09742705296594,37.770073305097675],[13.096910762540645,37.77029169601622],[13.09642940538881,37.77045350211921],[13.096350285611056,37.77048009811306],[13.09613941678774,37.77044440736427],[13.095717207726802,37.77037294474553],[13.095467590456511,37.77033069504949],[13.094509316597717,37.770071295379815],[13.09426902641996,37.7699899340892],[13.093755526511966,37.769816063044566],[13.093287036269688,37.769500662776586],[13.093257278163497,37.76944291270419],[13.0931379797153,37.76911244843024],[13.093410685403551,37.768657091697065],[13.093704062228406,37.76829334259938],[13.093490356299542,37.76787869846671],[13.093461588612364,37.76786336979857],[13.092748530910436,37.76746638013551],[13.092673770252707,37.76745329084111],[13.092104940910485,37.76736176552159],[13.09184899533153,37.76757649606641],[13.09165261088543,37.76812494892983],[13.091643552693455,37.76817192722354],[13.09161796974997,37.768304612639845],[13.09158560848491,37.76847244138593],[13.09156118012666,37.76859913719484],[13.091535925808657,37.76873011235522],[13.091509025280182,37.76886962530659],[13.091488316897447,37.768941192052715],[13.091455913735018,37.76905317044435],[13.09139259284077,37.76927199352378],[13.091360742991775,37.76938205657496],[13.091344038463323,37.76943978097426],[13.091334783446463,37.76947176683665],[13.091324263656208,37.76950811937378],[13.09129641519346,37.76960435548473],[13.090996307730919,37.769776394357876],[13.090842667237471,37.76986447079678],[13.09073034448348,37.76992660817166],[13.089481714849462,37.7704421055411],[13.088853628358233,37.77039989516511],[13.08859830501416,37.77038273476255],[13.088388809815337,37.7698946622172],[13.088341169066496,37.769783671104214],[13.088370181776279,37.769402629711124],[13.088388669770358,37.769159807371864],[13.088392570019185,37.7691085804532],[13.088478134394247,37.768952181401765],[13.088497369734926,37.768920348803896],[13.088939753830418,37.768125770165845],[13.08887401004915,37.76762813689978],[13.088709165332824,37.76739065673704],[13.088234404860481,37.76774494307565],[13.087969965528243,37.76807033477441],[13.087929271299144,37.76812040819616],[13.08770709560105,37.76839379332779],[13.087404998331998,37.768602011372636],[13.087333075909918,37.76865158156399],[13.087188639583914,37.76875113329468],[13.086967088586277,37.7689038346429],[13.086840084019078,37.768991369687235],[13.086514440927637,37.76877455530899],[13.08644058075836,37.76872537916661],[13.086391099229411,37.76869243438943],[13.086307038504557,37.76869398599023],[13.08584284193273,37.768734165938724],[13.085484937027445,37.768810312868105],[13.085390553563297,37.76883039312145],[13.085272006094284,37.768855614396166],[13.085025640108553,37.76890802959041],[13.084704142217278,37.768846290539706],[13.084665056675005,37.7688387842391],[13.084525644343628,37.76881201191023],[13.084416262072887,37.768791005589684],[13.084130726430567,37.76873616997264],[13.084074240032171,37.768725322273],[13.083923725479123,37.768696416138454],[13.083851070977198,37.76868246263736],[13.083794233734029,37.76867154771376],[13.083553930454581,37.76856467597285],[13.083266748725235,37.76843695438951],[13.082972337576061,37.76830601689412],[13.082784440538287,37.76822245023134],[13.082397444557994,37.76801269834963],[13.082099585766894,37.76785125719678],[13.081687212317599,37.76762774712398],[13.081449706936251,37.76716536093603],[13.0813612359867,37.76661446022483],[13.081390861052093,37.765928872502904],[13.08142478595933,37.76548857763891],[13.081403802214037,37.76531235575289],[13.081399362498175,37.765275071855854],[13.08138004651181,37.765112860033476],[13.081089427485976,37.76502034969343],[13.080859362935428,37.76495649163375],[13.080517734824538,37.76494092318721],[13.080373660084899,37.76493435813989],[13.08026799700134,37.76492891347981],[13.079876436989334,37.76478792028229],[13.079755404545239,37.76504997199488],[13.079664494464105,37.7652468059061],[13.079599511698142,37.76538750390369],[13.079564279160081,37.76541280002043],[13.079415420880975,37.76551967551224],[13.07917108720002,37.76569509909635],[13.07865582799597,37.765442748664405],[13.07864523549477,37.765412749740676],[13.078580398708421,37.76522912914379],[13.078540929571881,37.765117349483944],[13.078499265723233,37.76499935323759],[13.07848615864398,37.76496223184916],[13.078345887074471,37.764681106655544],[13.07823292998151,37.76465870863276],[13.077938682061763,37.76460035915713],[13.077804570461197,37.764573765052525],[13.077319281004094,37.76464686804485],[13.077107777393168,37.76428265101321],[13.076892186605098,37.764261289864365],[13.07645107064133,37.764217580173494],[13.075717818383822,37.76433874883051],[13.07536912117691,37.76349843130409],[13.075394603678344,37.76293009135702],[13.075404917114938,37.76254409022693],[13.075408654016574,37.762404218863],[13.075413392713559,37.76222685678336],[13.075360539413293,37.76195551171191],[13.075354373574257,37.76192385664781],[13.075343246020562,37.761866724508344],[13.075025731703434,37.761418348221596],[13.074711917086454,37.76131975396319],[13.074644361170732,37.761298529925384],[13.074541562190364,37.76126623200463],[13.074081873976178,37.761385997938376],[13.074043419253409,37.7613960164086],[13.073928326841274,37.76142600108361],[13.073520747401751,37.76164612126001],[13.07275613273646,37.76182345589891],[13.072419794970672,37.76184071816732],[13.071825709127591,37.76187120664048],[13.071736619399871,37.761853446455675],[13.071694169011945,37.76184306795864],[13.071264735923581,37.7617381051688],[13.071101956565743,37.76169831915432],[13.070930118211999,37.76165852389189],[13.070690016931358,37.76160292021431],[13.070222099156465,37.76149455520182],[13.070116601072062,37.76144131231449],[13.069796182145618,37.761279601145745],[13.069773693414273,37.76124815906628],[13.069516197506198,37.760888142855876],[13.069459348321377,37.76080865844197],[13.069423678948871,37.76075878695873],[13.069377559467176,37.760572715271444],[13.069323633962236,37.760355147524926],[13.068929742431145,37.75992622770458],[13.068894034082602,37.759888120346005],[13.068856788009649,37.75984837183447],[13.068482444032895,37.75988834251854],[13.068354300223419,37.75994584973129],[13.067688634467974,37.76024457700731],[13.066897967620054,37.76052862459524],[13.066473188294978,37.76029559644126],[13.066436068491495,37.76022597821732],[13.06619259289765,37.759769343683104],[13.066188081814936,37.75972694518154],[13.066136975954427,37.75924658634974],[13.066121385030597,37.75918347865744],[13.06610646603651,37.75912308603849],[13.066021624345453,37.75877965671869],[13.066011153121107,37.75874573311545],[13.065980458826548,37.758713762235516],[13.065941934786892,37.75867363445295],[13.065726246398853,37.758448969442405],[13.065495039836511,37.758208140195144],[13.064689382060239,37.757899475013836],[13.064583876518132,37.75785905304458],[13.064543557559023,37.75783101187637],[13.06394842987064,37.75741710837123],[13.063135702543828,37.75712251554697],[13.063097420087436,37.757116015389194],[13.062813960982934,37.75706781751512],[13.062496455418636,37.75701382984911],[13.062408893479446,37.75699894068738],[13.06226922851904,37.756975192617006],[13.061927172029101,37.75697692155377],[13.06142849235404,37.75697944235149],[13.061360645198825,37.75699036404345],[13.06100664736949,37.75704734960681],[13.060798339289136,37.75708088186098],[13.060573795906357,37.757117026880884],[13.060237367733595,37.75719580022755],[13.059673335823275,37.7573278629767],[13.059120907597578,37.7575258968866],[13.059007164526495,37.75756672223029],[13.058949497368472,37.757587420376126],[13.05887395871967,37.75760678937369],[13.058562436781001,37.757686667858174],[13.05849287254396,37.75770450461393],[13.058043914618018,37.75792267057979],[13.058010449785156,37.758039736149655],[13.057880515808428,37.75849942646356],[13.057871646264637,37.75856101815088],[13.057814334068835,37.758958995097835],[13.057784902876087,37.75916337430772],[13.057775339235384,37.75919610891678],[13.05775965020823,37.759249810048445],[13.057712003059821,37.75941290069357],[13.057575989590088,37.75987845354117],[13.057550824681147,37.759933364183716],[13.057408904139727,37.76021834291148],[13.057381205397304,37.76027395702052],[13.057416862100707,37.76032383100079],[13.057454679854885,37.76037672544825],[13.057585061645963,37.76055909131869],[13.05762753243324,37.76061849354646],[13.057687602114894,37.760702511836186],[13.058058813369877,37.76126618951665],[13.057956895125425,37.76164894097914],[13.057869994463767,37.76197528958631],[13.057336091709931,37.762417052623086],[13.05728361798416,37.76241247131568],[13.056577948779942,37.76235086559148],[13.055881046564847,37.762068647656484],[13.055799260761866,37.761976012748654],[13.055589106741433,37.76173797687962],[13.055366586783535,37.76148593397648],[13.05530801538603,37.761419589744484],[13.055203655441222,37.7613008871507],[13.054889123435144,37.76094312457036],[13.054769661912287,37.760944122325284],[13.054457450159262,37.76094672984634],[13.054215602424746,37.76118618684798],[13.054069623753973,37.761334846599134],[13.05399615470783,37.76148896236078],[13.053724095443343,37.76205965967131],[13.053589592446631,37.762584065171495],[13.05355761520773,37.762708740236164],[13.053535290857054,37.7627957777832],[13.053747473586915,37.763000166302966],[13.053900229807939,37.76314731139247],[13.054156809001826,37.76339446237957],[13.054277853632735,37.76351105781536],[13.054746312455968,37.76381693062814],[13.054816127826555,37.76383400340699],[13.054929205814403,37.763861655252775],[13.055061109663836,37.763893909548834],[13.054979934667724,37.76401085507506],[13.054940473977728,37.76406770274686],[13.054856879495475,37.76418813284835],[13.054672209887121,37.76445251153166],[13.053962875569791,37.76465010023015],[13.053756431158192,37.76471690778195],[13.053448532128083,37.7648165472638],[13.053021006528036,37.76495099865072],[13.052375369686265,37.764993032912734],[13.052107293481479,37.764906986601474],[13.051737409820753,37.764788260493376],[13.051577051313641,37.764736788232256],[13.050788453887469,37.764388444691484],[13.050645420968396,37.76432526281982],[13.050526959904666,37.76420111359663],[13.050148211298591,37.76380417615453],[13.050108142377944,37.76371252321466],[13.05009254638701,37.76367684954308],[13.050060485671981,37.76360351439506],[13.050025035699448,37.763522427767846],[13.049901859794584,37.76324067563087],[13.049943604186803,37.7629532491651],[13.050048656523611,37.76242270001363],[13.049936134467526,37.761983995664664],[13.049883766168529,37.76177981695607],[13.0491592594603,37.761264299072955],[13.048782771316821,37.760914709257115],[13.04874889743675,37.7604632490378],[13.04876593547113,37.76023313541686],[13.048791877838784,37.75988274216833],[13.048801551595409,37.75975209533464],[13.048813067844467,37.75971947342556],[13.048966890912324,37.75928372718878],[13.049034923104754,37.75909100570594],[13.048854038142782,37.75872393183739],[13.048761584979504,37.75853631416389],[13.048740620418853,37.75849377023724],[13.048711945458512,37.75843557788652],[13.048458517953344,37.75811218501386],[13.048236588969495,37.75783056959283],[13.04760495904261,37.757381503748526],[13.04752976792606,37.75735268353211],[13.04669387682919,37.75703227243012],[13.0459685338837,37.75699416366473],[13.045425906228026,37.75735509675509],[13.044973061781869,37.75816558538739],[13.044594528203396,37.75743998159735],[13.044569918322983,37.75725837191893],[13.044518592097102,37.75687963004517],[13.044469603946002,37.756583302250206],[13.044453923322402,37.75648844604516],[13.044446546886773,37.75644382363336],[13.044391621157414,37.756111581117295],[13.044371838051767,37.75602023565928],[13.044304932645469,37.75571129682165],[13.044292309868121,37.75565301541155],[13.04427979762491,37.755595241832985],[13.044250846653728,37.7555209548304],[13.044220132016257,37.755442139955896],[13.04418518591619,37.75537300417954],[13.04414283138109,37.75524379447147],[13.043764313700345,37.75491939083117],[13.043293874274939,37.75467884307569],[13.04275965777115,37.75456188046615],[13.042617335645552,37.75453072006889],[13.042538217557128,37.75451339727616],[13.042504409608727,37.754514816425335],[13.042382126799156,37.7545199480712],[13.042129398917577,37.75453055443631],[13.04192854536362,37.75453898286307],[13.041639557677959,37.75454590748154],[13.040893672645154,37.754457285493444],[13.04030439897069,37.75431732147798],[13.040230230770383,37.75429182205531],[13.039853607716283,37.75387373644303],[13.039791512383031,37.753790204876196],[13.039712528599384,37.753683956647535],[13.039425922945453,37.75329841316525],[13.039375649853929,37.75327085880181],[13.03879956862582,37.75295511564144],[13.038244120686832,37.75296292657157],[13.037696144567361,37.753486143476245],[13.037424186161925,37.753843891111146],[13.037335314230083,37.7539636732917],[13.037242979359402,37.754088142004896],[13.037220585809264,37.754117891551786],[13.037168855201896,37.75418659778272],[13.037152696795946,37.75424429938244],[13.037069835346601,37.75456209824754],[13.03698940626782,37.75487054834619],[13.036825231066166,37.755488693561944],[13.036229605251938,37.75543719561424],[13.036191168422954,37.75543387158079],[13.035194439670507,37.7549298701469],[13.034266585137738,37.75440095682923],[13.033871266657089,37.75389882749517],[13.033597732666037,37.753093026459275],[13.033388908543685,37.752395341239115],[13.033253033735706,37.75214824915182],[13.033199075060594,37.752053915833905],[13.033020318669744,37.751732408258725],[13.032784817435324,37.751195521936225],[13.0325271768568,37.75095119235677],[13.0323310487899,37.75076519562261],[13.032282104923812,37.75071390781883],[13.032125037675073,37.75054931649758],[13.032079886590193,37.7505387096402],[13.031859468034748,37.750486932546956],[13.031196400612533,37.750331170786836],[13.030787148503379,37.75055010684035],[13.030680263991936,37.75068857056244],[13.030581813359767,37.75081610725118],[13.030480487507129,37.750916996792114],[13.030057147824628,37.751338508920824],[13.030096244628197,37.75200598536297],[13.030137138835968,37.75220542771513],[13.030146998072453,37.75225350982884],[13.03021683466722,37.75259409637237],[13.030222659035632,37.75270129885544],[13.030237933531557,37.75298243630689],[13.030247189923747,37.75315280456838],[13.030149090725603,37.75336173567699],[13.030032583974148,37.7536085681802],[13.030003868314878,37.75366940761016],[13.029983021032413,37.753713575491275],[13.029969460175458,37.7537423041903],[13.029933702921003,37.75381601261892],[13.02946721612674,37.75407831118381],[13.029436530413488,37.75409556590892],[13.029312352831875,37.75416538870515],[13.028874705952,37.75419539135021],[13.028665113437611,37.754209759390385],[13.028459688239014,37.75422384206096],[13.028367203896213,37.754196188653644],[13.027948855776426,37.75407109606447],[13.027866167741195,37.754046212745806],[13.027536350045294,37.753946954951545],[13.02667272802887,37.75357209053831],[13.02602158600988,37.75328944837301],[13.025834567900496,37.75318236037557],[13.025402831883696,37.75293514454748],[13.02528936565382,37.752870171522474],[13.02522525505822,37.75283346142668],[13.025111612386386,37.75276838796707],[13.025082703788259,37.75275183350877],[13.02495332932825,37.7526460473714],[13.02426059995663,37.75207960921868],[13.023927297801173,37.751372658674136],[13.023743854470588,37.75086698374445],[13.023716312162431,37.75081117896357],[13.023667981728583,37.75077458680452],[13.023492475554352,37.750641704008856],[13.023359426189614,37.750591709101045],[13.022837668734475,37.75041328129152],[13.022566929523261,37.75032069421155],[13.022457957965393,37.75028342630569],[13.022423654114995,37.7502982086705],[13.02186938547714,37.75053705832414],[13.021839260652014,37.75055004027137],[13.021493550355292,37.75069921591158],[13.021358201316794,37.75075268665714],[13.021321444914523,37.75076720753029],[13.020759453217032,37.750989219420184],[13.020289174750602,37.751174999170374],[13.020203226455148,37.75119213268544],[13.019898083765948,37.751252960165736],[13.01964206288663,37.75130399290611],[13.01931233541842,37.751369719380264],[13.019080897591394,37.75141585413798],[13.01903495784458,37.75142501042531],[13.018514379058887,37.75142892527044],[13.018273763365812,37.75143073423746],[13.01812499590608,37.75144133793025],[13.017948504726855,37.75145391677934],[13.017837895033527,37.75146180114728],[13.017375848600548,37.75149473393596],[13.017207303769109,37.75146182622165],[13.016996315945851,37.75141639985298],[13.016938164886865,37.75140387810515],[13.016813761593303,37.75136944760587],[13.016690720292901,37.75123418330101],[13.016668406827481,37.75120965225299],[13.016640941486937,37.751179458267316],[13.016424263581783,37.75092852336478],[13.01638137225383,37.75089409888076],[13.016056706735124,37.750725020669336],[13.015045251211498,37.75065796360845],[13.015002845232118,37.750655151703185],[13.014796067707662,37.750505481851484],[13.014747970778588,37.75047066867157],[13.014212529202211,37.750083100861794],[13.014170158603909,37.74998359057356],[13.014114998844013,37.74985404256069],[13.014086327374745,37.74978670435277],[13.014053967705873,37.749710703126965],[13.014028887081645,37.74965179793242],[13.013860010393369,37.74925516880718],[13.01425389334321,37.74854138570172],[13.014690486717207,37.747909471864986],[13.015062625391476,37.74748894361571],[13.015140716377429,37.74739890701054],[13.01517943305594,37.74735877713361],[13.015205777693906,37.74732910308697],[13.015312787147458,37.74720858027908],[13.015486379716295,37.747013060682725],[13.01584565752247,37.74628920023507],[13.015857607519104,37.74616571649784],[13.015908412334989,37.745640763629694],[13.015632203202886,37.74495209472936],[13.015474922223746,37.74452400803361],[13.015441816502207,37.74443390129744],[13.015427643183433,37.74437238575593],[13.015388119221518,37.744200835899605],[13.015339888764483,37.74399150030203],[13.015311615421282,37.74385960669326],[13.015288942766949,37.743753838902364],[13.015251436447063,37.74357887196492],[13.014936769771829,37.74342368977893],[13.014903642603723,37.74340541019183],[13.014726345004195,37.74349904287499],[13.014233969710116,37.743756741332305],[13.0138304550517,37.74425623569526],[13.013580265676548,37.74484420847439],[13.013252864630557,37.74522692948471],[13.012849293853703,37.74504027599985],[13.012434744666692,37.744401365635085],[13.01204653652997,37.74364669899899],[13.011916562651313,37.74298680984147],[13.01205803775024,37.74272653927795],[13.01209960789361,37.74265239996528],[13.012110268223445,37.742613668124676],[13.012639341060975,37.74269193756448],[13.01329206240818,37.74291062288077],[13.01387332197081,37.74282449237879],[13.013926792312361,37.742672415338774],[13.013990521202677,37.74244698081915],[13.014023144275075,37.742331577242155],[13.01406462901599,37.742184830792155],[13.014084812226619,37.74211343085964],[13.014201213863002,37.741989413550705],[13.014335004841382,37.74184687128],[13.014381461373008,37.74179737447974],[13.014517144356326,37.74165281009609],[13.014859291519176,37.741642968844396],[13.01493761419675,37.7416407155459],[13.015286861751203,37.741295524036055],[13.015593569017161,37.741316539688285],[13.015698506171592,37.741323730281636],[13.01579528688263,37.74133036140087],[13.015830588158256,37.74133278054786],[13.01593546381074,37.74133996582048],[13.016281611163654,37.74136368268839],[13.016317935966024,37.741366171245296],[13.016255672225466,37.74072650222495],[13.016544536333397,37.74052298026856],[13.017706590828958,37.740354952625445],[13.018265706158248,37.74024578196384],[13.018875146992537,37.74008018173359],[13.019150391132252,37.74019106419987],[13.019263021982649,37.74023373503643],[13.019444167875363,37.740302360604126],[13.019604915561379,37.740394640558804],[13.020058783173925,37.74065518872094],[13.020254629959576,37.74097277004717],[13.020233800169434,37.741009003514236],[13.020195981166852,37.74107478883577],[13.020087467312232,37.74126354285987],[13.020052250981024,37.74132479933287],[13.019874316233745,37.74163430745902],[13.019832048514175,37.741726636303596],[13.019681607880264,37.74205524261249],[13.019742345423829,37.74232565806434],[13.020354253680138,37.74192192811317],[13.020553065042014,37.74173875062244],[13.020912669704382,37.741407419435205],[13.020941568337268,37.74139607045397],[13.021440248562794,37.74120023004605],[13.021482356678074,37.74142331061997],[13.021501408568703,37.741524244748106],[13.021539171776707,37.74172430417223],[13.021547341710937,37.74176758078663],[13.021425418776415,37.74218257483117],[13.021926120308693,37.742275111204805],[13.021989346663705,37.74228679780418],[13.022172684470846,37.74232067614191],[13.022227477723002,37.74233080247126],[13.022738814149132,37.74229531751079],[13.023211476280718,37.742448046820215],[13.023608829249815,37.74245473488982],[13.02377964131678,37.74199626340241],[13.023865001566774,37.741794343159214],[13.023961242226246,37.74156668155423],[13.024556531723901,37.7413796857765],[13.025135921731756,37.74134411502608],[13.025197084291866,37.741225032948904],[13.025260206445532,37.7411021393191],[13.025351372786272,37.74092464380466],[13.025691939411953,37.74094833908062],[13.026371127148995,37.740995590539875],[13.027162142089733,37.74079007490698],[13.027197947181604,37.740780771506095],[13.027479153116197,37.740707708480244],[13.027379758554988,37.740562845520856],[13.027128458010043,37.740196579223905],[13.027053449981555,37.740087256235746],[13.026962008549637,37.739974899672816],[13.02659162888773,37.73951980163293],[13.026391283833496,37.739153464564836],[13.02635276670086,37.73908303529374],[13.026239464481026,37.738875856311786],[13.026224123897883,37.738847804278585],[13.026013033032982,37.73843322232395],[13.0258353273843,37.73808420336115],[13.02581157751698,37.737989733415354],[13.025712402543753,37.73759523039021],[13.026272156170739,37.73759715794937],[13.026370376812286,37.73759750144374],[13.026496851548062,37.73760953214365],[13.027049456188495,37.73766209407557],[13.027285531844592,37.737534897803066],[13.027388334364332,37.737481012326015],[13.027486827759096,37.73742643742088],[13.027519917401213,37.737399625876414],[13.02758034688225,37.737350659246594],[13.027695491931318,37.73725735684023],[13.027742673969978,37.73721912579426],[13.027827216162589,37.73715062031301],[13.027985909240211,37.73702203032376],[13.028382849827475,37.73660309414256],[13.02844014586603,37.736494661154886],[13.028477006043623,37.73642490407579],[13.028562197887075,37.73626367961584],[13.02874126474774,37.736214338894314],[13.028870204363361,37.73617881132228],[13.02944539871487,37.73631450163805],[13.030055097333772,37.736433253062685],[13.030331229800545,37.73627391968756],[13.030367173520428,37.736253179885196],[13.030631801067742,37.736100483063375],[13.03073010700634,37.7356724708468],[13.030753952172441,37.73556865497387],[13.030763147555357,37.73552862158276],[13.030775660473894,37.73547413434392],[13.030790843787123,37.73540802221312],[13.030798625594983,37.735374144439575],[13.031028638925385,37.73481905519969],[13.03110164542183,37.73478829382638],[13.031441686463097,37.734645020256146],[13.032157891094077,37.73458445474117],[13.03270770068315,37.734396728204125],[13.032705415042727,37.73405451142994],[13.032339589148147,37.73374052472846],[13.03235781615809,37.733462909776996],[13.033019948775594,37.73356592287806],[13.033318653178224,37.733612392985435],[13.03342958052382,37.73363858227945],[13.033499896904694,37.73365518300244],[13.033760401746935,37.733716686176656],[13.033870958822522,37.733738018191275],[13.033951413587337,37.73372176335639],[13.034033519679022,37.733705174426696],[13.034316531722183,37.733647994487235],[13.034386139633963,37.733154699445436],[13.034839253836656,37.7331706931667],[13.035213158645199,37.7332029026701],[13.03523613883997,37.73311495115742],[13.035247108176883,37.733072965033315],[13.0352731684546,37.73297322045899],[13.035291321639026,37.73290373622011],[13.03531408277616,37.732816619108895],[13.035235283592321,37.73271279094963],[13.035068577129476,37.73249313145835],[13.03491845879389,37.73228488497609],[13.034884072330938,37.7318240733119],[13.034877587272575,37.73173716448978],[13.035016499162769,37.73153504750113],[13.03505752083857,37.73147536053388],[13.035103187542893,37.731406276930294],[13.03513326733561,37.73136514887233],[13.035196177388253,37.7312736124114],[13.035500422922016,37.73090714691522],[13.035507639562473,37.73073712928131],[13.035508843022772,37.73070877782231],[13.03551978211765,37.730451135680475],[13.035521916016641,37.73040088530652],[13.035527860451639,37.73021169883867],[13.035541838838787,37.730074209318744],[13.03554860397716,37.729999767685776],[13.035551042554594,37.72997294030645],[13.035610743148979,37.72931600250053],[13.03589409435093,37.72895712366398],[13.035939676198694,37.7288993905404],[13.036000161739079,37.72876718706266],[13.036062467680482,37.728631005496446],[13.03610820316165,37.72853104271055],[13.036049207027922,37.72848020172525],[13.03598138334956,37.72842175019662],[13.035715400362209,37.728192527476224],[13.035588898094302,37.728085362039174],[13.035476930996568,37.728011438989746],[13.035218708189678,37.7278409537135],[13.035047799981813,37.7270181114013],[13.035372219444112,37.72616566123578],[13.035425530400447,37.72602557552582],[13.035585143920772,37.72585185561837],[13.03571359502876,37.725712042425535],[13.036102737076773,37.72528849975007],[13.037030249777683,37.72491149706422],[13.037145836411707,37.72487190516764],[13.037483199211836,37.724756348039676],[13.037546885059557,37.72473453379762],[13.037662008825961,37.724522723531564],[13.037857432825275,37.72416316910822],[13.037952589401126,37.72406237128379],[13.038008316462708,37.72400334356544],[13.038392008090074,37.72359691513515],[13.038424573240093,37.72356347555558],[13.038496983779822,37.72349788687532],[13.038906063546207,37.723127345994094],[13.039058709846202,37.72248031712769],[13.039433713664218,37.72202607106544],[13.039718960911815,37.721966574829324],[13.04016148148309,37.72187427444843],[13.040312508515697,37.72184277332734],[13.040355748327386,37.721727997857215],[13.040507609245621,37.72132489292885],[13.040613115108844,37.72127193958462],[13.040742466131487,37.72120701873517],[13.041013294271828,37.72107108996955],[13.04124835102373,37.72100836902565],[13.041584733984022,37.7209186087513],[13.041665713362944,37.720833413367224],[13.04192327584936,37.720562438631966],[13.042006679737533,37.720455798111814],[13.042115680856782,37.72031643009193],[13.042202059081381,37.72020598514991],[13.042287049366335,37.72009731638578],[13.042332271663623,37.720088743588455],[13.042838547432101,37.719992773704675],[13.04289346254594,37.71998236347792],[13.04292540461228,37.719976308472816],[13.04314249668045,37.72001211590466],[13.043464960340746,37.72006530165615],[13.04377284779775,37.720116082335316],[13.043835948885585,37.72000397778732],[13.043903393474842,37.71988415754858],[13.043733066249926,37.71969335807262],[13.043645267208303,37.71959500328786],[13.043607180122295,37.71955233823254],[13.0434597058514,37.719379988138996],[13.043419852682579,37.71923681324879],[13.043359528317083,37.71902009150665],[13.043406415368375,37.718990019305984],[13.043520191313103,37.71891704718831],[13.04378615117275,37.71874647487618],[13.04396397067045,37.71881703139887],[13.04416060897725,37.71889505242412],[13.04430825454576,37.718953633622775],[13.044381593585236,37.71898273314618],[13.044729249681708,37.71913292155652],[13.04461498584481,37.718747823980145],[13.044562568980982,37.71857116564409],[13.044557985045055,37.718431019106475],[13.044555441770207,37.71835322816063],[13.044549611727545,37.71817495542249],[13.044544920168091,37.71798277177767],[13.04462749562571,37.71791267680449],[13.04468578008009,37.71786320271755],[13.044878842552059,37.717699325234115],[13.044911349841744,37.71767173011297],[13.044949792238235,37.717639098412874],[13.044557902095798,37.71726282157528],[13.044462971565984,37.717171670808945],[13.044313825080359,37.71689378875584],[13.044215288661213,37.716710199934646],[13.044173718010251,37.71624255927489],[13.04416895423685,37.71618724211804],[13.044161729138066,37.71610335888767],[13.04420330877133,37.716025662452004],[13.044223558312895,37.71598782543605],[13.044279011479292,37.71588420657041],[13.044376576061602,37.715701900091524],[13.04491469578603,37.7154948461494],[13.045193696536929,37.71527297280724],[13.045232611467764,37.71511499685293],[13.04533299947261,37.71470747250435],[13.045323983954912,37.71458625563387],[13.04528271080566,37.714031383203626],[13.045557514519935,37.71349498459157],[13.045771883434126,37.713255325436876],[13.045797944768427,37.71322618887343],[13.045858086531814,37.713158951314796],[13.045919878402108,37.71308986898972],[13.04602392658011,37.71297354374025],[13.046078029457012,37.712898820222364],[13.046096087249575,37.712873775254394],[13.046119661764628,37.71284107871155],[13.046372787390192,37.712489104831626],[13.046447832864565,37.7123744329051],[13.046661735947291,37.7120475870064],[13.046698088668673,37.711992040023596],[13.047130942524852,37.71160781292573],[13.047538560218898,37.71158235203721],[13.047625445869878,37.71157460018173],[13.047850210753166,37.71139202624432],[13.04797605774124,37.7112882972599],[13.048100052118148,37.71099228980064],[13.048120582027172,37.710943280255776],[13.048431073853202,37.71092106289736],[13.04874031147667,37.71089892929557],[13.048847664517721,37.710891248107224],[13.04896752419576,37.71067090122077],[13.049109800163738,37.71040934600708],[13.049385488038196,37.70986390564588],[13.049876961266982,37.70973411971741],[13.050065071422766,37.70968444325529],[13.050127555303323,37.70966794236418],[13.050218895281112,37.70964382072426],[13.050306167469424,37.70965416710281],[13.050354374629663,37.70965988287204],[13.050458404145452,37.70967221789565],[13.050503237821301,37.7096775308467],[13.050579999877126,37.709686633521926],[13.050621681620148,37.7096915729818],[13.05083831544477,37.70971725437379],[13.050999170496107,37.70973632478256],[13.05103260854217,37.7096511489448],[13.051092294547255,37.70949910861653],[13.05157332757873,37.70946659988089],[13.052254438300006,37.70988452724515],[13.052604313185626,37.709530189129],[13.05246111119019,37.708931608689916],[13.052738012133656,37.70830506320304],[13.053539204969802,37.70848238851709],[13.054264299001169,37.70851146774514],[13.054130168296046,37.70827545314051],[13.054047147377153,37.70812937129407],[13.053955031741435,37.70802603485141],[13.053573894475608,37.70759846303832],[13.053585726173218,37.70736984000504],[13.053596625621779,37.707159187772994],[13.054024060865894,37.70695484881102],[13.054182323214443,37.706879417827516],[13.054324260791198,37.706889686338066],[13.054474865130379,37.70690058214243],[13.054526029197271,37.706904291070394],[13.054646149867853,37.70691298218567],[13.054781725132923,37.706795985202504],[13.054983164913018,37.7066221509493],[13.055643035400289,37.70653411240168],[13.055707559190285,37.70648115292576],[13.05584196495172,37.7063708363868],[13.055952223838323,37.70628033889669],[13.05607149126429,37.706182447299874],[13.05611844064469,37.706143910876925],[13.056118440897595,37.706055086658274],[13.056118443627236,37.705876128433324],[13.05611844689776,37.705702537832124],[13.056125379498445,37.70566996697331],[13.056175631115492,37.70543391729681],[13.056286502860464,37.704913096847406],[13.056378982022013,37.70457370850341],[13.05638510448601,37.704512655506434],[13.056403166624415,37.704484942652186],[13.056415580289016,37.70443938576615],[13.056474809992071,37.70422201377255],[13.05666576132631,37.704209123546946],[13.056727220758702,37.70420497430483],[13.056773068526999,37.704201879189824],[13.057224558484316,37.7041713993975],[13.057338031782871,37.704167184745856],[13.057436862081994,37.70416351343933],[13.057520894361057,37.704160390858284],[13.058063280609302,37.70414024199408],[13.058125662452959,37.70413720869447],[13.058176439743736,37.70413471954789],[13.058328039983735,37.7041272871088],[13.059302745698421,37.70407949571115],[13.059403232671144,37.70403789849082],[13.059605588715657,37.70395413099062],[13.059807159375817,37.70387068838987],[13.06008593371096,37.703676717334226],[13.060146206822516,37.70368929654415],[13.060280003455295,37.70374324466235],[13.0606573966514,37.70389541297918],[13.060723978937714,37.70388908794631],[13.06128790606999,37.703835525833476],[13.061476492357006,37.703817611097335],[13.06150662629547,37.70380327345],[13.061641422815741,37.70373913801254],[13.061935739902388,37.70359909992424],[13.062034832921244,37.70353156523668],[13.062155017108024,37.70344965431443],[13.062180047941357,37.703412068304864],[13.062358616214974,37.703143940359254],[13.062376061571559,37.7031177458915],[13.062391407242762,37.70309470268385],[13.062599250184498,37.70294341790432],[13.06278314785576,37.702915460016605],[13.063020890810604,37.70287931640722],[13.063129521165937,37.70279899412338],[13.063241684085545,37.702716062807696],[13.063413827245455,37.70258878193889],[13.063483497027594,37.70252205546139],[13.063543861238282,37.70246424253127],[13.063793743246611,37.70222491438961],[13.063823803048024,37.70218763905308],[13.06386811193731,37.702002671261674],[13.063891503232222,37.701905026538014],[13.06393539271879,37.70172180626732],[13.063906105851474,37.701550974684565],[13.063856332575678,37.70126064919211],[13.063918091542304,37.70110018317201],[13.063966019962892,37.70097565304937],[13.064527648736435,37.70088508353658],[13.064786499713007,37.70084346248599],[13.064850812249151,37.70083350331954],[13.065350634785483,37.70075611913156],[13.065403845131868,37.700747879805114],[13.065444390956275,37.700741603720715],[13.065528191764365,37.70072863187066],[13.06556659946028,37.70072268720498],[13.065628889702179,37.70071304606937],[13.066040001713134,37.70051526544247],[13.066359123662613,37.700412952990774],[13.066539471088973,37.700355352701514],[13.066580020858986,37.700342400561055],[13.06669386509095,37.70034268419617],[13.066765301171538,37.700342861866304],[13.06711645075146,37.700343734538585],[13.067248954185917,37.7003440647459],[13.067778738135525,37.7004698707231],[13.068106243999482,37.70053737864836],[13.068384051886708,37.70031834393741],[13.068636091400442,37.700057130305915],[13.068656206169,37.70003628329093],[13.068704839993025,37.6999858811741],[13.069003961579583,37.69967586940951],[13.069070240950486,37.69960717711172],[13.069130300260325,37.69954493124024],[13.069694285153066,37.69922142041263],[13.070221621077332,37.69900502597272],[13.07030666192941,37.69896809273465],[13.070475515325883,37.698894758564265],[13.07066779768527,37.698811248804525],[13.07086384329614,37.69872610433336],[13.07101292309667,37.698647644209494],[13.071103399808429,37.69860002768178],[13.071184442167205,37.698557375371664],[13.071424849294527,37.698430849816],[13.071755863150713,37.69819361942664],[13.071853215412157,37.69812371755201],[13.072040019372684,37.69798958690929],[13.072186695719852,37.69784399116432],[13.07249294619653,37.69753999365346],[13.072611185550997,37.69742262282316],[13.07264640060746,37.69737041347983],[13.072881796173139,37.697021430541795],[13.07315314432905,37.69662021847663],[13.07321936906669,37.69651146732042],[13.073304119151993,37.696372292449155],[13.07349633617607,37.69605663702098],[13.073852688700079,37.69542277602489],[13.07423006171461,37.69486251084641],[13.07445780400487,37.69440049430362],[13.074481896469864,37.69435161940026],[13.074504947532322,37.694309058822434],[13.074611788165834,37.69411178885176],[13.0746349915576,37.694068949148054],[13.074791350209962,37.69378019913068],[13.07520051858494,37.693308910907334],[13.075627097650521,37.69308518649335],[13.075867139465844,37.692959294631265],[13.075951798256405,37.69293684231158],[13.076074858406702,37.69290420408419],[13.076424987227725,37.692811342236006],[13.076472576123953,37.69279872134434],[13.076748900646912,37.692631519157025],[13.077317062144404,37.69192052638611],[13.077607791655627,37.69159619421837],[13.077731630088794,37.69145804412709],[13.07812860359199,37.69102317560372],[13.07860013493267,37.69061384717878],[13.078720312811617,37.69050953017758],[13.079104031212053,37.69036071014385],[13.079167659899438,37.690336033372645],[13.079444821150524,37.6902285388865],[13.079534711960083,37.69038787556296],[13.079637502456057,37.69057007764009],[13.07965317279499,37.690647653680365],[13.079676400600478,37.69076264289411],[13.07975811197401,37.69116715346894],[13.079742405307824,37.691364542041114],[13.079691451018496,37.69200490771428],[13.079636911418406,37.69224335457201],[13.079591856164882,37.692440331560576],[13.079587978651563,37.69249850261212],[13.07957228037807,37.69311024993517],[13.079571084446957,37.69315686772514],[13.079759500428304,37.69376126589118],[13.080220127171103,37.693872566087315],[13.08052561354512,37.69394637771567],[13.08072830282516,37.69393983021742],[13.080779722772485,37.69393816849822],[13.080821578891854,37.693936816664696],[13.081478921910769,37.69391558031845],[13.08245175499658,37.693776736966534],[13.08272311953293,37.69373800564934],[13.082833536180935,37.69372224665569],[13.083225127128928,37.69365771732374],[13.083733628805133,37.69357392104458],[13.084338441276644,37.69355742024165],[13.08447434645085,37.69355371205612],[13.084948249239964,37.6935407808133],[13.086113875298055,37.69362193200441],[13.087239864864525,37.69349728488444],[13.0883593358513,37.69364079996827],[13.088892427679204,37.693785479336235],[13.089102279959254,37.69384243208209],[13.090191516873958,37.693372242036915],[13.090281391580772,37.693323506990765],[13.091433922161029,37.692698538716634],[13.092079883604121,37.6922923261315],[13.092105147147356,37.69227643961152],[13.092189294961074,37.69222352456348],[13.092552110984574,37.69199536458023],[13.092854893702173,37.691830146482765],[13.092903013520585,37.69180388835345],[13.09315439129524,37.69166671995606],[13.09323219573173,37.69162426450614],[13.093476855105056,37.691490760909076],[13.093547003364094,37.691452483447144],[13.093609916101226,37.691418154235414],[13.094628052625415,37.69113713087333],[13.095730684326169,37.690975072492314],[13.09582124460574,37.69109353241095],[13.095850071780589,37.69113123930906],[13.096114697794443,37.69147738807352],[13.096225674201001,37.69155010055924],[13.096985582972092,37.69205958744731],[13.09796478433088,37.69276861495266],[13.098926305238194,37.6932981117056],[13.099219276184584,37.69346796439163],[13.100043848246445,37.69394600430793],[13.100227187077683,37.69403746015474],[13.101018612921559,37.69443224341017],[13.102518522803082,37.69520414758739],[13.104165947831763,37.69597765891502],[13.105829698564651,37.69671383163737],[13.105859526944872,37.69672702940619],[13.107572318869881,37.69759278979543],[13.109021716702888,37.69813164306661],[13.109111635265982,37.698165071090024],[13.110810857301605,37.69870699225716],[13.111447963012381,37.698785403869884],[13.112834667979667,37.69895606068976],[13.114540120727726,37.69918215129346],[13.114609052378368,37.69919128943425],[13.114885857764776,37.69927105232317],[13.115066876378009,37.699323213462684],[13.115461858483593,37.699437029005914],[13.115870502240277,37.69955477826392],[13.116037172076648,37.69959053347014],[13.116292331794314,37.69964527228122],[13.117092858322092,37.69981699856496],[13.117314603949406,37.69986456648156],[13.119356335899445,37.700295298643084],[13.12108897932424,37.70086290426923],[13.122472610488858,37.70130761901296],[13.122725541915647,37.70133896801603],[13.123648354939002,37.701453340666305],[13.124132186303422,37.7013720950056],[13.124768478852875,37.701265244578266],[13.124970182726875,37.70123137297793],[13.126231574526559,37.700673742091865],[13.126942751194813,37.70016599873791],[13.127028105844653,37.70010505960017],[13.127068302467036,37.700076361373796],[13.127478736066855,37.69978333204509],[13.12822860069821,37.69883152763189],[13.128465050124474,37.69862282250772],[13.12866635315489,37.698445138119055],[13.12911065073015,37.69805296710377],[13.129759397354333,37.697759925837815],[13.130613196341848,37.69737425056453],[13.132067312999292,37.69681879837571],[13.132200441241373,37.6966819485387],[13.132929166904406,37.695932838515915],[13.133390121802574,37.695339791867],[13.13360752454983,37.695060086301744],[13.133772787511411,37.694847103447586],[13.133907840129506,37.694777702908944],[13.13423371610249,37.69461024204516],[13.134266637619753,37.69459332376128],[13.135186085925644,37.694119663866765],[13.1354046931538,37.69404587272797],[13.136764632617867,37.693586809441],[13.136869657050775,37.69354414544796],[13.138276039121655,37.69297281931606],[13.138311856621105,37.69295690513658],[13.138879032584926,37.69266211773101],[13.13968516972756,37.692243121017505],[13.139782210666079,37.69219268262371],[13.139971104048893,37.69205793830325],[13.14044556667046,37.691719484586905],[13.141352744161107,37.69107232807402],[13.142622670337962,37.68987491736801],[13.14266447080152,37.68984723758702],[13.142948893814772,37.68965890532416],[13.14335792509119,37.68938805841626],[13.143539413149211,37.689267884719804],[13.144002197590376,37.68896144701481],[13.144217143756622,37.688883799286714],[13.144425409624732,37.68880856434191],[13.145535476248515,37.68840754880176],[13.145734781524377,37.68831726863869],[13.146866242263371,37.68780473892899],[13.147325024745767,37.68759691448125],[13.148250499418202,37.687323351383036],[13.14885476728972,37.687315545636636],[13.149158708143146,37.687311617993835],[13.150468636877509,37.68750414483926],[13.151237748364881,37.68764522548427],[13.151420858399756,37.68767881783245],[13.151642427849422,37.687719463756075],[13.152787091111735,37.68775564464958],[13.153933795878041,37.687701665071366],[13.155173282910734,37.68755884217065],[13.155221284622769,37.687553400814885],[13.155605110095328,37.68750989392567],[13.155677609805432,37.68750167534047],[13.15635589517945,37.6874247851524],[13.157098197231637,37.687389527823356],[13.157190850562458,37.68738512732657],[13.157297985785975,37.68738003879423],[13.157650222442454,37.68736330543669],[13.157865917861166,37.68735883100418],[13.158887055566348,37.6873376391049],[13.159400447685393,37.68733848388576],[13.159543980208717,37.68733871959149],[13.159576634951431,37.68739334827443],[13.159674464537172,37.68766666655865],[13.159727243811336,37.68822443427381],[13.160006328688887,37.68886986115877],[13.160668605020414,37.689627828275604],[13.1608502575614,37.68958546674451],[13.160959744633114,37.689559934177296],[13.160998658573874,37.68955086013296],[13.161805832480205,37.689454773244336],[13.162729395078902,37.68957723198115],[13.164011799023502,37.689669495003514],[13.164842969781999,37.690001760178895],[13.165000207827546,37.690064616730204],[13.165475434867785,37.690476564981665],[13.165666602732431,37.69064227621963],[13.16596007506839,37.69075030741719],[13.166509296846437,37.690952481239265],[13.166925675109798,37.691063159339166],[13.167051743612603,37.6910966680098],[13.167227007550121,37.691143255668976],[13.167726241735261,37.69127868892282],[13.168009362268387,37.69130109748381],[13.168286561318041,37.69132303588053],[13.168341647302482,37.691327395836936],[13.168855827933209,37.69136808742226],[13.16914156748792,37.691390699522735],[13.16942586032775,37.691426781260844],[13.169996663538253,37.69149922168377],[13.170219313094275,37.69152747798574],[13.170567468841567,37.69157166102561],[13.171138273823834,37.69164409666973],[13.171402684527314,37.691677649840685],[13.171707489957482,37.69168820288393],[13.172275335636808,37.69170786222227],[13.172590715563318,37.69171877856474],[13.17263126000735,37.69172018231746],[13.172672041789204,37.691721593856414],[13.172777522701619,37.69172715488613],[13.173845108749578,37.69173753791759],[13.17400201406618,37.691739346020285],[13.174610036901907,37.6917463499089],[13.174832136191348,37.69175451711005],[13.1753655060944,37.69177413120914],[13.175669745777052,37.69178531729127],[13.176132022232235,37.69180454757413],[13.176230732574098,37.69180594381536],[13.177203984101208,37.69192794836215],[13.177310321455526,37.691941277920364],[13.178050744438206,37.692034090476405],[13.179205964246457,37.69210568109379],[13.179662523207359,37.69214824998212],[13.180360381428349,37.692213315195886],[13.180872301162605,37.69211462742955],[13.181921134799358,37.691912424768745],[13.183466317934226,37.691801219941375],[13.183800467345833,37.69175692068574],[13.183896595698855,37.691744506714066],[13.184626560755841,37.69164739949171],[13.18535042326414,37.69143614665797],[13.185654603404917,37.691347372384975],[13.185701922685833,37.691355461809266],[13.1861250794535,37.691427799414214],[13.186592358570106,37.69150767709599],[13.18777985923824,37.6916236541472],[13.188672803567389,37.691755671705025],[13.1895811982186,37.69169633898719],[13.190322929028211,37.69161067988575],[13.190821364380705,37.69155311391619],[13.191017737538152,37.69156697886111],[13.191817826499566,37.69162346119991],[13.192231832965684,37.69168688258588],[13.192308997251434,37.69169870188586],[13.192664639062777,37.6917531799546],[13.193194510452374,37.69192701078432],[13.193531483797935,37.69203755654454],[13.194530252088223,37.692474832650035],[13.195222435494806,37.69292754670086],[13.195462678554641,37.69329278829623],[13.195449585969406,37.69385169106407],[13.195195670739816,37.69448674830951],[13.195029512966478,37.694973887113875],[13.194975632025736,37.69513184962939],[13.195040385917581,37.695764549452456],[13.195617267982358,37.69581829201718],[13.196484626358178,37.695595969181966],[13.196591233252398,37.69557140861007],[13.196954875972205,37.69548885088054],[13.19732875918074,37.69540149262377],[13.197368888978241,37.69542895505416],[13.197841665215126,37.695752485972115],[13.198306018593975,37.69624708151672],[13.198723289609188,37.69681092582404],[13.19937298977505,37.69761414000498],[13.199757970753403,37.69858444094465],[13.200214279403882,37.699412571442636],[13.200329113810808,37.69956099646871],[13.200665256014041,37.69999545968184],[13.200406738265857,37.70036046604886],[13.200409301780024,37.70073192592534],[13.200817292060476,37.701205998997075],[13.20128057428777,37.702232049646405],[13.201746332949682,37.703138639782686],[13.202058321017253,37.70400486643705],[13.202090408975605,37.704093956890866],[13.202203557780887,37.704408102354726],[13.20220796779198,37.70513750820537],[13.202237825337578,37.70524874499016],[13.20230940695487,37.70551148311298],[13.202316984283229,37.70553941864795],[13.202385106828872,37.70578871355008],[13.202383501314628,37.705855973659475],[13.202375852960722,37.70617634942808],[13.202470800414554,37.70647695980044],[13.202873984207338,37.70668999064808],[13.202995080948305,37.70670068314059],[13.203107356486596,37.70671059704767],[13.203382426385108,37.706734883955164],[13.203521757862854,37.706747880836744],[13.203567846080926,37.7067521795571],[13.20363324470858,37.70675827997011],[13.203680674387517,37.70676270367294],[13.20383618317515,37.70677720845584],[13.204226131043068,37.706744194535794],[13.204259560417409,37.70674136380232],[13.204848129582777,37.70669153033811],[13.205116698839586,37.706679398706946],[13.20540214549405,37.70666650579623],[13.205563371721395,37.70665922274563],[13.206864785526543,37.70676808745991],[13.207658831480257,37.706950548813296],[13.208128303670433,37.70705842376282],[13.209429384330553,37.70728028660806],[13.209743839924808,37.7073339057662],[13.210185652371809,37.70740555298195],[13.211390011631217,37.70760084977891],[13.211473065077183,37.70761431693373],[13.211898004189269,37.70762941622957],[13.213313015298116,37.7076796805647],[13.21368329314509,37.70769283183606],[13.215703157082789,37.707163392528514],[13.217001706955905,37.70660506784519],[13.218368123822714,37.70626627290695],[13.218668276016654,37.70627072602602],[13.219018368763162,37.7062759182944],[13.219889141244803,37.706288828639345],[13.220011945840467,37.706290648571965],[13.220681792989767,37.70674400570606],[13.221611344706208,37.7068269298869],[13.221779957221727,37.70684197115537],[13.222530445349856,37.7067632870625],[13.22242575115714,37.707345728141625],[13.222428915158144,37.70789592531847],[13.222429803745376,37.70805048403555],[13.222430217259767,37.708122424609485],[13.223146571913041,37.70858552205478],[13.223251391029816,37.70868208061447],[13.223507085396,37.708924762008095],[13.223810550071407,37.7092127772217],[13.224120963309314,37.70950738582066],[13.224183470528775,37.709623866390956],[13.22421305153385,37.70967899933302],[13.22424903427111,37.70974606393658],[13.224591965693186,37.71038521249759],[13.224783589295962,37.71074235207723],[13.225252195859365,37.71133059478038],[13.225401624234475,37.71151817008538],[13.225426411057189,37.711549285228685],[13.225510807843607,37.711655226148764],[13.225763926262454,37.71196779182023],[13.225839847165426,37.71206154391427],[13.225978500905658,37.7122327592167],[13.226073087604506,37.7123495809983],[13.22638874738623,37.71274823954964],[13.226481190907123,37.712864992015014],[13.226599632863353,37.71301458205298],[13.226700104270906,37.71314147357474],[13.226742649552484,37.713209721133445],[13.22691247187432,37.71348212960753],[13.227279518141808,37.714070893527015],[13.227968889097816,37.715126981316324],[13.228137240506868,37.71533879201457],[13.22818987911273,37.71540501813456],[13.228541374454455,37.715847241785845],[13.228642529253786,37.715978913087696],[13.229157514416125,37.71664925075786],[13.229262923720524,37.71694856676212],[13.22941230939499,37.7173727459714],[13.22943527515153,37.71743795541815],[13.22948992860406,37.71759314206203],[13.229634113662831,37.71800254608498],[13.229624505416696,37.718028986844644],[13.2296103007749,37.71806807486979],[13.229477662264225,37.71843306912428],[13.229417381685662,37.71859894360714],[13.22936809564274,37.71869009256612],[13.22935288459566,37.71871822354218],[13.229119750240567,37.71914937004887],[13.228923479672218,37.719512341475294],[13.228789061588143,37.71976092340453],[13.228776365262384,37.71979264065628],[13.22866679484904,37.72006635385529],[13.228639136518552,37.720135444255575],[13.22843635662808,37.720641990006875],[13.22832994778121,37.720907800873675],[13.227650928303934,37.72179012429379],[13.226784221390256,37.7224630101184],[13.22674699986524,37.72249181607141],[13.226557555120884,37.7226384244707],[13.226511232976165,37.72267427292585],[13.226425353831079,37.72274073326213],[13.226390739686828,37.72276751973974],[13.226278651653613,37.722854264965264],[13.226254763702423,37.722872748919976],[13.225859682331155,37.72317849513619],[13.225826964497019,37.723203760508916],[13.224853577396804,37.723955450708004],[13.224257199097423,37.72440794358125],[13.224183351615311,37.72446397344139],[13.224017517808674,37.72458979581061],[13.22381405500056,37.724744167439276],[13.223629292010886,37.72488434965503],[13.222441442362932,37.725413447962886],[13.222302715760057,37.72547523998807],[13.221689732235989,37.7256516439349],[13.221613292090112,37.72567356245037],[13.221572469347603,37.72568526717661],[13.221042030717877,37.72583736318686],[13.220811005730653,37.72587902493467],[13.220690146163427,37.725900820237506],[13.220521068760059,37.72593131002089],[13.220128904779326,37.72600202956858],[13.220010019199199,37.72602346786025],[13.219488265119924,37.72611755295777],[13.219389869265804,37.72613529707828],[13.219335704329456,37.72614526548239],[13.218842787699687,37.7262359854033],[13.21854109262619,37.72616827154543],[13.218435967385089,37.726143728864834],[13.2183676134875,37.726128228855806],[13.21795102707895,37.72603375545653],[13.217692310670085,37.72605252391654],[13.217302589630705,37.72608079399304],[13.217038025025705,37.72609998587597],[13.216891092138502,37.726110643874165],[13.216784361803281,37.72611838570657],[13.2167235779331,37.72612279489096],[13.21582924791913,37.72647068874123],[13.215544040633741,37.726581633242084],[13.21492434755602,37.72667713777015],[13.214809420795701,37.726694849599426],[13.214097394250606,37.726804578081904],[13.212853973789796,37.72678598409009],[13.21272179083489,37.72678400681869],[13.212269618836846,37.72677724054285],[13.212101252741876,37.72677472120405],[13.211938426315891,37.726774140742926],[13.21187883080827,37.72677392745495],[13.211790561648854,37.72677361271888],[13.211167644627006,37.72677138785276],[13.21107977804968,37.726771073486],[13.211029820229593,37.726770894978046],[13.210739763056766,37.72676985686079],[13.210532413049918,37.72676062195063],[13.209964303684771,37.72674141374407],[13.209820093201223,37.7267392329876],[13.209396956175222,37.72672497855401],[13.209318802510957,37.72672286526656],[13.208953396475561,37.726722939905045],[13.208829881335449,37.72672371154976],[13.208571052860064,37.72672301658218],[13.20848833758555,37.726723033049076],[13.208209121126858,37.72672308714019],[13.20813068400814,37.72672083457709],[13.208116305498796,37.7266768758187],[13.207962533048232,37.72620673621057],[13.207819917179116,37.72589956511346],[13.207789762407714,37.72583461083819],[13.207713250322257,37.72582330898108],[13.207205785395896,37.72574834493976],[13.206353889960534,37.72562249370957],[13.20531207284366,37.72553587808934],[13.204785698639638,37.725239436715505],[13.204185534524594,37.72471594937574],[13.203263334891865,37.724046499708265],[13.20323639301988,37.72403172194459],[13.203078891409517,37.72394906793773],[13.203050604360014,37.72393422378299],[13.202464719194701,37.72362675453321],[13.202030268607293,37.723313513824266],[13.201880892304082,37.722976382169335],[13.201849706647481,37.72290599923877],[13.20183816904833,37.722879957954206],[13.20169632579376,37.72255982834404],[13.201615453425386,37.72232537429422],[13.201558978343362,37.72216165635939],[13.201485304463409,37.72210902933531],[13.201396523632713,37.722045609644596],[13.20136050269014,37.72201987764073],[13.201330435247717,37.721998398850175],[13.201234753545997,37.721930049859104],[13.201183512468456,37.72193042359224],[13.200758691133721,37.72193352362494],[13.200170066229397,37.722008297686166],[13.199603297361092,37.7220802937644],[13.19942738302762,37.722102639294896],[13.198505684992337,37.72219632662693],[13.19723027054539,37.72240170137249],[13.197164260554539,37.72242416336872],[13.197122817959993,37.72243826593993],[13.196815679313849,37.72254278030145],[13.196269288794962,37.72272870271721],[13.196207713949347,37.722735609106394],[13.195931889626735,37.722766546969936],[13.195490128523101,37.72281609404179],[13.195417640885214,37.72282262976553],[13.194816643019804,37.723221847596676],[13.194997756593041,37.72369277317635],[13.19481258436772,37.72385249844753],[13.194830164979622,37.72452740679414],[13.194909754944925,37.72466827893408],[13.194978486581812,37.72478993207598],[13.195098189559117,37.725001802959234],[13.195127387732427,37.725053482216936],[13.195210527117274,37.72520063441907],[13.195203116768496,37.725317297945644],[13.195198026095682,37.725371439854975],[13.195197413293908,37.72540707353026],[13.195172993897959,37.72577948631522],[13.194859499690251,37.72623026262412],[13.194649027687142,37.72651816880033],[13.194336247170664,37.726699271130606],[13.19409413389714,37.72683655145181],[13.193885745879792,37.72695470589992],[13.19354165962187,37.7270937989281],[13.1933325566927,37.727178325129174],[13.193150533236258,37.72725802105545],[13.193113003265125,37.72738253478886],[13.19307727806851,37.727501056552114],[13.192955042588983,37.72790660893212],[13.192895328140409,37.72852251924858],[13.192897086151312,37.72858101074605],[13.19291392187073,37.728844988051726],[13.192928721977374,37.72907705864557],[13.192943715497425,37.7293121289493],[13.192908125818908,37.72949297760338],[13.19286606446193,37.72970670350863],[13.192490392917687,37.73023349557022],[13.19166180301915,37.73086057988458],[13.191583832536592,37.730969634380564],[13.191377632177904,37.731258030652754],[13.191222961136619,37.73147435922894],[13.191154154827519,37.73159158176901],[13.190941419021927,37.731969825682626],[13.190897581743213,37.732028703524904],[13.19077926549009,37.732230296207],[13.190761295850574,37.73226091312035],[13.19068859385261,37.73235777101172],[13.190386184574699,37.73276065465973],[13.190357135268348,37.73295183344041],[13.1903274661602,37.73314710194858],[13.190264748375292,37.733559864821345],[13.190267558408417,37.7335995938004],[13.190287398321995,37.73388005680168],[13.190306854117706,37.73415507779312],[13.189974721706692,37.73460024867634],[13.189908183038643,37.734689433201574],[13.189918125944919,37.73496311044951],[13.189921456816924,37.73505477636042],[13.189934903255974,37.735441955873895],[13.189932574083652,37.73562238324768],[13.189930882846571,37.735753521092285],[13.189922276855349,37.73642057464013],[13.189597170478285,37.73677666073806],[13.189477312200005,37.73686789934654],[13.189248372568102,37.737042173356485],[13.189011741389441,37.73722230164306],[13.188977466939878,37.73724839258161],[13.188877669748198,37.737324359847385],[13.188660525225595,37.737581082048735],[13.188597133468418,37.73765728706337],[13.188312233174617,37.737999768937016],[13.188259830587045,37.73806276173725],[13.187928646127078,37.73815530932356],[13.18785057188742,37.73817712577068],[13.187345629830483,37.738318227633044],[13.187247036760139,37.73841263446139],[13.18688158284975,37.73876257419984],[13.186782380329449,37.73889199363689],[13.186601844317828,37.73912752078437],[13.186540881439267,37.73920705117663],[13.186288955443644,37.73924712366358],[13.186233264997172,37.73925598203084],[13.18617623680149,37.73926505279754],[13.185924011780118,37.73938538598716],[13.185727840285594,37.73947897727912],[13.185662189486626,37.73961816588081],[13.18563942885578,37.73967366025376],[13.185551109483814,37.73988900519047],[13.185487466942774,37.74004418306628],[13.185475395151062,37.7400736184712],[13.1850506170393,37.74028463230485],[13.184882487766279,37.74028994564478],[13.184840276540077,37.74029127940445],[13.184646872740835,37.740297390438194],[13.184498691862698,37.7403020730375],[13.18415667287637,37.74034901725487],[13.1839134765689,37.740383623080334],[13.183815333894401,37.74067984264132],[13.183885483580806,37.74104535607804],[13.183928348598375,37.74126869304097],[13.183936809884134,37.741312782535495],[13.183939066724802,37.741445458149066],[13.18393966917028,37.74148086399096],[13.183942134162056,37.741625779340666],[13.18394396046392,37.74173315722263],[13.183945691260554,37.74183487835213],[13.183920779621548,37.74193189481393],[13.18386154650481,37.74216256058502],[13.183795715448241,37.74241892079415],[13.183792891048212,37.742450601495875],[13.183757306790453,37.74284975605901],[13.183748389836072,37.742949783231374],[13.183417562473698,37.74339770002829],[13.183289184637784,37.74349187111872],[13.183061710111842,37.74365873627883],[13.183063193064456,37.74378518931099],[13.183063692932235,37.74382777397268],[13.183065434048698,37.74397610721354],[13.1830967256494,37.744014089741434],[13.183159363439032,37.744090115879374],[13.183380268754323,37.74435891370789],[13.183502451778152,37.74446617539988],[13.183575330317062,37.74453179230394],[13.183603964843819,37.744547427631794],[13.183760829936944,37.744698804572394],[13.183849340759924,37.74477490109996],[13.184046119836927,37.74487282082777],[13.184267965446637,37.744983212814205],[13.184346213158085,37.745022148893355],[13.18442833257415,37.74506332153126],[13.184904858685144,37.745329319326906],[13.18493507496684,37.74539693463022],[13.185066320111508,37.745690628181656],[13.18501238228519,37.74604157600758],[13.184798862147789,37.74641620443883],[13.185061807224393,37.746574376378895],[13.185413838439818,37.746786135924644],[13.185591722102343,37.74682461709278],[13.185876667203543,37.74688452015817],[13.186151151676455,37.746856270777755],[13.186411660364657,37.746829458393755],[13.186594737375874,37.74723289173473],[13.18675037535473,37.747424335227684],[13.186881085116374,37.74758511598104],[13.187014175012823,37.74767651389614],[13.187417277345777,37.74795333909761],[13.18764382680336,37.74842490681476],[13.187711107038586,37.74891339664976],[13.18774702963931,37.74893488919554],[13.18780152755935,37.7489674947987],[13.187852107827405,37.748997756531615],[13.18797778208658,37.74907294660628],[13.188158706209974,37.74918119168362],[13.188551728348227,37.74919278464863],[13.18885039663674,37.749201594496945],[13.189119240974037,37.74919868784141],[13.189228792525494,37.74919750284158],[13.189566350978604,37.74919385084762],[13.189614684337029,37.74922325866089],[13.189833408124574,37.74939628871387],[13.19057493600897,37.74969638455668],[13.191006847207651,37.75011412159269],[13.191072636111818,37.75018411856425],[13.19110706761439,37.75021786071928],[13.191064178414672,37.75048300885824],[13.191060389318556,37.75050930527588],[13.19105505576686,37.7505394667603],[13.191194832006339,37.75065342682351],[13.19130168153693,37.75074054008473],[13.191466550189434,37.7508749565828],[13.191711329011582,37.751074521226094],[13.192013061222168,37.75123264951782],[13.192440448965687,37.75139306832149],[13.193139953351341,37.75156404288144],[13.193818260730074,37.75171099537318],[13.194311805081025,37.751925346622635],[13.194785591720393,37.752041307487055],[13.195221548112935,37.75202405145247],[13.195443381946104,37.7520152709239],[13.19547720009989,37.75201393255049],[13.195933032835347,37.75199588851093],[13.196147708914816,37.7519838698392],[13.196334170764434,37.751973429975976],[13.196689531425053,37.75195353343731],[13.196748546918101,37.751950229433604],[13.196820004848092,37.751946228452944],[13.197384947097191,37.752134873794155],[13.197858697856368,37.75215912206278],[13.19803718999674,37.75218218326043],[13.198205431672804,37.75220392111187],[13.198363910714207,37.75222439661596],[13.198459803768342,37.752236784929956],[13.198650773002473,37.752261458066656],[13.198719401403713,37.75225638686773],[13.198776725055719,37.7522521514264],[13.19893214833874,37.75224066782783],[13.199093469543552,37.75222874653791],[13.199307868887097,37.75221290299043],[13.199498186425588,37.75219653064463],[13.199699328429746,37.752183224049055],[13.199947763054793,37.75216561585066],[13.20080353050922,37.751952681055855],[13.200898449208774,37.75195077083668],[13.201814824853903,37.751932320154204],[13.202320481855475,37.75199758244187],[13.203422306359876,37.7520730492814],[13.20412921670787,37.751948713366446],[13.204951113034376,37.75176396514226],[13.206262379862974,37.75150768482733],[13.206586534179754,37.75141406325298],[13.207428012529856,37.75117102578272],[13.208670502533414,37.75096445709496],[13.209687525315605,37.7511329748029],[13.210869175663829,37.75156581316152],[13.211638197375084,37.75197138134582],[13.211844773681827,37.75208032420577],[13.211888754599924,37.75210351843164],[13.212014707000765,37.75219937405063],[13.212238623045472,37.752369783460374],[13.212422499257713,37.75250972004154],[13.212903237221097,37.75287557460856],[13.213136479391803,37.753574275713],[13.21313644847106,37.75367817332364],[13.21313640551046,37.753828707652524],[13.21313639517994,37.753864311459985],[13.213136345321107,37.75403363493516],[13.213127603280055,37.75410346693828],[13.213111900845513,37.754228903405775],[13.213081027677617,37.754475538347585],[13.213051967785233,37.75470768520707],[13.213214417323176,37.755557545207715],[13.213227917891308,37.755854604544496],[13.213235301721772,37.7560170397132],[13.21324206394567,37.7561658369093],[13.213251302681602,37.75636910526948],[13.213317934895414,37.75655053665612],[13.213464347804226,37.75694919831929],[13.21377976593353,37.75752110520137],[13.213342900403738,37.75818075643367],[13.21329475155342,37.7583371631882],[13.21320762096181,37.75862020039347],[13.213193661496435,37.758746783182865],[13.213176632252434,37.7589012242068],[13.213146477824282,37.75917467014953],[13.213135987889101,37.75926980994931],[13.212784255424637,37.75970494466096],[13.212772747696413,37.759838949766944],[13.212770376153752,37.75986655961382],[13.212722379015391,37.76042548623484],[13.21220724949671,37.76105641046388],[13.2123932866563,37.76113526464526],[13.21242290697977,37.761147820099715],[13.212484414176657,37.76118119313777],[13.213042668687635,37.760978254847345],[13.21310695271951,37.76095437240849],[13.213460392856472,37.76082862113809],[13.213838817343115,37.760693980960035],[13.214467265972305,37.7605228631845],[13.215184701549763,37.76044535868283],[13.216201498396563,37.76063184577854],[13.2162088860128,37.76032533407892],[13.216260506712251,37.760073534318025],[13.216525616576384,37.75989740498899],[13.216807466236146,37.759674255912024],[13.21683840039111,37.75964976456936],[13.21722824454149,37.759484915998115],[13.217430959852065,37.75961026253012],[13.217630961919916,37.75973393066393],[13.217738593950372,37.759671047196726],[13.21787321970004,37.75959239349462],[13.217912885627214,37.75954725612221],[13.218057298635786,37.75938292770296],[13.218083670813916,37.75935291972185],[13.218131614988236,37.75935097906487],[13.218571081073893,37.75933319139384],[13.218812853976356,37.75922759374826],[13.21899671686065,37.75914728924434],[13.219053028808453,37.759122694239046],[13.21917399039524,37.759069860774865],[13.219329363991779,37.759001999459194],[13.219681275772766,37.758858580278726],[13.22026837810962,37.758619308954145],[13.220609924543234,37.75855477576609],[13.221133863549754,37.7584557814697],[13.221283467114821,37.75842751459062],[13.22153291335652,37.758461804883105],[13.222244667438785,37.758559644592424],[13.223190179763085,37.75858114242067],[13.223270053263015,37.75858295871087],[13.223440261255679,37.75858682624836],[13.223550317489261,37.758589328645314],[13.22360742478604,37.75858154083083],[13.224191457201284,37.758501904208636],[13.22433481957265,37.7584823557674],[13.2245247186968,37.75844814686018],[13.224723467656423,37.758412341725126],[13.2248081530857,37.75839708593024],[13.224974906173747,37.75836704557196],[13.225363081582751,37.75818096824365],[13.225685810648862,37.75802626232182],[13.225888875685989,37.75800188334858],[13.22622101877962,37.75796200804584],[13.22630561545613,37.757983706914075],[13.226489002430862,37.75803074500286],[13.226660980017382,37.75807485649064],[13.226706106139508,37.758086431473636],[13.226741821544058,37.75812461466982],[13.22700502686451,37.75840600680199],[13.227082346789603,37.75848866900443],[13.227136208644387,37.75854625163184],[13.227193130758405,37.75860710553258],[13.22721661304349,37.758633800042965],[13.227546444505528,37.75900873403817],[13.227668056283072,37.75907140892874],[13.227815962702103,37.75914763381823],[13.227883865614697,37.75908667614965],[13.228082414998559,37.758908436958635],[13.228244994134222,37.758965564022944],[13.228579925422743,37.7590832536466],[13.228779878410766,37.75915351363613],[13.228845240550822,37.75903984357125],[13.228991802963902,37.75878495143385],[13.229008773220269,37.758755438511606],[13.22907733120769,37.758636209556215],[13.229114679848918,37.758638474235255],[13.229170496220638,37.758641859293],[13.229360718661697,37.75865339600148],[13.22945855362244,37.75865932977141],[13.230053065462766,37.75911002561342],[13.230482407773543,37.75967553671112],[13.230971024730763,37.76012408554366],[13.231160877594604,37.76016337074461],[13.231226773849137,37.760177007094455],[13.231536427887374,37.76024108178915],[13.232379672410243,37.76008241369144],[13.232844395296262,37.76008819811243],[13.233006779698163,37.76014256204201],[13.233239124107838,37.760220346822805],[13.23353179924077,37.76005428110446],[13.233641638025537,37.75999195692408],[13.234108532196307,37.759936895543596],[13.234752980380772,37.76021012939999],[13.234793846089886,37.7602274560695],[13.235434070415957,37.76052415651624],[13.235872337218158,37.76071102732849],[13.236798620027141,37.76112511528901],[13.236878164540798,37.76116067545137],[13.23692154555618,37.76119368934363],[13.236888835540865,37.76129216001916],[13.236690487575165,37.762111431550515],[13.236384398031166,37.76235000518737],[13.236202719107922,37.76249160883739],[13.236054399576778,37.76260721178266],[13.235454860624344,37.76292652847139],[13.2352824948445,37.76301832859763],[13.235247164993252,37.76303714457131],[13.235215537000034,37.76305399071437],[13.235035314476777,37.763170908560525],[13.234677069884876,37.763403313183616],[13.23429314602841,37.76365237555711],[13.23380234236559,37.764221734539376],[13.23386592670684,37.76432967193103],[13.233889476335856,37.764369647102576],[13.234392069889363,37.765222804591836],[13.234619831759893,37.765810667669804],[13.234841207057826,37.766382037584435],[13.234755076515105,37.76654135338673],[13.23472995455701,37.76658782275666],[13.23459543796159,37.766836642553024],[13.234422246985753,37.76715699157517],[13.234387956613588,37.76722041977755],[13.23431821794839,37.76734941378268],[13.234222929574564,37.76752566612867],[13.23419562083052,37.76766438709162],[13.234056400397394,37.768371578065995],[13.233817570056745,37.76976499754647],[13.233310414070077,37.77109152177313],[13.232833978290936,37.77197559200596],[13.232715638931353,37.7720672632108],[13.232613076072623,37.77214671235215],[13.232588003044189,37.772166134016814],[13.232409036337714,37.772304768773246],[13.232162050597568,37.7724960929825],[13.232108989774304,37.77253719548825],[13.231872529813414,37.77272221014695],[13.231837692730213,37.772754001988815],[13.231306631792242,37.773238633240815],[13.23128056487027,37.77326242189755],[13.230990814680613,37.77352683524527],[13.23093626988602,37.77357661220347],[13.230901894664312,37.773607980951525],[13.230691448518682,37.773800025312575],[13.230168561423557,37.77472855086846],[13.229624315513728,37.77563080042777],[13.22899832535392,37.776243677266116],[13.228887272041279,37.77635240259949],[13.228850221952529,37.776388675841176],[13.228707465960532,37.77652844072785],[13.228687393184291,37.776549324733665],[13.228645254182926,37.77659316757795],[13.228467921531553,37.77677767046629],[13.228427940714893,37.77681926764633],[13.22819870680586,37.777057768066996],[13.228144623520137,37.77711403844805],[13.228088243402567,37.77717269628226],[13.227716625425401,37.77755933296961],[13.227155127543053,37.77846857908464],[13.227126436977391,37.77851503923586],[13.227046133048788,37.77866414267989],[13.227002220424218,37.778745680323695],[13.226746782718893,37.779219961593334],[13.226333609599664,37.78004654986319],[13.226191994094814,37.78032986192792],[13.226162771365058,37.78038832221677],[13.226063810323653,37.7804232181394],[13.225981371492948,37.78044996069285],[13.225319928643147,37.78066452422932],[13.225229336432111,37.780693910920235],[13.225154120462134,37.780718309193574],[13.224708137113932,37.78081150299368],[13.223865837184434,37.78098750738539],[13.22374732948216,37.78102546140659],[13.222896657399584,37.781297895023556],[13.2228126314137,37.781324804066294],[13.22190795778163,37.78167928220621],[13.221745465293308,37.78176533115854],[13.22170738246523,37.78178549861895],[13.221156174629353,37.78207739306847],[13.22103216351722,37.78214306312109],[13.220903717310614,37.78220859677682],[13.220612869714103,37.78235698775291],[13.220293283682857,37.782520039674935],[13.220101665581254,37.78261780402509],[13.219522844740814,37.78307765102688],[13.219061352106229,37.78335767777358],[13.21883651961329,37.78343749689211],[13.21874747200516,37.78346984067708],[13.2181582380889,37.783678296187475],[13.217736681160853,37.78365673453274],[13.21741119764763,37.78364008592074],[13.217263983824552,37.78363255556517],[13.2171536886888,37.78362691322746],[13.216020399651752,37.78332935317173],[13.215490539850073,37.783143802587226],[13.215436880093193,37.78312873748023],[13.215345195936843,37.783092903758636],[13.214896060899315,37.78293561823403],[13.21485769115901,37.78292218104036],[13.21476245472108,37.782888829508764],[13.214567994034455,37.78282072798459],[13.213927182954176,37.78272431265352],[13.21329876081764,37.782629757598585],[13.213147919145749,37.782630715079],[13.212571588700172,37.78263437005739],[13.212004360882814,37.78263796463526],[13.21176791683181,37.782639462937965],[13.211509517388981,37.78264109930995],[13.21108842866407,37.782643764663206],[13.210869902194393,37.782645148358775],[13.210831832900924,37.782645389004465],[13.210778139546292,37.782645725125235],[13.210300904978855,37.78261759552638],[13.21007455992919,37.78260425263292],[13.209904396613997,37.7825942206978],[13.2097315654597,37.78258403270204],[13.209528128648158,37.78257203953613],[13.208544185652725,37.78251402875798],[13.206839138620548,37.78264032759038],[13.205871279045413,37.782679388022544],[13.20583107291791,37.782681012191325],[13.205372855692287,37.78269951587515],[13.20492292616929,37.78268724579633],[13.204630071936739,37.782679260468115],[13.204060238789417,37.78265613954759],[13.203928590720544,37.782653797837256],[13.203486624977122,37.7825280528167],[13.203086158856536,37.78241195684708],[13.20290949881281,37.782357221892205],[13.202562862281248,37.78224982449268],[13.2023331880178,37.78217775078654],[13.202049395808652,37.78209099185351],[13.202015726387858,37.78213655226687],[13.201913550269463,37.78227481720048],[13.201885325531494,37.782313008868186],[13.20111054112147,37.782345188002246],[13.201030311904045,37.78232372348092],[13.20096716869552,37.7823068304629],[13.200631826151469,37.78221711296325],[13.200574910376895,37.78220188522274],[13.20050472529059,37.78218310694217],[13.200368014032872,37.782146531069394],[13.19958797978974,37.78144930647391],[13.199298733047312,37.78141191459364],[13.198796262612086,37.781346989715736],[13.198254429206154,37.78144461309438],[13.197850413283982,37.78151740320935],[13.197689768843638,37.78154634348771],[13.196627489569696,37.78164661305502],[13.196462099152903,37.78166222375356],[13.196065197015187,37.78173730209562],[13.196030892120675,37.78174379150951],[13.195892410247986,37.78176998504843],[13.195229790525364,37.78189531664828],[13.19449456572408,37.78192315503708],[13.194205738709528,37.78193409062381],[13.193103694027924,37.78182477843499],[13.193013138376871,37.78165757368565],[13.192932606037978,37.7815088743837],[13.192884380594366,37.78147996639877],[13.19233861836602,37.78115282206232],[13.192305867996064,37.78112866207613],[13.192011063185307,37.780896233840124],[13.191924569520623,37.78082803988737],[13.191584679467024,37.78056006176462],[13.1915536675833,37.78053560991827],[13.191294200297499,37.780331035294964],[13.190832227739449,37.78015664198616],[13.190371384356531,37.77998267224409],[13.190299673770504,37.779955601417925],[13.190100553924925,37.779880432250124],[13.189948953554648,37.779859910884994],[13.189715528123527,37.77982831310002],[13.189405005376987,37.77978627795556],[13.18912709126606,37.77974865697707],[13.18887991611822,37.77971971703904],[13.188668874932198,37.779795820654826],[13.18737861187575,37.78026109518127],[13.187029491595865,37.780466065885115],[13.186557049120811,37.78074343579602],[13.186479298732962,37.7807890819617],[13.186386741760876,37.780568431135165],[13.186339345595613,37.780455442857075],[13.186136573285843,37.779972031021124],[13.186484939215696,37.77915799757411],[13.186716872483967,37.77853050794644],[13.186677895244294,37.77831162506465],[13.186598409906871,37.77786524699119],[13.186576617353484,37.77774286806056],[13.186576163017808,37.77769547751891],[13.186572984246459,37.77736469392574],[13.186634060094171,37.77732475736267],[13.186733322850012,37.77725985097191],[13.186977215795814,37.777100371029185],[13.186955954314481,37.77695180644235],[13.186939699955303,37.77683823494292],[13.186906807058737,37.77682247223693],[13.186668533389192,37.77670828249676],[13.186233898392398,37.77683633188948],[13.185655001069287,37.77690873178026],[13.185086776032167,37.776404292285505],[13.185018587385526,37.77596311335035],[13.185016828464974,37.77592905301979],[13.184988293063913,37.77537646356642],[13.184856418537155,37.774698870015754],[13.18444054463324,37.77455603865626],[13.183967815615762,37.774322902359486],[13.183937753369966,37.77404090735818],[13.1839229107682,37.77390168927522],[13.184251122513027,37.77349430351265],[13.184292174408816,37.773443739504096],[13.184355597584197,37.773365618354205],[13.184237019534363,37.77324450102719],[13.184078650043533,37.77308274067191],[13.183950871305845,37.77300552269719],[13.183645755398233,37.77282113812126],[13.18358597416773,37.77278501155177],[13.183362162063071,37.77283774803237],[13.1831144533182,37.772896114929445],[13.182753097910345,37.77298125940129],[13.1817970598397,37.772641467440785],[13.180931388925265,37.77229393576024],[13.180016565869737,37.772080997088906],[13.17924745351876,37.7719619520843],[13.179080037300865,37.77138243909918],[13.179135800822626,37.771332273815894],[13.179473540817332,37.771028449174096],[13.18009995582281,37.77095664312219],[13.180368801100554,37.77068138334555],[13.180559827738355,37.77023323870806],[13.180771160751453,37.76951641703719],[13.180486298565791,37.76910545841196],[13.180342535741884,37.76901344153786],[13.179883016412603,37.76871931831678],[13.179683542021312,37.76854226492345],[13.179469476235267,37.76835226107387],[13.17943251172639,37.76830286547783],[13.179492240684162,37.76818028967173],[13.179678523984332,37.76779799656069],[13.179761841848087,37.76762700630924],[13.179789883864492,37.76751290884783],[13.179900859479964,37.767061362169315],[13.17968587357646,37.76684196557641],[13.179158758353047,37.766304028064795],[13.179023615234385,37.7661661076452],[13.178988556330367,37.76614310291995],[13.178892749998166,37.76612896745032],[13.178713251672646,37.766102504246525],[13.178597019769953,37.76608536869458],[13.178094122513835,37.7666110967996],[13.177887048162416,37.76680694477429],[13.177832222712626,37.766858796487156],[13.177767200247718,37.766920294073216],[13.177677392697623,37.76700523135545],[13.177130655637393,37.76752231539061],[13.176948272735263,37.767630798439704],[13.176872156933856,37.76767607289978],[13.176818889751907,37.76770775657445],[13.176724255006818,37.76776404590379],[13.176128178823676,37.76811859517108],[13.175631843858802,37.76891307894114],[13.17538004574441,37.76912300242799],[13.17529440500511,37.769194399929994],[13.17487860644151,37.76954104823167],[13.173832227822162,37.77002716316157],[13.173400302597516,37.770227816348815],[13.173278260433923,37.77028451152046],[13.173225502744927,37.77030902020164],[13.172260897731396,37.77073504606994],[13.172059451748218,37.770779001688005],[13.171176399512515,37.770971679513636],[13.17039435621521,37.77119683664684],[13.170079318003738,37.771287536508794],[13.169440558742615,37.771846112332966],[13.169023616337162,37.77201757302714],[13.168853047468563,37.77208771461219],[13.168772708310755,37.77212075231133],[13.168260082190809,37.772331556441166],[13.167251019205716,37.77268706401001],[13.166335128003237,37.77271339199391],[13.166245107271527,37.772715980469705],[13.166051169256122,37.772708954535126],[13.165744109072486,37.77269728109227],[13.165411916426184,37.77268465211054],[13.164847364753248,37.77261759919544],[13.164710803517977,37.77260137877135],[13.164648471364343,37.772586213275304],[13.163717106099153,37.772359598555916],[13.162867486366896,37.77228305220446],[13.162460353143674,37.77232717352761],[13.162259371590492,37.772348573384335],[13.161980608283175,37.77237825540367],[13.161131247962858,37.77269878578373],[13.160781200070312,37.77290338414297],[13.16073882348554,37.77292815245185],[13.160651864052367,37.77297897854036],[13.16053754582428,37.77304579456925],[13.160245425321676,37.77321652251552],[13.159482073205321,37.773313321889454],[13.159016147702172,37.77346422179553],[13.158856378868755,37.77351596529667],[13.158795254192082,37.77353576170216],[13.158509112605737,37.77364110905065],[13.158271094051162,37.77372873872253],[13.157969777081869,37.773839670720534],[13.156867771699405,37.77386734868217],[13.155482088220326,37.77384425578053],[13.154955930236659,37.77375278701412],[13.154644042699804,37.773698565840455],[13.154186647863844,37.77361684727358],[13.154129432697642,37.773609099402165],[13.154016510915579,37.773593793499295],[13.152778906190749,37.77343306063414],[13.151307976345088,37.77329357619948],[13.150774317723004,37.77334468481683],[13.150268128446722,37.77339316001082],[13.1500908805291,37.77341013306515],[13.149781421940833,37.773439766673484],[13.149641529499203,37.77349436975855],[13.149332652370369,37.773614929419736],[13.149282121679445,37.77363465257794],[13.148360706167226,37.773994289671805],[13.147975209473547,37.77443122043068],[13.147660870002642,37.77520117169091],[13.14756601845627,37.77534607870072],[13.147043473222794,37.776144388035306],[13.147002762244906,37.776241362107235],[13.146683977555227,37.77705958395446],[13.146347146522123,37.77782130414825],[13.145957222965288,37.7782033592034],[13.145934584878843,37.77822554048596],[13.14582266810041,37.77833519946991],[13.145538973168621,37.77841880403256],[13.145380596663914,37.778465476054905],[13.144822385474015,37.778629976546206],[13.144633677905913,37.77868558784265],[13.144262819633589,37.778770300565],[13.144140609635992,37.77879821620565],[13.143466021746297,37.77895230406656],[13.142679401917222,37.779073313652006],[13.142578376955544,37.77908876124152],[13.142442343952576,37.7791095624673],[13.141447731031356,37.779163717621635],[13.14140774385803,37.77916589471502],[13.141271355430424,37.779173319507564],[13.141206081564649,37.77915279298401],[13.140873694296898,37.77904529962876],[13.140831459910732,37.77903498229714],[13.140550118108836,37.778946505189076],[13.14030072566873,37.778945946638956],[13.139948578353412,37.77894515525513],[13.13973850649147,37.779038985706215],[13.139654735504614,37.77907640134569],[13.139184900730614,37.779286253397146],[13.139111233735774,37.779319156224965],[13.138626628418812,37.779450055002386],[13.138229434537614,37.77955734080465],[13.138205300961843,37.779577767294604],[13.138064666563903,37.77969679278101],[13.137776851481846,37.77994038788571],[13.137696430748788,37.78000844979052],[13.137354841755368,37.780509106263374],[13.13708261093768,37.780665926127725],[13.136995063651574,37.78071635685382],[13.136523469308488,37.78098801665036],[13.136445311203877,37.781033039354845],[13.136214110593434,37.7811662194053],[13.135892851602742,37.78128807011118],[13.13559320811182,37.78147109179358],[13.135343407098526,37.781623668445086],[13.135247765468131,37.78168208556899],[13.13501085399809,37.78194192996529],[13.134806252918633,37.78216633454764],[13.134721728718274,37.78225903965071],[13.134626850157494,37.7824057933589],[13.1343289085733,37.78286662975341],[13.134281939245911,37.782939278373],[13.134155635196189,37.78313463473139],[13.134042552085424,37.78332705918707],[13.133882541618188,37.78359933552215],[13.133715122921748,37.78388421208131],[13.13348946357751,37.78413585603249],[13.133386349670692,37.78425084917752],[13.133234934597,37.78441675209754],[13.133270945726027,37.784683104059916],[13.133313275004381,37.78502199174662],[13.133322980473812,37.78546299281477],[13.133128783618474,37.78597422938465],[13.133021836486723,37.78609567381545],[13.132771520271461,37.78637992215283],[13.13267461468462,37.786489962346806],[13.132620902400461,37.78654771944175],[13.13259420024069,37.78657642908704],[13.132196003899713,37.78700455813003],[13.131908431960781,37.787279570492984],[13.13150910182183,37.7876614556029],[13.131139986834125,37.7878592568666],[13.130993350142665,37.78793783503606],[13.13072665191645,37.788080750075665],[13.13060128160291,37.788167365780524],[13.130245552480824,37.78841313039577],[13.130101672910227,37.78851253386303],[13.130061311926529,37.788587458337624],[13.12999224096704,37.78871567591056],[13.129905460244423,37.78887676882884],[13.129778964570365,37.789111584330264],[13.129586134303855,37.78933834596263],[13.12953493755091,37.78939854898267],[13.129191365915053,37.78980256997392],[13.129159166331823,37.789840435105745],[13.12899690273772,37.789927122087185],[13.128710720958114,37.79008000963405],[13.128140972215457,37.790238678193354],[13.12797692003038,37.790289682670846],[13.127945874990477,37.79031966425667],[13.127325778137743,37.79099239961826],[13.126510849109536,37.79131374750967],[13.126212536262548,37.79137662714488],[13.126129120299863,37.79139564336852],[13.125677969635799,37.7914893246112],[13.125408963474518,37.79173676112061],[13.125235179471435,37.79189666901956],[13.125139374616383,37.79199204759044],[13.124926420104435,37.79220405207165],[13.124630275108945,37.7924988716749],[13.124601087540121,37.79251699933794],[13.124347108506928,37.792674733614874],[13.124076912835154,37.792842536962596]]]}}]}
