{"type":"FeatureCollection","metadata":{"code":"082046","referenceDate":"2026-01-01","sourceDbfExportDate":"2026-02-18","upstreamArchiveUrl":"https://www.istat.it/storage/cartografia/confini_amministrativi/non_generalizzati/2026/Limiti01012026.zip","sourceManifestSha256":"70ac8256c4785dc6ed2814c32b6965ae76f9161b51abaa1660059e1c6cbd8ca6","license":"https://creativecommons.org/licenses/by/4.0/","attribution":"Istat, Confini delle unità amministrative a fini statistici al 1° gennaio 2026, versione non generalizzata.","modifications":["Converted from WGS 84 / UTM zone 32N (EPSG:32632) to RFC 7946 WGS 84 geographic coordinates.","Converted from shapefile to per-municipality GeoJSON without geometry simplification."]},"features":[{"type":"Feature","id":"082046","properties":{"code":"082046","name":"Marineo","alternativeName":null,"regionCode":"19","regionName":"Sicilia","territorialUnitCode":"282","territorialUnitName":"Palermo"},"geometry":{"type":"Polygon","coordinates":[[[13.374823218943025,37.9876706125802],[13.374510228816229,37.987732486085875],[13.374470172692398,37.987740404017785],[13.374028032054582,37.987827806614135],[13.373948336336106,37.987841714534476],[13.373898429984214,37.98785042260024],[13.373575945485655,37.987906696787505],[13.373384595819658,37.98794008695993],[13.372871042951475,37.9880297007817],[13.372261826552114,37.9880665693978],[13.371646284212673,37.98777419371438],[13.371382696334884,37.987648989112145],[13.370545848855206,37.987414464291305],[13.369100334606511,37.98737368750901],[13.367873034759958,37.98725726336572],[13.366956990123631,37.986994118282155],[13.366460258495996,37.98660801736024],[13.366372661784974,37.98653992482759],[13.366106170802814,37.98633277176609],[13.366050267660956,37.9862893156579],[13.365987168107266,37.98622943444044],[13.365644422839383,37.985904161067815],[13.36558866177236,37.98585124166717],[13.365538648151556,37.98580377722342],[13.365476820368606,37.98574510032396],[13.36544911361576,37.98571880569641],[13.365396042005315,37.985668438611675],[13.365269454234951,37.98554830074673],[13.36522087371788,37.98550534107862],[13.365193646947768,37.985481263061644],[13.364889875126861,37.985212630306094],[13.364831496107186,37.985161003925676],[13.364800329236768,37.985133442669955],[13.363981765422782,37.984582941620054],[13.363899459915054,37.98454233925335],[13.36260656895083,37.983904545683565],[13.361729246774972,37.98346380486418],[13.361687192230502,37.98344267714277],[13.361504801450394,37.98335104787919],[13.361205419511625,37.98241572496884],[13.361174387037892,37.9823005607894],[13.361080366064241,37.98181727960357],[13.361063039010252,37.981728214328136],[13.360976049227693,37.98128106011696],[13.360962734749831,37.981205064691025],[13.360825448358966,37.98066655445408],[13.360754682900913,37.98038703359388],[13.360730062388521,37.98028978289606],[13.360688600093438,37.98012600844204],[13.36067900460687,37.980088106783285],[13.360667019909483,37.9800407676273],[13.3606242612742,37.97991318012528],[13.360612394368149,37.979877768480804],[13.360446304808614,37.97938216295952],[13.360336110601084,37.979053341610744],[13.360178202863208,37.97846476946847],[13.360197703170215,37.978425646647885],[13.360384948955398,37.978049973425584],[13.36048020083779,37.97785886852353],[13.36069045722202,37.97743702458316],[13.361131490111793,37.97677724221589],[13.361200439117841,37.97667409294596],[13.36145599388914,37.976291779072774],[13.36184619890146,37.975688268618164],[13.362170088059976,37.97518731451314],[13.362201627152725,37.975138527674055],[13.362222668237923,37.975105962623104],[13.362278074568197,37.97511433173876],[13.363538666813051,37.97530473945025],[13.363581551188062,37.975306919300394],[13.364766819207256,37.97536715664057],[13.365530893862008,37.97530348699234],[13.365644967447775,37.97529398087582],[13.365686654731816,37.97526114916769],[13.366224520488439,37.97482658736022],[13.366240560279623,37.97480330154005],[13.366660638744925,37.97419342775302],[13.367070851171743,37.97362877669206],[13.367507640824167,37.97342789178631],[13.368362330299908,37.97340509405421],[13.369103895335584,37.9733054518864],[13.369670289915481,37.972928617901616],[13.370209768011632,37.972397414107554],[13.370240659007559,37.97236699658911],[13.370362857488011,37.97224961754791],[13.37076980586245,37.97185870840399],[13.370834043930614,37.97179700258133],[13.371079504239379,37.97156121381085],[13.371569436626306,37.97100931710063],[13.372028176717992,37.97049254908652],[13.3721171946927,37.970392268023424],[13.372659413120669,37.97006327261585],[13.372694405706621,37.97004204060846],[13.373849844612003,37.96977834114253],[13.37366774414181,37.969262737055324],[13.37351812211336,37.96882700858607],[13.37358557689108,37.967938151284265],[13.373598660211393,37.96776574992599],[13.373393986075492,37.96722812927581],[13.373329878423673,37.96705973529507],[13.37318498281254,37.9666385684195],[13.373049286279384,37.96628663237206],[13.372809766289372,37.965967135247865],[13.372633204893003,37.96573161605442],[13.372564347403108,37.96563976668543],[13.372530362902022,37.96559443428182],[13.37249890759232,37.965550981010885],[13.372148019968085,37.96506625096641],[13.371978050418782,37.964831447100295],[13.371919853096728,37.96476527609784],[13.371534512696012,37.96432714326711],[13.3714564896064,37.96423842915427],[13.371402847109247,37.964170782338506],[13.371187822925934,37.963899617279615],[13.371057613257108,37.96373541105958],[13.371026035647247,37.9636727644532],[13.370946448369738,37.963514861387246],[13.370921309559881,37.963464985904345],[13.370885930119368,37.963394789193764],[13.370821451717859,37.96326685756461],[13.370711737355478,37.963046876884114],[13.370696494206278,37.96301534047512],[13.370677600590852,37.962964994683425],[13.370510499251836,37.96251970406935],[13.370449641754407,37.96235753052658],[13.370807945973905,37.96161466393594],[13.371311886547568,37.96103750971975],[13.371660730190543,37.96015990026389],[13.371921076268666,37.959586337821754],[13.372270806607128,37.95950514680822],[13.372770979134188,37.95938902785258],[13.373763481230297,37.95892860872539],[13.37380535996129,37.95890918069383],[13.375074580838243,37.95863673241909],[13.376078000767222,37.95858131820326],[13.376933756214179,37.95848187567767],[13.37762476365003,37.958180578779206],[13.377656540066516,37.958166723701794],[13.377994282458367,37.95803812732995],[13.378403874716039,37.95788217386795],[13.379123347564184,37.95777429469233],[13.379178351256927,37.957766149516566],[13.3807900416952,37.95752748484901],[13.381327359083775,37.957417369009875],[13.38198995203176,37.95729807417399],[13.382788033707666,37.95669641111598],[13.383710956844796,37.956871228554434],[13.383979524448607,37.95692209823879],[13.384941963456967,37.95716986561082],[13.385855786318057,37.957487860528005],[13.386262555267075,37.95762940535272],[13.38730561537356,37.958346964310294],[13.387808754526098,37.958796504935044],[13.387890743303851,37.95892542134039],[13.388017559389217,37.95912482518665],[13.388043386303945,37.95916543398561],[13.388401827234068,37.95972902464911],[13.388603244943548,37.95996327137164],[13.389290948560234,37.960763045465455],[13.389316571200654,37.96078046356436],[13.39022028270346,37.961394778238926],[13.390263075135088,37.9613958711274],[13.390794102722936,37.961409343581806],[13.39138047721646,37.96141981144376],[13.391622586726932,37.961427892756504],[13.391711726506722,37.96145425122013],[13.39218259573986,37.9615934868694],[13.392706739832127,37.96174847202793],[13.392785239348134,37.961771683678],[13.393618787239904,37.96214577059257],[13.393974992119215,37.96207601794976],[13.394556890180912,37.96196206778849],[13.39498551788383,37.961808032505374],[13.395452055401334,37.961640372748384],[13.39560494128291,37.96168626356146],[13.395638430033893,37.96169631476395],[13.395815132843293,37.96174935463126],[13.39649244071979,37.96195265135192],[13.39693959886101,37.96229344289783],[13.396984089543912,37.962327350524106],[13.397149462970463,37.962453383994585],[13.39717800680247,37.9624751383015],[13.39730465496341,37.96257165848473],[13.397466773349741,37.96269521051573],[13.39796101902892,37.96356752959033],[13.398013923464335,37.96366090293623],[13.398074744509538,37.96376824594687],[13.398233797247784,37.96404895914165],[13.398762514526094,37.96481348157699],[13.39881840392947,37.96489429484313],[13.398874316095785,37.96497514415277],[13.398933866141602,37.965014556208494],[13.398987703498069,37.965050187904374],[13.399336049667356,37.96528073541474],[13.399501276491842,37.965390088102964],[13.399574515293834,37.965438558939844],[13.399750091815301,37.96555476012082],[13.400105544337698,37.96588936519899],[13.400453636882018,37.96621703709505],[13.400575338454413,37.966328245542364],[13.400705044446845,37.96620761410187],[13.401108285290073,37.96583258323851],[13.401960737640259,37.96544937407312],[13.401998236942022,37.9653484396342],[13.402059193767336,37.96518436229031],[13.402189784532984,37.96483285538619],[13.40230543462492,37.96382579130827],[13.402315993118448,37.96373385024526],[13.402595949643649,37.96342164675788],[13.403118129922373,37.962951746392214],[13.403466411511495,37.9626414971775],[13.404213373917218,37.96280257880692],[13.40452733276174,37.9628046894409],[13.404595079458943,37.962801664352604],[13.40472652497387,37.96280134901109],[13.404937401406984,37.9627022952151],[13.405059952683075,37.96264472868818],[13.405155011847821,37.96248670260271],[13.405237711055438,37.96235006125587],[13.405118265999791,37.96203911093135],[13.404588117546885,37.96180683759049],[13.40452670054183,37.96181781566758],[13.40404512680042,37.96190389677634],[13.403990932212366,37.96191358413838],[13.403785019405726,37.9619457293689],[13.403501963563567,37.96198963793357],[13.403331606693369,37.9620160645192],[13.403274793415092,37.961973201660925],[13.403018887728786,37.961780129966435],[13.402933501775399,37.961517649749815],[13.402937125837825,37.961347591842845],[13.402940416557142,37.961193163620365],[13.403911556856007,37.961026130797066],[13.40425440811477,37.960945724159465],[13.404507993712562,37.96078761886147],[13.404533067369508,37.960562054795325],[13.404536645466823,37.960529862123344],[13.404506253275017,37.960498038624664],[13.404291658859282,37.96027335102677],[13.403938233144498,37.96022975455572],[13.403871872421014,37.96022156913382],[13.403720555043035,37.96024737933916],[13.403473832139865,37.960289462048294],[13.403397597885151,37.96030246506094],[13.402996457661216,37.96037088512207],[13.40295290980841,37.96033996432749],[13.40288006252122,37.96028126842675],[13.402767850726159,37.96018640789809],[13.402590443267101,37.95992254502454],[13.402320939272924,37.95952170449444],[13.40229589257891,37.95947036652295],[13.40227163512651,37.95943992635054],[13.402264614961839,37.95940193824777],[13.402226569615836,37.95931870311099],[13.402185283677232,37.95922837618758],[13.402053415634207,37.95893987095002],[13.40203003813446,37.958888723411505],[13.401773678081511,37.95832784197767],[13.401339569948355,37.957644120779236],[13.401107903527523,37.9572688555517],[13.401068066744754,37.95719920040584],[13.400970538872134,37.95704751791817],[13.40093002502241,37.95677433310163],[13.400789003416007,37.9566402076353],[13.40050639141779,37.95637141546418],[13.399982080234576,37.955877700091065],[13.399581091486738,37.955496450928884],[13.399245403789315,37.95522082411514],[13.398785480649773,37.95490030676468],[13.398813399457552,37.95476626777224],[13.398913098315244,37.95428759296989],[13.399076833306953,37.95406530007297],[13.39885700435213,37.95368176233977],[13.398794857984662,37.95339138475357],[13.398805934278995,37.95318759386061],[13.39881619659258,37.952998811214904],[13.39901935767392,37.95252298015732],[13.399138594717899,37.952243708656006],[13.399363406464541,37.951699145480504],[13.399463381412076,37.95145697428538],[13.399470236876613,37.951331102432356],[13.399483040753545,37.95109598622348],[13.399300641685619,37.9505894557832],[13.399297052632305,37.95026682723693],[13.399296736561748,37.95023835161825],[13.399343830487501,37.950060596345814],[13.399420851072046,37.94976988111342],[13.399299790882043,37.94904039392692],[13.39927342568341,37.94884232429524],[13.399263515186867,37.94876786262845],[13.399255283237595,37.94870601828367],[13.399218759871651,37.94843161838672],[13.399133393312084,37.947790239613084],[13.399110204086725,37.94766733781629],[13.398962853030929,37.947077984011074],[13.39888333031647,37.94674585647575],[13.398884075295449,37.94665408774374],[13.398890394072197,37.945876457383875],[13.398820604181758,37.94575431672727],[13.398527637732624,37.94524158943624],[13.398483828236934,37.94517144067821],[13.397946615103507,37.94430866737596],[13.397778212615462,37.94380220749905],[13.397714269426281,37.94360990731404],[13.397580516739193,37.94320764772831],[13.397442404967077,37.94279227652655],[13.397422483411749,37.94273138577949],[13.397415010826386,37.94224086563071],[13.397408775446928,37.94177795533056],[13.397408339524278,37.941745549228465],[13.397407798032457,37.94170531774674],[13.397406337420101,37.94159685336802],[13.397404621971289,37.94146943448724],[13.397730992467874,37.94131766194756],[13.397806449220917,37.94128257317136],[13.397907057451878,37.94123550408785],[13.397964016751985,37.941172535790116],[13.39808536951562,37.941033271211516],[13.398280612841853,37.94080920811296],[13.398431101090459,37.94076901481899],[13.398508432419636,37.94074923936177],[13.398542819663325,37.94074044538518],[13.398607478863454,37.94072391219141],[13.398874756103721,37.94065556945508],[13.399256401227177,37.94055798215819],[13.399370828749557,37.94047797896566],[13.39943016565589,37.94043649233022],[13.39975319410888,37.940210642411465],[13.399831507213948,37.940092957772364],[13.399994927419465,37.939847379844615],[13.400087244317286,37.93970865091644],[13.400153370898222,37.93960927802081],[13.400219620627553,37.93950972304958],[13.400340190523277,37.93932853346591],[13.400525720789203,37.93904469369675],[13.400581140774971,37.93895990696954],[13.400725171471175,37.938739553188014],[13.400883326417192,37.93849759120148],[13.40118496190109,37.93837446642131],[13.40169592692316,37.93816593049063],[13.401820193178384,37.93812003213106],[13.402146007026863,37.93799991378683],[13.402255646885875,37.937959491588195],[13.402342592292316,37.93792743683278],[13.40273198570765,37.93778293248539],[13.40304183277952,37.9374603730499],[13.40321969171246,37.937275213480525],[13.40364121290802,37.93720726432522],[13.403924089173575,37.937161664858614],[13.403984185984095,37.93715197727096],[13.404016465873239,37.93713471813397],[13.404081983030022,37.937099684787356],[13.404249349855233,37.93701019025859],[13.404354179232037,37.936954137514554],[13.404603501051175,37.93682082001534],[13.404651268552342,37.936795278408],[13.404708729924277,37.93676455383978],[13.404808755528917,37.93671579147798],[13.405789517184608,37.93623766785523],[13.406522430795395,37.93609758003693],[13.406922610412574,37.935977332397634],[13.407104696091846,37.935922617508524],[13.407140439078148,37.93591070890621],[13.407851020906786,37.93567394888146],[13.407888646585715,37.93566000328376],[13.408327849647273,37.935497219529786],[13.408675651049956,37.93536830994089],[13.409145031572024,37.935152435724326],[13.409254803394004,37.93510194919043],[13.409549927983386,37.93496621551728],[13.410741811583277,37.93457470728444],[13.411624423044266,37.934435325138764],[13.41217318029986,37.93432225954013],[13.412272799770303,37.93430173422141],[13.412653449354003,37.93422330383437],[13.412684657410358,37.934216873266024],[13.41282594199087,37.934078522332875],[13.413082697142745,37.93382709568753],[13.413148530333238,37.93376262691767],[13.413365594565937,37.9335616060516],[13.413444498324257,37.93348853383933],[13.413716174044048,37.93323693335018],[13.413844546740068,37.933016254146324],[13.41402415754975,37.93270749437389],[13.414091035996439,37.93263284818167],[13.414155242254724,37.93256118445066],[13.414259046410821,37.93244532381184],[13.414424747418717,37.93226037630461],[13.414505045106196,37.9321845509039],[13.415203802574165,37.93213128647277],[13.415551347552896,37.93208512589965],[13.415813389018409,37.932050321088106],[13.416121723378879,37.932115593560425],[13.41639139136163,37.93217267968252],[13.416701064847999,37.93208294013572],[13.417099069702282,37.931974717962994],[13.417247955351975,37.93193431728645],[13.417444900999117,37.93188087589025],[13.417812556269048,37.931868490061554],[13.418291687225672,37.93185234789316],[13.418393614758426,37.93184891309589],[13.418595320458879,37.93184211599675],[13.418662975148385,37.931834577388976],[13.418800423812947,37.93181926105204],[13.418890866085734,37.931809183416554],[13.419449531373226,37.93174692836577],[13.420248370929931,37.93167632115066],[13.420868934585108,37.93189164094158],[13.421640470124451,37.93202920853931],[13.42272767341758,37.93220442605017],[13.423689000977173,37.93246092116944],[13.42406793749775,37.93254102057258],[13.424216780420526,37.93257248290863],[13.424250296974847,37.93257956740153],[13.424349153632907,37.9326004631028],[13.424388620101864,37.93260880585695],[13.424374999838756,37.93258123790855],[13.424140302322204,37.932106175234345],[13.424079315185113,37.932008128703345],[13.423746187328149,37.93147256903501],[13.423491934527005,37.93110837811112],[13.423172089538157,37.93063408583101],[13.422841722322092,37.93007912391289],[13.422728613041972,37.9295565200999],[13.422355319344502,37.92885457897429],[13.421962434667117,37.92815785657133],[13.42195798437096,37.92804279154809],[13.42194051949483,37.92759129463014],[13.42209140861896,37.92689661810435],[13.422045191425166,37.92686077989883],[13.421977247586863,37.92680809001962],[13.421918359868938,37.92676242367738],[13.421749774087548,37.9266316887357],[13.42165050527753,37.92655619481809],[13.421598149892707,37.926536863913874],[13.4213096400733,37.92644013823234],[13.420889665453897,37.92629909802834],[13.420682678057421,37.92622915387025],[13.420177802011588,37.9260302107223],[13.420119349217298,37.9260071773113],[13.41996289257793,37.92590091926754],[13.419478548309174,37.925571975228806],[13.419258184295055,37.9253100654074],[13.419029410498496,37.924836834043624],[13.418765090820079,37.92453121164324],[13.418603573014227,37.92434445437423],[13.418555589064894,37.92428897240318],[13.418497659508423,37.92422199049463],[13.418454669223404,37.92417392113855],[13.418024337057819,37.923755010670575],[13.417739089709162,37.92347732913816],[13.417437326686379,37.92320493966161],[13.41719149399218,37.92298311640127],[13.417129865976639,37.92292689053215],[13.416700172354915,37.92255127622924],[13.416376896781824,37.92224370666273],[13.415660298059187,37.92168074163216],[13.415433190206054,37.921139892247595],[13.41534802056822,37.920904415270385],[13.414981160959822,37.920485910210104],[13.414508780627129,37.92021546220505],[13.413959580763175,37.919848831841755],[13.413219801686616,37.919313724980114],[13.412999609123831,37.9189707485808],[13.413009998868647,37.9189103347482],[13.413090798679761,37.91844045691265],[13.413158423737732,37.917956075606405],[13.413189200563643,37.91760366956257],[13.413171657072194,37.91737014936114],[13.413018580149842,37.91724026636178],[13.412978538109074,37.91720629168515],[13.412747368057218,37.91701233883903],[13.412576847949026,37.91647835975873],[13.412755555887225,37.91605735023222],[13.413049565772578,37.91579836303279],[13.413300238154998,37.915577548944746],[13.413952592271022,37.91485505352159],[13.41421234780784,37.91442048761314],[13.414401423933004,37.9141041662291],[13.414922046858178,37.91321096652837],[13.415142611718773,37.91185172189455],[13.41510890775527,37.9108262610779],[13.41490871799179,37.91008176332123],[13.414850374547889,37.90992302444234],[13.414716069616489,37.909557620732144],[13.414172408507298,37.908902575515654],[13.414001659504876,37.90877608188371],[13.41396197803343,37.90874668716455],[13.413730023498383,37.90857485336944],[13.414432280636731,37.90843463259867],[13.41484878276963,37.90811727333567],[13.415150808335683,37.90778619449622],[13.415407300586352,37.90750185060941],[13.415750288060035,37.90734819322802],[13.415868103186845,37.90729541051311],[13.41641801603069,37.90705857745514],[13.416969018309707,37.90687574679252],[13.417586384899629,37.90668591553373],[13.4182616348281,37.90652540938222],[13.418869090986743,37.906241376648325],[13.418930832862326,37.90622258666839],[13.419120721308596,37.90616479823415],[13.419398293853053,37.906080325444236],[13.41957216313664,37.90602741162241],[13.419668503372053,37.905998091542884],[13.419797745424534,37.90595875846856],[13.420326913106502,37.90589447410951],[13.420391622555426,37.905886612690445],[13.420549597677526,37.905867421210836],[13.421314428251721,37.90574406816568],[13.42155444653897,37.90573978397888],[13.42186704816381,37.905734203575875],[13.422224957712087,37.90572781461188],[13.422339314979764,37.905728039662115],[13.422428711912412,37.90572821450423],[13.42249292125689,37.90572834054613],[13.423020717651701,37.90572937608784],[13.423654292623448,37.90575301729665],[13.423746858690837,37.90575647080877],[13.423818570840725,37.905759146091015],[13.423861635524766,37.90576075307318],[13.42401665042779,37.9057774482341],[13.424146489707367,37.90579143206364],[13.424637612006565,37.90584432252168],[13.425007846759554,37.9058841941854],[13.425350529878552,37.905817258859784],[13.425531858069665,37.9057644686815],[13.425796166463382,37.905687520040566],[13.42619672891855,37.905571751913726],[13.42697467211743,37.905404811062766],[13.427804406778515,37.90542756215575],[13.428531570803596,37.90542974802765],[13.42844626734441,37.905607917066085],[13.428423606743737,37.90565524803475],[13.428329987254768,37.906140741919685],[13.428320330320316,37.906336382956546],[13.428307689511263,37.90686280861884],[13.428271551854769,37.90704241951315],[13.428273731651073,37.90708138732968],[13.428200763365986,37.907297177518174],[13.42797534606533,37.90760427809057],[13.42794544659748,37.90764033654156],[13.427899311693707,37.907695976290206],[13.427858643705685,37.90772921004485],[13.427690883980219,37.90785354104622],[13.427739855814123,37.90788275911749],[13.428870081545439,37.90829070261277],[13.42899720895519,37.9083099996774],[13.429194494330499,37.908339947353944],[13.429747501665833,37.908574610153686],[13.430262058065065,37.908792951735876],[13.430375879783362,37.908841248966],[13.43063907465611,37.90895292888922],[13.43067365095179,37.90896723008319],[13.430727857181605,37.90897518524221],[13.431156771097378,37.90908270060562],[13.432063714298268,37.909300902497044],[13.432292757680656,37.90935600648126],[13.432645961774405,37.90950070181778],[13.432679234299643,37.90951433199075],[13.432940544604891,37.909621379962374],[13.433362398960924,37.90981623628731],[13.433588558632923,37.909480325907595],[13.433785254412385,37.9092690751712],[13.433950649151244,37.909091440389815],[13.434134960407173,37.908654145855245],[13.434215415152222,37.90850108657862],[13.434223958037807,37.90847513820233],[13.434418279668558,37.90820433039579],[13.434518862229524,37.908033667327786],[13.43492700016195,37.90781626323873],[13.435248217551392,37.90750000102524],[13.435366414918562,37.907383626466356],[13.435476191977278,37.9073111660701],[13.435644700088668,37.90719993809568],[13.4357133987911,37.90714073696411],[13.435763487602335,37.907081184803964],[13.435804167794052,37.90703281990217],[13.435987813625475,37.90705959118183],[13.436110453732052,37.90707746935301],[13.436254741433341,37.907098502555435],[13.436312936188745,37.90711992216464],[13.436775657733467,37.90729023228455],[13.436849068252878,37.9073172525781],[13.436994366073092,37.907336340945264],[13.437272953097464,37.90737294072468],[13.437374321876149,37.90738200406545],[13.437949774270837,37.90746185434812],[13.43828585280479,37.90754468616013],[13.43841678058436,37.90757700658588],[13.438776292795865,37.90761637295627],[13.43909559936909,37.90765133684184],[13.439436886298285,37.90768870601396],[13.439517420789308,37.90769752455878],[13.440507171573163,37.907723156706616],[13.440999939948874,37.907872580025455],[13.441228380729983,37.907941849939824],[13.441379548583011,37.907983794177724],[13.441490742259196,37.907986820121316],[13.441653638175623,37.90799125212516],[13.442057850580435,37.90800225108667],[13.442731752550834,37.90782160822145],[13.44286162902154,37.90778669212048],[13.443074639238597,37.90771783409378],[13.443473629548023,37.90758885156581],[13.443635524806309,37.907536514642416],[13.44374035218106,37.907502626245524],[13.44394828622389,37.90743540602251],[13.44443462131442,37.90723444587881],[13.444746263903237,37.90710566944306],[13.444786976198762,37.90708884602037],[13.445003987325535,37.90699917258354],[13.445033425650069,37.90698348089808],[13.445491573755715,37.90673927004505],[13.445664075666718,37.906647319793905],[13.445692381527058,37.906632231004636],[13.445685560252604,37.90666977189006],[13.445642473126435,37.906906920670686],[13.445629402646931,37.906978860082425],[13.445690604911714,37.90713440359541],[13.445808301108437,37.9074335218305],[13.445975092878069,37.90785740202775],[13.446015007078747,37.90874355591615],[13.44602319136532,37.9088534803265],[13.446030700744375,37.909003583315645],[13.446024498579341,37.909293584050374],[13.44602369930753,37.90933094654718],[13.446023277309424,37.90935903172726],[13.446021982280808,37.90941124735662],[13.44601304490441,37.90945119019104],[13.44601470190908,37.90975172268324],[13.446287460667387,37.910296149071485],[13.446310742931123,37.910342620461535],[13.446331317719714,37.910383686048554],[13.446502023933757,37.91062645054029],[13.446554210796636,37.91070066511677],[13.44692661106879,37.911230253413564],[13.447036161537163,37.91149178601658],[13.44692301061227,37.91195990237701],[13.446776277950786,37.912519339103966],[13.446707157388385,37.91305783467354],[13.446545247461664,37.91373043323954],[13.446557509838673,37.91421630476944],[13.446488415656834,37.914857595011036],[13.446546019407354,37.915333520916974],[13.446558680030122,37.915778855040976],[13.446404298036846,37.91610852369188],[13.446295273117515,37.91644177539352],[13.446275327056366,37.91682979811357],[13.446470478834236,37.917308746035836],[13.446518715050217,37.91770770876051],[13.446624018348178,37.918122512846246],[13.446614256284013,37.91857319532818],[13.446842210214937,37.91904189959671],[13.446998403774238,37.91936384836516],[13.447011476983276,37.91939079481603],[13.447028847888838,37.91942660109995],[13.447060552126018,37.91949783962603],[13.44709725816145,37.9195803169087],[13.44720228533002,37.91981630433939],[13.447388779241605,37.920151486508935],[13.447462174982846,37.92099078874701],[13.447463477445606,37.921495095578926],[13.447452526982904,37.921533067595576],[13.447401764479864,37.921709086942506],[13.447347206954007,37.92171947831059],[13.447259214274723,37.921736235991304],[13.447049717848067,37.92178727917086],[13.447093886037823,37.92212132097952],[13.447099322614362,37.922161902158955],[13.447105916264734,37.92221112614504],[13.44713499545055,37.92224982050803],[13.44717944692119,37.92230897071057],[13.4472482418791,37.92240051357996],[13.447349597520358,37.92253538143036],[13.447376399216907,37.922567756655575],[13.447729705250161,37.92274323063349],[13.44752366752626,37.922970582495466],[13.44749644424877,37.923016382117055],[13.447580181020387,37.923099182084684],[13.447710911471829,37.92322845112599],[13.447865221196036,37.923465765936804],[13.447818337421124,37.92352054829876],[13.44771647252899,37.923639575464804],[13.447689974954859,37.92367053672128],[13.447715241485044,37.923723036117984],[13.447790965918031,37.923880377702886],[13.44785794966665,37.924019559333075],[13.447896564781837,37.92407910857192],[13.448692162522072,37.92420447951706],[13.449071159705163,37.924514345748875],[13.44926963924989,37.924811484126316],[13.449347948488771,37.924928720515446],[13.449478954095033,37.92512484181798],[13.449497335542855,37.92522015836184],[13.44959275486822,37.9257149331386],[13.449634501679668,37.925764186832566],[13.449679096123546,37.9258168009596],[13.449727912909164,37.92587439590739],[13.449947773174994,37.92613379150322],[13.450465706638992,37.92640236578456],[13.45054189741357,37.92650665839578],[13.45066848476123,37.92667993625368],[13.4507237237357,37.926755547706854],[13.450655708322696,37.92712467751329],[13.450696371426305,37.92720261018444],[13.450730979499337,37.92726893888948],[13.450863066449594,37.92752208874777],[13.451095750194037,37.927549188348564],[13.451194094318645,37.927560642107316],[13.451244568338366,37.92756652045032],[13.451367986312084,37.92758089374059],[13.451475680064425,37.927593435698306],[13.45167174230905,37.927673052940115],[13.451871259858642,37.92775407263941],[13.452034967356786,37.92782083162322],[13.452325900894566,37.927939471911266],[13.452513411549683,37.928067831693774],[13.452606217656156,37.928131361622306],[13.452846392301408,37.92829577227559],[13.452988767499754,37.92839323337941],[13.453073874141898,37.92845149074713],[13.453403405149388,37.92840356263159],[13.453448264908188,37.928397038643695],[13.45379626864252,37.92827042140155],[13.453832078849732,37.92825733621478],[13.454069569400655,37.928170554434175],[13.454114558743264,37.92817153835247],[13.454672269519653,37.92818373552929],[13.454981948692668,37.9282572334563],[13.455158368006295,37.92829910224107],[13.455408410826486,37.9283584446061],[13.45562139970371,37.928435602636505],[13.455775756886627,37.92849151975103],[13.455869759322972,37.928525572580824],[13.456165263772744,37.92853731744952],[13.456404043604604,37.92855048904454],[13.456450600318762,37.92855305713371],[13.45675408108134,37.928503197276086],[13.456958779501509,37.92846956648466],[13.457056451286943,37.92845351928555],[13.457319007632195,37.92851176566891],[13.457616346884027,37.92857772635406],[13.458131150978696,37.92869192610367],[13.458178450075293,37.928708734912114],[13.45828222600855,37.928745613791826],[13.45833835080128,37.928765559422715],[13.458556893494308,37.928843221660856],[13.45858878664622,37.92885455663389],[13.459001213988246,37.929001117964056],[13.459136085644989,37.92900684873134],[13.459252840291319,37.92901057977432],[13.459716338877891,37.92902800600433],[13.459843673828589,37.92896456285059],[13.460103511838454,37.92883509950374],[13.460303382293173,37.928735514755054],[13.460381838923277,37.928721649079755],[13.460826598481505,37.92864304778982],[13.460993488930468,37.928613553340845],[13.461276214636584,37.928563585766724],[13.461341903244849,37.92855197602023],[13.461396894027333,37.928565163489154],[13.46153607017767,37.92859854212577],[13.461625866365859,37.928620077288215],[13.461984260032724,37.92870602663651],[13.462055090382576,37.928723013360994],[13.46232322478481,37.92884574666605],[13.462545554424759,37.92894751138959],[13.463122480513169,37.92900331998664],[13.463223121797933,37.929011868960586],[13.463694777687014,37.92906572223468],[13.463770148336772,37.92907432789819],[13.463903648827289,37.929089570874844],[13.463963815745155,37.92909629379081],[13.464506484913576,37.92915692898895],[13.464842548867113,37.929194479116894],[13.465016243048257,37.92921388558042],[13.465863336753277,37.92934272022848],[13.466058422928665,37.929372390277926],[13.46680563670138,37.929542105039026],[13.467055820689852,37.92956601847675],[13.467098424971734,37.92957125349418],[13.46713782380281,37.92957601781194],[13.467711010664075,37.92963095957927],[13.467757113278811,37.929633562025046],[13.468280780022836,37.92969007776289],[13.468853046860415,37.9297518342143],[13.468918773454954,37.929758927498725],[13.469080097656196,37.92979978049365],[13.469635236534383,37.92994035841577],[13.470356482479422,37.930122995154555],[13.470729544180664,37.9303111681356],[13.470904516356063,37.930399426744685],[13.470932115066843,37.930413348062984],[13.471177089331656,37.93053691611844],[13.47157470616151,37.93083919203792],[13.471755792484622,37.930991728385116],[13.47156678083671,37.9312233093285],[13.471503862970163,37.931300812756696],[13.471549267612454,37.93140100692845],[13.471666350228228,37.931659369613705],[13.471693138815265,37.93172368461688],[13.471711066678376,37.93176672647821],[13.471893452915134,37.93220459723452],[13.471965642674363,37.93248100280236],[13.47200302151949,37.93262412182143],[13.472042510100717,37.932775318355866],[13.47204574435423,37.93307280445556],[13.4720462295261,37.93311741741672],[13.472009470778072,37.93320954722405],[13.47197765769844,37.93328928429995],[13.471922452584636,37.933427644093676],[13.471881102319768,37.933531282194195],[13.47183094625375,37.93365698861757],[13.471800936492413,37.93386971101434],[13.471784901804718,37.93398335741373],[13.471763880944096,37.934132354132316],[13.471752004165376,37.9342277098884],[13.471682167307206,37.934788426082974],[13.471661154443211,37.934882578842114],[13.471641293996916,37.93497157035735],[13.471567630277598,37.935301639518485],[13.471551522876004,37.93547924843894],[13.471546942179595,37.93552976607093],[13.471538758793443,37.93562001241731],[13.471523784719857,37.935785139629175],[13.471514650522225,37.93581796762434],[13.471401668571408,37.9362240525587],[13.471352834905666,37.93639956803981],[13.47122983926827,37.93677349539314],[13.471070979970028,37.936804327360605],[13.470872532661915,37.9368428428289],[13.470511219567035,37.936912965846226],[13.470425647343927,37.936929573481144],[13.47030611343155,37.93695277228563],[13.470265628568054,37.93696158600034],[13.469650558420668,37.937095485515364],[13.469486117571934,37.937131283114226],[13.469253224874688,37.93718198195106],[13.46911750157221,37.93721644741817],[13.469021951661754,37.937240710832114],[13.468775578135224,37.937303272370414],[13.4684188933743,37.93739384625395],[13.468378656860153,37.93741911514101],[13.468195808541,37.937533949736086],[13.467989779065654,37.93766334388354],[13.467854061084413,37.93774857787596],[13.467216067988858,37.93832672667669],[13.466806733419542,37.93887817290735],[13.466013008020271,37.93979546160354],[13.465214445263713,37.94049229435256],[13.464421428309189,37.94086018907895],[13.463717624054134,37.94092353712966],[13.46358668715912,37.94093532215548],[13.46338234333304,37.94095371319818],[13.4632781595187,37.94095654556296],[13.46315891737938,37.94095978625558],[13.46253647009514,37.94097667603937],[13.461949718113905,37.94099171354201],[13.461824020820302,37.94099493426958],[13.461225998444467,37.94102470917421],[13.461060816923077,37.94103293258062],[13.460622642384228,37.94129725551015],[13.460450163456217,37.94142780945007],[13.460361238880125,37.94149511656851],[13.46015914706025,37.94164808309105],[13.459552406180455,37.94206482186985],[13.45896655589717,37.94267056127669],[13.458589895896703,37.94327026282393],[13.45821664664647,37.94374631871567],[13.458076814759401,37.943924663764356],[13.45797216627401,37.944051308823205],[13.457580995362108,37.944283445655955],[13.45747403657184,37.944346918651384],[13.457325541559417,37.94443504057676],[13.457232375628436,37.94447020265674],[13.457125059670423,37.94451070392295],[13.45672859223981,37.94466033328976],[13.45667537128986,37.94467519081106],[13.456564888549918,37.944706033625046],[13.45601912332635,37.94485838984064],[13.455330214250996,37.945055644074884],[13.454904057396782,37.94516317621797],[13.454553072498177,37.94525174017601],[13.453891332532988,37.94548507852777],[13.453496074020544,37.94573314435955],[13.453339816633212,37.94586225261295],[13.45330339460775,37.94589234605014],[13.452987674048511,37.9461532124186],[13.452589723258036,37.94647390797276],[13.45234851972097,37.94666828413554],[13.45225855832759,37.9468959118778],[13.45221010588181,37.9470185119796],[13.45209606236428,37.947307073492745],[13.452056188335138,37.94740796639614],[13.451997252326228,37.947557086720394],[13.451905862720675,37.94778832497383],[13.452188560360877,37.94804529483002],[13.45234813381375,37.94819034409121],[13.452185429479234,37.948194495045755],[13.451622777991119,37.94820884569554],[13.451459608464884,37.948449188586],[13.451216345888053,37.9486700652041],[13.450685055691006,37.94904144884428],[13.45060048872662,37.949064124981504],[13.450259429765266,37.949152147258204],[13.44960971093431,37.94928033991478],[13.449007975155316,37.94918155291075],[13.448648796314156,37.949086846925525],[13.448546712751497,37.94905993084697],[13.447990976949658,37.94884183531592],[13.447758340493253,37.94883179277455],[13.447262724628775,37.9488103967965],[13.447012701654817,37.9487996026789],[13.446914591105898,37.9487953666251],[13.446692563237415,37.94878578029432],[13.446534238546002,37.948781445617506],[13.446482507485293,37.9487899467678],[13.445941019321417,37.9488789319188],[13.445232999358055,37.94898680368042],[13.444458375870393,37.949011625706156],[13.443609910109878,37.94884110212533],[13.442581544870535,37.94896106235333],[13.441873740155,37.949140951986],[13.44113774942342,37.94950201597028],[13.440771773635475,37.94975074656734],[13.440524703333146,37.94991866417605],[13.440422098983907,37.949988395149944],[13.440454528393648,37.95001143008089],[13.440491524434904,37.95003770931425],[13.440754530297198,37.95022395897835],[13.440967249730345,37.9503756153056],[13.441054129652159,37.950437327266286],[13.441196104336015,37.95054004436845],[13.441594289642271,37.95083480577607],[13.441664879004687,37.95088705897598],[13.442179176365565,37.951284982447724],[13.442302835408395,37.95139880236344],[13.442737147602834,37.95184618503117],[13.442824712943668,37.95192579677362],[13.442907036366238,37.95200064339745],[13.443150836594814,37.95222230013671],[13.443218896490636,37.95261767692284],[13.443226165388882,37.952659904565785],[13.443274802077038,37.952987713128685],[13.442831947954085,37.953095805736424],[13.44276867000245,37.95311038110201],[13.442700886040127,37.95316216999741],[13.44242140633863,37.95337569855687],[13.441967250932953,37.95355801440247],[13.441789796631392,37.953629251623866],[13.441304990935476,37.95393579160435],[13.440796744007528,37.954301760169955],[13.440674059051544,37.95437248421762],[13.440002543946422,37.95475958730833],[13.440413214516614,37.95520337099756],[13.440515325915303,37.95532655008664],[13.440650440350296,37.95548953902064],[13.440724490967163,37.955578866977525],[13.440973533041687,37.95619539121264],[13.440982198719913,37.95679848742947],[13.440673885339033,37.95693173679867],[13.440619297450326,37.9569622442724],[13.440017079094028,37.957298802545836],[13.439243249124178,37.95782341882796],[13.438170799972559,37.95845386701902],[13.43753972379604,37.95876175319391],[13.437071441463116,37.95899021293038],[13.437020199553706,37.9590152128498],[13.436605547857075,37.95918439337891],[13.436516579438196,37.959220692304704],[13.436177289460648,37.95935912293736],[13.43601060491514,37.95942712952083],[13.435543780307832,37.95957201682915],[13.435402873335034,37.95961574840316],[13.435166619246015,37.95968907299245],[13.435002851844288,37.95973990003493],[13.434931045225463,37.95975841943717],[13.434855024607236,37.95977802472139],[13.434637131171186,37.95983422084279],[13.434494364300232,37.95987104076485],[13.434348280588196,37.95990871620085],[13.43411542582629,37.95992099941371],[13.432845119465199,37.95998800055304],[13.432424174443364,37.959979877035416],[13.432119645146592,37.95997400692207],[13.431502704381344,37.95996211149066],[13.430172509578862,37.959926762923324],[13.429175903125758,37.9598395981957],[13.429093276827151,37.95983237129106],[13.427979568203005,37.95974379011664],[13.427617529564786,37.95970566099773],[13.427211169984242,37.9596672547662],[13.427127002495487,37.95965887141434],[13.427066148214076,37.95965350513232],[13.426602350847245,37.95961260616351],[13.426410530969827,37.95959556116622],[13.425663906046694,37.95943482890677],[13.42560213389823,37.95949391462246],[13.425457783651401,37.959631985325224],[13.425362170492965,37.95972343828207],[13.425764723608282,37.96001193422404],[13.426202978715413,37.960324137659796],[13.426096767755684,37.961017134372554],[13.426033717404017,37.96121557384598],[13.426020754501085,37.96125844834688],[13.426007995527268,37.961298188142976],[13.425994805502295,37.961339953511114],[13.425953045256808,37.96147218692767],[13.425766642424586,37.962065299383234],[13.425370244938978,37.963016912951375],[13.42508804142396,37.96363844434393],[13.4250729247487,37.963671736080876],[13.424995934240814,37.96384130183828],[13.424952117000922,37.96393780219288],[13.424831059120947,37.96412962448518],[13.424669741557175,37.96438523946109],[13.42443960890258,37.96505138273465],[13.423927850807495,37.96533485135765],[13.423898763490282,37.96535096372193],[13.423478737368784,37.96580358497985],[13.423347545914055,37.965981764729584],[13.423079729701325,37.96634549850319],[13.422414580515447,37.96656419063457],[13.422346835975409,37.96662824253851],[13.421868940275203,37.96708008225521],[13.42148720699772,37.96734213745918],[13.421034815308003,37.96770592166255],[13.420798612754671,37.96816513205652],[13.420697081504256,37.96837896892227],[13.420677958409188,37.96841924505914],[13.420602135270464,37.96857893739558],[13.42039150293261,37.969022547077934],[13.420365853250706,37.96906345798047],[13.420256891131919,37.96923725085941],[13.420019225874926,37.96961631928849],[13.419992453462271,37.969659019626924],[13.419945064410829,37.96989681271623],[13.419890196819583,37.97017211887547],[13.419879978628,37.97022339510126],[13.419864043003317,37.97030333597359],[13.419850729828672,37.97034428399781],[13.419792265356946,37.970524119941324],[13.419668415933527,37.97090507591039],[13.417983084819554,37.97044164833017],[13.41788996900141,37.970521898594065],[13.417859443067002,37.97055039162712],[13.417715359863696,37.97067238056078],[13.417560854664726,37.97067232305058],[13.416592866931824,37.97067195815389],[13.416339861219873,37.97067186234853],[13.41629320728415,37.97067184396679],[13.416149005712414,37.97059059692623],[13.416060634640045,37.970540807534604],[13.415989129319652,37.97050051949421],[13.415753764700975,37.97036790954699],[13.415319700813598,37.97043375921795],[13.41523548752754,37.97060486881935],[13.415221572934334,37.97063314716476],[13.415175200437396,37.970727396841205],[13.415160871132167,37.97075124881552],[13.41499805998732,37.97102226176824],[13.414926687725027,37.97107987765087],[13.414693284909701,37.971268292834935],[13.414652838028138,37.9713009444201],[13.414494647574008,37.97136387810119],[13.414377504374697,37.97141048145336],[13.414308543572693,37.97143791588537],[13.41420878831277,37.97148441197403],[13.414183249989245,37.97152123842418],[13.414086448947439,37.971668782451964],[13.414064238492564,37.97170263412794],[13.414031148327178,37.971743508261596],[13.413954178676047,37.97183703004422],[13.413858734159762,37.971953000457134],[13.413828790832586,37.971989381814026],[13.413417335154149,37.972076897932126],[13.412667716075044,37.971920458575404],[13.412288663389043,37.971777094607006],[13.41225068977607,37.97176049991822],[13.41184836848407,37.971618609697934],[13.411752034489822,37.97158526385529],[13.411333949512699,37.97154368956919],[13.411235709616706,37.971533920761814],[13.411130028984129,37.97152341101392],[13.410457321336276,37.97146111340499],[13.410404087611498,37.97145618368884],[13.410299863689207,37.971446531711535],[13.410163736100827,37.97143817536264],[13.410100946263103,37.97143432048924],[13.409866384879008,37.9714199208763],[13.40970821029575,37.971410211666765],[13.409329612713591,37.9715234994235],[13.40921120764413,37.97176662565596],[13.409305231225172,37.97190965688027],[13.409431550122363,37.97207357592485],[13.409464514206944,37.97210272371378],[13.409526709819044,37.972157720801306],[13.409711894035514,37.97232147211241],[13.40985654809481,37.97244938417464],[13.409880513324673,37.97246745241159],[13.409952364828637,37.97252209556247],[13.410399728930402,37.9728589139507],[13.410449143655095,37.972896171561786],[13.410516253659601,37.97294676845853],[13.410550642196961,37.972972694847],[13.41093591825619,37.973245606762966],[13.410960507136556,37.973263023585545],[13.411112085635889,37.97337039406746],[13.411172259024001,37.97345486855574],[13.41124433050034,37.97355604776885],[13.411377633402434,37.97374318723278],[13.411790814787432,37.974160986652336],[13.411816715338047,37.97417926453826],[13.412171111861468,37.97442936645912],[13.41267687496536,37.974716580885286],[13.412776395648303,37.97477987037682],[13.413138205373768,37.97500996381074],[13.413548952097935,37.97550338214873],[13.413554564897533,37.9757950391857],[13.41355947118898,37.97604996311258],[13.413328229975843,37.976462908284454],[13.41328361293269,37.97654031058004],[13.413204153254592,37.976678157874275],[13.412665481611233,37.97702602920659],[13.412562828795656,37.977092321909716],[13.412522976901126,37.97711805787214],[13.412449499100203,37.977139314299976],[13.41234854208606,37.9771685195205],[13.412282325880081,37.97718767371457],[13.412223440868456,37.977204708723015],[13.411950495253373,37.97728366594269],[13.41172595575964,37.97729843943171],[13.411152214479449,37.97733618637361],[13.411115913151688,37.97733173764757],[13.409914998664906,37.97718453413097],[13.408727257723857,37.9770761544793],[13.40869465870132,37.977076027739386],[13.407759414445733,37.97713597765564],[13.407432894168673,37.97715615784507],[13.406540917819028,37.97726437645893],[13.406218227095476,37.97730352477849],[13.406143029240038,37.977312647135804],[13.406032990883764,37.97731522524811],[13.405185764425925,37.97733507075087],[13.404669002719066,37.977030234256944],[13.40413179077816,37.97660907255821],[13.403132025471082,37.97627946624136],[13.403101665227926,37.976269443247276],[13.402625543858528,37.97627799682238],[13.402180317841337,37.976285994284545],[13.401761031982563,37.97635503942829],[13.40170961056527,37.976363507008344],[13.40143671484268,37.97640844495249],[13.400987576323905,37.97657585188289],[13.400657624620033,37.97669883326794],[13.4003468310957,37.976961607061],[13.400323892392757,37.976981000327356],[13.400228481334683,37.97706166810957],[13.400023446196958,37.97731280357871],[13.399912733234906,37.977448409362104],[13.39983026971897,37.977549414493204],[13.399469485942271,37.97791418524378],[13.398413231510863,37.977755628186294],[13.3974503322482,37.9775530400628],[13.396601481743758,37.97735517469472],[13.3962813222391,37.977261832945345],[13.396010521763673,37.9771828806888],[13.395821287299936,37.97712770933257],[13.395793353599846,37.97715333120528],[13.395737890658154,37.97720420403248],[13.395678395095118,37.97725722636088],[13.395181495929632,37.977714553354105],[13.394629353308261,37.9781615732774],[13.394254235611898,37.97846526814388],[13.393210089729276,37.97881957401787],[13.39170981760301,37.97924047963886],[13.389964482589361,37.97994071595861],[13.388888307236765,37.98037449411847],[13.388585291296437,37.98049662887591],[13.387707441403002,37.9810878514047],[13.387181892358479,37.981643389604976],[13.38703175951628,37.98180208609804],[13.386480713061728,37.982543200855474],[13.386072969563081,37.98344555486494],[13.38590741831713,37.98423530898407],[13.385657187842472,37.98529841119241],[13.385109116441287,37.98586377448838],[13.384114018959936,37.98607655877038],[13.383973688990627,37.98610533798953],[13.383065613729286,37.98629156557734],[13.382717900974484,37.98636287299408],[13.38129415870809,37.986866341536285],[13.38026095616911,37.98732369756143],[13.37962343906285,37.98750512314953],[13.379332167899365,37.98758801201229],[13.37914219496779,37.98759259610666],[13.378648961408892,37.98760449581091],[13.377999507798476,37.98761520005555],[13.377457938661406,37.987566729062486],[13.377344468817542,37.9875565742122],[13.377147174409426,37.98753891450054],[13.376646243887835,37.987535071061075],[13.376268709995653,37.98754020263769],[13.376076295844946,37.987542817467734],[13.375553265253947,37.98752629062271],[13.374823218943025,37.9876706125802]]]}}]}
