{"type":"FeatureCollection","metadata":{"code":"087035","referenceDate":"2026-01-01","sourceDbfExportDate":"2026-02-18","upstreamArchiveUrl":"https://www.istat.it/storage/cartografia/confini_amministrativi/non_generalizzati/2026/Limiti01012026.zip","sourceManifestSha256":"70ac8256c4785dc6ed2814c32b6965ae76f9161b51abaa1660059e1c6cbd8ca6","license":"https://creativecommons.org/licenses/by/4.0/","attribution":"Istat, Confini delle unità amministrative a fini statistici al 1° gennaio 2026, versione non generalizzata.","modifications":["Converted from WGS 84 / UTM zone 32N (EPSG:32632) to RFC 7946 WGS 84 geographic coordinates.","Converted from shapefile to per-municipality GeoJSON without geometry simplification."]},"features":[{"type":"Feature","id":"087035","properties":{"code":"087035","name":"Piedimonte Etneo","alternativeName":null,"regionCode":"19","regionName":"Sicilia","territorialUnitCode":"287","territorialUnitName":"Catania"},"geometry":{"type":"Polygon","coordinates":[[[15.193188174205247,37.808761855226194],[15.192553429141578,37.80893775566764],[15.192475057321024,37.8090052218234],[15.19215169638025,37.80928360270885],[15.191985424217425,37.80942674589376],[15.191938820985369,37.80948354239417],[15.191632552777117,37.80985678392297],[15.1915528530037,37.8099539119689],[15.19145277967256,37.81007586718778],[15.191290058536085,37.810315836165394],[15.191035049405933,37.81069190137944],[15.19070700571474,37.811447211642516],[15.190685425812239,37.8115000801661],[15.190635957168649,37.8116212981523],[15.190560490879161,37.81180628014514],[15.190470560721527,37.81202670174481],[15.190453076118164,37.812261957610204],[15.190451100664312,37.81228853388301],[15.190425903904167,37.81262756660482],[15.190338821211252,37.81271799229209],[15.190184230802519,37.81287852084534],[15.190119999458549,37.812945212645374],[15.189689647771424,37.81308942125794],[15.189637108038594,37.81311836785286],[15.189465992177054,37.813212642540634],[15.189322598533828,37.813291644900275],[15.189177278063084,37.8133737718704],[15.189101408604175,37.81349456297909],[15.188994050176069,37.81368894936962],[15.188907203829315,37.813846192063394],[15.188865123923783,37.81414575235783],[15.188839696065685,37.81432675948142],[15.18877525667747,37.81460049602972],[15.188760461362234,37.814664127888086],[15.188693804223158,37.814946440608004],[15.188526384011848,37.81555102087848],[15.188312470504092,37.815944535848224],[15.188255163088579,37.816049588255986],[15.188045600739127,37.816310125923636],[15.18793736831536,37.81644468520726],[15.187831967357264,37.81657572543124],[15.18779023434814,37.816627607931935],[15.187678369778043,37.81679953810287],[15.187639759315797,37.81685886009955],[15.187528926706747,37.817029208407824],[15.187405167629429,37.81721941487569],[15.187291883208115,37.81741323773848],[15.187087643887155,37.81776267467729],[15.187027013387556,37.817970257665145],[15.186908178382618,37.81837711003792],[15.186863377663382,37.81853049466197],[15.186729796922576,37.81875656199511],[15.186523049876067,37.81910645440666],[15.186114761878242,37.819717479876005],[15.18586617655965,37.82002465748913],[15.185756903701265,37.82015968573665],[15.185695470700194,37.82023559887251],[15.185639256294028,37.820305061858534],[15.185346234585182,37.820632673272684],[15.185073221153772,37.82093791155287],[15.184960607173853,37.821130967311476],[15.184855853238963,37.82131054853853],[15.184756358913987,37.82148111059791],[15.184731861417266,37.82156373625204],[15.184702038950102,37.821664317983476],[15.184588283487841,37.82204798653512],[15.184472009561793,37.822329899801765],[15.184409803949405,37.82248072082254],[15.184386326180102,37.82253884827887],[15.184374743049018,37.822568078398824],[15.184333238063019,37.82266635980898],[15.18411079417072,37.823019304544054],[15.184067529110258,37.823087140244965],[15.18403719420709,37.8231347001906],[15.183958421677772,37.82325817335893],[15.183885811632464,37.82337200922577],[15.183858771408861,37.82340976172157],[15.18380508595402,37.823484713969975],[15.183569784169478,37.8238132332108],[15.183526597907132,37.823873526964476],[15.183480901529864,37.82393732625261],[15.183445221179118,37.82398714062494],[15.183399781422263,37.82405032065127],[15.183135754101311,37.82421706866593],[15.183008863476715,37.824297205132645],[15.182855923992815,37.82439379395533],[15.182431757383283,37.824533907571244],[15.182232462858979,37.82459974028135],[15.182094087899188,37.82464544873153],[15.181969875247654,37.82470317302846],[15.181867060732205,37.8247509522843],[15.181721200239611,37.824818736102145],[15.181597896309453,37.824876045835566],[15.18150434760178,37.824919525026644],[15.181291049348218,37.82542056508512],[15.181278529840768,37.825449972991215],[15.181255467856685,37.82550414675953],[15.180964662686318,37.82582313830037],[15.180712477952767,37.82609976583214],[15.180173587577144,37.82645221803576],[15.17997508543164,37.826582043369996],[15.179588364271332,37.82678481491272],[15.17944260448449,37.82686069182835],[15.179146645643165,37.82701475618577],[15.17890066031561,37.82716401892924],[15.178805216645605,37.82722193317444],[15.178407630621285,37.827463185537844],[15.178063678345115,37.82792934831594],[15.178000004364671,37.82801564689446],[15.177993762713939,37.82821881253026],[15.177985546297512,37.82848623180964],[15.177978675936759,37.82870978445491],[15.177797603374465,37.82923232483824],[15.17771026747928,37.82933586078459],[15.177491442987348,37.82959527943622],[15.177418984913816,37.829681178075546],[15.177392431285616,37.829712660218554],[15.177276584106712,37.82983582615822],[15.177169705200445,37.82994945751994],[15.176806133564561,37.83033600053759],[15.176733358743967,37.830413372506634],[15.176200329299121,37.83091479811429],[15.176110088976564,37.83099968902115],[15.175531688368453,37.83144414410511],[15.17547681962946,37.83148272703554],[15.175448167864753,37.83150287548915],[15.175355062063527,37.831568348488595],[15.174770786167878,37.831979211936805],[15.173907429864364,37.832510652254044],[15.173238850170296,37.83286084387412],[15.172673432433598,37.83322359187828],[15.172638420537949,37.83324552515648],[15.172603034488723,37.83326769321536],[15.1722807504427,37.83346959007035],[15.172064748026841,37.8336111752768],[15.171905820986872,37.83391649973948],[15.171798404919704,37.83412464714338],[15.171594588409887,37.834333369238614],[15.17133388986536,37.83454058583587],[15.171013326292531,37.834851097077824],[15.1709507113597,37.83491174899556],[15.170915388412075,37.8349535769185],[15.170699575636075,37.835199468562486],[15.170528704869254,37.83536630796038],[15.170358605572742,37.8355323937411],[15.170029962508846,37.835860189405814],[15.169654425123289,37.83620394354655],[15.169315412488713,37.836653787429874],[15.168612792344769,37.837284734193965],[15.168159534928916,37.8377000893605],[15.167874678137107,37.8378815648707],[15.167468069909589,37.8382981847753],[15.167442191788629,37.83832470356525],[15.167082129758374,37.83869276349403],[15.16676443429858,37.839100966634156],[15.166664569435293,37.83936388720886],[15.166562119188269,37.83963360289211],[15.166266331385998,37.83936444824135],[15.166103938918782,37.83921667601273],[15.165875704597548,37.8385311560712],[15.165601276641105,37.837785079704645],[15.165201407656271,37.83724357647439],[15.164850450520873,37.83713902687555],[15.16461075707748,37.837067621358784],[15.163882457186636,37.83683137655655],[15.163290808500339,37.83651595154321],[15.163170965278713,37.83641158056777],[15.16309810628855,37.836348126862006],[15.16298882312229,37.83625295268058],[15.162947025038669,37.83621611890301],[15.162835872389063,37.83610124584345],[15.162672352057456,37.83593224922665],[15.162323990000072,37.83557222295054],[15.16188047596202,37.83522307216824],[15.161777405369076,37.83514193032802],[15.161684700669685,37.83507714102174],[15.161534327682402,37.83497204869196],[15.161484392657389,37.83493715013066],[15.161383969815564,37.83486586812921],[15.16128630041734,37.83479870664736],[15.16108960602678,37.83467853279694],[15.160831887768676,37.83452107286778],[15.160740799524621,37.8344729347315],[15.16064308797195,37.83442129491548],[15.16056519942908,37.834380136204935],[15.160458864026737,37.834323934134005],[15.160427528114923,37.83430737117895],[15.160320673426812,37.834250900133824],[15.160272726508243,37.83421480489196],[15.160058053640379,37.834053198222634],[15.160026595603137,37.83402563965689],[15.159719000018317,37.83375617054397],[15.159668146478642,37.83371161979762],[15.159534654972559,37.83359467244832],[15.15950555867279,37.833566540619955],[15.159214956351676,37.833285354163955],[15.159159678473966,37.833213943778766],[15.159129827036736,37.833193103896],[15.159041447792413,37.833097330466785],[15.158967276784452,37.83301695483606],[15.158555828376699,37.8327100327281],[15.15819461902067,37.832387416240906],[15.158056179342267,37.83226376596245],[15.157950420131135,37.832180054290625],[15.157747153770636,37.832019163719686],[15.157715715270015,37.83199427922261],[15.157562500849517,37.83187300311003],[15.157454295428074,37.831810377346585],[15.157264889879078,37.831703768007635],[15.157215974278694,37.831676234685304],[15.156962613736843,37.83153363028615],[15.15670063757506,37.83116486874534],[15.156702494012292,37.83108952010995],[15.156704843129251,37.83099414973194],[15.156708777567419,37.83083450447262],[15.156711961515276,37.83070527089136],[15.156799055255048,37.83052673258311],[15.15687831885578,37.830364245791095],[15.156937249798897,37.83024343876846],[15.157041008923208,37.829991177618886],[15.157116228484853,37.82980830042852],[15.15712544254515,37.829783053556056],[15.157275715848195,37.82935264357949],[15.157345588263768,37.829195211638584],[15.157467930311034,37.82891955080926],[15.157499556761394,37.82871814998804],[15.157514832596664,37.82862089697946],[15.157523509690666,37.82856562999558],[15.15737627062903,37.828262863628815],[15.15711381658341,37.828092129084496],[15.15706704135296,37.828076035132405],[15.156716607436941,37.82795546786672],[15.156090890699767,37.82788480488953],[15.155488171353879,37.82790291754708],[15.155404462195257,37.82786757489029],[15.155359012338597,37.82784838660775],[15.15502361137521,37.82770678201029],[15.155064996904445,37.82744154107751],[15.155090156599,37.82728028546655],[15.154645913400609,37.827047084926285],[15.153999644299462,37.82695947891074],[15.153464205692382,37.82673071853347],[15.153370093104636,37.826690508989884],[15.153305445036189,37.8266628890336],[15.15325366964511,37.82659955855245],[15.153232465327312,37.82657362296932],[15.153063149892288,37.82636651562457],[15.152927979426797,37.82620117513729],[15.152948573974285,37.82613888152023],[15.153042243619034,37.82585554473485],[15.15307702230827,37.82575033914212],[15.153085432742628,37.825724898900376],[15.15327103682669,37.82543661463186],[15.153222133157971,37.82538715503608],[15.153182311283556,37.82534688183501],[15.152994195760735,37.8251567798329],[15.152942282201717,37.82510963441805],[15.152846709219471,37.8250228354073],[15.15255061911965,37.82475392628116],[15.15248083472003,37.82473045065805],[15.152332270164116,37.82468047347358],[15.152276602003404,37.82466174679571],[15.15211712258444,37.824608097118606],[15.15201981379747,37.82457536218502],[15.151913164772541,37.824539484383095],[15.151879379535048,37.8245281199019],[15.151692816987211,37.82448237524616],[15.151348528656325,37.82439797925271],[15.15092727618082,37.82423484314103],[15.150859392591139,37.824208226564735],[15.150766818362639,37.82417194733871],[15.150686893461433,37.82414061301853],[15.150453142225127,37.82404470721602],[15.15018772816056,37.823935809930894],[15.15009362254563,37.82389719833853],[15.149971346015144,37.82384094933843],[15.149887442160773,37.8238164202161],[15.149678075655045,37.82370603753835],[15.14961439511546,37.82367674372945],[15.1495857764521,37.82366357861452],[15.149527975189233,37.82363698900974],[15.14946964728159,37.82361013806727],[15.149422065778738,37.82358819244892],[15.149376059654184,37.82356706967402],[15.149320799083885,37.823541693247144],[15.148604276729358,37.823214724452754],[15.147956945906296,37.82303715136745],[15.147814472158267,37.82296142769277],[15.147775075289902,37.822940485371376],[15.147667819627578,37.8228781663221],[15.147479080579059,37.82278316115157],[15.147322204087773,37.82266635804374],[15.147276228673222,37.822632126548385],[15.146841005508287,37.822308074956496],[15.146754430284572,37.82220945161415],[15.146712912813596,37.82216215730574],[15.14667695087484,37.8221211907716],[15.146555462139709,37.82198279323622],[15.146399143002213,37.82180471789976],[15.146388020542279,37.821778634428995],[15.146263595136862,37.82150714085332],[15.14625483517076,37.82146233178118],[15.146226461249091,37.821399764688984],[15.146225049790015,37.82136483193307],[15.146203054593837,37.820820477322535],[15.14624070997982,37.820730385573846],[15.146439591682375,37.8202545591437],[15.14650057320239,37.8201032908003],[15.146577792641946,37.81991173248843],[15.146589541882339,37.819882586047],[15.14662120676551,37.81980403589746],[15.146661326364116,37.819726178680504],[15.146710867220554,37.81963004151686],[15.146746895856387,37.81956012264393],[15.14677355049022,37.81950839842433],[15.146853672055576,37.81935291416719],[15.146869061288635,37.81932305050064],[15.146976415080859,37.81907518251179],[15.146988568743122,37.8190471218911],[15.14701567162334,37.81898454048225],[15.147040546149723,37.81892711057645],[15.147072474861176,37.81885338777718],[15.147086753301384,37.818807430338985],[15.147191632011904,37.8184698823608],[15.147208926968602,37.81841421936128],[15.14732103416934,37.81781883810879],[15.147366020686576,37.81771594700995],[15.147383308564576,37.81767640570519],[15.147452215184922,37.81751880321548],[15.147649262141794,37.81706812106901],[15.147703827739464,37.8168564373054],[15.147715704260825,37.81681036355338],[15.147727471194042,37.81676112023687],[15.147690180963021,37.81667349219215],[15.147610756431652,37.81648685786027],[15.147578186023441,37.816410321068915],[15.147530610039627,37.816318653392386],[15.147457856006412,37.81617847461763],[15.147341711733045,37.81595469170659],[15.146873248187541,37.81557423483288],[15.146429874965024,37.81535894477999],[15.146394379469772,37.815348097433144],[15.146261550996702,37.81530750368898],[15.14613921266179,37.81527011615892],[15.14583909118204,37.815178394503604],[15.145559562057015,37.81512117987437],[15.145367732194863,37.81508191560382],[15.145319510693021,37.81507204491115],[15.145191307214438,37.81504580349011],[15.144991321595471,37.814955681936986],[15.144918499467945,37.81492286513128],[15.144815593171625,37.81487649147336],[15.144682998950826,37.81475298263315],[15.144349036573404,37.81444189951435],[15.144324191626485,37.81437484668613],[15.144273921035378,37.81423917296035],[15.144201831210463,37.81404460870411],[15.14413341738336,37.813796517858485],[15.144121311059202,37.81375350653252],[15.144037757730375,37.81345654999205],[15.14389298713634,37.813317964022794],[15.143863731383123,37.813289958567466],[15.143665951449398,37.813100626466436],[15.143602191446114,37.813082984044044],[15.143050512153263,37.812930347848166],[15.142995480402012,37.81292047084156],[15.142203258303178,37.81277827349402],[15.142074288680591,37.812755117871205],[15.141846995624702,37.81271432051369],[15.141514659635218,37.8126751691962],[15.140630416466289,37.81257099365208],[15.14019166781728,37.812512333896976],[15.139561812950136,37.812428121004196],[15.139517592960473,37.81242220830946],[15.13925140043341,37.81239201022798],[15.138973535359215,37.81236048711312],[15.13881182786159,37.81234214111744],[15.138164020159689,37.81227700980583],[15.137944776189052,37.8121281108022],[15.137505730456436,37.811829929322926],[15.137128108226833,37.81162017695417],[15.136550102740761,37.811362396520245],[15.136391109147395,37.811287832090194],[15.135799042286143,37.81101016325601],[15.135483544397717,37.81086805803318],[15.135340437567846,37.81080359957867],[15.135038135066578,37.81066743464186],[15.134138913927602,37.81025543607363],[15.133252096577788,37.80994176424869],[15.13283007083958,37.809752756958424],[15.13273450030726,37.80970995427628],[15.132429665648912,37.80957343034964],[15.132388292615492,37.809554900586626],[15.132358647831685,37.80953843912824],[15.131837782184093,37.809249206995474],[15.131751288904631,37.80920117695889],[15.131444447153337,37.80885268679771],[15.131392646472428,37.808672429417335],[15.131348995128793,37.80852052308439],[15.131308364304621,37.80837913244677],[15.131270225496795,37.807862758980875],[15.131225528910077,37.807257576796275],[15.13135227862653,37.80647092348785],[15.131395139192762,37.80640738174741],[15.13163247694183,37.80596729739467],[15.131828274677742,37.805682112120785],[15.131973143130535,37.80547109292153],[15.131986948513823,37.80542803025754],[15.132246815143253,37.80504263204009],[15.132336182126554,37.80490447424941],[15.132617971750204,37.80433623680302],[15.132639368423149,37.80388510434078],[15.132590331199978,37.80348219352006],[15.132574820048667,37.80335474446763],[15.132570250164827,37.80331719526733],[15.132569657178134,37.80305052222644],[15.13256869123436,37.802615252359075],[15.132761367178345,37.80209216693312],[15.132954991205555,37.80163203603856],[15.133145426160626,37.80112237340575],[15.13316892786722,37.80105949996109],[15.13319166126909,37.80099865844391],[15.133314879616792,37.80050169056131],[15.133305492904753,37.80014669320387],[15.133304510581487,37.80010937326753],[15.13330228827394,37.80002535679019],[15.133109469408222,37.799504407178425],[15.13298870855089,37.79924384032743],[15.132916024601556,37.799087011968794],[15.132785074398884,37.79884794906045],[15.132606874946417,37.79852263214882],[15.13258434127885,37.79848690186509],[15.132409280008105,37.798209298915985],[15.132338793459683,37.79809752090265],[15.132208516539485,37.79789093404319],[15.131697536218534,37.797593624431954],[15.131566233802653,37.79756743058578],[15.131047003334725,37.797463840789085],[15.130982454561792,37.797450966279506],[15.13067398666816,37.79746708024059],[15.13048098977044,37.797477162632894],[15.130288604814158,37.79748721184204],[15.129921737599014,37.797572080525725],[15.12967144752175,37.79762997589001],[15.129459491620759,37.79767901217157],[15.129367351566385,37.79769167536155],[15.128949163624732,37.797749149280314],[15.12871140753747,37.797781835043544],[15.128403220849469,37.797824193246136],[15.12738044325015,37.797877597113676],[15.127106002319351,37.79784362911667],[15.126357632564678,37.79775098698676],[15.125289942693325,37.79752770217746],[15.125007087067624,37.797463689399876],[15.124142681860018,37.79726806310631],[15.123107976314918,37.79699804272871],[15.121983203922783,37.7967102046132],[15.121006305901032,37.79632465442969],[15.120885489166367,37.79625555362597],[15.119982374919656,37.7957390291151],[15.11932447448808,37.79540863844366],[15.118983849528494,37.79523757811396],[15.11878970628814,37.79514683935957],[15.118368834167423,37.79495012885956],[15.117777162905316,37.79467045528873],[15.117164415399415,37.79439079159752],[15.117092597272462,37.79435801372553],[15.117051498240908,37.794339255894506],[15.116369254869317,37.794135908971064],[15.115959106240744,37.79401366254275],[15.114936325969197,37.79369795135189],[15.114061878764279,37.79341048399314],[15.113642112856665,37.79331626243961],[15.113448771117012,37.793272864411875],[15.1132319987157,37.79322420614412],[15.112436530695936,37.79300013193481],[15.112362164756437,37.792962205850316],[15.111731973566192,37.79264081446705],[15.111083899736117,37.79227853180483],[15.110346141441386,37.79191193729948],[15.10943571273275,37.79152280719878],[15.108753869943577,37.79118927353544],[15.108049532797125,37.79087491438871],[15.107959452957079,37.79079571604807],[15.107629114794682,37.790505277640776],[15.107583407067796,37.790458153566064],[15.107197130883423,37.79006423464659],[15.106504061425822,37.790109290614005],[15.105822232335145,37.79023027251149],[15.105254439591645,37.79008429174025],[15.104654484665888,37.78986312316793],[15.10452699732473,37.789816125362634],[15.103816560563793,37.78947055507701],[15.103582694740641,37.789357040246],[15.10344808906932,37.78929169397398],[15.10309162044953,37.789176210830114],[15.102538416240527,37.78899699034013],[15.102278038471313,37.788903321955516],[15.10166399510874,37.78868242244163],[15.101303327107487,37.78852479923621],[15.101113022160606,37.78844162811529],[15.100697745201577,37.788260136129445],[15.099948506800416,37.78791655781566],[15.099244233191722,37.7876021396668],[15.098356245012878,37.787243254639634],[15.09741455748324,37.78696366712093],[15.096596625243563,37.7867867381758],[15.096391206175246,37.78674230184434],[15.095529130851093,37.7865467002299],[15.09535829217919,37.78650793666498],[15.094412496969092,37.78650752272198],[15.09409784522736,37.78650588350284],[15.093245422609467,37.786689639348516],[15.092393925634093,37.78684185541505],[15.091269933247638,37.786895692845086],[15.090918312374859,37.78693441739931],[15.090110884680437,37.78702333897235],[15.08899802110584,37.78712606930347],[15.087851768945049,37.78728003275508],[15.0870221944267,37.78725105856828],[15.086283630904228,37.78701033693443],[15.085431187717342,37.786703515477186],[15.085239475890202,37.78664360744962],[15.084307156027887,37.786352260910505],[15.082795706343903,37.78623708742156],[15.08120700556618,37.785932387716564],[15.080592491406184,37.7857257181599],[15.079559878357495,37.78560100175021],[15.079184289088044,37.785555637325565],[15.078289041354173,37.78537701024462],[15.07800246110887,37.785319828765516],[15.077388471857125,37.78516260611448],[15.076492409817202,37.784988483033985],[15.075855525047468,37.78484594988188],[15.075334254380907,37.784755918887335],[15.074321937916661,37.784538300410105],[15.073880274659436,37.78439524839091],[15.073686956902113,37.784332633495296],[15.072879182732756,37.7839559049561],[15.071938201868267,37.78364006907972],[15.070346950017417,37.78318233633676],[15.069325409566712,37.7827311232899],[15.068200142350303,37.78241402312128],[15.067881548245095,37.78232424158646],[15.065814019188691,37.78202156975306],[15.064235146786165,37.7816621163725],[15.062520875041168,37.781095982802306],[15.062019794924925,37.78093049626396],[15.061894777792416,37.78088017695427],[15.060305434821187,37.780240470052036],[15.058147345365837,37.779402296981566],[15.056841177665373,37.7789568842759],[15.055984207435055,37.77866463709271],[15.055556808153156,37.77851887806595],[15.053750868700176,37.7778514675591],[15.052320004188193,37.77737621284561],[15.051218081159028,37.77700549680508],[15.051161916637758,37.77698211702833],[15.050525444059568,37.776717176923846],[15.04969546744685,37.77640443053528],[15.049613326170082,37.776379391391835],[15.048685139773731,37.77609645212971],[15.047697033675384,37.77577384585976],[15.047015797305482,37.77551190462137],[15.045879677189916,37.77502588294587],[15.045482980501152,37.775033736921344],[15.045027768943847,37.77504274755185],[15.044324857012711,37.77544347862441],[15.043733212884147,37.775514437255964],[15.043222028432611,37.77522572713923],[15.042495215756274,37.77482210399451],[15.042122919044667,37.77466731748438],[15.041599458914353,37.77444967941268],[15.040951424610272,37.774307523406975],[15.040394642825023,37.7741111574102],[15.039804749587022,37.773843590662445],[15.039735214292646,37.77381204891669],[15.038919481213476,37.773525493286684],[15.038282339768072,37.77311722985608],[15.036464736293851,37.77222514204659],[15.035344996825867,37.771877945624105],[15.035045480400743,37.771785071594756],[15.034126116972871,37.77139109599395],[15.033704531021767,37.771210429841204],[15.032864127228214,37.77078559412588],[15.031671373047136,37.77031583209903],[15.030252024361367,37.76982171185073],[15.02942362033416,37.769517728921926],[15.028572085180208,37.769138409261],[15.028447913748403,37.76908645557845],[15.027901509581572,37.768857831487786],[15.026777676609656,37.768406985950264],[15.026016273505785,37.768072531536845],[15.025257544958656,37.76781445490216],[15.02435917286267,37.76746001490381],[15.024159038092115,37.76737417242387],[15.023609475517587,37.76713845450065],[15.022973259733586,37.76676605460952],[15.022770017975553,37.76661673242008],[15.02234917418359,37.76630753466875],[15.021723997916398,37.76595706866038],[15.020975458041919,37.765675931063896],[15.02032827901373,37.76554260861218],[15.019532578332765,37.76556989477377],[15.018897869151727,37.76562494214303],[15.01811518633215,37.76549855261713],[15.017614047390284,37.76521820474071],[15.017092685649033,37.76496567830901],[15.016967100120194,37.7649048510046],[15.017092665244974,37.76488086365993],[15.017546747008161,37.764794126505755],[15.018476781250268,37.764309930953814],[15.019192065049374,37.763904223195894],[15.019908238514807,37.76356149029878],[15.02057798287616,37.7631536116558],[15.021195613875653,37.76287246004497],[15.02192877806975,37.762476787872544],[15.02242799232547,37.76229816587437],[15.02276866269167,37.76219339108733],[15.023165593382217,37.762071311803055],[15.024028307181581,37.761919050470034],[15.02483420868861,37.76176518054913],[15.025674444476133,37.76165006109889],[15.02631052000283,37.76159490791786],[15.027104524424336,37.76148664788116],[15.027956132550765,37.761429436183285],[15.028445001079877,37.76147933787454],[15.028865448491551,37.76152225311745],[15.029808302436528,37.76177986744776],[15.030545404909164,37.76201652111974],[15.031488888384805,37.76236859713669],[15.032352135278309,37.76266627990407],[15.032805553324126,37.76286548422279],[15.03321419579413,37.76304501393509],[15.034122458902184,37.76342994001928],[15.034189640500825,37.763458412123335],[15.035121389041423,37.76376154831398],[15.0360865395663,37.76415297067612],[15.036858810536161,37.764455295712835],[15.03808544742047,37.76495926608602],[15.038993869334535,37.76536707367634],[15.039528394651173,37.7656996001093],[15.039800623228059,37.766151228533076],[15.039891480524888,37.76630195940395],[15.040096083381126,37.76688998333457],[15.040357246205923,37.76736797918674],[15.040607206942505,37.76790777097116],[15.040959352100838,37.768618710561846],[15.041210007689887,37.76925835330888],[15.041313041384875,37.769496076588936],[15.041834607399371,37.76973025264333],[15.042425911709948,37.76991582261095],[15.043153125621496,37.77011691991136],[15.043765483697491,37.77037791514341],[15.044662990991508,37.770763747844285],[15.045480604263147,37.7711540132128],[15.045514012339519,37.77116995949075],[15.04635406012535,37.7715722302955],[15.046717148221978,37.77171847434924],[15.047098703733619,37.771872172657844],[15.047182028504514,37.77190581239214],[15.047817921236735,37.77223759306964],[15.04865845393191,37.77267132475831],[15.049612114904443,37.77304970863397],[15.050634212624901,37.77330306317186],[15.051157046810845,37.77337055708953],[15.051655596332703,37.77343491441631],[15.052459931195264,37.773581784599145],[15.052545021736513,37.77359787248221],[15.053521840075003,37.773808521237136],[15.054974924299763,37.77419260773399],[15.056019699272454,37.77446273466482],[15.056837854117191,37.77461650252319],[15.056940300023522,37.77463575639906],[15.058438580791483,37.774904970018774],[15.059586308637536,37.775021252785976],[15.060859109613126,37.775297554625695],[15.06157255749804,37.775467740742144],[15.06252587838069,37.775675653299366],[15.063560232479833,37.77580160599787],[15.064435052084223,37.77589144021527],[15.06533198994114,37.776043108718454],[15.06597954273856,37.776135657988846],[15.06633853802001,37.7762031398641],[15.06646506748636,37.77622692445992],[15.066843318002357,37.77629802612337],[15.06729280042118,37.77637062759391],[15.067877593455067,37.776465083947386],[15.068194732951234,37.77652560130844],[15.068694067184316,37.77662088597959],[15.06963634217439,37.77682418779781],[15.070341417878947,37.77690924056823],[15.071465825486978,37.77712111655944],[15.072339414416886,37.77725593097227],[15.073521589416387,37.777428779038644],[15.0738734423493,37.77753210056686],[15.07440761850241,37.777688959443786],[15.075031595920098,37.77779617099296],[15.07587234638406,37.778022683442074],[15.076337424974223,37.778102112342125],[15.07738985696909,37.7784121444013],[15.078236056892235,37.77868784952111],[15.078893421258059,37.77884733708017],[15.079552805373286,37.77900551014467],[15.079757414130086,37.77905459157339],[15.080530630802377,37.77924406896412],[15.081369763174074,37.779407601464285],[15.082085302120687,37.779550547778456],[15.082879455307038,37.77966690641969],[15.083675125493002,37.77981016819567],[15.084776986616264,37.78001408592239],[15.085231976733143,37.7801149078871],[15.08591257526292,37.780265718596645],[15.08700415669481,37.7804566370007],[15.087877974573148,37.78063633211256],[15.08885601308294,37.78085111246713],[15.088900624744726,37.78086289505818],[15.089810206228519,37.78110313889661],[15.090649657918384,37.781347600146425],[15.090911550272773,37.781413298660425],[15.091615842847832,37.781589975087265],[15.092796835479515,37.78190220425868],[15.093876280368727,37.78213418353671],[15.09501163221757,37.782313739639264],[15.09605826188622,37.78244839744702],[15.096591035922726,37.782493996138676],[15.096909118829489,37.78252121760279],[15.09754428284985,37.78258273032304],[15.098123806711612,37.78263811701647],[15.098782705187197,37.78262637150949],[15.09973661936145,37.78259930928421],[15.100667872617981,37.78253743846066],[15.101474441959176,37.78262600135825],[15.102099423046985,37.7826608233679],[15.102269447373123,37.78267029686953],[15.10239368296151,37.78267721742051],[15.103462893854056,37.7827161307482],[15.10393900446841,37.7827138791638],[15.104517446374919,37.7827063047336],[15.105291342723929,37.78277405062999],[15.1063923751072,37.78282929079562],[15.107187500780455,37.78281942375533],[15.107462829110426,37.78285288361604],[15.107913483509169,37.782907653059425],[15.107948021942365,37.78294609327875],[15.108141396116736,37.78316130048847],[15.108175408536981,37.783564552865],[15.108324134311205,37.78424083808695],[15.10863178578032,37.78439582731187],[15.109961061873332,37.78432214211629],[15.11072140862012,37.78416554976905],[15.111992210335458,37.78378890044431],[15.112662553367585,37.78379447008174],[15.113524473044864,37.78380358831327],[15.11362756262227,37.78382392780538],[15.114354519346646,37.78396735156955],[15.11520714965105,37.78421544253322],[15.116069858494898,37.78438650639821],[15.116989811289162,37.78460403333113],[15.117705284719891,37.784485788955834],[15.117733945145048,37.784467279883536],[15.118016131077496,37.784285076015635],[15.118162722745987,37.78418801516838],[15.11820698857696,37.784158706613695],[15.118287469714202,37.784105395414606],[15.118340685401247,37.7840701534511],[15.11898800118762,37.78372581225836],[15.119305608354596,37.78368530915659],[15.119703068351402,37.78363462158265],[15.120736922149613,37.78357170038816],[15.12133146192278,37.78339412379266],[15.121373794258671,37.78338147926122],[15.121452989786805,37.783357824538726],[15.1215763469197,37.78332097974041],[15.122010546524981,37.783401562506924],[15.122152662709956,37.783427936731414],[15.122200705169952,37.78343685334053],[15.122331939033828,37.78348187763944],[15.122447409876521,37.78352149211523],[15.122804140309947,37.78364387829111],[15.123473400579202,37.78370343178819],[15.123939512423373,37.78358466408769],[15.124068454177015,37.78348622905148],[15.124162805151853,37.7834142030256],[15.124208675995465,37.78337918419657],[15.124251285428826,37.78334665851773],[15.12432549268542,37.78329001290073],[15.124982804379222,37.783056657920845],[15.125142753372653,37.78299987220534],[15.125901826479147,37.7828027521977],[15.126686198700625,37.78301382677615],[15.127367826098562,37.78330225348407],[15.127776151937445,37.78347929731232],[15.127969942699792,37.78356331951151],[15.128102994084365,37.783626207918196],[15.128561551839809,37.78384294694253],[15.12910703673554,37.7841474671441],[15.129149657739907,37.784184075453396],[15.129368796308384,37.78437229819639],[15.12941685151322,37.784411418138376],[15.129554920514257,37.78452380939547],[15.129779229420983,37.78470640067321],[15.129867173564726,37.78477513744358],[15.130258954967763,37.78508135338633],[15.130391934518366,37.785185290723945],[15.130459233101913,37.78523788941417],[15.130598657807807,37.78533064982917],[15.130665097149594,37.78537485272988],[15.130738325442515,37.785423572883374],[15.131029776293778,37.785617478145234],[15.131793813408311,37.785329321034936],[15.13184659172815,37.785309415429545],[15.132092913479498,37.78528837454961],[15.132157182800613,37.78528287566561],[15.132223309882685,37.78527721488504],[15.132312658943402,37.785269569488065],[15.132522781139167,37.7852515908204],[15.132663194218923,37.785235259535845],[15.133265758645024,37.78518128643704],[15.133859789532371,37.78522095841363],[15.134322450439573,37.785252063005395],[15.134629294569486,37.78529919132117],[15.134803304313825,37.785325916923945],[15.134988786316184,37.7853544052114],[15.13519687725269,37.78538636639481],[15.135753322274436,37.785600275062],[15.136242144564967,37.78585373383506],[15.136296239368365,37.78591563709662],[15.136344576391995,37.78597095249161],[15.136697182852219,37.78637445866177],[15.13759322025842,37.78716825604609],[15.137675702979482,37.78724132589919],[15.137745085786737,37.78731422929638],[15.13822241999496,37.78781576739709],[15.138507949765897,37.78797366243849],[15.138704210243572,37.78808219225445],[15.139233532783985,37.78837489829827],[15.139397488429776,37.7885195221759],[15.139471303434716,37.7885846341306],[15.140110049833583,37.789148058816636],[15.140598332326945,37.789590532971545],[15.140695251311152,37.78972428139634],[15.14076862100037,37.789825531337556],[15.141053896034347,37.79021920899934],[15.141393875766218,37.79056688125189],[15.141512884275711,37.790688580854116],[15.141535785693549,37.79071200015375],[15.141730715452868,37.79091133709998],[15.141861861867355,37.791045446198574],[15.142032804522833,37.79108831178671],[15.142309583202232,37.79115771632924],[15.142433951607353,37.79118890174056],[15.142607758081352,37.791224364127366],[15.142761701503126,37.79119556767313],[15.143078581454562,37.791136292915255],[15.143435165903808,37.79095450856698],[15.143645267678924,37.79084516623848],[15.144337239750199,37.79077189537017],[15.144985834782911,37.79110691865793],[15.145565927797794,37.79163007267203],[15.146385536434218,37.79219466686252],[15.146583108633486,37.79226135792019],[15.146626934283193,37.792276147059006],[15.146740143039473,37.7923143599983],[15.147043384034227,37.792416715769896],[15.147204380260867,37.792472057678665],[15.147356770633975,37.79252405829253],[15.147714736384248,37.79265746885187],[15.148134731174853,37.79281465765634],[15.148259899250853,37.79286150296776],[15.149090679804335,37.79307448403452],[15.14945559118149,37.79309958109299],[15.149602823843205,37.7931097077715],[15.14977478448407,37.793121532928694],[15.149907697937968,37.7931306742796],[15.150313894476511,37.79316022405847],[15.150680268313954,37.793189189924526],[15.151498466834209,37.7933533022649],[15.152440974020397,37.79336689863717],[15.15339521348579,37.79340087884818],[15.153463331031915,37.79340330426441],[15.154331093085577,37.79344374949047],[15.154371882295422,37.793445652571535],[15.154507213252906,37.7934346875587],[15.155062240113962,37.793389715779156],[15.155473409613029,37.79335639876907],[15.156347309010993,37.79329256934184],[15.157346516312561,37.79330761215316],[15.15800310333272,37.793138291354445],[15.158266561261321,37.793070349808836],[15.158363806500166,37.7930387098554],[15.15907294262362,37.79280670661168],[15.15915178588569,37.792780911672445],[15.159637363788878,37.792668758014905],[15.159958530670792,37.792594577153416],[15.160504024442128,37.79255693013643],[15.160589256802742,37.79255037529701],[15.161245865518433,37.792499096119805],[15.16142384555456,37.79245832363655],[15.162183942911287,37.792284220562735],[15.162244177864025,37.79226792473861],[15.163092036329235,37.79203853565137],[15.163784426744105,37.791858179323654],[15.163987094363636,37.79181609204148],[15.16413453267378,37.7917854733976],[15.164208736207677,37.79177006386429],[15.164567599324066,37.791695538576704],[15.164637325139557,37.79168151689963],[15.164745421474548,37.79165977444909],[15.165203391839025,37.7915676453615],[15.166339915963475,37.79149444289898],[15.166650896319299,37.79144125733105],[15.16709926362438,37.79136457392479],[15.167626170680384,37.791422042465484],[15.16790650192044,37.791452615446914],[15.168038544773227,37.79162425358548],[15.168269189679345,37.79192405458378],[15.168657125998976,37.792488650405566],[15.16896622547578,37.79246551729175],[15.16942640815567,37.79243107437068],[15.169463832767407,37.79242827361615],[15.16980946072248,37.79228745024963],[15.170224502853747,37.79211834295771],[15.170429310576745,37.79214029533277],[15.170525939281495,37.79215065205421],[15.170692551675288,37.792168519919564],[15.1707991438796,37.79217996267949],[15.170872001129544,37.79218778171501],[15.170965908594486,37.79221013980769],[15.171490362643949,37.79233525874322],[15.171713096409421,37.79238654641924],[15.172849502529692,37.79261028525512],[15.173025959092053,37.79260411175019],[15.173870910489557,37.79257454616885],[15.174132352794192,37.79205679928251],[15.174802317411721,37.79192255165009],[15.175539799294775,37.7917307401347],[15.17609526251408,37.791269513669036],[15.176004158582595,37.79068400626662],[15.17597932807993,37.790524432105514],[15.175968165378713,37.79045275981779],[15.176100313025666,37.790468397066654],[15.176189679414577,37.79047898459282],[15.17648101298606,37.790511882032455],[15.176809142067897,37.790512194794715],[15.176969391131749,37.79051234778931],[15.177023126545862,37.790512398745875],[15.177233876176215,37.79051259886228],[15.17730724819942,37.79051266915304],[15.177614670769769,37.79073048395608],[15.177673820004788,37.79080748997717],[15.17773119790822,37.79088218975945],[15.177877124250301,37.791072170006856],[15.178010058813197,37.791176970558006],[15.178169647262953,37.79130242453055],[15.178200990973302,37.7913274942114],[15.178319758568085,37.79142112484483],[15.17850316290788,37.79156571083587],[15.178579842920234,37.79163898447532],[15.178760358868093,37.791811479491855],[15.178936235991268,37.79197974264948],[15.179106299975235,37.79242946584794],[15.178846341114665,37.79275366187208],[15.178415828281754,37.79299683203395],[15.177975812127972,37.793261294055256],[15.177776251943797,37.793381233898025],[15.177587021545898,37.79349496497135],[15.177443117994304,37.793597385319146],[15.177278030211724,37.793714882518046],[15.177054461177981,37.79387400264878],[15.177105844157444,37.79396361920037],[15.177137179870812,37.79401827132646],[15.177288855248324,37.79428280758627],[15.17732746735358,37.79435015029744],[15.177357882702946,37.7944294860636],[15.177447433287306,37.794663066262046],[15.177554202424915,37.79494155357373],[15.177591275853283,37.795038253822895],[15.177517774696922,37.7953743829982],[15.177455886948398,37.79565740375231],[15.177374505656493,37.7959445124468],[15.177350471925754,37.79602929910674],[15.177253886329153,37.79637004716975],[15.17720999481427,37.79693035638976],[15.177243891453445,37.79708157688625],[15.17727451286271,37.797215175530155],[15.177314208429067,37.797388367080295],[15.177345967310643,37.797533573645154],[15.177497689528547,37.79761378253133],[15.17777911565812,37.79775990907556],[15.178164313254586,37.79741562933107],[15.178640882770399,37.79714870033142],[15.178811691735548,37.79705302847614],[15.178861242459526,37.79701267560273],[15.178980148147463,37.79691584009324],[15.179231138127298,37.79671143965477],[15.179934010924324,37.796368433839945],[15.180785325244281,37.79628310442509],[15.18144755294202,37.79629321666871],[15.18156854728482,37.79632328330928],[15.181788418758245,37.79637792023376],[15.181970289434418,37.79642311392773],[15.182194640599656,37.796478864106625],[15.182565742984565,37.79660207084683],[15.182990128300766,37.79674296512598],[15.183649604001797,37.796982708831955],[15.18448982764278,37.79686643515491],[15.184521712491637,37.79685938625942],[15.184827045532948,37.796791880762804],[15.184952545459325,37.79676413425978],[15.185024342833119,37.796748260402836],[15.185102969819994,37.79672526564798],[15.185624937758131,37.79657261206351],[15.185668332567218,37.79657575544698],[15.186487926868349,37.796635115200935],[15.186588170391143,37.796620916060604],[15.18668427432195,37.79660730317135],[15.186790484342215,37.7965922583095],[15.186854442576951,37.79658319840354],[15.18694328619357,37.796570613371856],[15.187228627272662,37.79652320892807],[15.187417446647306,37.79649183792155],[15.187476975336788,37.796481948307324],[15.187578111969048,37.7964651461008],[15.187855600985204,37.79656202927312],[15.187947607591779,37.79659415313125],[15.188044479900212,37.79662504293342],[15.188086771060044,37.79664729506959],[15.188208608081876,37.79671140181801],[15.188285478387417,37.79675184765436],[15.188549167986816,37.79668668592904],[15.188771645647941,37.79663170798615],[15.188975004425865,37.79670997940718],[15.189852486658882,37.79704882559535],[15.189998264578103,37.79724673058501],[15.1901019967117,37.797387554118195],[15.190148082190126,37.797450117554106],[15.190274718164755,37.797929436786916],[15.190297701940578,37.79843223184855],[15.190343869586172,37.798769010004676],[15.190377932360835,37.79901749562039],[15.190883281780923,37.798768137199744],[15.190980395474037,37.79872021748032],[15.191217915141769,37.79839881900595],[15.191237194592928,37.79837273114943],[15.191270970557284,37.798327027745295],[15.191354143299478,37.798214480823425],[15.191397626354965,37.798210894284495],[15.191808241713108,37.79817702927827],[15.19214708673261,37.798394698564245],[15.192175503464485,37.79843012747912],[15.192272428962827,37.7985509686914],[15.192332891410874,37.798626350108755],[15.192351609254796,37.798662669664225],[15.19240436556588,37.798765155593955],[15.192492584804516,37.798936224805004],[15.19258349904581,37.799112634586585],[15.192618238218605,37.799493303268456],[15.192654286984679,37.7999233944144],[15.192757383738835,37.80034996441184],[15.192849127175174,37.80083561972405],[15.19273720491007,37.801251031917516],[15.192679935666694,37.80150629834169],[15.192670630471248,37.801547780383665],[15.19263605756906,37.80170187407544],[15.192699305452976,37.80174286550586],[15.192757683752065,37.801780701939165],[15.192927461019451,37.80189073805027],[15.192998978653511,37.80193709344656],[15.193034100670163,37.80195985247884],[15.193080430723173,37.80199250421537],[15.193179948006017,37.8020626414937],[15.19325209554659,37.80211348963203],[15.193385028744066,37.80220717592331],[15.193443983440826,37.802248726509724],[15.19367718253349,37.802426562635745],[15.193756330764058,37.80248692484899],[15.194001399334002,37.802673808893815],[15.194405664952582,37.802893295182365],[15.194671474981643,37.80303894597961],[15.195094758739517,37.803098085334845],[15.195474715183282,37.803151168473605],[15.195517265191777,37.803165816054396],[15.195535176338746,37.80321048288791],[15.195554164064227,37.80325782890685],[15.195697305571016,37.803614795914186],[15.195624272393244,37.80379890856675],[15.19558306237751,37.80390277825716],[15.19547396778207,37.80417778415377],[15.195460277020308,37.80421229334738],[15.195397195227027,37.80428092315707],[15.194882061835989,37.80484133008245],[15.194453941749611,37.805484926893044],[15.194294502977769,37.806204342439074],[15.194292430688392,37.80639931394443],[15.194291555056996,37.80648192620552],[15.194287167239509,37.806896101337486],[15.194286520934172,37.80697329063284],[15.194309204483234,37.80752742022912],[15.194304424164457,37.807775665000754],[15.194299184002338,37.80803561798292],[15.194260332359462,37.808228751887924],[15.194239420252623,37.8083326954806],[15.19421270481148,37.80846549464642],[15.194175682915182,37.80864952824849],[15.194029285591188,37.80863371999566],[15.193796671910189,37.808608599627036],[15.193756754349725,37.808604290479714],[15.193188174205247,37.808761855226194]]]}}]}
