{"type":"FeatureCollection","metadata":{"code":"094028","referenceDate":"2026-01-01","sourceDbfExportDate":"2026-02-18","upstreamArchiveUrl":"https://www.istat.it/storage/cartografia/confini_amministrativi/non_generalizzati/2026/Limiti01012026.zip","sourceManifestSha256":"70ac8256c4785dc6ed2814c32b6965ae76f9161b51abaa1660059e1c6cbd8ca6","license":"https://creativecommons.org/licenses/by/4.0/","attribution":"Istat, Confini delle unità amministrative a fini statistici al 1° gennaio 2026, versione non generalizzata.","modifications":["Converted from WGS 84 / UTM zone 32N (EPSG:32632) to RFC 7946 WGS 84 geographic coordinates.","Converted from shapefile to per-municipality GeoJSON without geometry simplification."]},"features":[{"type":"Feature","id":"094028","properties":{"code":"094028","name":"Montaquila","alternativeName":null,"regionCode":"14","regionName":"Molise","territorialUnitCode":"094","territorialUnitName":"Isernia"},"geometry":{"type":"Polygon","coordinates":[[[14.125488620216098,41.579182525066535],[14.12513772270448,41.57936926535775],[14.125113576056096,41.5793883614336],[14.124920527227895,41.579541026170894],[14.124653902989753,41.57965647588161],[14.12428273335471,41.579776597735844],[14.123835750339449,41.579810075686034],[14.123536694830369,41.57981893646844],[14.123390713810343,41.579816558462085],[14.123167516939331,41.57981292419169],[14.122759152125319,41.579804158926706],[14.122701883927682,41.57979500884154],[14.122637717395847,41.57978482634167],[14.122575074603649,41.5797746405589],[14.122279387551965,41.57972656003487],[14.121861138709859,41.57966871637035],[14.121645872330284,41.579610694982854],[14.1214170078972,41.57954900855737],[14.121013129741934,41.579445505660864],[14.120652848688295,41.57936256298769],[14.120209852681702,41.57933282740764],[14.119873888062596,41.579329822928145],[14.119418654636231,41.57937265494614],[14.119009789780721,41.579395409164476],[14.118443470579484,41.579398181883086],[14.117857454579024,41.57937932326598],[14.117353652913684,41.57933878667626],[14.116658830974218,41.57927076005865],[14.116193861806048,41.57922848561159],[14.115662884518818,41.5792611783341],[14.115027567001864,41.5793390356038],[14.11459651981485,41.57930874608377],[14.114107538466982,41.57911448320285],[14.113701429660686,41.57883099455193],[14.113202223270934,41.57858316629238],[14.112805250743822,41.578528843825794],[14.112397657089492,41.57860553500517],[14.111999490251113,41.57883935698091],[14.111745760358275,41.57908024462239],[14.111344545188219,41.57923767521801],[14.111048215499233,41.57912934294328],[14.110798151825797,41.578847891694764],[14.110827654508459,41.578576487933184],[14.110839344217649,41.578458928157445],[14.11080723846067,41.57828029981954],[14.110604369740777,41.57814079171675],[14.110327945137378,41.57809459175913],[14.109957107344279,41.57821915300577],[14.109497924364037,41.578401667820515],[14.109052053962541,41.57852506873921],[14.108702421921747,41.5785766576279],[14.10852249317845,41.578575670268286],[14.108131243539782,41.57840403678774],[14.107940631712996,41.578191955238715],[14.107571460056256,41.57792030362345],[14.107238892929008,41.57778018295819],[14.107155967511599,41.577745244060694],[14.106773077061183,41.577717282470715],[14.10621942250494,41.5777284324366],[14.105773951282751,41.577932829424306],[14.105686917231543,41.578121265468965],[14.105779199964465,41.57845476875349],[14.10569247805893,41.57857115741959],[14.105363401828585,41.578499700651086],[14.105270459483382,41.57847951670864],[14.10499116838803,41.57838089042478],[14.104926232876233,41.57835769840164],[14.104869240248204,41.57835802077068],[14.104578676811965,41.57835966720655],[14.104370985684705,41.57841247707693],[14.104190210235984,41.57845844272481],[14.103870489762986,41.57853973881525],[14.103421122879032,41.578760006886796],[14.103325061580517,41.57880709421266],[14.102930416212219,41.57882015578895],[14.102602793005786,41.578960776412075],[14.102205912293442,41.57905946318779],[14.101848482291647,41.57901234526566],[14.101511497108921,41.579072351697064],[14.101292776602962,41.57914960474138],[14.100967114400946,41.57935315496464],[14.100764071265267,41.57951418183552],[14.100738609340913,41.57953437569241],[14.100588872134697,41.57980212316429],[14.100370981093516,41.58011791531498],[14.100319627495464,41.580182608648336],[14.100174664456173,41.58036522721849],[14.09993278963609,41.580529035781524],[14.09943857652651,41.58068605927475],[14.099027806234492,41.58079885742312],[14.098704485002568,41.580804230584455],[14.098285928620752,41.58081833937953],[14.097815017283759,41.580852779338265],[14.097324257147905,41.58090160426312],[14.096855232777608,41.580845926546466],[14.09632854972199,41.58074329335636],[14.096026083016094,41.58063294378103],[14.095769839409426,41.58053854553472],[14.095350345182913,41.580426642130014],[14.095127991068477,41.58034420159317],[14.095034216139862,41.580309432494275],[14.0948624653778,41.580245752666784],[14.094485614391193,41.5800662766731],[14.094361031439286,41.58000694320626],[14.09394112441477,41.580102488337495],[14.093795628239588,41.58013559413524],[14.093411152428278,41.58012566343407],[14.093360542459225,41.58009561547954],[14.093150142231757,41.57997070104486],[14.092630604137343,41.580110813779],[14.092199939323764,41.58016144934221],[14.091756586703063,41.58012711825816],[14.091623400950024,41.58014878726216],[14.09139568599352,41.58018815774383],[14.091068765110835,41.580414243696886],[14.090789605592015,41.580561682238375],[14.09041604598752,41.580614277545564],[14.090044927049618,41.58062174787264],[14.089747377768715,41.58056852549458],[14.089661831041141,41.58055322324262],[14.089536837100512,41.580574895371285],[14.089312873039994,41.58061372612274],[14.088856729639962,41.58068348604539],[14.088531830373205,41.580706906553175],[14.088029761803863,41.580612145692974],[14.08760891917584,41.5806353189151],[14.086436987275924,41.58048473940464],[14.085861465915892,41.58037071919284],[14.085527770132623,41.58035850978451],[14.085059296257755,41.580347774410846],[14.084588398997841,41.58045868454002],[14.083999236069022,41.58055232913831],[14.08358276713678,41.58051677437577],[14.083245376500843,41.58049571898487],[14.083130195638253,41.58047970421092],[14.082754392783466,41.58042745180489],[14.08267083051895,41.58041831978147],[14.082373419168574,41.58038581779438],[14.082201186508572,41.58037127090908],[14.081953964384219,41.58035038938797],[14.081658193478564,41.58031177895122],[14.081439084662644,41.580283175482144],[14.08103122713881,41.5802427282242],[14.080334129498834,41.58018358373065],[14.080086931831032,41.58015056087842],[14.079950257936323,41.58013230160184],[14.079903952300342,41.580126115014025],[14.07966321179716,41.58011427219749],[14.079569595136705,41.580109826419495],[14.07931031029277,41.580097512329786],[14.079172771421531,41.58009098005902],[14.078933256230714,41.58005657366595],[14.078892192796252,41.580047224881234],[14.078502896523565,41.57995859464724],[14.07714893756451,41.579779967823434],[14.07690977766268,41.579750042975085],[14.076756189824984,41.57970282379851],[14.076599615029261,41.57965573754173],[14.076434078739785,41.57960904776916],[14.076289805452395,41.579565917179195],[14.07608700102301,41.57942634486064],[14.075994020292853,41.57927290793736],[14.07596026118612,41.57914835959581],[14.075999407536477,41.57892155091481],[14.075988841887515,41.578786972844576],[14.075821729754807,41.578758358121334],[14.075533904527514,41.578757592770195],[14.07553718166392,41.578379320694744],[14.07550971417196,41.57802941777553],[14.075403366711466,41.57778203925616],[14.07519176710833,41.57753031651345],[14.074978067986976,41.577328202482356],[14.074729933015576,41.57714561811745],[14.074454041785192,41.57699127073741],[14.074241936247573,41.57684760499318],[14.07410098911461,41.57665577479516],[14.074007292031355,41.57634031268527],[14.07396629740273,41.57593248843376],[14.07404215849181,41.57560052097954],[14.07418127101221,41.575234243923575],[14.074304922963542,41.57490016170685],[14.074367959888434,41.57459577083852],[14.074328373267523,41.57420589062969],[14.074261722263735,41.57377669391128],[14.074132539628351,41.57346730351878],[14.073861040714657,41.57317771431486],[14.073624340958029,41.572949605776984],[14.073257789598323,41.572632710294315],[14.072997543337948,41.57233361802236],[14.072833229950936,41.57203478318635],[14.072719523438765,41.57176972205879],[14.072650793074606,41.571466658924706],[14.072570811887944,41.57109657000211],[14.072458672617621,41.57066038090862],[14.072416295123876,41.57031113728825],[14.072420298620283,41.569941835062636],[14.072426757643207,41.56952740953118],[14.07247994223493,41.569020887008136],[14.07252381433609,41.568510274803025],[14.07261722399488,41.56794345274161],[14.072695355937888,41.567449330431494],[14.072847276933222,41.566978954394024],[14.072938399853694,41.56642123636523],[14.073090309502604,41.565874334028344],[14.073227815720116,41.56537308336167],[14.073416263787697,41.56483356740397],[14.073790884486979,41.56391668962719],[14.073890460113962,41.563619685586225],[14.074111072529883,41.5632993192342],[14.074354528080825,41.56304096358166],[14.074633475592174,41.56285306190453],[14.075005886374523,41.562710539924566],[14.075451217443259,41.5626953330125],[14.075871077941503,41.56269925790766],[14.07637228808137,41.56278511002829],[14.076719782793376,41.56285975830322],[14.077005618660808,41.56295063979365],[14.07715072805388,41.56296672268181],[14.077953009552974,41.56284117122561],[14.07855622539531,41.56258488312506],[14.078968138349184,41.56237307571516],[14.07943784592336,41.562172211770175],[14.08007775876604,41.56188728109396],[14.08058366428418,41.56176583704294],[14.080980817509964,41.56159519033698],[14.081334749924983,41.56140845105218],[14.08166056222109,41.56116893895678],[14.082095974640541,41.56087505214987],[14.08250574994273,41.5606363185198],[14.082821722016696,41.56042424769854],[14.083123819071668,41.56022629655704],[14.083486324528067,41.559958143733105],[14.083887999881359,41.55969275408035],[14.084165328837127,41.55952290750385],[14.084493069005207,41.559346322880025],[14.084903364761766,41.55915257236878],[14.085250802707154,41.559074145460436],[14.085662008649301,41.559006394408826],[14.086118127438445,41.55874758678376],[14.08650400681757,41.558586424281216],[14.087027037132675,41.5583021376786],[14.087087230351322,41.558114905997655],[14.087213235473323,41.55773569086658],[14.087313094217427,41.55744316486273],[14.087352523771727,41.557144316276386],[14.08733434772551,41.55687503140181],[14.087317393450176,41.55658318547824],[14.087314031082016,41.55650230764317],[14.087307094687162,41.55622352108051],[14.087288906688674,41.55599220188084],[14.087286637629461,41.55596334136474],[14.08726390124876,41.55571226494541],[14.087246431997858,41.5554519526805],[14.087247378370659,41.55536288175786],[14.087250358169625,41.555082654170285],[14.087314710612908,41.55471967836716],[14.087391030070213,41.55443269803019],[14.08752899595254,41.554129478379],[14.08760510221269,41.553725467084845],[14.087718989867627,41.55338280140214],[14.08792823889808,41.55299539206547],[14.088136968546435,41.5526395153551],[14.08839189574471,41.55229959483249],[14.088800171559404,41.55147120755903],[14.089107021612413,41.55095342216197],[14.089281672807683,41.55062156339148],[14.089417808751548,41.55014286332481],[14.089481844690908,41.549928450680056],[14.089619743220338,41.54947217992018],[14.089754351554188,41.54916460522036],[14.08975847429955,41.549114907927105],[14.08979895769096,41.548626945894384],[14.089854119772532,41.54814733821448],[14.089788091838075,41.54765060017829],[14.089796668410438,41.54752377736269],[14.089862890689307,41.546544411166536],[14.089848463896166,41.54594184837524],[14.089797695580543,41.545372410089534],[14.089746172218504,41.54517437946529],[14.089649626755707,41.54478478104912],[14.089613667686812,41.54422576194978],[14.08960920348935,41.544156363401264],[14.089559144434423,41.543595896554486],[14.08948047962614,41.543090716745816],[14.089460188346447,41.542994299970275],[14.089396125729758,41.54268990835393],[14.08938004741797,41.54261351116893],[14.089344678605382,41.54231080646462],[14.089325105363502,41.54214329092604],[14.089180224874495,41.54159603353999],[14.089039438162166,41.54121515074692],[14.088865274487958,41.54079073316701],[14.088717769236979,41.54024809309249],[14.0892120887277,41.540172141498665],[14.090347950432955,41.54021626587728],[14.091223194134171,41.54022243187956],[14.09189836595652,41.54008442194589],[14.092293811383563,41.54000834594248],[14.092703991897308,41.53989109947233],[14.09312277394643,41.53976896893329],[14.093473788691792,41.53969936252037],[14.093941935684,41.53963355592581],[14.094326331379902,41.5396074797963],[14.094651343192732,41.53951201547438],[14.095166706961505,41.53939909105635],[14.095577936715031,41.53929529327358],[14.096022323151743,41.53911799610056],[14.096432618207146,41.53888819355369],[14.09674754241788,41.53862661623753],[14.097138440471316,41.538226617201445],[14.097393495489088,41.53800371026643],[14.097649028238115,41.53767274629764],[14.097843316001384,41.53743903549358],[14.098073777799796,41.537208218009795],[14.098390966138062,41.53693753258849],[14.098633205536256,41.53674220191946],[14.09900887331123,41.536491422876395],[14.09937220892391,41.536160164057506],[14.099593316500824,41.535848731739634],[14.099798825881365,41.53560551571126],[14.099993734574996,41.53522772623272],[14.100017066006568,41.53518167335722],[14.10009672562126,41.53505208890428],[14.10018388945106,41.534827639222186],[14.100281895499974,41.534512677403995],[14.100419414015532,41.53420496150599],[14.100541177690586,41.534001479743274],[14.100687331266654,41.533765403309204],[14.101026605736621,41.53347122183706],[14.101284223642223,41.5331671657126],[14.1016117103118,41.532837494514474],[14.10185494746071,41.53257909221513],[14.102112556953657,41.53227503467201],[14.10240268457541,41.53204155461593],[14.102562691629807,41.53179135498195],[14.102781884817475,41.531570032768165],[14.103073735028598,41.531282455944385],[14.103289586455986,41.53105677993338],[14.10363111317695,41.530753487700515],[14.103967767727768,41.530540440282536],[14.104345416583868,41.530347888863375],[14.104694130936158,41.53017950530718],[14.10497198838183,41.530018588736354],[14.105236646718947,41.529804240542866],[14.105445808940727,41.5295698552502],[14.105483568676489,41.52952129813951],[14.105652494298514,41.529304069076815],[14.105814208594614,41.52899977152886],[14.105949412341243,41.52870115547327],[14.106047936322367,41.5284311805006],[14.106232661864137,41.528152866319104],[14.106425521359016,41.52797772509888],[14.106465359154827,41.52795919225285],[14.10671444019162,41.52784332119683],[14.10724507375368,41.527621627623496],[14.107607390444274,41.52750646090109],[14.107907581397091,41.52743907421925],[14.108221080671283,41.527312574973266],[14.108523854377184,41.52716404400468],[14.108834366332228,41.52703767615349],[14.109148368260866,41.5268796412598],[14.10940632304999,41.52665658011532],[14.1095878909296,41.526414413661136],[14.10990422617816,41.52605820703767],[14.109896039169609,41.52587851215993],[14.109933789703392,41.52559773693655],[14.10996274420805,41.52538805019207],[14.109973818122223,41.52530785804799],[14.11009796594877,41.525059245900785],[14.110317772083018,41.524770359387134],[14.110475150016937,41.5246012939354],[14.110946913734882,41.524355197339595],[14.111295851021325,41.524222609222704],[14.111535826332673,41.52418940731168],[14.111846719415805,41.524144041211635],[14.112486564522635,41.524016489269805],[14.113189183872167,41.52350801017049],[14.11365829828728,41.52326652309982],[14.114093163554834,41.52300855508628],[14.114517505282521,41.52276905993493],[14.114816346818227,41.52257117294531],[14.115156056645864,41.52232194577536],[14.1155670352793,41.52206503663095],[14.115941542875802,41.52187727663605],[14.116337851371888,41.521738058011195],[14.116591561566938,41.52163247943154],[14.116677100650158,41.52159688279826],[14.117027011225435,41.521446195493766],[14.11731689386239,41.52120371889494],[14.11751339439282,41.52103739919458],[14.117828447926655,41.52070373618614],[14.118036770501458,41.520383837918665],[14.1181828333534,41.520147744120266],[14.118268202041465,41.51997737903961],[14.118353570389257,41.519807014814916],[14.11841765622103,41.51971757622327],[14.118466859948333,41.51964890824109],[14.118594448556697,41.51947697397197],[14.118613937518111,41.51944953082964],[14.118651672931353,41.51939800770791],[14.118672566170373,41.519369401714414],[14.118739571183164,41.519240095879766],[14.118760877889933,41.51919904539821],[14.11887465453109,41.51905266209285],[14.118902037514106,41.51901741117418],[14.118934530805715,41.51897562644037],[14.11895966132781,41.5189432822864],[14.118978239535316,41.518919371117036],[14.118995683244647,41.518883678758016],[14.119022343422463,41.51882988136001],[14.119048504045018,41.51877782763595],[14.119070954206714,41.518733044717436],[14.119102327343468,41.518670733442335],[14.11921156584308,41.518499303281544],[14.119297638870828,41.51833790910091],[14.119374155900971,41.51804681747749],[14.119387438214813,41.517996289194954],[14.119463586115582,41.51770929687951],[14.11957569217808,41.517384687331415],[14.119746118632689,41.51711599350315],[14.119965204998604,41.516894644201685],[14.120109029904524,41.516774486711476],[14.120181510629736,41.51671393148012],[14.120417409151797,41.51653413621768],[14.121879219167322,41.51542273095533],[14.121938283933837,41.51537679057241],[14.121998111894237,41.515330262391586],[14.122081858159438,41.515265125443065],[14.122135905204479,41.51522308317719],[14.122192362969967,41.51517917133404],[14.12245847011518,41.514946714551485],[14.122798820306086,41.51470643892848],[14.12301905057071,41.514535919927845],[14.123162833674538,41.514424594368116],[14.123405709061098,41.514125650202395],[14.123724331009802,41.51372428931159],[14.123982028511435,41.513417961093985],[14.12403910943018,41.51335010842605],[14.124283229080664,41.5131318264458],[14.124341155170963,41.51308003062893],[14.124715876981167,41.51282020780799],[14.125325005794915,41.51223030521471],[14.12569099335056,41.51182232105955],[14.12589160423974,41.511597350592766],[14.126004541887424,41.511470697551324],[14.126261395131234,41.511121607035804],[14.126446843287168,41.51081622012863],[14.127224607608044,41.510011701622254],[14.128045220520823,41.50943598975492],[14.12844444549122,41.50915590383698],[14.128544006277425,41.509203219000305],[14.12857508616952,41.50921758470318],[14.128886238275431,41.50936572518542],[14.128936148495244,41.5094014395047],[14.12919412057724,41.509586035365544],[14.129214790057741,41.509606453701],[14.129241962593257,41.509633295702486],[14.129348102490187,41.509738145193744],[14.129381658749125,41.50977129371857],[14.129525444590598,41.509913331992344],[14.129593278723064,41.510202894621244],[14.129606631234022,41.51031484452501],[14.129646685964733,41.51065065383261],[14.129668922143148,41.510779880309016],[14.129724320067066,41.51110183195426],[14.12971631549934,41.51121023634481],[14.129698306914483,41.51145411125869],[14.129734868928928,41.51165955510581],[14.129773813635026,41.51187837533256],[14.129772721346319,41.5120225475789],[14.129772074572573,41.51210803968023],[14.129770674052036,41.51229265206923],[14.129729628526215,41.51278419197932],[14.129733705215457,41.51314958627097],[14.129728436832215,41.51353694997297],[14.129880750315401,41.51387225000374],[14.130080240734747,41.51416042549467],[14.130252476717605,41.51424702074381],[14.130532446588566,41.51438778029479],[14.130607653082244,41.51440285003316],[14.130719725248895,41.51442530612826],[14.130795232389783,41.514440435218035],[14.131046681080274,41.51449081924962],[14.13140588152201,41.514588728611464],[14.131869519091978,41.51471510258937],[14.13201800282968,41.514755574711714],[14.132096467768385,41.51477696094666],[14.132523136067462,41.5148539031308],[14.132576462027975,41.514863518878926],[14.133077344087903,41.51494913910324],[14.133624556881578,41.515203740254684],[14.134029037305309,41.51543321786944],[14.134563891878729,41.51578619812607],[14.13462308503883,41.515825262964846],[14.134850553761227,41.51593212924443],[14.135115658202771,41.51605667563143],[14.135182956896182,41.5160882928003],[14.135587449265614,41.516317763308294],[14.135650493544837,41.516346461936706],[14.13574080634462,41.516387573755594],[14.136028602643034,41.51651858254519],[14.136290996140554,41.51665538181366],[14.136367485118237,41.51673768251417],[14.13668059086498,41.51707457727418],[14.136787639075207,41.51719583547401],[14.137023960002127,41.517463525287816],[14.137081988271325,41.51752925483353],[14.137457393431964,41.51810781628864],[14.137489163891116,41.51820520957605],[14.13750860587856,41.51826414314866],[14.137648134684591,41.51868836226988],[14.137681526899216,41.51878988366387],[14.137747734378383,41.51899125068945],[14.137839485902346,41.51926440515141],[14.137914622689593,41.5193960946954],[14.138152528192515,41.519813064902515],[14.138237800464516,41.51993570318211],[14.138450000674593,41.52024088311748],[14.138507383278583,41.520303584282495],[14.13877706271647,41.5205885992418],[14.138815953120197,41.520629292578995],[14.13916772610143,41.52098297946825],[14.139523747605546,41.52131814109045],[14.13987878686905,41.521716366722224],[14.140139731096362,41.52194775162137],[14.140457596787098,41.52221709839404],[14.140786286771124,41.5224856034707],[14.140838710994307,41.522528624469615],[14.14120570264014,41.52292631004751],[14.141513285512225,41.52325463340113],[14.141832451820624,41.52357793598472],[14.1419947910604,41.523849748981064],[14.142035822470026,41.52420092767865],[14.142060191959887,41.52440950100584],[14.141981189775686,41.52488569676278],[14.14184463585158,41.52539148253216],[14.141734059439043,41.52573405017207],[14.141692937599906,41.5258574325913],[14.141640928239287,41.526296406889735],[14.141672179791048,41.52661461031862],[14.14164119138152,41.52674167083061],[14.141608807954928,41.526874974443864],[14.141559631923599,41.527083307534284],[14.141525388030153,41.52729283034588],[14.141517481327138,41.52734051185239],[14.14150693014391,41.52740688783166],[14.141483975756772,41.527563865301566],[14.141420298725512,41.52797989438201],[14.141414947628254,41.52801485619587],[14.141401356514484,41.52810774547938],[14.141016290416198,41.52902980246309],[14.140834126807569,41.52926304131795],[14.14052797989882,41.52963237977032],[14.140167583841064,41.52984659680596],[14.139888618650668,41.53003015531067],[14.139527643135292,41.53019938214129],[14.139143062341713,41.53029764139691],[14.13908857439796,41.5303154861523],[14.138792734329312,41.53041237161896],[14.138656673764658,41.53049584060134],[14.13851568075965,41.53058233665351],[14.1383062845184,41.530812290198064],[14.138180940781348,41.53108800439383],[14.138110278631636,41.53124372352775],[14.138080508836552,41.53132656964748],[14.138068254402492,41.53136087996506],[14.13803412099529,41.531459190683734],[14.137983130293122,41.531547013596125],[14.137446464092514,41.53247133825977],[14.136944754425057,41.53324555759657],[14.136752725427154,41.53358296131412],[14.136660825766684,41.53374443300185],[14.136637520416604,41.533790491893335],[14.136592471116064,41.53386453278597],[14.136535588500925,41.533964478650475],[14.136434731124945,41.53414168619666],[14.136379522168376,41.53423868957014],[14.136330953788395,41.53430613659846],[14.13616816129877,41.53453850081391],[14.136076048585922,41.53470133745524],[14.13604550070499,41.534754013682274],[14.136014381566168,41.53480868804601],[14.135990698538299,41.5348502973263],[14.135799440390986,41.5352459794072],[14.135679338580292,41.53549444723574],[14.135594094355401,41.53570534290101],[14.135494135231903,41.53595274924518],[14.135406093836293,41.53616390867701],[14.135295222737254,41.53642994725542],[14.13523170685408,41.53659309455595],[14.135201831994625,41.536663188300565],[14.135122702542022,41.53686081038637],[14.135001290433049,41.53728028386461],[14.134972220434872,41.53738071682503],[14.134895123075403,41.53753722910053],[14.134822570678484,41.537684514110104],[14.134790338897975,41.537772779649856],[14.13470893075672,41.53799571286398],[14.134687210907051,41.53805519413585],[14.134537852407892,41.53847601646854],[14.134508520538438,41.538621269104134],[14.134475476265548,41.538784909156355],[14.134459916712943,41.538853128429395],[14.134451808006627,41.53890851973815],[14.13444453647876,41.53896834807091],[14.134429935164373,41.539146514405694],[14.134395420874927,41.53932416863529],[14.1343810801871,41.53953466306465],[14.134364967381053,41.53977117814369],[14.134354168747217,41.5398616882301],[14.134323909730496,41.54016013369743],[14.134352246861749,41.540744057252795],[14.134371118678317,41.54117085249118],[14.134460072843527,41.54161251626311],[14.13450104917915,41.542015814290195],[14.134603509065396,41.54243886721696],[14.134706048617154,41.5429384412662],[14.13473735945582,41.54333316887683],[14.134827033400724,41.54378380306109],[14.13489197464336,41.54426255269194],[14.134968443977698,41.544848821481544],[14.13507189650416,41.54517233430608],[14.135258318558297,41.54563260339289],[14.135371803743384,41.546005645147524],[14.135498161660054,41.54642762695868],[14.135636819209166,41.54685355933248],[14.135751515210893,41.547204038868145],[14.135951366604449,41.54753269872125],[14.13619920637308,41.5478997235115],[14.136334949440071,41.54806881405927],[14.136381539226369,41.54812684960938],[14.136411991695358,41.548164782105005],[14.136547197053916,41.548340869306045],[14.136599114880395,41.54840848481872],[14.136624553339754,41.548446297011466],[14.136751974521182,41.5486357140549],[14.136956375707573,41.54889097458829],[14.137127790235208,41.549105038934236],[14.137364632250689,41.54952206934589],[14.137416442356926,41.549578278863],[14.137571947783908,41.54974698582867],[14.137623634964653,41.54980306120687],[14.137694737776622,41.549912414505656],[14.137811342043,41.55009180924964],[14.137796747030356,41.550398503547996],[14.1377677981849,41.55075091539473],[14.137645500946961,41.551021981410706],[14.137483456729733,41.551245311281825],[14.137360527589454,41.55158392704673],[14.137154545229377,41.5517822156866],[14.13687682597529,41.551907192496316],[14.136624962151357,41.55190497012827],[14.136369315075067,41.55230804707085],[14.13624671570889,41.55246297546707],[14.136099723815208,41.55264873044203],[14.13578115107249,41.55301411249097],[14.13552675824564,41.55328208798467],[14.135235150439733,41.55352752473725],[14.135012958691304,41.553816449532384],[14.134966737214496,41.55387937956212],[14.134817548130197,41.55431317271609],[14.134767247015134,41.55458551192475],[14.134810217031482,41.554862680692395],[14.134878853919407,41.55516120594732],[14.135006358534843,41.55548410343538],[14.13508595287698,41.555845159038626],[14.135140513005597,41.55611730535882],[14.135280757308703,41.55652516071356],[14.135204238877497,41.556920215731026],[14.135021410656071,41.55710846003208],[14.134656302592711,41.55734087942433],[14.134258978972719,41.557507217329544],[14.133895289473955,41.55775757597159],[14.133523272499493,41.55794078359572],[14.133327779747761,41.55812059095873],[14.132882673012372,41.55828906302948],[14.132484626927166,41.55844642418046],[14.132148433892986,41.5586280250036],[14.131710651059075,41.55892670776023],[14.131407439437421,41.55907081848741],[14.131225164595401,41.55930404815117],[14.131029953894757,41.55960087659275],[14.130751132713094,41.55990144637959],[14.130516678351354,41.56030806604568],[14.130355591406403,41.560657384015514],[14.130255011977425,41.56108952458164],[14.130165513495852,41.5613591148975],[14.130064651269482,41.56186329127049],[14.129975019911953,41.56235796124122],[14.12983426746922,41.56285041732061],[14.12973566629466,41.56315642662226],[14.129706765303418,41.56327398988731],[14.129645031718134,41.56352510067539],[14.129580945280718,41.563571195333466],[14.129211258662728,41.56383709859137],[14.128943852885687,41.56397960157878],[14.128545052046107,41.56412798019914],[14.128182866539104,41.56436024884459],[14.127965554411993,41.56460436120661],[14.127947029627755,41.564636382359645],[14.12789530457078,41.56473997846922],[14.127804475381188,41.564917346435145],[14.127751226919877,41.56526634133213],[14.127795674883531,41.56563797592778],[14.127873683742308,41.56601711372426],[14.127917206711704,41.5663392738567],[14.127936840213774,41.56666250132006],[14.127883947615333,41.56701598186734],[14.12777495091212,41.567304449306235],[14.127754971325862,41.567354858449605],[14.127736733421063,41.56740868288545],[14.12768217708145,41.567569693586954],[14.127648108488822,41.56767023854499],[14.127643137653507,41.56798556408927],[14.127629756301353,41.568022185340276],[14.127544659259566,41.568255066091155],[14.127507689779293,41.56835624038826],[14.127453016229767,41.56868729282098],[14.127455727277239,41.56877979565495],[14.127454270609167,41.5688139534528],[14.127454058064224,41.56893033699571],[14.127453679126331,41.56913897750313],[14.127453525722744,41.56922294569959],[14.127453604236687,41.56926039298416],[14.127454172008155,41.56953351855992],[14.127427585083453,41.56984080757519],[14.127387415142692,41.570090185133886],[14.12730920343721,41.57042679146125],[14.127308214155386,41.57067891866741],[14.127265913471925,41.5710904441528],[14.127140553182223,41.571361635742264],[14.127020240031323,41.57158308669703],[14.126812319999043,41.57187147365697],[14.126543030103763,41.572104085047954],[14.126252332865445,41.57236916339481],[14.125998185804306,41.57264161024516],[14.125745671110886,41.572783440559554],[14.125526696691532,41.57290010943432],[14.125478221792452,41.57292593784764],[14.125241994321465,41.573026439928874],[14.125066556925152,41.57310188906315],[14.124716969678786,41.57334258644814],[14.124519060783708,41.57364402744871],[14.124578969874046,41.573955095056846],[14.124589701252916,41.57401074848635],[14.124600619884422,41.57406802309506],[14.12475843766483,41.574453653714485],[14.124868280748279,41.574722279336235],[14.12512378862153,41.57514750347057],[14.125456317500161,41.57544774445592],[14.125564832277727,41.57576700682894],[14.12558140847804,41.57581577537104],[14.125511698943907,41.57632169505347],[14.125504482859752,41.57638189853603],[14.125489393930568,41.57667067798828],[14.125486330589204,41.57673382440728],[14.125456463516507,41.57711328387336],[14.125477372496727,41.57749047290725],[14.12548054945484,41.57757136896681],[14.12549501202465,41.577939832291435],[14.125526282906693,41.57801947172452],[14.125633977416404,41.578293739266165],[14.125658851464864,41.57839953658768],[14.125713702787241,41.578618782550166],[14.125769817241558,41.578872858750344],[14.125488620216098,41.579182525066535]]]}}]}
