{"type":"FeatureCollection","metadata":{"code":"096049","referenceDate":"2026-01-01","sourceDbfExportDate":"2026-02-18","upstreamArchiveUrl":"https://www.istat.it/storage/cartografia/confini_amministrativi/non_generalizzati/2026/Limiti01012026.zip","sourceManifestSha256":"70ac8256c4785dc6ed2814c32b6965ae76f9161b51abaa1660059e1c6cbd8ca6","license":"https://creativecommons.org/licenses/by/4.0/","attribution":"Istat, Confini delle unità amministrative a fini statistici al 1° gennaio 2026, versione non generalizzata.","modifications":["Converted from WGS 84 / UTM zone 32N (EPSG:32632) to RFC 7946 WGS 84 geographic coordinates.","Converted from shapefile to per-municipality GeoJSON without geometry simplification."]},"features":[{"type":"Feature","id":"096049","properties":{"code":"096049","name":"Pralungo","alternativeName":null,"regionCode":"01","regionName":"Piemonte","territorialUnitCode":"096","territorialUnitName":"Biella"},"geometry":{"type":"Polygon","coordinates":[[[8.011401377945049,45.62505784353606],[8.010811291966597,45.62507973897219],[8.0103072136393,45.625021361574085],[8.01002920287288,45.62496496026923],[8.009497726449068,45.62496035304222],[8.008991909061907,45.624978453960956],[8.00875045938781,45.6249403569512],[8.008311837156283,45.6247385349803],[8.008054575056592,45.624632404036916],[8.007888393435737,45.62456384874359],[8.007531897182382,45.62450224028313],[8.00728395536617,45.62451358007539],[8.00680435664363,45.624545412305075],[8.006633113209714,45.62457092797382],[8.006368256266741,45.62390707229842],[8.006294354113615,45.62373373058305],[8.006166474442143,45.623433771548875],[8.00582512355716,45.62263307688223],[8.005784740117027,45.622538351148215],[8.00488885182085,45.62115341164611],[8.003659522002762,45.619972570296724],[8.003475867805415,45.6198034169593],[8.003449609215194,45.61977680152721],[8.002935031225508,45.619304694365894],[8.002916488761816,45.61917364484692],[8.002913107572699,45.6191375385276],[8.002878653143371,45.61907322824763],[8.00281909654167,45.61894815197097],[8.002700697949628,45.61879859595246],[8.002570921250529,45.61868044297011],[8.002438470866998,45.61844077132142],[8.002337140020769,45.61821036868085],[8.002314515984834,45.618016650998534],[8.002321219856737,45.6176386658351],[8.002310706214944,45.61732803940004],[8.00226171588353,45.617129594501996],[8.002092898654187,45.61686259910188],[8.00225762861129,45.61582489125418],[8.002271176557057,45.61574231578774],[8.002271274017241,45.61539250795244],[8.002263994183803,45.61517257471749],[8.002258832144229,45.61501077480497],[8.002246395147955,45.61473971053994],[8.00228730394428,45.61419551296364],[8.001836559259072,45.61438959314925],[8.001747666403372,45.61440182096779],[8.001646542500575,45.614414937328426],[8.001532474633265,45.61433744008638],[8.001562965733001,45.614202773779816],[8.001566629143417,45.61417572274498],[8.001216905637097,45.61413881902759],[8.001006142039898,45.61411681288984],[8.000046139393378,45.61389690266916],[7.999646312332731,45.61329147827383],[7.999456052243412,45.613000642721694],[7.999061169589744,45.61199356621486],[7.998538686256622,45.61038682366513],[7.998523939721835,45.61035968961468],[7.9980847503084025,45.60959059041569],[7.998147659783897,45.60916377519161],[7.998287189755009,45.60904799859201],[7.999649586062769,45.60847559347317],[7.999704027755199,45.60845224280518],[7.999953039396739,45.60834700348492],[8.000310700508713,45.60808201262987],[8.000885034070778,45.60765631217474],[8.001181175934569,45.60743492673244],[8.00125154008573,45.607419576015154],[8.001431827384739,45.607381042873016],[8.00152339216532,45.60736165045207],[8.00176461849609,45.60722875107035],[8.00207695988389,45.60695048086378],[8.002134467510313,45.60689894580338],[8.002264847234983,45.606733290874],[8.002273508501194,45.606697635281456],[8.002372375625656,45.60635645562091],[8.002532369922008,45.60587630412812],[8.0027093600545,45.605612328249435],[8.002887562187922,45.605438357319045],[8.003031004159253,45.60534961559218],[8.00320191487253,45.605270089181666],[8.003472287992471,45.60518693336703],[8.003667347105855,45.60515622320373],[8.003798039765327,45.60513561665814],[8.004406634281521,45.60512283695857],[8.004657005555604,45.60512500086476],[8.005015577458542,45.605132897080004],[8.005060157343692,45.605133270080685],[8.00530896441297,45.60509043915655],[8.005745927555378,45.60496823030206],[8.005810107499906,45.604941783221534],[8.005974838017961,45.60487121336577],[8.006038863683331,45.60483127142026],[8.006210346635386,45.60472024289448],[8.00636857319258,45.60457297419799],[8.006428767174008,45.60451512992297],[8.006668530452695,45.604307344308715],[8.006967014633736,45.603966241852014],[8.007362103914476,45.60367265010292],[8.007551675257112,45.60355727802959],[8.00768485616447,45.603549440364816],[8.00780873925454,45.603546018682884],[8.008152584147656,45.60358950299595],[8.008732195277874,45.60362603778053],[8.009088856065087,45.603624636299855],[8.009164710377913,45.60362364801309],[8.009503311259525,45.60361923436615],[8.009896264609036,45.60360463005881],[8.010083030418265,45.60359275534568],[8.010264070092267,45.60357631311222],[8.01053938779302,45.60355169257902],[8.010710819407104,45.60360269189777],[8.010895479311209,45.603766306273485],[8.01119338739943,45.60400741999855],[8.011424977330483,45.6040769301706],[8.011668681049517,45.60414204598531],[8.012242441538849,45.604169496929245],[8.01252372101488,45.604149440767],[8.012820756998709,45.604120504684104],[8.013551625115142,45.60398729053875],[8.013850917352435,45.60396738755944],[8.013992287663617,45.6039870527794],[8.014092362263417,45.604000975212344],[8.01438671014151,45.604102523612454],[8.01452831897121,45.60411723877788],[8.01475618986806,45.60405619835231],[8.015188238377347,45.60389340918197],[8.01590941538209,45.60362508863248],[8.016215817404133,45.60356472091534],[8.016392342841868,45.603485242007274],[8.016952861612868,45.60323803923237],[8.017056763385856,45.60318492376849],[8.017110618486322,45.603176389782995],[8.017244501548317,45.603150536914896],[8.017552925484223,45.60315768598894],[8.017782131906607,45.603182165888754],[8.018369523671511,45.603299717748996],[8.018634938729964,45.60333801938906],[8.019111835461295,45.60338261280542],[8.019480053542578,45.603408282910095],[8.019694792357551,45.60338761719139],[8.019916585132673,45.60333101300131],[8.020049422971672,45.6032186527882],[8.020219712573864,45.60311308807928],[8.02052883440902,45.60305722901553],[8.020805898051899,45.602956099219114],[8.021085766016835,45.60285499098133],[8.021262811298467,45.60274398749617],[8.02146434521045,45.60262871462083],[8.021929452574811,45.602475177809154],[8.022242406258277,45.60238334741647],[8.02253757225895,45.60227785165621],[8.022863223534337,45.6021456291161],[8.023097661074067,45.60203063300789],[8.02336043935294,45.601942874527715],[8.023438246668816,45.60191653494233],[8.023729581929267,45.60184702354642],[8.024093418948866,45.601800618041906],[8.024253429314145,45.60179298846797],[8.024600813235088,45.601818464104376],[8.024945542078882,45.60181239451865],[8.025160349582752,45.601787220406855],[8.025300313772776,45.60173442318977],[8.02543863895494,45.601614085414084],[8.025537610106863,45.60149791045446],[8.025583417841354,45.601444310520584],[8.025674595504224,45.60124705185021],[8.025704886373497,45.60107180149883],[8.025726871862343,45.60084246978833],[8.025756763920972,45.60050517997593],[8.025796166113231,45.600334504188034],[8.025867586172067,45.600213597943615],[8.02591459870179,45.600137497533],[8.02603597187662,45.60009351846458],[8.026245137712891,45.60006836801215],[8.026767526324386,45.600099753673085],[8.026936744458599,45.60009219698905],[8.027082955561085,45.60002593848336],[8.027212133720033,45.59990102371818],[8.027407260045061,45.599623652382725],[8.027782676121936,45.59909128580884],[8.027833038029664,45.598983711387945],[8.028018019399587,45.59880525917492],[8.028070167223884,45.598752757185295],[8.028187830620231,45.59864153375474],[8.028209461847313,45.59861804874078],[8.028235619592795,45.59857508535215],[8.028293876552675,45.59847988405726],[8.028335765016736,45.59827242067661],[8.028342166578517,45.598132946946635],[8.028443001779156,45.59788629318037],[8.028482510352218,45.597756118223984],[8.02859256330952,45.597392504420654],[8.0288197671564,45.59701404210295],[8.028922047360643,45.59686526000595],[8.0290092989153,45.59673898849887],[8.029104253935508,45.596600267397996],[8.029085020774334,45.596438091181724],[8.029075386709357,45.59613648272011],[8.029084439508448,45.59582152526368],[8.029062671030408,45.59566801884675],[8.02904565077255,45.595641316696316],[8.028961597608403,45.595509568210765],[8.028951981975032,45.59548092446619],[8.02889586342022,45.59532486044126],[8.02887093390573,45.59526165943592],[8.0288911311994,45.59522413671548],[8.028909429528966,45.59518996422525],[8.029018554596194,45.59512507379419],[8.029075577451188,45.595033860704525],[8.029098594434881,45.5947910434664],[8.029091262736294,45.594565957682605],[8.029151448016469,45.594305443505085],[8.029209072361036,45.59419341340883],[8.029370843466554,45.59408228539481],[8.029613645176337,45.59401232579578],[8.030206470622247,45.5939048576543],[8.030409115681445,45.593794060774464],[8.030561690188984,45.593565832644686],[8.03064493973892,45.593422918086986],[8.030719722660756,45.59329239712475],[8.030868532503664,45.59311811569642],[8.031119554921391,45.59279621316242],[8.03134008831219,45.592514830609176],[8.03165677331264,45.59203568418074],[8.031833581800337,45.591663919812234],[8.03199719493338,45.591426500497974],[8.0320852903401,45.5913105713461],[8.03206947465373,45.59114808690798],[8.032024838446823,45.59093647732114],[8.032044925243573,45.59081962802266],[8.032149687931268,45.59055949073943],[8.032229977807509,45.59044737296113],[8.03252977427492,45.590274682522576],[8.033063385691165,45.58998638777622],[8.033535799734628,45.5897294012594],[8.034029106067894,45.58954460930487],[8.034566175399807,45.589445809988966],[8.03519948792977,45.589334067527126],[8.03535785873063,45.589258493156755],[8.035470538775481,45.589156716044585],[8.035524783908192,45.58903531827809],[8.035527811397223,45.58884187053374],[8.035559646863671,45.58874734779363],[8.035666072299,45.588609020336975],[8.035864788265464,45.588412676227314],[8.035896187841882,45.58838115324758],[8.03608270851787,45.58815729501329],[8.036278138702892,45.5880333617565],[8.03679573532532,45.587749688499834],[8.037238072372045,45.587524167859925],[8.037720902100478,45.5872803869143],[8.037928722877536,45.5871021557212],[8.038077094693598,45.58692339113131],[8.038100667421052,45.58686536112445],[8.038134874384454,45.58678463277098],[8.038218888322588,45.586434302105175],[8.038242183004604,45.586150679780374],[8.038256742484279,45.58596178357274],[8.038305309385834,45.58554816607452],[8.038366784727044,45.58539533137323],[8.038555702375207,45.585253366092644],[8.03897338109756,45.58513081884389],[8.039674078020848,45.585024289939234],[8.03988157022452,45.584958013417705],[8.040030856040172,45.58491037994587],[8.040188904618061,45.58480370477562],[8.040344166663537,45.58462498156862],[8.04054628172435,45.58432965186116],[8.0407375161303,45.58413324169864],[8.040860223829739,45.584008257740464],[8.041133217549623,45.583902525653386],[8.04198407458098,45.5836891388262],[8.042603140739722,45.58351432216071],[8.042712215859828,45.583483732725426],[8.043078250930618,45.58332478211693],[8.043240089347421,45.5832541367572],[8.043940953708656,45.582908967603935],[8.044360303536958,45.582723455108514],[8.04474601003768,45.58256014699268],[8.045133082727554,45.58229336326217],[8.045348158758571,45.58210613934445],[8.045443214232563,45.58198091931757],[8.04553566307647,45.5817971662355],[8.045514046531338,45.58153596384437],[8.045496982024378,45.58143231210549],[8.045507554292112,45.58140781683483],[8.045528307070064,45.58135607320199],[8.045628546520595,45.58123058398619],[8.04587258275999,45.58111179281688],[8.046016027456652,45.58093708735792],[8.046213509214375,45.580695721241305],[8.046560907862677,45.580374587920176],[8.046820644482878,45.580182990394704],[8.04704830082119,45.58006362165913],[8.047315476985304,45.57992617586852],[8.047575561936535,45.579869939747034],[8.047772434030367,45.579826656038485],[8.047922107040163,45.57980086635061],[8.048484122497713,45.579697604449485],[8.049070193351971,45.579639459696935],[8.049511257062411,45.57961606724674],[8.049729040691437,45.579599885258055],[8.0498985423805,45.579583229264344],[8.049988870015437,45.57957050509482],[8.050022086929424,45.57955259386293],[8.050161962437459,45.579427704793616],[8.050187982523356,45.579391900822024],[8.050238637272074,45.579333808093836],[8.050268071339664,45.57931157004352],[8.050338427393816,45.57925815509145],[8.050389351147006,45.57922294155811],[8.050494491899817,45.57934463555041],[8.050610950174134,45.57948122030636],[8.050638285272138,45.579583516508734],[8.050655409343927,45.57964591087108],[8.050664915973078,45.57968418666268],[8.050674104539238,45.579850777629105],[8.050683908798863,45.58003088335605],[8.050684266027602,45.58021115629318],[8.050681499063616,45.58053040618922],[8.05061588402478,45.58102492386311],[8.050606693341422,45.581091698129654],[8.050585490005279,45.581252583634914],[8.050577133828629,45.581316613217695],[8.050572648709897,45.58134908585932],[8.050556385719306,45.581473827374595],[8.050538727124087,45.58160934411862],[8.05036220216981,45.58208212113773],[8.050342522527002,45.582134933984086],[8.050299077977012,45.58225089398496],[8.050183409636787,45.58256049473304],[8.050039034233254,45.58281354528237],[8.04998813826679,45.582903140379585],[8.049955958406057,45.582959155266735],[8.049777827887324,45.583236688345444],[8.049694011464394,45.58321627972402],[8.049562418451362,45.5831844967704],[8.049513665305257,45.583320007517926],[8.049251796872937,45.58359686365028],[8.049179048277178,45.583659265307354],[8.049023437629753,45.58369396951834],[8.048773052286167,45.58369180820921],[8.048721135183186,45.583679432397425],[8.04855284506581,45.58364053969088],[8.048271157975018,45.583575185874054],[8.04810089367462,45.58355127716334],[8.047973077265853,45.58357719793145],[8.047873231830328,45.58363037819039],[8.047687766101003,45.5837728566462],[8.047570094840323,45.58395638040317],[8.04755485150053,45.584100277822195],[8.047568579650802,45.584235403176585],[8.047600328293731,45.584348188814964],[8.047563657573363,45.5844783961286],[8.04745065759324,45.58457646335224],[8.047361362062194,45.58471522556799],[8.047227979513243,45.5848806266651],[8.047039227592707,45.58502757444093],[8.046894315574564,45.585138867406236],[8.046833764950224,45.58523739053169],[8.046819292775774,45.58535876649351],[8.046848090027877,45.585503032175325],[8.046856201581186,45.58559311369894],[8.046851705223531,45.58566957678067],[8.046813123434115,45.585723267279434],[8.046681191716392,45.58582566905339],[8.046527711578525,45.585900892239025],[8.046408518539666,45.58600792213962],[8.046309631925956,45.58614660343236],[8.046276007778784,45.58628583045167],[8.046280571151248,45.58637138456848],[8.04631538023572,45.586515699654036],[8.04643413388557,45.58664720408465],[8.046599693761218,45.586783595075566],[8.04668148735211,45.58687429245333],[8.046750953765956,45.5869828754413],[8.046774580682666,45.58707758333516],[8.046710811076952,45.587153551745004],[8.04665095244186,45.58723406947188],[8.046645693662636,45.58735554116752],[8.04672627072118,45.58751823111698],[8.046831870269209,45.587550615006876],[8.04694337591984,45.58754255158404],[8.047052610426386,45.58750294303012],[8.047221294252385,45.58745485713749],[8.047398163531863,45.58744281813889],[8.047596257446198,45.587502980202345],[8.047625539033195,45.58757072749581],[8.047657813422262,45.587724019328434],[8.047614276204804,45.58788117329699],[8.047522154849402,45.58802898502912],[8.04750357085638,45.588053874504986],[8.047455676393218,45.588118667711456],[8.04740380542405,45.588189581732635],[8.047379791029375,45.588220903034944],[8.047336068473381,45.58827686857767],[8.047274083978055,45.5883598873713],[8.047255472835115,45.588424556584286],[8.047237904997019,45.588485599884024],[8.047164781292956,45.58859299407465],[8.047133448118757,45.58863633814129],[8.047107798665193,45.58866903370195],[8.047046647204878,45.588684904513904],[8.046976196481989,45.58870393807507],[8.04678234379935,45.5887048093479],[8.046714131281016,45.58870559475699],[8.046616888575496,45.58870075072426],[8.046474218434204,45.58870939437948],[8.046365603796,45.58871723395101],[8.04627400348772,45.58874294838587],[8.046259713311748,45.58876693290041],[8.046232446010043,45.58881806144379],[8.046217039072005,45.588848485858044],[8.046198398374466,45.58888197061774],[8.046190821674424,45.588949413192104],[8.046189275453942,45.589088907967124],[8.046213930219203,45.589242132944044],[8.046202964166644,45.58953456996149],[8.046063798503074,45.58970891779549],[8.045986488708458,45.58989729350773],[8.045963473007914,45.589955612394256],[8.045945829731734,45.59004997481439],[8.045967865271926,45.590074176270384],[8.04604445170383,45.59015878547911],[8.04603154341687,45.590263868958885],[8.04602498104279,45.59032067897576],[8.046009218164555,45.590380782133536],[8.046001430602882,45.590410475354865],[8.046049117306763,45.590527893121724],[8.045961054102358,45.59059466256925],[8.045842742044504,45.59060266907658],[8.045764972207184,45.59062902518144],[8.045726001940713,45.5907052199641],[8.045727106714232,45.59085373245308],[8.04578757950662,45.59092625925865],[8.045838784629444,45.59104818539949],[8.045733639658039,45.591177818185734],[8.045589483742113,45.59126662666446],[8.045450123671275,45.591287970124405],[8.045033777875167,45.5913159937218],[8.044655632585687,45.591334210954585],[8.044518181369083,45.59136119667643],[8.044375937068033,45.59142704722121],[8.044284657030692,45.59142292886576],[8.044125382561106,45.59144340741064],[8.043801829169396,45.591503705627446],[8.043397005377509,45.59158583119615],[8.043193949518175,45.59165163543772],[8.043087144330844,45.59173625669881],[8.042940566168427,45.59196904606228],[8.042906712407547,45.5920992753177],[8.042877548347496,45.59221155172907],[8.04279168794143,45.59233682755956],[8.042614856492351,45.592510874377986],[8.04249148193241,45.592783126329174],[8.042166114532867,45.59293464976192],[8.042016652295745,45.59298291095655],[8.041855609165367,45.59307145065756],[8.041798242382507,45.59315219278845],[8.041812596295802,45.593273726949455],[8.041881381091947,45.59332831629275],[8.042010450546123,45.59334739184402],[8.042400894396396,45.59335967839027],[8.042529405187018,45.5933652543543],[8.042641257607517,45.59338418397677],[8.042792453827508,45.593398962484315],[8.042968338474518,45.593422924348594],[8.043110880822521,45.59345112514713],[8.043173451287055,45.59349659763381],[8.043236071439116,45.59358268396676],[8.043207838638097,45.59366346469391],[8.043103138973098,45.5937660965999],[8.04295953190904,45.59387379494294],[8.042746303211288,45.594087137815464],[8.042635807059101,45.59417927143708],[8.042426343606028,45.59433648525412],[8.042143364139998,45.594460125943634],[8.04202037177435,45.594531099014475],[8.04186229997635,45.59463779525672],[8.04171970063021,45.594776106612784],[8.04161799230105,45.59493726969699],[8.04159130670786,45.59502256079235],[8.041485770707295,45.5951971841499],[8.041381105322259,45.59527282611411],[8.041330319238106,45.595301698185246],[8.041186089972701,45.59538369116995],[8.041023396226214,45.59550384085326],[8.040878906518332,45.59570514413033],[8.04085220172405,45.59574541813774],[8.04082090129476,45.59579466895913],[8.040710778706558,45.59605027113832],[8.04067589244964,45.59612197992183],[8.040552629379512,45.59630097111338],[8.040399136564863,45.59642975262888],[8.04036084113157,45.59645553653585],[8.040158181629874,45.596594684269114],[8.040062569788182,45.59665171229213],[8.039797066293378,45.59681217398806],[8.039685628374283,45.59687097417222],[8.039611488892444,45.596909622254266],[8.039405877167274,45.59700689994261],[8.039224142091573,45.59706838216301],[8.039073694962768,45.597125624098],[8.038922555802841,45.59720085212337],[8.038853132729733,45.59725428124122],[8.038729423249254,45.5973733280778],[8.03864128688938,45.597459529766006],[8.038568760219572,45.59755342991393],[8.038561656363093,45.59760526092058],[8.038552740909834,45.59767029555523],[8.038579984505583,45.59769847387977],[8.038625207448568,45.59775313145825],[8.038755928941422,45.59779830678748],[8.038875640185696,45.597835084999225],[8.038976920343677,45.5979123997678],[8.039020320518391,45.59797577192726],[8.039043382190812,45.598056964181296],[8.039038048902137,45.59822794920769],[8.039034679618442,45.598331428815996],[8.03902391734094,45.59839884220973],[8.03899450492389,45.59850210181709],[8.038969193891566,45.59862340422987],[8.038940746354003,45.59871767543377],[8.03892609123508,45.59882555787851],[8.038914906933522,45.59889296770562],[8.038862554949718,45.598955533346434],[8.038881872240648,45.59906821652781],[8.03887913039116,45.599183364895985],[8.038873795497686,45.59932917316301],[8.038867473875671,45.599360200435854],[8.03883444166828,45.59952236179342],[8.038818512298722,45.5995618690726],[8.038733174243502,45.59977353771745],[8.038710144282629,45.59983185492746],[8.038594912190037,45.60003339958458],[8.038413556183144,45.60021189850043],[8.03829890251787,45.60035493850606],[8.038127111463059,45.60056052408932],[8.03794607061159,45.60074350289954],[8.03787718612375,45.60090493893728],[8.037889622560439,45.601139079598795],[8.037963514783119,45.60127021554477],[8.03802095138929,45.60133745787779],[8.038099037711662,45.60142887343601],[8.038147023283344,45.601528286699924],[8.03813868629304,45.601618230095454],[8.038094192850583,45.601712365926275],[8.037951147924787,45.60178316387225],[8.037638571099022,45.60194704487769],[8.037374908798641,45.60211133544332],[8.037256966033086,45.60225886334196],[8.037214934482144,45.602398016460974],[8.03722900333551,45.60242885814763],[8.037270636312705,45.60252538470633],[8.037333620845288,45.602600934344416],[8.037372541712713,45.6026468731005],[8.037495411585509,45.602796430343155],[8.037529411900676,45.602918214094004],[8.03745778215971,45.60305263989889],[8.03729675531429,45.60321329995851],[8.037193352799308,45.60331577790281],[8.037098638786395,45.60340964483055],[8.037036933969205,45.603578539630135],[8.037001929661779,45.60367435357576],[8.037028057956055,45.60388160395956],[8.036959403182617,45.60402952810072],[8.036739823194079,45.60414469500939],[8.036365368385347,45.60424954058399],[8.036016161388009,45.60439961467726],[8.035798164512224,45.60460930177786],[8.035703093221912,45.60477951185173],[8.035637094038668,45.60495898177779],[8.035585042005197,45.60527505868912],[8.035621432639529,45.60549890740461],[8.035713189867812,45.605733698855325],[8.035809771084978,45.60587402051423],[8.036001235686127,45.606042151240366],[8.036085289609302,45.60609170893986],[8.036210331663604,45.606165430840505],[8.036500547572972,45.606370414943775],[8.036793460578842,45.606606902013546],[8.036971345915337,45.60681993144595],[8.037045229585736,45.60692855810561],[8.037119237902274,45.60721721188907],[8.037115087258737,45.60727826392698],[8.03711067601314,45.60734315359002],[8.037009392042767,45.607477310140574],[8.036913747176484,45.60765652899537],[8.036891742923224,45.60779585161987],[8.036868711638798,45.607993674711636],[8.036832691702694,45.608155384316554],[8.036731097308584,45.608307548964575],[8.036699140837134,45.60844228801746],[8.036719912723202,45.60858648620988],[8.036816552530249,45.60872231234693],[8.036870397724483,45.608826732274494],[8.03690267511225,45.608889553185854],[8.036887406656398,45.60919546075159],[8.036858376741456,45.609370725347695],[8.036800407868508,45.609478261014814],[8.036721474495064,45.60966819222013],[8.03670625149089,45.60970146110944],[8.03668109444081,45.6097779553711],[8.036664786288382,45.60983025849122],[8.036646493509457,45.609886192971324],[8.036624884790786,45.60994583939255],[8.036576956902271,45.6100853429125],[8.036510232344568,45.610196934225854],[8.036467760209385,45.61026690248713],[8.036425317703696,45.610336781872],[8.036401224292185,45.610375316176345],[8.036384982124188,45.61040104979708],[8.03636815314367,45.61042869657524],[8.036334836873946,45.610553521122235],[8.036332351899027,45.61059490289325],[8.036331295481196,45.610650969222384],[8.036331163459595,45.610684886523096],[8.036337966268844,45.610733232400655],[8.036354272624866,45.61086513268898],[8.036426078337461,45.611095256342594],[8.036428037919364,45.6111937400476],[8.036430541809022,45.611319378012574],[8.036431459105671,45.61136534207772],[8.036350481091688,45.61167067714075],[8.036305512648088,45.61179181556197],[8.036196954559554,45.61195291557704],[8.036112331932365,45.61207371663202],[8.036046874538616,45.6122441739602],[8.035993365249578,45.61249125393545],[8.035916504682387,45.61272012583085],[8.035856768253348,45.61282339487728],[8.035814512444006,45.61289479314693],[8.035795519918128,45.61292963225426],[8.035712759449085,45.61307843726572],[8.035664890252729,45.613192371736204],[8.035640751620864,45.613249827344056],[8.035612891985574,45.613316128299964],[8.035469506060116,45.61348427474499],[8.035436721157625,45.613525211606785],[8.035411727003446,45.613545843225204],[8.035306092457185,45.61362667198166],[8.035223713153979,45.613690885020446],[8.035132959642695,45.6137936234717],[8.035054714087316,45.61390132893887],[8.035006283116992,45.61405357824718],[8.034991194126578,45.614161453542486],[8.034842304625386,45.614293630671405],[8.034813517520274,45.61431664417171],[8.03449256645693,45.61450827651338],[8.034318171276963,45.61462114538968],[8.034280266269917,45.614646006982625],[8.034172697222484,45.61474860519326],[8.03389026022996,45.614881227907304],[8.033796519587051,45.614947937896545],[8.033596255519349,45.61508127290139],[8.033487199784476,45.61529186062691],[8.033332722141626,45.615628096468996],[8.033291171918977,45.6159472768642],[8.033073994794028,45.61610745182973],[8.032987402390303,45.61634073882911],[8.032772518062085,45.61657667224089],[8.032469060755101,45.616659083286606],[8.03243062471672,45.616668828920254],[8.032254651116016,45.61669499373234],[8.031997474795734,45.61673290322994],[8.031479126950872,45.616737504190446],[8.031145786677374,45.61675266947954],[8.030527595193313,45.61680593271913],[8.029613911979437,45.61689262729682],[8.029526327806208,45.616900938219466],[8.029452775847789,45.61695882146377],[8.029410023097729,45.61697837557211],[8.029356213432797,45.61700301847384],[8.028982841300255,45.61701305596409],[8.028840256604921,45.61705893874096],[8.028630243264187,45.61721737044137],[8.028258375076046,45.617142185409115],[8.02802136426408,45.61712667558408],[8.027943156569448,45.61717219050224],[8.027764947577001,45.61725950360703],[8.027629632673705,45.6172493553631],[8.02751187851143,45.617198840367784],[8.027267100112342,45.61712005259326],[8.0271334984084,45.61712738114399],[8.026908239591252,45.61717570680945],[8.026828123138099,45.61724252981654],[8.02675682991652,45.617265010824475],[8.02669025857975,45.617286348392774],[8.026639056704916,45.61730392666507],[8.026511192936216,45.61725782048107],[8.026432861150758,45.6171986627559],[8.026350309925688,45.617197959155625],[8.026178156689674,45.61723249467252],[8.026039638953627,45.61722229743802],[8.025918759040374,45.61716727346236],[8.025666470387824,45.61706161690594],[8.025547990096793,45.61705158998328],[8.025331925165059,45.617121769731995],[8.025139690097777,45.61736764267322],[8.024948301808395,45.61726249975033],[8.02462802146843,45.61744877783802],[8.024500006914371,45.61759620799814],[8.024319027000727,45.61779267929208],[8.024306103202157,45.617936574608315],[8.024334937246842,45.618076345903866],[8.024367850986149,45.61810743825915],[8.02441185127713,45.618149004314375],[8.024361032072967,45.618328577173266],[8.02421899634036,45.61852090021435],[8.023935417016453,45.618693986563514],[8.02345009433993,45.618712345535634],[8.023272930285684,45.618850338728485],[8.023052224791996,45.61898227785255],[8.022882485653072,45.61908475218657],[8.02280815616361,45.619129683782944],[8.022516944439337,45.619244422701215],[8.022027980993322,45.61936446897409],[8.021436915098048,45.61950999787974],[8.021291932988715,45.619476947251236],[8.021158592707012,45.61956131847954],[8.020933132136383,45.619802399046584],[8.0208940914649,45.61997309279941],[8.02095001055495,45.620042085685625],[8.021026326776752,45.62013624275049],[8.021042223713325,45.620190391120815],[8.021037061505485,45.620280339496844],[8.020799630766932,45.62065634705729],[8.020504271084098,45.62095083785413],[8.020349100182278,45.62109097905825],[8.01996791039531,45.621436798441636],[8.019295081320946,45.62255163745007],[8.019207962855235,45.622627393209406],[8.018948129208846,45.62295368829926],[8.01888664523393,45.62300962330869],[8.018639378657227,45.6232345676093],[8.018127471283728,45.62346420549948],[8.01769178225362,45.62364496421926],[8.017485328972585,45.623760207541885],[8.017126868934685,45.62406316207585],[8.017078990174758,45.624108286891925],[8.016549723377294,45.62460723921408],[8.016118859055577,45.62490055630399],[8.015711499094444,45.62499605486459],[8.015256487021562,45.62497414124902],[8.014649643387697,45.62494639954576],[8.01397723921069,45.624954090788385],[8.012561084369809,45.62496886538603],[8.011401377945049,45.62505784353606]]]}}]}
