{"type":"FeatureCollection","metadata":{"code":"096082","referenceDate":"2026-01-01","sourceDbfExportDate":"2026-02-18","upstreamArchiveUrl":"https://www.istat.it/storage/cartografia/confini_amministrativi/non_generalizzati/2026/Limiti01012026.zip","sourceManifestSha256":"70ac8256c4785dc6ed2814c32b6965ae76f9161b51abaa1660059e1c6cbd8ca6","license":"https://creativecommons.org/licenses/by/4.0/","attribution":"Istat, Confini delle unità amministrative a fini statistici al 1° gennaio 2026, versione non generalizzata.","modifications":["Converted from WGS 84 / UTM zone 32N (EPSG:32632) to RFC 7946 WGS 84 geographic coordinates.","Converted from shapefile to per-municipality GeoJSON without geometry simplification."]},"features":[{"type":"Feature","id":"096082","properties":{"code":"096082","name":"Zubiena","alternativeName":null,"regionCode":"01","regionName":"Piemonte","territorialUnitCode":"096","territorialUnitName":"Biella"},"geometry":{"type":"Polygon","coordinates":[[[8.009281163124248,45.506109575132534],[8.009221761586435,45.5061403946761],[8.009065728863979,45.50616146565291],[8.008847777199179,45.506230221874596],[8.008531541896295,45.5063324234578],[8.00771557674833,45.506578483244446],[8.007559888329013,45.506625533364165],[8.007086497946233,45.50688687288245],[8.006938764087455,45.506967850014725],[8.006828897423548,45.507028155651454],[8.006341992762575,45.50729026476987],[8.00624581575778,45.507338649902564],[8.00557893081248,45.50767042658639],[8.005359705033559,45.507766320598705],[8.005135061425506,45.507864582906585],[8.004810678419748,45.5079742794582],[8.004393440207837,45.50815515060064],[8.004091791835553,45.50772497546961],[8.004146850869681,45.507680631623856],[8.004252109331247,45.507595859290454],[8.00429343038575,45.50736219782211],[8.004276380301055,45.50731950257043],[8.004219485237371,45.50717702608825],[8.004198171514538,45.50702381898193],[8.004185409244858,45.50696781149599],[8.004171454137287,45.506906564842176],[8.004139601819906,45.50688849636597],[8.004074798433432,45.50685173232763],[8.004008701108003,45.50681931262415],[8.003925292633022,45.50677840505622],[8.00375910486171,45.506605941971515],[8.003631916738618,45.50636412746555],[8.003595010975252,45.50629396741711],[8.003494674717048,45.50613107322171],[8.003412336779741,45.50599084424456],[8.003272829957364,45.505960627938165],[8.003227568927024,45.50595077725708],[8.003170671264868,45.50595915584061],[8.003010046385743,45.505982832905815],[8.002881685764025,45.50599712867842],[8.002785190815096,45.506007874331594],[8.002580465941007,45.506024080057564],[8.002430445328747,45.50605535136524],[8.002205359641819,45.50608461927884],[8.001882404281583,45.50611474176717],[8.001314943739985,45.506188264369484],[8.001150272731266,45.506209599146835],[8.000758156562652,45.50624406425546],[8.0006920906492,45.50624987707895],[8.000694390849027,45.50622362645316],[8.000668318745669,45.506182899481],[8.0006171933835,45.506110428577095],[8.00056766767535,45.506037992349164],[8.000463696795151,45.505992083106904],[8.000428809027392,45.505973766500965],[8.000397041089707,45.505959995764286],[8.000329840976883,45.50593690026562],[8.000234630810885,45.505903179434206],[8.00012067573041,45.50586275869771],[7.999983242253841,45.505816707299104],[7.999676655493242,45.50570658224563],[7.999596365425437,45.50567844084366],[7.999330045915965,45.50558159678456],[7.9989248115917935,45.50544753367484],[7.9984996325083415,45.505308792770684],[7.998358520323196,45.50525804005993],[7.99796071283216,45.50511054322549],[7.997496927201947,45.5048949411035],[7.997422423092042,45.50484356387637],[7.997311217768149,45.50476782324797],[7.997012804301471,45.50455797781524],[7.996932387172623,45.50449348047088],[7.996849352887184,45.50442917611115],[7.9968064640538525,45.50439515942393],[7.9963797500339,45.504529591048154],[7.996016427716842,45.504625406196034],[7.995751255646798,45.504668093392304],[7.995243004015955,45.504595778300505],[7.995076910733232,45.50457214546821],[7.994947422665379,45.50449794559489],[7.994853572333621,45.50444416416694],[7.994641920186889,45.50442429099989],[7.99445203622167,45.50442172297039],[7.994350359994537,45.504421720716984],[7.994112284833122,45.50440163192478],[7.993416519428328,45.50440899698277],[7.992839780935897,45.504294583108496],[7.9925493553809694,45.50420333258865],[7.9924094457221315,45.50410758546508],[7.992342454416538,45.50406211563721],[7.992181018214587,45.50395254697507],[7.991594484575748,45.5034658130228],[7.991403213498823,45.503423625305],[7.991142689183723,45.50338532077414],[7.99067973515532,45.503282219848856],[7.990471839678744,45.50325337729177],[7.990196283903233,45.503250941455235],[7.989993618579359,45.50328447094985],[7.989733929923462,45.503291851444324],[7.989399893859311,45.50329341319286],[7.989127857355735,45.50327299460936],[7.9888105966682,45.503274685097445],[7.988228427441571,45.503328038926995],[7.988016766551466,45.5033306625809],[7.987766561766433,45.50331944793636],[7.987624195779358,45.50329568058827],[7.987555343920166,45.503195603060504],[7.987253453495524,45.50275682440198],[7.986969404141238,45.50235826548688],[7.986651516101949,45.50192790068302],[7.986557794668516,45.50180105297693],[7.9862027749385085,45.501523360860915],[7.9856023262409925,45.50103647239903],[7.985477325495005,45.500936351254936],[7.98474058788994,45.50035373541929],[7.984015090286202,45.499771213849606],[7.983540328430977,45.49932593393177],[7.983355277233087,45.49926967693334],[7.983220071608412,45.49922857216742],[7.98292247754446,45.499162910867064],[7.982666868794764,45.49909762725714],[7.982454691668815,45.49897423776722],[7.982153655387736,45.49887704333448],[7.9819568693625245,45.49874475560492],[7.981445254180824,45.49854667212843],[7.980891325635495,45.49841121604695],[7.980522957858419,45.498277413679574],[7.980100681716367,45.49818363039031],[7.97978681128856,45.49795580006099],[7.9794670032781285,45.49783593965058],[7.979376395592609,45.49775861116598],[7.979306378429181,45.49760498194002],[7.979191697970737,45.497599439377026],[7.979185555572152,45.497297857244085],[7.97912523451607,45.49680676463715],[7.979083443231137,45.49657149133934],[7.979062782593462,45.49645516375068],[7.978913036837787,45.49626479801046],[7.978848759958669,45.49598955014039],[7.978148703002206,45.4961544553871],[7.977617370052236,45.49627571689395],[7.977232553510592,45.49636676502477],[7.976990262642035,45.496448948683415],[7.976891301689593,45.49650263634193],[7.9767494550199025,45.49659158702978],[7.976721250780798,45.49660948789926],[7.9766816772988465,45.49663395406357],[7.976504803342348,45.496742310368816],[7.976308206167488,45.496861642970444],[7.976128052140685,45.496944479796404],[7.975948091458097,45.497025023674155],[7.975813962524893,45.49706991508623],[7.975724010434045,45.49709943247622],[7.975370719604765,45.49676412889877],[7.974547405796827,45.49589263468211],[7.974190132665967,45.49552488923057],[7.974357219360703,45.49546338067926],[7.974554268722866,45.495316624415295],[7.974819139044783,45.495134494403295],[7.975094641247059,45.494961436037705],[7.975364707776197,45.49480183989138],[7.975410385686555,45.49475244889818],[7.975538086206665,45.49461437151383],[7.9756100954696105,45.4945025126821],[7.975888397131231,45.494329477491945],[7.9760817401985715,45.49423219985627],[7.976531778646306,45.49396171126957],[7.976864500156381,45.49391967554503],[7.976980584615433,45.49360567265742],[7.977201275954572,45.49347713667374],[7.977472831432715,45.493389551886814],[7.977745710195767,45.49336049039357],[7.977814680837533,45.493284605828585],[7.977590640262348,45.492868550398235],[7.977488479175567,45.49267861130878],[7.977392556091377,45.49261024646542],[7.976963034079401,45.4920348275835],[7.97659689819109,45.49140598146233],[7.976525957796338,45.49127398720701],[7.976278490886973,45.490813544981286],[7.976217135142096,45.49062396861194],[7.975986173902238,45.49012684534453],[7.975942353400709,45.49004637892404],[7.975633983612414,45.48948011230292],[7.9755246116296865,45.48928081835956],[7.975281302697447,45.48883786618678],[7.9750857252848375,45.48854839058276],[7.97490240294656,45.48827705037454],[7.974816295089598,45.48814959676793],[7.974582464119374,45.48776832314603],[7.974288306172263,45.48745997489304],[7.974263041044104,45.487433549172614],[7.974142206850397,45.48728986188763],[7.973790166009277,45.48687124105657],[7.973754061681047,45.4867898979537],[7.973690894406004,45.48654631024341],[7.973674886757425,45.48639314275436],[7.9736229523678,45.48628015322897],[7.973483492127724,45.486098890735725],[7.973449528207732,45.48603107843368],[7.973426601939834,45.4859498518547],[7.973476041600319,45.485898133462804],[7.9735730010245796,45.48579364782486],[7.973623407055534,45.485741549201244],[7.973650040892574,45.48571333940317],[7.973695965427517,45.485650742904674],[7.973704697116816,45.48556530474583],[7.973732527949234,45.48546469028308],[7.973770519562945,45.485376872272816],[7.973823540888063,45.48531883917359],[7.973867253320074,45.48527042839188],[7.973966498047334,45.4852168790227],[7.974037649444222,45.48517220981925],[7.974126797479366,45.485069527578354],[7.97416760428084,45.48497989847458],[7.974176280374111,45.484898957661365],[7.9742207071288655,45.48476434433689],[7.974299812941197,45.484724553936104],[7.9744450180385495,45.48469885157585],[7.974670463722313,45.484660357704975],[7.974827995754345,45.48461677305285],[7.97502474164802,45.484551032635174],[7.975093764205566,45.484532423690695],[7.975186281498782,45.484507484353976],[7.97533892102087,45.484490843343096],[7.975379502762872,45.484491207400986],[7.975509656304883,45.48449237490818],[7.975588029393325,45.484493077861245],[7.975692282838909,45.484498511651],[7.9757808837000645,45.48448581342222],[7.9759232284770105,45.48446457962286],[7.976075567018702,45.48446594539448],[7.976191459568095,45.484453243973256],[7.976279082089697,45.48442277275489],[7.976329879675445,45.484355702967875],[7.976392986448792,45.48429325936553],[7.9764476470603265,45.48416775156154],[7.976562889323945,45.48411926963436],[7.976658549097031,45.4840481235854],[7.9766001285062496,45.483984589163754],[7.97653273446526,45.483952481144755],[7.976533009319883,45.48384897720184],[7.976547071449419,45.48382209695728],[7.977050805845147,45.48369609423945],[7.97760904409442,45.483606580124025],[7.978481041483714,45.483569364668845],[7.978551540697679,45.48362850736087],[7.978628851619493,45.48368770822122],[7.97875351926904,45.483693321766395],[7.978831631672535,45.4836850225799],[7.978932703660144,45.483712934227576],[7.979103734333499,45.48378646622621],[7.979396274497385,45.48388359305458],[7.9794894039994055,45.483951930459575],[7.979581824725252,45.484038274622684],[7.979610983013168,45.484053454579744],[7.979669755900663,45.4840840579792],[7.97981568948282,45.48410787080222],[7.9799198884217315,45.484117796336726],[7.980019415521959,45.48414119353145],[7.9802304349662965,45.48417008402422],[7.980476652875418,45.48417677996243],[7.980612982888388,45.48417799678531],[7.980928037912479,45.484135790593264],[7.981176421583229,45.48411100110693],[7.981329776561535,45.48412138452074],[7.9815263047601235,45.4842446548913],[7.9816205068714785,45.48423198317515],[7.981701502416869,45.48417419222772],[7.981915366910269,45.48403355239443],[7.981963751586193,45.484001017732425],[7.982088117694852,45.483934621786936],[7.982337123885745,45.483873832391794],[7.982486113245829,45.48381664848107],[7.982584808950348,45.483732011935786],[7.98263201179653,45.4836566190291],[7.982661262758911,45.48361130838126],[7.982784939578101,45.48338724710239],[7.982917652062093,45.48319040921284],[7.982996122126905,45.48309659641308],[7.983129101145531,45.483039267297414],[7.983500054485159,45.48295707332342],[7.983664994671767,45.48296852613576],[7.983722915811311,45.48297254927952],[7.983989166740374,45.482997425463374],[7.984252960131388,45.483004270501866],[7.984462062794203,45.48298362062058],[7.984709328024303,45.482931826151564],[7.9849241673369455,45.482902231534],[7.985211878887992,45.48286878519195],[7.985394906795177,45.48285240072471],[7.985558512923526,45.48284935514584],[7.985697639236093,45.4828505907353],[7.985926962533238,45.482839115321944],[7.986104016388774,45.482822695580175],[7.986238440374492,45.48279688251493],[7.986292971502648,45.48278837162116],[7.986464737962148,45.48275389302283],[7.986664310627322,45.482706150087644],[7.9869099776911545,45.482654315970294],[7.987103630901392,45.48260204077245],[7.987211437780382,45.48256699382953],[7.9873137754775545,45.482522884506885],[7.987417905185584,45.48244730663448],[7.987510664936555,45.482380622761106],[7.987636305876466,45.48230971166323],[7.987766229471415,45.482265865339585],[7.987871557238379,45.482212785329374],[7.987944731560668,45.48216843590874],[7.987983351455903,45.48211026949935],[7.988057722878913,45.48202091478341],[7.988133941793545,45.48196307783448],[7.988226465589936,45.48188739549919],[7.988281486416742,45.48182937246952],[7.988358723425115,45.48171305378016],[7.988421203307942,45.48161909470302],[7.98847532519365,45.481520544775705],[7.988535638914367,45.4814580886041],[7.98865886492737,45.48138715588534],[7.98874953788898,45.48134745967722],[7.988835414433719,45.481307721834455],[7.988957045695942,45.481236773773865],[7.989109467989033,45.48114362934314],[7.989210282882203,45.481095006940436],[7.989300552928686,45.481077795292926],[7.98947855215648,45.48109738072892],[7.989550355105187,45.48112951922655],[7.989633740010556,45.481161761933606],[7.989742150929212,45.481180731359295],[7.989869456686855,45.48119535099267],[7.989989313272177,45.48122341629357],[7.990108605848341,45.48128298333529],[7.990266672575085,45.48143288870175],[7.990387165224025,45.48158247702144],[7.990503308701228,45.48172751267575],[7.990636212367933,45.481832215290154],[7.990792679016585,45.48191459778175],[7.990913817844994,45.48196068481035],[7.991063963271354,45.48199351536285],[7.9913343174344895,45.48203640134055],[7.99167414135199,45.48206191111737],[7.9919084996877245,45.482081972290146],[7.992033327081741,45.482078575164714],[7.992145266064642,45.482057056404884],[7.992280954780672,45.48200425913028],[7.992433213779163,45.48192008481773],[7.992632705562657,45.48178683297147],[7.99274784941844,45.48167532552714],[7.992838150413922,45.48156811660004],[7.992882686914747,45.481424478630686],[7.992939317807461,45.481253963521],[7.992985767800993,45.481182370771464],[7.993030068103966,45.48111975213568],[7.993144567321654,45.48104423974302],[7.993224752923509,45.48100894542402],[7.993341815322044,45.48094696980771],[7.993436354796579,45.480848791736946],[7.993522866663169,45.48078636847331],[7.993642602504203,45.48073344789608],[7.993789411898144,45.480680235533505],[7.993954835694305,45.480605312256074],[7.994068264092438,45.48053958459162],[7.99421417214845,45.48045960231208],[7.994417520710597,45.48035788273672],[7.994585513465277,45.48028733773435],[7.994768601829475,45.48024807935404],[7.995047901201462,45.480210408939534],[7.995625345281988,45.48016147564349],[7.996204088497442,45.480119307136576],[7.996589071755456,45.480088945345116],[7.9967760945013815,45.480072577726844],[7.997041954560777,45.48005240601648],[7.997391529159502,45.480023967381406],[7.997673139396406,45.47999493576886],[7.998032688362233,45.479989095573636],[7.998278651387819,45.48000926438537],[7.998464949968037,45.4800558941672],[7.998623181790713,45.48012928834408],[7.998731221283358,45.480174846293366],[7.998807326174896,45.480207422640156],[7.9989187221768185,45.48023990320372],[7.999001151179838,45.48023610884271],[7.9991639384978726,45.4802105480284],[7.999442341467763,45.480113975940256],[7.99960503315123,45.480042168254904],[7.99965230838532,45.48002130350513],[7.999804051971591,45.47994161362049],[8.000056650421117,45.4798358191717],[8.000316416161278,45.47975257456352],[8.000584328114249,45.47968291682889],[8.000717064772637,45.47966156893958],[8.000831638200218,45.479649077597045],[8.000965414553468,45.479659242674586],[8.001089417922723,45.4796783197125],[8.001194809314091,45.479733254816225],[8.00137536173539,45.479833844834424],[8.001468676816705,45.479893170191346],[8.001534650858474,45.48000626899473],[8.001681970586667,45.48017857120746],[8.001752013990851,45.48024169484887],[8.001818136836858,45.48030128182164],[8.002091688692513,45.480479185400846],[8.002219224177951,45.480525315432885],[8.002339092692322,45.48053086130924],[8.002433600219398,45.48052267027933],[8.002522304392766,45.48050320490944],[8.002629010894298,45.48046136760013],[8.002734531420195,45.480394782772464],[8.002838299085184,45.480314687963094],[8.002872088078197,45.480283397781136],[8.002929778814782,45.48022997079497],[8.003051547293401,45.480150033827755],[8.003184564474589,45.48010611324168],[8.00330570802623,45.48006673350144],[8.003377111105713,45.48003135631082],[8.003531011460463,45.47989768846759],[8.003537339755107,45.47986932062537],[8.003545337482484,45.479840100532684],[8.0035397086702,45.4797447405427],[8.003543198928776,45.479546751144625],[8.003564616200489,45.4794659182909],[8.003606179764164,45.47939877466801],[8.00370092529519,45.47935460331162],[8.003821502900596,45.47934214243969],[8.003980120294088,45.479325534176326],[8.004237488901294,45.479287258484305],[8.004412667533877,45.47923928893962],[8.004550097337678,45.47917747935153],[8.004916113814428,45.4789871449678],[8.005134293440271,45.478881021403126],[8.005219368162194,45.4788412624423],[8.005878963368147,45.47873450122778],[8.006435492527771,45.47869838924862],[8.0068103389378,45.47849956635888],[8.00713106605786,45.4783358364016],[8.007528794939322,45.47826228429683],[8.007926463908936,45.47828423831833],[8.008228051007274,45.478322862214],[8.008375580271343,45.47834665061869],[8.008747277574836,45.47830937709279],[8.009358101889417,45.47820215359857],[8.011006431175199,45.47784740191593],[8.01145853306142,45.47773879271576],[8.011647355459235,45.4775514017804],[8.011793899856183,45.47740848328368],[8.011889778141486,45.47731497848903],[8.012236102102456,45.477186920301364],[8.01252289475881,45.47715631176825],[8.012581568269791,45.47714992680691],[8.013296961715648,45.477120108021516],[8.013826968267736,45.477106692929844],[8.014171800738643,45.47707366767994],[8.014836491466808,45.47692638071724],[8.015210367906453,45.47676308645052],[8.015848881265912,45.476602054392714],[8.016380212481646,45.47651211882489],[8.016673215089755,45.47640213762005],[8.017072449085173,45.4762975489049],[8.0176906481224,45.476154359307344],[8.017640263651575,45.47608642242324],[8.017709476259679,45.47603750301892],[8.01780137010995,45.475925789165686],[8.017815871273227,45.47578188576338],[8.017855545083242,45.475593200045424],[8.017871096986587,45.47550332003046],[8.017928622473605,45.4754138189216],[8.018020701377658,45.475315600162354],[8.01811188792222,45.47524435923789],[8.01822922348336,45.47518685830388],[8.01838069617578,45.47512065394415],[8.018529631174369,45.47508593355917],[8.018700335368214,45.47506490900528],[8.018933365789323,45.47504440155916],[8.019078945853227,45.47504115492284],[8.019211826162927,45.47503328134884],[8.019758179865583,45.47497496322527],[8.02037751067018,45.4748587768549],[8.020675063908856,45.47480731595269],[8.021039436098745,45.47470693212743],[8.021193049518578,45.474631725883654],[8.021304719519444,45.47455618074259],[8.02161399955336,45.474288786472684],[8.021781400311728,45.47411020898041],[8.021877603352634,45.47400300861469],[8.021976804392779,45.473931854826],[8.022161111552387,45.473816429009446],[8.022343976083848,45.47369197764654],[8.02252992207459,45.4735270334704],[8.02258594759156,45.47347801623791],[8.022697825228638,45.47338895980013],[8.02294711186128,45.473215579098856],[8.023093649987239,45.473109729087064],[8.02332888337227,45.472939804422055],[8.02357845437133,45.4727477292729],[8.023846203637449,45.4725706744131],[8.023943625395477,45.47253100518824],[8.024146395367765,45.47244447564427],[8.024211887079007,45.47241627544461],[8.024657715859203,45.47222656302308],[8.025035156498301,45.47208577620915],[8.02512622069777,45.47204403633544],[8.025285807655015,45.471970893609566],[8.025605240634476,45.471924123358846],[8.026136710661552,45.4718926342185],[8.026676333300982,45.47187474538241],[8.027201495859305,45.471861208936545],[8.02759266134124,45.471851047052674],[8.02802315373762,45.47185471130098],[8.028435939192962,45.4718672182066],[8.028648341675838,45.471860029861375],[8.02879772197926,45.47179829175685],[8.028941645070407,45.471705000160796],[8.029071966628681,45.47158908886049],[8.0293447669634,45.47146539072666],[8.02970639303887,45.47140545586203],[8.030167653997948,45.47138688210739],[8.030199623964128,45.47150415656251],[8.030973879437754,45.471465728301574],[8.030989956112691,45.47136685509497],[8.031175328794912,45.47130542012619],[8.031892984990128,45.471162979122525],[8.032497544272347,45.47108710175909],[8.032718273314039,45.471084453572395],[8.032777227173188,45.471260485232655],[8.032801834650918,45.47157573741335],[8.032818206294968,45.47178738893678],[8.0328666304658,45.47190032207006],[8.032979183282674,45.472004786141646],[8.033337622892738,45.47185029661265],[8.033380896154286,45.471965780077966],[8.033396444421705,45.47200833341262],[8.033405607804587,45.47203695106221],[8.033535933153821,45.47250456532257],[8.033573175664726,45.47296843044135],[8.033523070428284,45.47299950976794],[8.033111574999046,45.47323906480329],[8.033116064990523,45.47349113632887],[8.032840799203777,45.473809123280475],[8.032946975005402,45.47382632436017],[8.033018306020383,45.47383707082752],[8.0328670929311,45.47395257745933],[8.032719470842869,45.47402783034755],[8.032415985107042,45.47414677954877],[8.032299340532372,45.474258314395065],[8.032152592361454,45.47444609609561],[8.032132465425727,45.4744923267063],[8.032119610534535,45.47452226646511],[8.032107397362727,45.47454917285679],[8.032067640153056,45.4746383204252],[8.032050113426395,45.474676295556215],[8.03195230903204,45.47491244651964],[8.031873042313734,45.47506059502137],[8.03169750609398,45.4752701301154],[8.031577267632787,45.47540556971081],[8.03153773525197,45.47544954199641],[8.031467208047802,45.47548497574795],[8.031413494545674,45.47551288662336],[8.031282354735502,45.475581618323446],[8.031179256933312,45.47569776028904],[8.031152399841803,45.4757588711111],[8.03112549264854,45.47581864662425],[8.031072328161022,45.47590803204355],[8.031188760007067,45.476050699372216],[8.031258880660381,45.4761348359947],[8.031516712610324,45.476393949851236],[8.03158297488019,45.47643076308903],[8.031643162776419,45.4764647191172],[8.031750344920951,45.47652644612879],[8.032479845269572,45.47620858949955],[8.032764625542558,45.47606247548636],[8.032978576410622,45.475942769187306],[8.033313824553163,45.47583759814265],[8.0335234223922,45.4758285605532],[8.033702223757208,45.4758210568792],[8.033756341762997,45.47581883595618],[8.033975276665043,45.47559566072428],[8.03428780340397,45.475274264188144],[8.034624489622027,45.475038570625365],[8.034803810664405,45.47495116241497],[8.035328547676295,45.4746933717854],[8.035505980992221,45.47490187340454],[8.036093767870414,45.475497455009204],[8.036228887381032,45.475635988544866],[8.036402794660265,45.47576918830536],[8.036523368651974,45.4759377401667],[8.036556233039404,45.47598467867058],[8.036580141644619,45.47601899396092],[8.03659901382421,45.4760461378205],[8.036700433168317,45.476190368719585],[8.036844152364452,45.4763939338426],[8.0369059879545,45.47647547499147],[8.036961912313842,45.47672797810806],[8.036970628609701,45.47676496368658],[8.036982516691713,45.47683709775611],[8.037091059608818,45.4774083679443],[8.037096560273929,45.47745252015114],[8.037110592418383,45.477620387332166],[8.037128901430101,45.47785874197514],[8.03725826242897,45.47835066999556],[8.037317855864512,45.478558542583926],[8.037426828791984,45.47902994862616],[8.037436707005387,45.47908131524327],[8.037511988622953,45.47934749548964],[8.037553224672795,45.47952784151432],[8.037640477970166,45.47985974028499],[8.037730348223151,45.48014590528665],[8.037742106468086,45.48018284350265],[8.037761478027534,45.48024968928926],[8.037809823426123,45.480439121475214],[8.03783041097802,45.4806436587278],[8.037861106548624,45.48095504057419],[8.037878800925812,45.481124199474934],[8.03789167521994,45.481263371725376],[8.03792150485657,45.48154688126229],[8.03793035968205,45.48169480659749],[8.037937884925599,45.48188092985415],[8.037923160422176,45.48216331427409],[8.037914568460108,45.48236625908769],[8.037934236725873,45.48257344115912],[8.037928197792006,45.48289288546252],[8.037935349154473,45.48295499264736],[8.037975887695875,45.483320877489994],[8.03799526974978,45.484058209552174],[8.038071645361455,45.4842402607848],[8.03822024357806,45.4846272685152],[8.03846505795648,45.48516569017158],[8.038715288592142,45.485833881809846],[8.038768655222642,45.48605935857541],[8.038794035802324,45.48613189482646],[8.038863470307431,45.48633766815995],[8.03889119758287,45.48641828198637],[8.039032726724036,45.48682672113692],[8.039216391749333,45.487336829957705],[8.039323256225538,45.487585817414214],[8.039391533507832,45.487742592648644],[8.039413200379498,45.487792861005985],[8.03944474840423,45.487847387202066],[8.039479326773748,45.48791253145457],[8.039371913323878,45.488025033009805],[8.03924377978547,45.488155822484416],[8.038966233105645,45.48847331276369],[8.038644370452024,45.48880366468821],[8.03812046397797,45.48924929812244],[8.037758730932715,45.48962908101938],[8.037541399971792,45.489807261636386],[8.037505683972096,45.48983894723595],[8.037125215600176,45.49016838148177],[8.036787191062368,45.49045877695701],[8.03674679229892,45.49049364884551],[8.036633400778918,45.4905911446183],[8.03640044913077,45.49078720082606],[8.03602841797778,45.491085890643376],[8.035798004185251,45.49141016617846],[8.035684419020523,45.49156904373179],[8.035416447703568,45.49192656763647],[8.035272351639838,45.492127854434536],[8.035088733136615,45.49229728688067],[8.034833959498478,45.492439197988354],[8.034390018516993,45.49273241048949],[8.03429405792115,45.49280814242344],[8.03424123572982,45.49282075470136],[8.03414380043293,45.492842958500795],[8.033814391731863,45.492813659557775],[8.033452823227677,45.49297661438697],[8.03308991051795,45.493212308616876],[8.03261187038846,45.493478291314204],[8.03225490985192,45.49368230237463],[8.032282300477098,45.49377676584744],[8.032605359718254,45.49390105963339],[8.032819800560416,45.49398415798776],[8.03304780280324,45.49407610367673],[8.032571936613028,45.49430609721399],[8.032241224257735,45.49443299791532],[8.031790783761535,45.49460548364269],[8.031094460852005,45.49468955370567],[8.0304272113642,45.494746865528676],[8.029644545827619,45.49475342465231],[8.029270464163693,45.49471175073437],[8.028951732237957,45.49467562192236],[8.028668089918577,45.494641978814116],[8.02846919499822,45.494626693661694],[8.028285500863129,45.49465680614016],[8.027897435100112,45.49477204936925],[8.027844286565756,45.49478804034522],[8.027704199682185,45.494835727859616],[8.027585108286644,45.49487704020277],[8.027205747009777,45.4951335492409],[8.026202987561145,45.49557018938786],[8.026133891759194,45.4955848491493],[8.025345101332114,45.49575195054015],[8.025389327626916,45.49604520955454],[8.025448350325203,45.496250080057415],[8.02548772775579,45.496388135609166],[8.025378114209097,45.49674221695901],[8.025255786078326,45.497139015400535],[8.025241615129453,45.49718395427614],[8.025199720296614,45.497317290073156],[8.024341832879498,45.49717495144677],[8.02423505811133,45.49717403933106],[8.024019421049372,45.497159917579154],[8.023678123025398,45.49713777607216],[8.02288422917658,45.49764404893737],[8.022175795541672,45.498227550546865],[8.022059284879633,45.498325563099506],[8.020792798598348,45.498589253245406],[8.019833532973335,45.49891857515046],[8.019409976802992,45.49916937088437],[8.019210373726095,45.499286759511044],[8.018782465593944,45.499697134855275],[8.019086390641206,45.49985128253585],[8.019251922332892,45.49993505287943],[8.020088889270657,45.50036094143176],[8.02047482992916,45.50075579220812],[8.020780071155574,45.50093842089204],[8.022670228655791,45.50192224199537],[8.02417252525052,45.5026236604149],[8.024756511172583,45.502903190493974],[8.025017308021896,45.50297709762915],[8.025082912975783,45.50299599026066],[8.024888349302552,45.50325985528068],[8.024786311089033,45.50334291445651],[8.024575541425477,45.50351371447814],[8.024544563144238,45.50353170785803],[8.024229301786582,45.503713276704474],[8.023897141471636,45.503791457064715],[8.023412032344387,45.50387732368858],[8.02312474474962,45.50397387785572],[8.022871923000848,45.50406622737714],[8.022440999258215,45.50435057420375],[8.022120183769808,45.50462684747087],[8.022092837404843,45.504693902337515],[8.021961034322167,45.50501704741154],[8.021808674482001,45.50524526747944],[8.02158782698331,45.505477398562824],[8.021431092216027,45.50563029953395],[8.021280243728766,45.50577670418952],[8.021074625850812,45.50596390051347],[8.020898664692618,45.50612279274488],[8.020788032630577,45.506201471194906],[8.02061948946259,45.50631932374753],[8.01950613979367,45.5057971007572],[8.019213403707914,45.5060691089601],[8.018956339898471,45.50633694382701],[8.018183535638054,45.50601076552246],[8.018463248609486,45.50572963339407],[8.01821665911594,45.505624004488425],[8.017162417260788,45.50517388156586],[8.01727634902936,45.504972324313975],[8.017222317904752,45.50490435261079],[8.016199685051824,45.50443200153371],[8.014802136208354,45.503824038926446],[8.01463626582832,45.50375244142579],[8.014465812009973,45.50380048614108],[8.014014324382035,45.50420612398831],[8.013924995593214,45.50429310235032],[8.013870899735172,45.50434567009798],[8.013833010558686,45.504381902943145],[8.013801164991072,45.50441217338901],[8.01373630560092,45.50447473482548],[8.013692672681858,45.50451711711916],[8.01328845067318,45.50490643875153],[8.012966563994183,45.50521869693433],[8.012918702125793,45.5053487990826],[8.012710810502645,45.5056845507747],[8.01264237565045,45.50593228019104],[8.012632670049774,45.50596741418284],[8.012353165303784,45.50596049890529],[8.010820052784252,45.50590221542244],[8.010630799600362,45.505876689027396],[8.010106894985505,45.50580602104503],[8.01001161508027,45.50578720376152],[8.009767459720134,45.50587983069476],[8.009605681300947,45.50594120654397],[8.009281163124248,45.506109575132534]]]}}]}
