{"type":"FeatureCollection","metadata":{"code":"096041","referenceDate":"2026-01-01","sourceDbfExportDate":"2026-02-18","upstreamArchiveUrl":"https://www.istat.it/storage/cartografia/confini_amministrativi/non_generalizzati/2026/Limiti01012026.zip","sourceManifestSha256":"70ac8256c4785dc6ed2814c32b6965ae76f9161b51abaa1660059e1c6cbd8ca6","license":"https://creativecommons.org/licenses/by/4.0/","attribution":"Istat, Confini delle unità amministrative a fini statistici al 1° gennaio 2026, versione non generalizzata.","modifications":["Converted from WGS 84 / UTM zone 32N (EPSG:32632) to RFC 7946 WGS 84 geographic coordinates.","Converted from shapefile to per-municipality GeoJSON without geometry simplification."]},"features":[{"type":"Feature","id":"096041","properties":{"code":"096041","name":"Occhieppo Superiore","alternativeName":null,"regionCode":"01","regionName":"Piemonte","territorialUnitCode":"096","territorialUnitName":"Biella"},"geometry":{"type":"Polygon","coordinates":[[[7.972163545200417,45.591399083566905],[7.971807501792383,45.591764927312475],[7.971833388985005,45.59227821474137],[7.9720286064676396,45.59304055766538],[7.971973758226894,45.593193022818475],[7.971734614521,45.593847989441805],[7.971544239715116,45.59472837764079],[7.9712471866394665,45.59570229550161],[7.970540380717993,45.59616398388847],[7.969381958491641,45.59649556008155],[7.968506237093276,45.596963710852826],[7.96842987258186,45.597004535700314],[7.968322658741981,45.5971475736782],[7.9682584323575645,45.597275140059295],[7.968034641935078,45.59771775935533],[7.967634066610496,45.59851399725853],[7.966983362242811,45.59973673392685],[7.966484260183484,45.60029478746378],[7.965951214081017,45.600803015168445],[7.964994525304593,45.60155493554204],[7.964536809262762,45.602387870670135],[7.964516231153155,45.602351683720514],[7.964573263206158,45.601996665604396],[7.964547951576452,45.601346939958766],[7.964545887241157,45.601256530463836],[7.964541407917506,45.60114830319057],[7.964538672285526,45.60110086650265],[7.96450073760289,45.601052702986244],[7.964320584125472,45.60083323999889],[7.963782611982501,45.59993650001301],[7.963755689415031,45.599892023936455],[7.963990564403931,45.599583616107786],[7.96405239708782,45.599372061870895],[7.9640738936935955,45.59930085813774],[7.964048306267595,45.599080101405754],[7.963994158302888,45.598800575476915],[7.9638760826214225,45.598335946283136],[7.963702056975578,45.59753780080211],[7.964177420342148,45.59689852850229],[7.964382882805719,45.59655387145274],[7.964667804798433,45.59616040168073],[7.964715206752434,45.59593580781399],[7.964706133759844,45.59568819324111],[7.964650579615085,45.59533215510754],[7.964537456043072,45.59503410346318],[7.964260189913784,45.59444653190728],[7.963728157103918,45.594067987079306],[7.963687496852325,45.59404078887401],[7.963655481102295,45.59373447648842],[7.963652586689067,45.5934779230784],[7.96364252056152,45.5931762896065],[7.963613848661835,45.593072053325386],[7.963604183154674,45.59303868347001],[7.963595466956941,45.59300528352259],[7.9635821523304555,45.59296002171601],[7.963547668185761,45.5928874459606],[7.963522968651804,45.59283710418066],[7.963511216389999,45.59281255798022],[7.963468924414556,45.592724669028435],[7.96342085058947,45.59261622687384],[7.963288925656573,45.59244851528751],[7.963169483628195,45.59229891078612],[7.962826350897626,45.59202577412539],[7.962600189184777,45.59188419557295],[7.962657948657836,45.591794706341446],[7.962656466489938,45.591722691032516],[7.962654927691988,45.591632665069795],[7.962674689433354,45.59140782175829],[7.962727239672355,45.59127328818193],[7.9627205598738575,45.59123356993196],[7.962713481941625,45.591178858667995],[7.962836695746445,45.59111676244158],[7.9629875195180695,45.59107790624849],[7.9630949050545015,45.591050529693284],[7.963140041316778,45.59103837939174],[7.963224048683223,45.5910170597137],[7.963297535075636,45.59095893202784],[7.963521910395831,45.59087095440615],[7.963767647774076,45.590819190417754],[7.963974573668992,45.5908075568774],[7.964215739669117,45.590832187124725],[7.964633525887789,45.59094905458265],[7.964759947446637,45.59098380212462],[7.9651116528108465,45.59107828824927],[7.965425014994731,45.59112238034425],[7.965716248236941,45.591106872583154],[7.965920385847379,45.59107271852282],[7.96603820435634,45.59098377306368],[7.966089553030696,45.59074120581637],[7.966077897334195,45.59052509023187],[7.96616182223017,45.59040433247175],[7.966193417588783,45.59037515718957],[7.966266325089467,45.59030589078678],[7.96629880841927,45.59027505922228],[7.966347964750436,45.59027165611956],[7.966384186813573,45.590269086464154],[7.966459714213059,45.590263806697834],[7.966584855500569,45.590255407748366],[7.96667762702749,45.590257272238084],[7.966888760704549,45.590262532193954],[7.96699576402567,45.59024545828037],[7.967029778396913,45.59022597713939],[7.9670929911265205,45.59018893800063],[7.967108078912883,45.590159324258735],[7.967136704432445,45.590098142132454],[7.967182714258252,45.58996111616395],[7.96719716606897,45.5899187809161],[7.967233749665626,45.58983770285171],[7.967252990881003,45.58979509496286],[7.967283600867033,45.58972844641568],[7.967388165108516,45.58955133081841],[7.967593226119069,45.589314651012934],[7.967989104774354,45.58891769368196],[7.968116538749121,45.5888063249642],[7.968213113931768,45.58874229637645],[7.968410616959881,45.588692700577475],[7.968458685697173,45.58868469172137],[7.968540056989506,45.588670784566325],[7.968677568492358,45.588491858127036],[7.968951581857128,45.58825131496702],[7.9691862141909375,45.587951892001804],[7.9692945041161565,45.587682847463526],[7.9693312509050225,45.5875571646924],[7.969444130015309,45.58738717087863],[7.969568601445277,45.587262278548366],[7.969712292006227,45.58713756123287],[7.969628032670918,45.58710079980528],[7.969733863655042,45.58696160483181],[7.969914057241566,45.58672983155143],[7.969973113479194,45.58664974281231],[7.970306359684091,45.586197808473436],[7.970475926790631,45.58597968575356],[7.970723959653898,45.58566151054372],[7.970861582765378,45.58549623875297],[7.970875308547009,45.58546935483277],[7.97088476465172,45.584951889903905],[7.970858373262235,45.58448811173604],[7.9706216989768555,45.58406743394588],[7.971076414168471,45.584022017065514],[7.971018195773358,45.58374209885116],[7.970989477477158,45.58360601369245],[7.970936825234183,45.58334920620114],[7.970793657989275,45.58294386541472],[7.971837209174644,45.58312504441904],[7.972476637897878,45.583237247111526],[7.972655676026966,45.58326816127262],[7.973224412547391,45.58336759145941],[7.9734614484748025,45.58340890701485],[7.974214541630978,45.583455395864064],[7.974402461927662,45.5834667558013],[7.974448947989967,45.58345674098036],[7.975348585900166,45.58327734925632],[7.9755274967381835,45.58323614601284],[7.976189659353499,45.583086855630974],[7.977166900191058,45.58309561048542],[7.977277552656517,45.5831197726204],[7.9773496386896685,45.583135415538],[7.978696696583935,45.58342883354786],[7.978804685011025,45.583435693803985],[7.979603359394482,45.583486450254235],[7.980653798081691,45.58330230877468],[7.981744472873403,45.58284398036801],[7.982622948281144,45.58250978326428],[7.98270699540534,45.58246889394274],[7.9834699242747815,45.582098201627545],[7.983958782619102,45.581981611399094],[7.98434903106967,45.58164304004957],[7.98435292592444,45.58142704718446],[7.984459999866673,45.5812659841866],[7.984569819317104,45.58110034416231],[7.984744509674329,45.58083647807595],[7.984858280842637,45.580459446683406],[7.985304570515033,45.57941492102097],[7.985401490559895,45.57915854221992],[7.9854302431791595,45.57908176133462],[7.985439941645841,45.57905596679597],[7.9855674403049575,45.57871505796239],[7.985687631565165,45.57847144560488],[7.98570671749742,45.57843276030432],[7.985771756635147,45.578424342178224],[7.985811824882576,45.578289686874385],[7.985759949957792,45.57821272555199],[7.985780387297449,45.57812289393569],[7.985766431647065,45.577852732564594],[7.985737993407429,45.57751944880977],[7.9857027611145295,45.5773841257708],[7.985654221245906,45.577346866084525],[7.985118083592736,45.576933382801315],[7.984917635217637,45.57688949749761],[7.984849546309748,45.57687698491908],[7.984793632770287,45.57693550690902],[7.984734423173792,45.57699747757681],[7.98466529796832,45.57706286508027],[7.984527035297104,45.577193653352246],[7.984402371052949,45.57733205302582],[7.98360332414295,45.576924920661995],[7.98296405207513,45.576599186832254],[7.982677746136363,45.57649773023759],[7.982280555796623,45.57626018029629],[7.982253180304035,45.57629874887467],[7.982236326226894,45.57632256577656],[7.982181773966465,45.57639912320807],[7.982110704244286,45.57645283459755],[7.981996739410996,45.5765505882972],[7.981890085477162,45.5766332141883],[7.981879338533606,45.576595331129006],[7.981870459880153,45.57656243779626],[7.981760700291001,45.57638594992039],[7.981419555724156,45.57618037321566],[7.98130448044697,45.57612083842843],[7.980943461896284,45.575973611422455],[7.980702715510592,45.575901766493224],[7.980664029912183,45.575869401866576],[7.980632719094779,45.57584504916063],[7.98047532209743,45.57572639953864],[7.980396989213082,45.57567170849509],[7.9803990253787775,45.57555920553878],[7.9804274891550495,45.57544695737767],[7.980447517925261,45.574961067224265],[7.9805567037815806,45.57481353892637],[7.980762551745401,45.574527345198625],[7.980872045999554,45.57420878689462],[7.9810706756429495,45.57396752350425],[7.981275241265551,45.573573311129294],[7.981417561199962,45.57334506086551],[7.981547402195399,45.57327419495625],[7.981768534607709,45.57318165541595],[7.982011802247693,45.573062326683356],[7.982102096714711,45.57294161273614],[7.982123203852669,45.57279327905779],[7.982210781497528,45.57264555567072],[7.982089781387521,45.57258147012093],[7.982001397102799,45.572441155423746],[7.982009439322875,45.57232872390706],[7.982025686735788,45.572267133221025],[7.982060201196487,45.57213565647084],[7.982112244463138,45.57184808851983],[7.98217129274341,45.57170458982554],[7.982221611196525,45.571653851026724],[7.9822660508812575,45.57161488900413],[7.982353559302438,45.57151614406822],[7.982417548535401,45.571441260148205],[7.982423701953622,45.57127929698665],[7.9824233484625795,45.571242170811075],[7.9824212011052325,45.57101825058179],[7.982502253664707,45.571010165086854],[7.982918314863082,45.570968666364905],[7.983156813890335,45.570873798949066],[7.983208590090476,45.570853900380584],[7.983343596752887,45.570837442924315],[7.983637195074739,45.57074554198895],[7.983748539494994,45.57070151751644],[7.984033935560496,45.57059092751282],[7.984272480842754,45.57049884579862],[7.984358663989715,45.570468425297676],[7.984644078769004,45.57036519859137],[7.984921329152562,45.570226104138996],[7.985092674093086,45.57014104919035],[7.985257543592422,45.57005786988345],[7.985572451908523,45.56992491225796],[7.985676507182462,45.56992582822063],[7.985716930554488,45.569913206759594],[7.985809358221677,45.56988400354642],[7.9860765403283045,45.56980154150839],[7.986219107722008,45.56975821121826],[7.986323219067553,45.56972529033796],[7.986798153262111,45.56954949477736],[7.986986658882974,45.56943775166141],[7.987482003132544,45.56914095219402],[7.987561276193693,45.56909270174087],[7.987672376670839,45.56902973035608],[7.987995886893861,45.56884360193836],[7.988202636020141,45.5687248364949],[7.988749884255074,45.56835615518375],[7.9890212328185495,45.56820081909345],[7.989289487295293,45.56804599864066],[7.989049131003499,45.568039271173845],[7.988661458634756,45.56806284527002],[7.988578904040421,45.567994968247675],[7.988451501945856,45.56788995531318],[7.988287772120267,45.567681008444055],[7.988252632209993,45.56763616268125],[7.988001229060681,45.56727390151648],[7.987914990795969,45.5672371350182],[7.987777674496406,45.56712339696019],[7.987471402205895,45.56687316964572],[7.987436535605595,45.566838566548874],[7.987398622357118,45.56680050162987],[7.987253860796383,45.566655209437],[7.986860009795083,45.56626467135638],[7.986743538007043,45.5660836143931],[7.986151885305723,45.565425797714106],[7.986077940110861,45.565345234467415],[7.985625869823594,45.56488106593722],[7.985720058086787,45.56485489916423],[7.986059613417993,45.56472290243032],[7.986650004083494,45.564404106219],[7.987114621904356,45.56419669866433],[7.987403952152785,45.564163263295654],[7.98766891996144,45.56421512494766],[7.987918741378214,45.56428484489916],[7.9881771409364335,45.56430062763341],[7.98843729971254,45.564419949245526],[7.988516938514622,45.56445421494145],[7.988608165667542,45.564493467164986],[7.9891214976388945,45.56471853631039],[7.989559657833309,45.56493844305875],[7.990098702631348,45.565181728361864],[7.9906151009712145,45.56543832247569],[7.99084155532929,45.56556183946734],[7.991168418055074,45.56571323252682],[7.991496967782833,45.56579265268845],[7.9919092845615225,45.565778281221206],[7.992152257457296,45.56573992776552],[7.992247464761762,45.56572275756081],[7.992815398407314,45.56560626869914],[7.993445935041751,45.565571307601054],[7.993904462021177,45.565480836142235],[7.994131823749809,45.56535232589425],[7.994272853052406,45.565011543725355],[7.994196162536101,45.564686834857206],[7.994280081219603,45.564381530573385],[7.994358570692808,45.564202195944326],[7.994566376299872,45.56409152194971],[7.9951132989378175,45.56389381905119],[7.995251346571812,45.5638095170683],[7.995461877316298,45.56368085788818],[7.996054532914716,45.56323152116288],[7.996237773008113,45.56313720274966],[7.996905635397485,45.56279344330549],[7.997760334994743,45.56235539603944],[7.998685411426366,45.5619449633946],[7.9987292678371285,45.561866635348345],[7.998755548027932,45.56182066415812],[7.998906003834997,45.56155111660711],[7.99892331133273,45.56152528762482],[7.999112969356044,45.56102610257622],[7.9991249817179995,45.56039941151607],[7.999127112222446,45.56022963769517],[8.000186854727852,45.55872675568447],[8.001255956264933,45.558272547318005],[8.001577346437951,45.55818985946427],[8.002192708899454,45.55753815412128],[8.002840830021999,45.55659420199403],[8.003381683732238,45.55603187371909],[8.00367562029672,45.55564287965445],[8.003880879146426,45.55540165530461],[8.004179746246127,45.55511271292011],[8.004231202740295,45.55506266459488],[8.005081418618953,45.55495123037746],[8.00647248105622,45.55476889631228],[8.007022820485707,45.554696781202516],[8.007121975016751,45.55468375807811],[8.007207114820078,45.55467259689422],[8.007322059064077,45.554657529873204],[8.007359954514081,45.55471896208718],[8.007386687182127,45.554761598454085],[8.007847004692211,45.554890706323604],[8.00803500892805,45.55494324204476],[8.008555697946612,45.555087657387496],[8.00876562291358,45.55514710327027],[8.008885337490709,45.55516127285221],[8.008877557615698,45.555220683532546],[8.008868936348685,45.55529712504049],[8.008862283245966,45.555402048615086],[8.008859613029273,45.55545605708018],[8.008836318248253,45.55577783498162],[8.00881240782987,45.55610939708325],[8.00880545343297,45.556308322507775],[8.009337224885787,45.55634021352446],[8.009337239313284,45.556475223405776],[8.009329599872922,45.556614586427465],[8.00964561922571,45.55662431616579],[8.009750969289447,45.55662731597776],[8.010160866053852,45.55645085907275],[8.010270000575275,45.55649560666156],[8.01046459410763,45.556575009649045],[8.011567514549457,45.55692658437304],[8.011878567755419,45.556951783700825],[8.011958563606916,45.5569569744279],[8.011921683449668,45.55677664751738],[8.011958824950813,45.55670243273855],[8.012004672287157,45.55661083117326],[8.012116413485655,45.55654465775394],[8.01219410476273,45.55654131157258],[8.012307856818767,45.55653695220229],[8.012372556259372,45.55652401813252],[8.012785671121476,45.55643757683259],[8.013059471678694,45.55641743392215],[8.013337647050298,45.55646935200836],[8.013411791378834,45.55648798377702],[8.013676968403397,45.556571282608644],[8.014103683039236,45.556691974983316],[8.014236669344172,45.55673276165136],[8.014556614649116,45.55683154846103],[8.01488541271954,45.55693367000949],[8.015076998204105,45.55699290289471],[8.015572712477972,45.55693833262309],[8.015619197815402,45.556933211984955],[8.01582929097572,45.55691008490165],[8.015986838306443,45.5568927398164],[8.01605866238748,45.5568479490439],[8.016096297781882,45.55682418997139],[8.016133142677809,45.5568010874563],[8.016180632672551,45.556770473412875],[8.016281443521137,45.55670777700235],[8.016317851670593,45.556685023507846],[8.016405446994511,45.55663020252589],[8.016485340791164,45.55658013883684],[8.016754778948817,45.55641030581708],[8.016795417277772,45.55644515492638],[8.016847476894752,45.556519962665064],[8.016997762400159,45.55673492799769],[8.017204124780246,45.557002228987045],[8.017323218063357,45.55712926947914],[8.01741227054675,45.5572472294822],[8.017456669524627,45.55730594733104],[8.017507879523256,45.55735321588038],[8.017732421342126,45.55756067203206],[8.017830288607524,45.55765116783383],[8.017922671430602,45.55769949769875],[8.017971670306672,45.557722516150896],[8.018029543387875,45.55774965415211],[8.018227243294634,45.55781665812331],[8.018332513472656,45.55785228450249],[8.018488676791234,45.55790621883111],[8.019065837274239,45.5581071291477],[8.019112127942467,45.55811617849755],[8.019148335283452,45.55813507032052],[8.019201800028693,45.558155382166],[8.019484193801185,45.55826378337629],[8.019604285073617,45.55830545130601],[8.019718956764537,45.55834320663986],[8.019992525496033,45.55840731941184],[8.020105798816488,45.55829181469395],[8.020242407098506,45.55838682265072],[8.02047765642718,45.558551532731094],[8.020601950683393,45.558633599134055],[8.021124410481189,45.558453550404344],[8.021395985058621,45.55842437366991],[8.021570937257664,45.55844838228157],[8.021633806391447,45.55844892349057],[8.021811117374353,45.55846327489097],[8.021879700180959,45.558469039607985],[8.021974369783992,45.55850585000211],[8.022076845522454,45.55848422111629],[8.022131284734705,45.55846217731138],[8.02221253256906,45.558395368438475],[8.02236483431423,45.55827065263469],[8.022421894838727,45.55829426293506],[8.02254859050594,45.558350065559424],[8.022852878124024,45.55848157059996],[8.023002298939804,45.558546146937836],[8.023504003630746,45.5587079548231],[8.023856747560147,45.558476932222085],[8.024238519111586,45.55846670153205],[8.024333160802644,45.55850351063205],[8.024448682427089,45.55863051314732],[8.024494645982475,45.55875242188973],[8.024515027947375,45.558869617013706],[8.024743299039992,45.558864248363776],[8.024796236131625,45.558863001829565],[8.025113934825608,45.55884096713514],[8.025267218281375,45.55882849284346],[8.025116053203677,45.558976450356056],[8.024673283658169,45.55953380507223],[8.024635584643407,45.559579042057145],[8.024361252364697,45.559494968639605],[8.024199328019247,45.55970344889384],[8.02415665196354,45.55975800340859],[8.02400256544646,45.559956706770684],[8.023379190563707,45.559787012890894],[8.023233389613724,45.55996497109497],[8.022836779362889,45.56044843203853],[8.022782073737549,45.56051989243264],[8.022551500379473,45.56082853368928],[8.022555911038213,45.56101309772189],[8.022524937315506,45.561078086774],[8.02245165610581,45.561228228347524],[8.022337621045095,45.56138477275839],[8.02214639205692,45.561698173920384],[8.021839557143938,45.562051083293944],[8.021694926669909,45.562238866948825],[8.021448582905316,45.56252027222938],[8.021100026561008,45.56292233697025],[8.020839110255377,45.56319014053261],[8.020829703141823,45.56329356487486],[8.02094077659293,45.56353753386897],[8.021305368066027,45.56393273902562],[8.021508083747548,45.56413972956579],[8.021735994616407,45.56437244361852],[8.021637374420532,45.56449311503609],[8.02153866433926,45.56481630308033],[8.021528393885186,45.565027742637334],[8.021504028656535,45.56553159576822],[8.021501605468412,45.56567108327337],[8.021500686348652,45.565711250711466],[8.021496605087346,45.56595907241124],[8.021466443030945,45.56605782293233],[8.021419914038768,45.56620143220145],[8.021333811831923,45.56634022167281],[8.021037031671122,45.566549191598966],[8.02087391429518,45.566741313458515],[8.02084131321707,45.5668895576919],[8.020893300937397,45.56712402261996],[8.020994659266178,45.567259921589624],[8.02123422599484,45.56736997915588],[8.021303005890935,45.567405229745205],[8.021591472470226,45.56755306619746],[8.021685693975867,45.56768438668366],[8.021656878558323,45.56786866325733],[8.021576284411172,45.56801197987263],[8.021575140605421,45.568286507556444],[8.021495325602276,45.56838483362234],[8.021318163556563,45.56853181878653],[8.021122993623788,45.56865616382653],[8.021058395283065,45.56893914242322],[8.021012402892195,45.56923577481078],[8.020950694510256,45.56937477479144],[8.020827312430484,45.56942321036792],[8.0207362326994,45.569416794015055],[8.020559981294804,45.569411920973344],[8.020217786708507,45.56942248065251],[8.020035303504798,45.569461432565284],[8.019752462970086,45.56969752268715],[8.019527761261635,45.56979010606971],[8.019278097693666,45.56984647229653],[8.019108453794674,45.56997552815173],[8.01896024408084,45.57006876544838],[8.018901130406563,45.56995476710144],[8.018877047466475,45.56991022827994],[8.01872331053219,45.56966176496356],[8.018704151653305,45.56962980596637],[8.018672747984287,45.569558453087744],[8.018644855238295,45.569494272696396],[8.018634852972774,45.56939955602405],[8.01862606549449,45.569296312290064],[8.018701899875492,45.569242952996724],[8.01865543282178,45.56899052348106],[8.018550908952035,45.568967136314065],[8.018516894006376,45.56894339000799],[8.018472573942669,45.568912450612075],[8.018385805197521,45.56894744725798],[8.018122103851299,45.569053447236335],[8.018023595719384,45.56897901953386],[8.017960452960534,45.56893056139632],[8.017930448085,45.56878630371674],[8.017938888893719,45.56862883448957],[8.017858454301722,45.568578646139],[8.017777533106983,45.568556896869474],[8.017686251845165,45.56853214750875],[8.017482602703222,45.56829187892435],[8.017622829315675,45.56827513690797],[8.017431025473362,45.568236668368264],[8.017314966418729,45.56821391622608],[8.017149806171052,45.567969478522784],[8.017018329180905,45.567836641057504],[8.016931836286386,45.5677470770126],[8.016828838413694,45.56775068835307],[8.016506440185307,45.567752412551066],[8.016359174171843,45.56772413592116],[8.016266014820042,45.56769182996632],[8.016164195867741,45.56760545833401],[8.016073030672148,45.56746064813254],[8.015997793243672,45.56732048909472],[8.015906551450323,45.56724770092325],[8.01584022247982,45.56722971151713],[8.015786574114568,45.56721516352451],[8.015746262806895,45.56723463289793],[8.015594334119706,45.567308018004866],[8.015521729823323,45.56745139832258],[8.015484631595148,45.5675815929467],[8.01542749319165,45.56791912238765],[8.015223721136849,45.56805189821105],[8.014822776379166,45.56832713500291],[8.014771053172447,45.56836280650721],[8.014691954806963,45.56841902258153],[8.014468708279855,45.568571178443115],[8.014320995274081,45.568696675596584],[8.014270717174993,45.568754753057874],[8.014229805058513,45.56884891012954],[8.014130140104912,45.56891555695697],[8.014098541215018,45.568966536209814],[8.014056920216852,45.56903160110219],[8.01401566276778,45.569069951297834],[8.013878230130114,45.569198327833156],[8.013721579404157,45.5693429957844],[8.013570058575663,45.569293263529026],[8.013375920479696,45.56921958202075],[8.013208053336848,45.569200121741275],[8.013064560538837,45.569230385697],[8.013014200647568,45.56929295791841],[8.012997115737846,45.56944583174878],[8.012991121036197,45.56951465598565],[8.012981838330427,45.56958520881489],[8.01281530577313,45.569673781992876],[8.0125606471907,45.569784102067935],[8.012388552254874,45.569800605537104],[8.012146310607921,45.56984352597222],[8.011908631966843,45.569899981538825],[8.011720762734614,45.569925343196196],[8.01139082088183,45.56989999984122],[8.011123489776484,45.56991117838143],[8.010836924828665,45.56996338844159],[8.010794884445843,45.5699809094607],[8.010755404209274,45.56999764974275],[8.010700373137409,45.570022145647414],[8.010651563851907,45.57004322010958],[8.010593959042794,45.570086050410886],[8.010440044106618,45.57019778829869],[8.010178759247195,45.5704115532127],[8.00994252512365,45.5704770119489],[8.009644692484478,45.57051492759587],[8.009479235691078,45.57051801056358],[8.009162492381863,45.570470248301184],[8.009015807228746,45.57048693919533],[8.00739843820368,45.570670964047494],[8.007159806990705,45.57093891078392],[8.007145609445418,45.570978557610495],[8.007125278644859,45.571033016354534],[8.00704790822473,45.57104114773209],[8.006728100682704,45.571074684656125],[8.006449147131809,45.57109747055286],[8.006358633823954,45.57110516670654],[8.006032909751212,45.57113179861822],[8.00595954720128,45.57113793259743],[8.005198394607477,45.57120088158007],[8.004921946664249,45.5712299773004],[8.004729183449664,45.57128231046507],[8.004467215521517,45.57135202876514],[8.004233017099345,45.57139691523075],[8.004130064733708,45.57141659768717],[8.003890562686665,45.571450528841005],[8.003558699796345,45.57149270527751],[8.003509256580552,45.57149664575989],[8.003203463805013,45.57152090608233],[8.002945731717281,45.571534607431694],[8.002773712593257,45.57154426527639],[8.002516992507644,45.5715194680118],[8.002159194271234,45.57148490679156],[8.001901878018568,45.57146413180484],[8.00182618732949,45.57145861163166],[8.001741896454636,45.571446403178705],[8.001680391170838,45.57143766299019],[8.001635714009216,45.57143083315779],[8.001612946843414,45.57136984018662],[8.001520204134879,45.57112743060038],[8.00153368122616,45.57109684403111],[8.001457665338688,45.57111838152214],[8.001225760158404,45.57118036765979],[8.001159631394998,45.57119750168086],[8.000914804549483,45.571254789958864],[8.000777663388087,45.571286910436186],[8.000577154655566,45.57133465571139],[8.00046641779828,45.57136034606227],[8.000429686241866,45.571369003180955],[8.000285847635007,45.57140274405418],[8.000197989922908,45.57142306903529],[7.9999697479332434,45.5714766525019],[7.999927292555683,45.57148682913006],[7.9998471597837515,45.57150651939292],[7.999540055098833,45.57157339098188],[7.999492084056604,45.5715838287743],[7.999455595425887,45.57159185223328],[7.999353533236471,45.571595646831504],[7.999191564888891,45.571601047922776],[7.999146854667012,45.57160265440926],[7.998916168542778,45.571609550222234],[7.99885183575486,45.57162384981464],[7.998810125387381,45.57163254378384],[7.998686769970668,45.57165908851791],[7.998597199339927,45.57167838823385],[7.9985153091067325,45.571695967610495],[7.9983985897810665,45.57172163410665],[7.998344072958686,45.5717329537283],[7.9983040962272955,45.57174115505593],[7.9979156796573445,45.57182207540261],[7.997762533453392,45.57185454600334],[7.997690960106066,45.57186979312871],[7.997415183754419,45.571947963780815],[7.997324134361759,45.571973610558175],[7.997101693555041,45.57203926371101],[7.996583726856751,45.57219213500368],[7.9960554583376675,45.57232702111965],[7.99562123138989,45.57242221172033],[7.995196841463418,45.572526485548444],[7.995036177182225,45.572576728230196],[7.994510950524149,45.57274097466782],[7.99409212816726,45.57289509348278],[7.993585788580622,45.57315187971405],[7.993437936534391,45.573237538728634],[7.99321211029635,45.57336860376227],[7.99300828866769,45.57351925238889],[7.992940170333979,45.573569387139386],[7.992709502899401,45.57374671526509],[7.992498732947641,45.5738401180641],[7.992169768546152,45.573841154887674],[7.992086304556868,45.57382813561515],[7.991976599679328,45.573852818714826],[7.991783985780376,45.573898066410415],[7.991665358551476,45.57408404298024],[7.991347491170225,45.57454477769659],[7.991056096359392,45.574857390136664],[7.990973313417847,45.574946247173514],[7.990877354729127,45.57503810030964],[7.990245711854728,45.57568267081953],[7.989881302245692,45.576112277440885],[7.989745980690991,45.57630786234653],[7.989724404056667,45.57633961620683],[7.989625856995496,45.576478276892566],[7.989539880060799,45.57664854512902],[7.989437614958932,45.57692631893338],[7.989437318188687,45.576976871548766],[7.989437232791301,45.57707608655488],[7.989436974038401,45.5771831786356],[7.98951776282685,45.57739995340107],[7.989539117024377,45.577607141902185],[7.989530856793635,45.57771057627669],[7.989532256425321,45.57798960555158],[7.989546183899641,45.5780536271272],[7.98955435495251,45.5780887161479],[7.98958269853173,45.57822146665383],[7.989597003887741,45.57828722246292],[7.989671781751508,45.57860742253421],[7.989528393650437,45.57870082708638],[7.989418489077865,45.57877169836778],[7.989327000553105,45.57883671529648],[7.9892634231017405,45.578882755613286],[7.989153110020829,45.57896263846116],[7.9889522013917995,45.5791771210431],[7.988626859878788,45.579493775873345],[7.988445994049905,45.579550682851874],[7.988179986125743,45.57955282466518],[7.9880866783848425,45.579525241621724],[7.98802299422568,45.57950641793202],[7.987967444606971,45.57953309180725],[7.987654907590175,45.579683179719005],[7.9873784835751565,45.57973200393376],[7.987116828176297,45.57977824192634],[7.986295132336218,45.579923150302676],[7.9861152790452365,45.580010758804065],[7.985915195422705,45.580108220874294],[7.985431164029869,45.58034302076876],[7.985312073793454,45.58101703421433],[7.985085158812943,45.581739600553135],[7.984939580117099,45.58190482247733],[7.984971523292126,45.58195461921301],[7.9844048536353265,45.58241312375872],[7.98387384477031,45.582826944739544],[7.983025728869468,45.58340896898899],[7.982531812515357,45.583697099482585],[7.982064886463102,45.58387954244005],[7.981488023129829,45.58410493639172],[7.981086053895358,45.58426349781743],[7.980414625423434,45.58476091434545],[7.979816628518098,45.58520304766042],[7.979357048067459,45.5855184767858],[7.978118917348304,45.586416496334266],[7.9774824767556245,45.58687434201693],[7.97737442649013,45.587044404115126],[7.977349953898752,45.587087966904654],[7.976900422749636,45.587908747614385],[7.976796917406059,45.58809234057928],[7.976716689274858,45.58823510270762],[7.976508338163296,45.588607306846605],[7.976483993002737,45.58863010072137],[7.976117894309802,45.58897283884711],[7.975411709696866,45.589407557673624],[7.974601441374538,45.58981433114163],[7.974245151674855,45.59003600921923],[7.973824236680019,45.590297895546676],[7.973328488101052,45.59062657937583],[7.973131967709251,45.59075677772726],[7.972163545200417,45.591399083566905]]]}}]}
