{"type":"FeatureCollection","metadata":{"code":"096050","referenceDate":"2026-01-01","sourceDbfExportDate":"2026-02-18","upstreamArchiveUrl":"https://www.istat.it/storage/cartografia/confini_amministrativi/non_generalizzati/2026/Limiti01012026.zip","sourceManifestSha256":"70ac8256c4785dc6ed2814c32b6965ae76f9161b51abaa1660059e1c6cbd8ca6","license":"https://creativecommons.org/licenses/by/4.0/","attribution":"Istat, Confini delle unità amministrative a fini statistici al 1° gennaio 2026, versione non generalizzata.","modifications":["Converted from WGS 84 / UTM zone 32N (EPSG:32632) to RFC 7946 WGS 84 geographic coordinates.","Converted from shapefile to per-municipality GeoJSON without geometry simplification."]},"features":[{"type":"Feature","id":"096050","properties":{"code":"096050","name":"Pray","alternativeName":null,"regionCode":"01","regionName":"Piemonte","territorialUnitCode":"096","territorialUnitName":"Biella"},"geometry":{"type":"Polygon","coordinates":[[[8.210873204828214,45.6867581171603],[8.210754493202067,45.68677978484083],[8.210626071681787,45.68683740764444],[8.210504763099534,45.6868455639331],[8.210408536793278,45.68686740734425],[8.210204141261723,45.68693349640368],[8.209998413836455,45.68700859294697],[8.209865319138313,45.68708417259392],[8.209776021649118,45.68715555551532],[8.209697314120193,45.68718651406288],[8.209614214844903,45.68721744217163],[8.209459394848247,45.687238878483484],[8.209241731076593,45.687277869625895],[8.209070780874622,45.68733519719342],[8.20893947823444,45.687397293177995],[8.208798499661059,45.68749082590289],[8.208744623554686,45.68755345876814],[8.208680126875898,45.687688021305505],[8.208600325580719,45.687768484337454],[8.208444219829358,45.68785289566705],[8.208281863648981,45.68795529488354],[8.20823086119548,45.688013430786455],[8.208019230905576,45.688164980228194],[8.207856278278339,45.68830787495621],[8.207635564572112,45.688364851698964],[8.207449539066692,45.68852107629359],[8.207407662732594,45.68858828949362],[8.207371151575089,45.68870053698381],[8.20731587994041,45.6887496662968],[8.207267536934214,45.68884833576927],[8.207185287741243,45.688960265805896],[8.207167489725451,45.689054653977465],[8.206715309543625,45.689897598063496],[8.206603614472337,45.69000430431202],[8.206233619918857,45.69035778363015],[8.205752078204744,45.69077746972072],[8.205171912448334,45.69131753989511],[8.204861416429475,45.69160648388692],[8.204403421175375,45.692032704295215],[8.20389296845133,45.6922541668723],[8.20264662767564,45.6929970314364],[8.201530986255896,45.6935745583046],[8.20130015218294,45.69369418164506],[8.201327460548276,45.69310033000195],[8.201095241239743,45.692554158462826],[8.200951240915064,45.69215260809114],[8.201193348876773,45.692005802476764],[8.201527400011706,45.69171561277115],[8.201651288378514,45.6914419481058],[8.20174020052495,45.69114554847287],[8.201872954994265,45.69103845677564],[8.20197775596361,45.69073385295224],[8.201987257141797,45.6907062335958],[8.2020330432788,45.6905625316569],[8.20202714496843,45.69050207672669],[8.202080485270763,45.690387356274066],[8.202083799236247,45.6903243743417],[8.20198810118441,45.69016619095277],[8.201947998918419,45.69008039640144],[8.201908071869523,45.690008116041916],[8.20182744628,45.689922057244615],[8.201707443970573,45.689723186450784],[8.201934066165029,45.68962126627255],[8.20212006981216,45.689523556991794],[8.202264537470846,45.68943905235612],[8.202367892945713,45.6893677734843],[8.202407315726107,45.68930504273669],[8.202442259596832,45.689246776633674],[8.202510914979666,45.68918874765535],[8.202588969295688,45.689117292857496],[8.202674180020916,45.68902337951152],[8.202745844037812,45.68895187550417],[8.202830605473249,45.68888946190081],[8.202935673141303,45.68882265348086],[8.203006216896812,45.688760176551604],[8.203042433322505,45.68869742230965],[8.203172331863597,45.68862183013681],[8.203239142923003,45.68852327049378],[8.20328280748572,45.68841557283465],[8.203300217555597,45.68832118435071],[8.20333528626055,45.68825392517904],[8.203362496194845,45.68817311800939],[8.203426765534047,45.68802954433781],[8.203450635533653,45.68784518778876],[8.203447214340503,45.687719152822034],[8.203439400227806,45.68764709777268],[8.203416001731364,45.687570435426956],[8.20338494034176,45.68749819756876],[8.203373164480823,45.68742161715736],[8.20336328733248,45.68735404274193],[8.203378634971392,45.68726413937634],[8.203406202964135,45.687187833308755],[8.203422517275486,45.68711142716282],[8.203442878746241,45.687035069934744],[8.203487294566921,45.686931876037995],[8.203522692547814,45.68686911681826],[8.203581426026762,45.68680202164005],[8.203624182498299,45.686730298425026],[8.20365316484945,45.68666749443924],[8.203680934948949,45.68660468199546],[8.203735469075411,45.6865240642743],[8.203782019666138,45.68643887785288],[8.203855882908867,45.686295388765004],[8.203924587118689,45.68620585443761],[8.20397175965892,45.68613418165998],[8.204082696089808,45.686035947839585],[8.204208066933298,45.685969298570456],[8.204267756760267,45.685920219513854],[8.204277586329935,45.685848287393085],[8.20426919410633,45.68580806979695],[8.204256467716842,45.68575363215293],[8.204310759205352,45.68563249417848],[8.204376546321697,45.68552043349788],[8.204416235644057,45.68538120464987],[8.204443737556362,45.68530939287803],[8.20450762817925,45.68521982736454],[8.204618293833361,45.68511259566223],[8.204662639640635,45.68501389761872],[8.204592449987796,45.68498190592468],[8.204438642540007,45.68498982949385],[8.204260160314673,45.68501109488259],[8.204151024292678,45.68501033465015],[8.204025555735802,45.68500044795435],[8.203921363868329,45.68499072378864],[8.203841485565125,45.68496316274906],[8.203747757621748,45.68492201013026],[8.203642141507393,45.68487176110045],[8.203565334741384,45.68482622945403],[8.203498803141997,45.68476275956939],[8.203427684889194,45.6847127508573],[8.203207917426974,45.68470222280465],[8.203106679640818,45.684710512123644],[8.202962695174492,45.684732016121245],[8.20268379873776,45.684788576484245],[8.202392041876648,45.684845050878245],[8.202259085014456,45.68485311708539],[8.202094825395493,45.684833959222985],[8.201950099179147,45.68479694755539],[8.201894270673634,45.68475965400522],[8.201812895332237,45.68465198240796],[8.201852663477533,45.68453524453555],[8.201861044877294,45.68450348774099],[8.201939197721313,45.684207323862374],[8.201928453053162,45.68400675186051],[8.201942596855178,45.6839688193156],[8.202038214282606,45.683715196617925],[8.20206104593576,45.68365463446064],[8.202151189791039,45.6835517406089],[8.202141250775673,45.68348866514228],[8.202069770133019,45.683407168016664],[8.20189767226578,45.68323495841309],[8.201847861615075,45.68315359363042],[8.201696712169698,45.68305802842778],[8.201625260951745,45.682976532123284],[8.20162686132761,45.68286402438591],[8.201456222288098,45.68261530343215],[8.201055881192989,45.68268461568446],[8.200314121330019,45.68270182622899],[8.200115605484905,45.68272294221107],[8.200049016177317,45.682663967620876],[8.199999069634082,45.682564611040036],[8.199960021782537,45.6824608312276],[8.199960737721627,45.682325830443595],[8.19993609843969,45.68225363655444],[8.19983083798122,45.682149394765545],[8.199701427438237,45.68204948053318],[8.199602673680063,45.681940787278464],[8.199544493277397,45.68185486509766],[8.199506859279731,45.68176459002448],[8.199477876481442,45.681602374018006],[8.19942844788136,45.68146701912643],[8.199386889184145,45.6813992249751],[8.199316763510712,45.68133572832675],[8.19922882051359,45.681227088902084],[8.19919740043672,45.6811233649713],[8.19920112402426,45.6808623694786],[8.199166645881297,45.68080361944109],[8.199007680272313,45.680694500842876],[8.198912413412701,45.68062183309044],[8.198868053177538,45.68058100280141],[8.198846769246785,45.680553849133624],[8.198814452296476,45.680513124882616],[8.198759454646593,45.68045872764482],[8.198710410515474,45.68040888877489],[8.198650449642754,45.68030946132289],[8.19862308232792,45.68017426170032],[8.19866931323001,45.6800754756111],[8.198687955624631,45.68005126352153],[8.198544421533274,45.67994868362503],[8.197750149097722,45.68012761027637],[8.19704167049178,45.68025765936704],[8.196595298166107,45.680336171585125],[8.196227648924742,45.6804007004598],[8.196126767608758,45.68041218501386],[8.195669463056857,45.68046423423628],[8.195187246792756,45.68051912502162],[8.194676622516367,45.6806730418024],[8.194442698117143,45.680723668693545],[8.194136673749542,45.68078989448391],[8.194089195460664,45.68075441476318],[8.193850004742393,45.6809237337548],[8.193802289492558,45.68096993153059],[8.193619291525438,45.681147124494665],[8.193224607133219,45.68158088540781],[8.193052571190576,45.68174113871978],[8.192975272621132,45.68181313788393],[8.192836700894036,45.68190666800521],[8.192771006116326,45.68194975632027],[8.192714929102625,45.68198696388855],[8.192504394604333,45.68205745768324],[8.192153911206686,45.6821732637959],[8.191717052982145,45.68226468284852],[8.191656216411298,45.682182738743435],[8.191568730499583,45.68206871234829],[8.191191760616237,45.682192057117454],[8.19112441648233,45.68202478433544],[8.191062749428637,45.681871615564305],[8.190776194068489,45.68159507403301],[8.190598056272831,45.6814542859925],[8.190410688610685,45.681313452963465],[8.190250308111109,45.68110980483178],[8.190174599596368,45.68102316856237],[8.190105453868764,45.68094599637727],[8.190081358331655,45.680917753640955],[8.190074291336472,45.68082053015237],[8.189939806768102,45.68060355305123],[8.189657962644768,45.68032241470964],[8.189625490503571,45.680290420298846],[8.189566772691876,45.68023186534161],[8.189370970635226,45.680053565822256],[8.189302360954624,45.67998744641014],[8.189244073609563,45.67993256039325],[8.188861272219526,45.67970932169402],[8.188737978779706,45.679631945103054],[8.18862783529649,45.67956366084529],[8.188295771980558,45.67930028025933],[8.188100861233893,45.679154873151816],[8.187992583341224,45.679095592505305],[8.187880705519472,45.67897780119545],[8.18777301924001,45.67887802781859],[8.187562328997261,45.678741502162495],[8.18748688850068,45.67868697479418],[8.187428886326972,45.67864604481952],[8.187330206981645,45.67853284097449],[8.187196695609154,45.67841487618403],[8.187080245904067,45.67836455269771],[8.186913021522816,45.67835884598723],[8.186809242411096,45.678329217204066],[8.186718417028887,45.678303467213006],[8.186483750079145,45.678243288886335],[8.186356962737772,45.67826939127061],[8.186256456083782,45.678282171305845],[8.186123178278073,45.67825873139408],[8.185989346368471,45.67816326778712],[8.185915313828565,45.67812222281516],[8.18578129182083,45.678121267684034],[8.185692760323011,45.678111641189325],[8.185588515497642,45.67810640034423],[8.185470884417143,45.67805604789009],[8.185398358591186,45.67799252554115],[8.185342716121882,45.67792912174342],[8.185186559652578,45.677878514961805],[8.185218309438113,45.677820233028264],[8.1852630835976,45.677748548962185],[8.185320815681077,45.677667947409745],[8.185427568397383,45.67758321203664],[8.185517462971605,45.67741732329566],[8.185592512281083,45.67730535640307],[8.185685292747356,45.67721600813738],[8.18573447608295,45.67709034555525],[8.185656645283865,45.676950286204914],[8.185570950878706,45.67682815898834],[8.185525232920904,45.67671531400007],[8.185535566108573,45.676611883894914],[8.18547996824274,45.676543983628754],[8.185418921169411,45.67649405253307],[8.185371725602566,45.67637220326476],[8.185272658896293,45.67628598216198],[8.18525670531947,45.67614186425529],[8.185324647418833,45.675993828016324],[8.185364669726175,45.67589060963106],[8.185368694088956,45.6757781192594],[8.185335571116608,45.67568337474345],[8.185294198291876,45.67552106479825],[8.185241176193614,45.67535867265142],[8.18523861645171,45.67509313568295],[8.185211441163052,45.67483641861868],[8.18519445092692,45.674764295806405],[8.185304478316828,45.674535544591635],[8.185373225985872,45.674333524051356],[8.185367260086139,45.67410846131041],[8.185332041605378,45.67402334716626],[8.18523467859877,45.67378798635286],[8.185293183408156,45.673545373515736],[8.18529795003998,45.673216883443786],[8.185315511680475,45.672946993032916],[8.185376834623932,45.67264589087963],[8.185433855181392,45.672173768226294],[8.185306634398266,45.6716778079336],[8.18561989392456,45.67132450927733],[8.185765857024782,45.67077650293849],[8.185791172764919,45.67052465857892],[8.186036786527614,45.67026988541265],[8.186172094091706,45.67004133401119],[8.18625195721585,45.669762870934186],[8.1863428268626,45.66961050220222],[8.186492902781731,45.669166025278166],[8.1865732234949,45.668883070150386],[8.18686313057293,45.66856110565116],[8.18695680383557,45.66846276528945],[8.186925157027975,45.668426744418845],[8.186671177639429,45.668137967439456],[8.186564649356617,45.6680166267424],[8.186802259518187,45.667806263731165],[8.186872028290715,45.66782126168484],[8.187140367349654,45.66787894986182],[8.187199607567718,45.667893261539085],[8.187322490352711,45.66792081170982],[8.18742363779947,45.66794744117219],[8.18748694751505,45.667867986975736],[8.187542936558794,45.66779636275869],[8.187613640938325,45.667706854880755],[8.18760769656207,45.66693420946684],[8.187606961648962,45.66683823133784],[8.187604337087555,45.66665821014637],[8.187592791566704,45.66584803964182],[8.187559728670344,45.66486223006379],[8.18757306812313,45.66465979130217],[8.187952528000896,45.66427545798043],[8.189432895302877,45.66443449061616],[8.18954694187028,45.66425977420863],[8.189655520440935,45.66410302788706],[8.189799567464975,45.663906037082334],[8.190006521750096,45.6636628954035],[8.190073789837868,45.663583952931724],[8.190326092939793,45.6633041438806],[8.190408472263716,45.663212784460285],[8.190494123498398,45.663114384260446],[8.190568380743965,45.6630294145104],[8.190654161313258,45.66292199980532],[8.190665538559319,45.6628275718876],[8.190784026209961,45.66270691534986],[8.190843217134335,45.66266231932829],[8.190924439956964,45.66250987574268],[8.191064851858105,45.66239836967773],[8.191188159049908,45.662304732432816],[8.191256713568382,45.66211170116701],[8.191286007593984,45.66197238381952],[8.191420755439514,45.6618068255165],[8.191501199321307,45.66170838858115],[8.19154409834066,45.661515175549155],[8.191673962230954,45.66132707652203],[8.191722741466267,45.66128242256502],[8.191765421377724,45.66118821508485],[8.191829221331417,45.66105222180809],[8.191864328549737,45.66097738645741],[8.192136410702702,45.660718291964756],[8.192344782710787,45.66064185353121],[8.192605798585708,45.66054610272625],[8.192739181749962,45.6604464962874],[8.19278770752821,45.66040998769386],[8.192887682501167,45.66033503880331],[8.192930889169372,45.66030296871595],[8.193173552078528,45.66012248387508],[8.193388462562613,45.65995347133204],[8.193455051737184,45.659899531933334],[8.193580194670758,45.65967539375024],[8.193705491372228,45.659442261005026],[8.194035443303505,45.65875601665309],[8.194407255891912,45.658142087210535],[8.194818851995686,45.65805497634746],[8.194944351251369,45.65802885541728],[8.195239063527577,45.658008444965425],[8.19568019173354,45.65790352822463],[8.1958845138611,45.657751968337934],[8.196122438465387,45.65727965065182],[8.196188169739774,45.65710603025525],[8.196285781933044,45.65689970610099],[8.196403222755487,45.65673851777265],[8.196695190276587,45.65662805178497],[8.19697241620703,45.65656699541364],[8.19705187284786,45.65655940539975],[8.197283016656304,45.65654254195103],[8.19751130734611,45.65655279212595],[8.197628442914425,45.65683262591071],[8.197649460208583,45.65687778886017],[8.197671914665017,45.65692298260111],[8.19771756229008,45.657021958520595],[8.197749635927083,45.657055096478985],[8.19777136046396,45.65707717164667],[8.197862381244187,45.657166841457695],[8.198093595046775,45.65729045039643],[8.19805156160699,45.65735291774489],[8.198105800608806,45.65736524449017],[8.198226989470006,45.65738937595299],[8.198289479462497,45.65740276592085],[8.198417879540765,45.657429053100024],[8.198566010717803,45.657459197733395],[8.198612008500197,45.65746853572694],[8.198693183729283,45.65748541208786],[8.198802288064432,45.65761729441808],[8.198869149859105,45.65769704509845],[8.198906145254666,45.65786657915047],[8.19892007814677,45.65791672908438],[8.198892966649915,45.65795372260227],[8.19883019688776,45.6580361258303],[8.198802190663852,45.65807284662427],[8.19875267507336,45.6581377720989],[8.19868952285119,45.65820196643578],[8.19862642911818,45.6582625004797],[8.198565147971268,45.658311676362324],[8.198527490587956,45.65834117456092],[8.198481211226099,45.65837770046552],[8.198430447932708,45.65841721829269],[8.19824727668121,45.65855163952305],[8.197882496348077,45.65876060545272],[8.19755090497389,45.658776790678836],[8.197489925067027,45.6587803362173],[8.197643533156171,45.6590383333709],[8.19779937269788,45.65930007414952],[8.197963748603607,45.65941822743669],[8.198051862965986,45.65956736541643],[8.198397328689865,45.659673295920875],[8.198636717759527,45.6596972958833],[8.199140175204523,45.65939497849362],[8.199628823337049,45.65896637145848],[8.19956573216703,45.658889092306],[8.199540124830309,45.658857727451085],[8.199620909017801,45.65878824844349],[8.200141821527332,45.658340229746784],[8.200625299587209,45.65842430067828],[8.201132626290253,45.65857185319343],[8.201510837155867,45.65877251366518],[8.201755182429585,45.658909227643754],[8.20218255033519,45.65903822573369],[8.203114391882481,45.65906273963128],[8.20386545776807,45.65904996642063],[8.204451564875932,45.65910373271656],[8.206002341700115,45.65921336060257],[8.206431232826304,45.65903631639494],[8.20680431626441,45.65880489207897],[8.207294585676411,45.658569782003696],[8.207667484269038,45.658239328327845],[8.207822565205904,45.6581639015491],[8.208552560769247,45.65819596762821],[8.208828817640493,45.65817537265146],[8.209147988542982,45.65806957991604],[8.209434146881652,45.65774301587954],[8.209961467645213,45.65738213715417],[8.210031782794315,45.657336716996],[8.210223378388616,45.657212939956814],[8.210403858852004,45.65718286079994],[8.210802009204327,45.65739694880429],[8.210913802982871,45.6574607273933],[8.211007298410346,45.65751538219085],[8.21109251408458,45.65756096712752],[8.211269152773323,45.65767008156498],[8.211354198697308,45.657720292498],[8.211451677865544,45.65775190511326],[8.211547175186015,45.65780264078921],[8.211725606560595,45.65792086860266],[8.211808549329989,45.65798444812666],[8.21186537270426,45.65805234424565],[8.211976037748807,45.658197130233276],[8.2120485194836,45.65829213968034],[8.212140004700151,45.658432276556546],[8.212265104731866,45.658608664966216],[8.212314424191316,45.65869450101499],[8.212431026072128,45.65887532928981],[8.212833476470943,45.65892309951559],[8.213151950408594,45.658925293532846],[8.213933585560877,45.65887668176387],[8.214236902992777,45.65886536342053],[8.214567033063405,45.65885304230295],[8.214646351398358,45.65885008086717],[8.214826996507199,45.65886931450565],[8.21495077772661,45.658937669266344],[8.21529340640994,45.65913355979884],[8.21558687653962,45.65928857440158],[8.21578954025895,45.659424992825926],[8.215999757092609,45.659480429408845],[8.21634647456704,45.65949184345],[8.216799435536078,45.65946342411348],[8.216934866056109,45.65947334712222],[8.217099970271882,45.659541983692606],[8.21733927673123,45.659669636971735],[8.217488325677717,45.65979666973644],[8.217517104429158,45.659891379019356],[8.217607110029451,45.659936991883356],[8.217650421769651,45.66008131011491],[8.217724331998141,45.660189819858445],[8.21822750423327,45.659918729673585],[8.218651592397944,45.659651614836264],[8.218913484095946,45.659626400370236],[8.220609606922936,45.65975949957128],[8.220913105085778,45.65985607923157],[8.221165117776659,45.65993429448566],[8.221196109272329,45.660101035926075],[8.22123943326953,45.660303843421346],[8.221240518997755,45.66060087420958],[8.221320541629343,45.66101995699695],[8.221331775301767,45.66113704975061],[8.22136990617281,45.66124981097931],[8.221484796130332,45.66155662992596],[8.22157867032068,45.661759780818905],[8.221679871555667,45.662039502674894],[8.221767747286167,45.66226962061782],[8.221850795628123,45.66247269841199],[8.221914551216319,45.66267566273846],[8.221953526276478,45.66278842949157],[8.221998261604256,45.662887741315444],[8.222085851690682,45.66308185525218],[8.222160026390133,45.66331639350159],[8.222271544166146,45.6636051786941],[8.222306750739232,45.66369993136499],[8.222405623846802,45.663916608772205],[8.22248652656397,45.66412868673568],[8.22262596228886,45.66443117368825],[8.222738218387704,45.664697454859386],[8.222874422365585,45.664999904188456],[8.222960744770536,45.66519850380374],[8.223101950434994,45.66540199774783],[8.22311039116822,45.665487548320066],[8.22313903444466,45.6655912677614],[8.223122589054563,45.66570815311439],[8.223151168966826,45.66581636986311],[8.223163283019641,45.66601446644271],[8.223220612025347,45.66624887312751],[8.223234286166848,45.666334479064766],[8.22318481497233,45.666662667966555],[8.223179365740181,45.6669101580791],[8.223831121552857,45.667401395796986],[8.223866252213718,45.66742787296756],[8.22472648518085,45.66794226155776],[8.224856695528036,45.66794690211045],[8.225662809289732,45.667975619131],[8.226115267178574,45.66787710195569],[8.22632432723743,45.667831580152594],[8.226688609719512,45.667689603983504],[8.226812372570038,45.66764136794957],[8.22767280361348,45.66756359875772],[8.228341168116673,45.66750318382879],[8.22855219647676,45.667588336236875],[8.229997296773998,45.66817142783551],[8.23106839966618,45.668498171979266],[8.23133934636903,45.66898603781824],[8.23093788382942,45.67044147741696],[8.230821566607446,45.67131826510128],[8.230604458455241,45.67268864991947],[8.230613677829584,45.672735896424406],[8.230637544856469,45.672860662644226],[8.230632892848018,45.67293714869442],[8.230626738134875,45.67312160907569],[8.230630119478393,45.67325665944032],[8.230682604940437,45.6734370178817],[8.230755715498702,45.67351852711062],[8.230834554885234,45.67359105778279],[8.230939583963242,45.67368627410747],[8.23100010918056,45.673777040463506],[8.231020978319002,45.67380833838127],[8.23105865669567,45.67389860258062],[8.231062936844319,45.673966135276224],[8.231046370420838,45.674033525854114],[8.230990186422178,45.67412316184581],[8.230934494204941,45.67420378403982],[8.230876137881534,45.67427539189229],[8.23081416886288,45.674415565676924],[8.230780915279542,45.67449077632791],[8.230623018485645,45.674651726137775],[8.230449232111498,45.67480357231391],[8.230232293479103,45.6750540353972],[8.230112073424086,45.67519283156911],[8.23000762123183,45.67531813986613],[8.229975904626842,45.6753708530403],[8.229911853803365,45.67547729769708],[8.229851200395554,45.67557810636911],[8.229812837023598,45.675642377715384],[8.229685285888129,45.6758560229839],[8.229591178814765,45.675958894854006],[8.229442796970222,45.67602092723788],[8.229202192312066,45.67693736357874],[8.229181832298574,45.6770182241664],[8.229253722305423,45.67717038562602],[8.229485341498256,45.677677338063276],[8.229895333237435,45.67815265106401],[8.230843180601939,45.6786450755761],[8.231312902184841,45.678742746276],[8.231720992400417,45.67888949547034],[8.232083795702179,45.67914845777521],[8.232296452573507,45.67950091825572],[8.232266937830449,45.67981125350215],[8.231061880504438,45.68052988344019],[8.230692337980472,45.6807502525004],[8.230324558711075,45.68099979954761],[8.230117370268077,45.681506931749645],[8.230296202484435,45.681809673897135],[8.23045431667245,45.68195474213966],[8.230897612630619,45.682169254926244],[8.231399026144604,45.68233014371416],[8.231969987440824,45.6825094906065],[8.232705059017187,45.68272145801949],[8.232787005393464,45.68274451683923],[8.23286921629439,45.68280807496544],[8.233052187486125,45.68280930346965],[8.233256372125954,45.682815172691015],[8.233721075028921,45.68286793851577],[8.234309392776378,45.682935366258874],[8.23449122521263,45.68293397097457],[8.234721481851684,45.682932998803615],[8.234634700341825,45.68317544616573],[8.234601730621575,45.68322869490963],[8.234576426500318,45.68326956481112],[8.234455218568707,45.683300255670325],[8.2342743838272,45.68334853858224],[8.23415265607649,45.68338822019867],[8.233971513373017,45.68345902702663],[8.2338995933576,45.683486208908974],[8.233819430038743,45.683516514565966],[8.233742705481074,45.68355200162625],[8.23369503556115,45.68357417053431],[8.233510071011677,45.68368994630651],[8.233391057816167,45.68376564697359],[8.233319476454959,45.683805684894104],[8.233203520855913,45.68386339515785],[8.233061221235754,45.68388045157163],[8.232896718728583,45.68387935069754],[8.232795458831655,45.68386065999171],[8.232638493581748,45.683805613187246],[8.232492338682203,45.68372361460319],[8.232362890277651,45.68362373986518],[8.23228439767289,45.683582713029544],[8.232213859884379,45.6835462373334],[8.232082281908074,45.68351384993639],[8.231972074041863,45.68347261149482],[8.231876230197766,45.68346745047802],[8.231754749306432,45.68348914207325],[8.231632624020852,45.68352881833052],[8.23153939967927,45.68359569505667],[8.231488263031936,45.6836673732743],[8.231465695110519,45.6837617296173],[8.231440808447257,45.68391006293027],[8.231414010549663,45.68399089850898],[8.231301543734595,45.684116152982185],[8.231256285014068,45.68419684630035],[8.231375142976425,45.684278661906966],[8.231500665504395,45.68431550710998],[8.231589635057821,45.68435210811861],[8.231687615003583,45.6844067749801],[8.231752686729706,45.684519714362324],[8.231672220551955,45.684622697528795],[8.231567255413147,45.6846399833636],[8.231439993663134,45.68464362591221],[8.231260868627675,45.684624427986506],[8.231109862361324,45.684573898916014],[8.230971395363218,45.68448745240838],[8.230823512542845,45.68441445623028],[8.23071450415475,45.684404724974684],[8.230609638037683,45.68441301603561],[8.23046712479265,45.684416552983876],[8.2303452445445,45.684438240387244],[8.230255137918446,45.684482628604705],[8.230185790092246,45.6845361727986],[8.230140807672667,45.68456737269295],[8.230077243485105,45.68460744280164],[8.23003503052115,45.68470166734958],[8.230042899617661,45.684800727161196],[8.229953447151757,45.68488563782414],[8.229865992433297,45.684970560983174],[8.229793456068442,45.685051069821334],[8.229733088541051,45.68512268410207],[8.229648038928628,45.685149096109875],[8.229433890958829,45.68513865731048],[8.229165753785166,45.68511433994289],[8.229061309626166,45.685122650430664],[8.22896534073017,45.68512649959196],[8.228971333531746,45.68521655224706],[8.22902843301893,45.6852664324363],[8.229097200930022,45.685343413719394],[8.229067433556326,45.68540621976907],[8.228989492564951,45.6854416945179],[8.22883150157795,45.68546311588607],[8.228666798691801,45.68547551516062],[8.228579243702175,45.68547942260609],[8.228478783214458,45.68551924447031],[8.228388712006119,45.68553214733809],[8.228241321243912,45.685540146295665],[8.228066384481851,45.68556597145904],[8.227651467783774,45.685621674495266],[8.22739873800505,45.68567395545626],[8.227290104909214,45.685722734464804],[8.22712143252232,45.68584760821091],[8.226968197960083,45.685959068677555],[8.22690821750228,45.68603068407469],[8.226852202114674,45.68610680420137],[8.226849814506489,45.686192302508076],[8.226856512134056,45.68625985157985],[8.226909169389474,45.686313782845815],[8.227039393304324,45.686388422456425],[8.227092313940217,45.686418962186195],[8.227152492925706,45.68647785869571],[8.227169627848587,45.686545498155574],[8.227135452924356,45.68666676145261],[8.227098995612014,45.68672052715916],[8.22693995798588,45.686828054539816],[8.226902379236098,45.686853761418625],[8.226815535107383,45.68690312755701],[8.226680331520853,45.68692921949894],[8.226554397954985,45.686923868337445],[8.226433069262745,45.6869050370299],[8.226380653715912,45.68689467764174],[8.226218138703835,45.6868630830034],[8.226106573175686,45.6868038190138],[8.226010781357383,45.68670866104867],[8.225858546576847,45.68663112945665],[8.225801506849187,45.686617981503964],[8.22571773246278,45.686598672159064],[8.225565852490169,45.686611527404445],[8.225299597172103,45.68665432682948],[8.225016203684229,45.68673895877625],[8.22480889295202,45.68679052410329],[8.224571844481261,45.6868114031019],[8.224348943572304,45.686773602959],[8.224250687891013,45.68675972794393],[8.22414217279892,45.68671397593498],[8.223923535429938,45.68664948576709],[8.223882404738386,45.686635713159724],[8.223777638501979,45.68660799699028],[8.22365816278561,45.68655800894984],[8.223456399002211,45.6864753032014],[8.223290231657092,45.686420162123135],[8.223109622003062,45.68639194766971],[8.222738834318177,45.68632654105518],[8.222590215832184,45.686311897107416],[8.222212062968955,45.68620581688254],[8.222062417541,45.686173294949235],[8.221773790572207,45.68608052038214],[8.221536788169232,45.68600729930951],[8.221395909526953,45.68596182819697],[8.221155370949988,45.68588419881173],[8.221045326127433,45.68583784206713],[8.220953083544266,45.68583271444504],[8.220836524712224,45.685827113977204],[8.220586612892781,45.68577962275013],[8.220536182306612,45.68578035697921],[8.22046944473473,45.685779901612904],[8.220392679756845,45.68581598697806],[8.220320388762628,45.685888405995094],[8.220297712867755,45.686008247999716],[8.22029910877759,45.686138765494505],[8.220240746570909,45.68629588490053],[8.220164341472834,45.68633586093694],[8.220073083191718,45.68634874914361],[8.219970840248678,45.68637055863483],[8.219883803744297,45.686423955980935],[8.219698280925448,45.68654870368927],[8.21957317743086,45.68659735835501],[8.219406074710333,45.686609712580264],[8.219272702805483,45.68659080937712],[8.219165832878932,45.686540567051864],[8.21907589163234,45.68645895354115],[8.21899950482568,45.68638191415062],[8.218890761425927,45.686322661499],[8.218743410463835,45.68624065607871],[8.21866819481555,45.68619512748185],[8.218582270404625,45.6861405490296],[8.21846094363475,45.686121708363565],[8.218269501778918,45.686151902437814],[8.218094370791931,45.68619120058811],[8.217928310810965,45.686244076259065],[8.21782458751183,45.68625687733633],[8.217700261793793,45.68625150941875],[8.217576410745668,45.6862101627798],[8.21749532225679,45.6861555968283],[8.21733820543106,45.68599702349006],[8.217227090457145,45.685906251791714],[8.217145881153888,45.68586067842091],[8.216981692122822,45.685864051807016],[8.21679789755978,45.68586279191971],[8.216540957309046,45.68578453181988],[8.216392605950523,45.685774519781646],[8.216229769774475,45.68579588868611],[8.21609321156745,45.68580396788896],[8.215887602500477,45.68584305441867],[8.215584118011975,45.68593547914088],[8.215488191918563,45.68596632435463],[8.215332288771812,45.68603725602133],[8.215169015774352,45.6860901441251],[8.21495008520015,45.686133635177015],[8.2146434554204,45.68622154165298],[8.214391046046682,45.68627831266751],[8.21420976237204,45.68632656071102],[8.213995830487843,45.686415099414646],[8.213895403628042,45.68642342367476],[8.213652243122223,45.686448736586904],[8.213459129265841,45.68648342682105],[8.213276748822313,45.6864956632934],[8.213000996937946,45.68655677091375],[8.212807629984288,45.68660944922027],[8.212667547499814,45.68663998779],[8.212553572172636,45.68663920223506],[8.212394410086874,45.68662908978724],[8.212264287001991,45.686605703969136],[8.212123103489155,45.68660021373999],[8.211959395153583,45.68659908459304],[8.211788489827912,45.686651917013066],[8.211603551009363,45.686731656708766],[8.211445361508192,45.686766564748],[8.211270605989139,45.686778853348315],[8.210977986497568,45.68675434316575],[8.210873204828214,45.6867581171603]]]}}]}
