{"type":"FeatureCollection","metadata":{"code":"097055","referenceDate":"2026-01-01","sourceDbfExportDate":"2026-02-18","upstreamArchiveUrl":"https://www.istat.it/storage/cartografia/confini_amministrativi/non_generalizzati/2026/Limiti01012026.zip","sourceManifestSha256":"70ac8256c4785dc6ed2814c32b6965ae76f9161b51abaa1660059e1c6cbd8ca6","license":"https://creativecommons.org/licenses/by/4.0/","attribution":"Istat, Confini delle unità amministrative a fini statistici al 1° gennaio 2026, versione non generalizzata.","modifications":["Converted from WGS 84 / UTM zone 32N (EPSG:32632) to RFC 7946 WGS 84 geographic coordinates.","Converted from shapefile to per-municipality GeoJSON without geometry simplification."]},"features":[{"type":"Feature","id":"097055","properties":{"code":"097055","name":"Morterone","alternativeName":null,"regionCode":"03","regionName":"Lombardia","territorialUnitCode":"097","territorialUnitName":"Lecco"},"geometry":{"type":"Polygon","coordinates":[[[9.464404577437126,45.900076495941725],[9.462023362489257,45.900518161225925],[9.459655465526964,45.901013730834535],[9.45742649154627,45.901166691259824],[9.45604611721709,45.90104620133357],[9.454237417974399,45.90056738403671],[9.452893301438877,45.90014970313435],[9.451977396480853,45.89987430999486],[9.451357771937586,45.89996676779741],[9.450932164165872,45.899941443848775],[9.450467199355963,45.899835260767055],[9.449925518053744,45.89980139546474],[9.449639428590082,45.899496516733436],[9.44924829278902,45.89894903015858],[9.448959264324087,45.898275116784916],[9.44905519830181,45.89738371051233],[9.449276696491333,45.89607777044181],[9.449162118170358,45.89465613897989],[9.448386701472439,45.89280508954756],[9.44732637005448,45.8907751520412],[9.446144753362994,45.88807964023455],[9.44513103880052,45.88541044644211],[9.444107025941694,45.883056302176385],[9.443279325179113,45.88107041398913],[9.442997467780131,45.88041554129729],[9.442859546682664,45.880236105569146],[9.442944189174606,45.88019813183531],[9.442979262944911,45.88018239613461],[9.443193803329894,45.87999789018464],[9.443448729084631,45.87960118332404],[9.444166311195167,45.87847455244839],[9.4441847733942,45.87844009860382],[9.444250181956308,45.87833792216281],[9.444461248995045,45.87835760463783],[9.44460555963082,45.87842022706408],[9.444747302938259,45.87853509486044],[9.444927078253448,45.878680783474834],[9.445104431481399,45.87894359271612],[9.44521231883923,45.87907454436007],[9.445443628727496,45.879304866873284],[9.445650558937068,45.87948358487281],[9.445840840691318,45.87968643490135],[9.445878978511235,45.87975440760264],[9.445935463119008,45.87985507786946],[9.445973155132455,45.87990321868179],[9.446115093970219,45.880043946148156],[9.446353030841427,45.88015299460988],[9.44658506298356,45.88021978110491],[9.446883921753695,45.88026991581741],[9.447170440478512,45.88032387826617],[9.44739906211247,45.88038940737646],[9.447545960992004,45.88048441788498],[9.447660701744873,45.880636446611504],[9.447764085693395,45.88087940718435],[9.44780969889534,45.881114412572586],[9.44785948507199,45.88122075685472],[9.447904211982872,45.881286042478074],[9.448004592123441,45.88136503374009],[9.448371998239882,45.88150989198731],[9.448536146964441,45.88154978171687],[9.44867784958468,45.881547767327326],[9.448831832247839,45.8815407902342],[9.449060346491708,45.88149614982072],[9.449349057383053,45.88148529429383],[9.449482462277617,45.881494679217674],[9.449648433539213,45.881516941623566],[9.449708074593579,45.88153800670106],[9.449832715073933,45.881582028283724],[9.44999045522375,45.8816446090112],[9.45017841540093,45.88172467552544],[9.450433221171817,45.88185413423248],[9.450636285571422,45.88193250235359],[9.450846892803112,45.88197941046993],[9.451149912477499,45.88201337062818],[9.451285872174859,45.882022950371805],[9.451348173643462,45.88203629512298],[9.451399597544942,45.882055902182756],[9.45150005200415,45.8820876012384],[9.451604392239803,45.8821344327562],[9.451666942686161,45.88221028509333],[9.451801561766791,45.882388278605326],[9.451923351181378,45.88263208062742],[9.451967196805324,45.88272622385664],[9.45203360541748,45.88281047622857],[9.452147540765294,45.882891300322115],[9.452288348440165,45.882948526538215],[9.45242737764587,45.882977137911425],[9.452517321712596,45.882979103901995],[9.452600063655437,45.88298606664493],[9.452666723594929,45.882980510283836],[9.452792862841331,45.882950074741714],[9.452937548122263,45.88290869290022],[9.453094303825022,45.88287147526713],[9.453538712900158,45.88280991269838],[9.453548234508387,45.88267487403317],[9.453571641465814,45.882342906065716],[9.45359940590948,45.88204901826017],[9.453704411435819,45.88184014889379],[9.45386520961758,45.88164617874339],[9.454093177980203,45.881440060741866],[9.454523453461567,45.88101064438582],[9.454922378760571,45.88062509382142],[9.455159912669952,45.88045511774977],[9.455444563950662,45.880374058760665],[9.455838484664943,45.88010857593631],[9.455896796273695,45.880079017740904],[9.456273721397649,45.87984151909074],[9.456547989376478,45.87972053639122],[9.456913484393644,45.87950414255311],[9.456816183539898,45.87923436225373],[9.456813875418009,45.879094233010626],[9.456887951647206,45.87898161006202],[9.456737212103992,45.87865522288476],[9.45669422286812,45.878504185550234],[9.456686262438973,45.87838189995641],[9.456786381785175,45.878239471173586],[9.456864212055805,45.87811333239823],[9.456886740454511,45.878031967396765],[9.456888376938345,45.87785429007684],[9.456905602430187,45.87769194135425],[9.456914626630091,45.87728364047468],[9.456967723739202,45.877017191964335],[9.457030816934344,45.876555481551605],[9.457006393879443,45.876358467223916],[9.457126628351492,45.8767132199326],[9.457278840592767,45.87690375554976],[9.457401922209907,45.87708530801348],[9.457570653007709,45.8771906589341],[9.457721905926972,45.87728127371524],[9.45784449918972,45.87727599429499],[9.457986143209927,45.87716939123597],[9.45810931074171,45.877064671183426],[9.458153962111153,45.87704131575681],[9.45838065108496,45.87707403268699],[9.458348123016211,45.87716134246637],[9.458619673113214,45.877293254010475],[9.458675595723296,45.87732265935275],[9.458721438279257,45.87740492034225],[9.458858352310742,45.8774658983734],[9.458856744212543,45.87749909884718],[9.458711219399186,45.87761004782102],[9.458703155170724,45.877658899157026],[9.458803454865246,45.87769104246407],[9.458800230373845,45.877718867098984],[9.458713982832279,45.87775639461294],[9.458704311494817,45.87779942904578],[9.458857642248118,45.87779763436689],[9.458909225831963,45.87781487927693],[9.458926170101714,45.877855448693154],[9.458896674491124,45.87789156033259],[9.458807110392952,45.87794418614972],[9.458808042489222,45.877993244383305],[9.45894437832639,45.87798223826094],[9.459098149811222,45.877966616650774],[9.459119193816143,45.87788222398609],[9.459333025276543,45.87734866729476],[9.459400821473027,45.87719417037789],[9.46041808389254,45.87716294847421],[9.462713067273583,45.877083051119186],[9.462981960661185,45.876609919234944],[9.465145152585675,45.87592532800845],[9.465369093946027,45.87605499618192],[9.465444466006643,45.87606772199484],[9.465580610427988,45.87607308972859],[9.46571009670906,45.876069654897094],[9.465824699535652,45.87605075464556],[9.465910075559343,45.876022387864154],[9.465942480853531,45.87603443347671],[9.466084210934143,45.87610681392484],[9.466194136989238,45.876089552477374],[9.4662842223534,45.87606192224952],[9.466306546858,45.87603186832211],[9.466322195985432,45.87595399471147],[9.466563426532785,45.87592584635975],[9.466669044197369,45.876031252532506],[9.466730523741491,45.876145335413845],[9.46675612950538,45.87616862325195],[9.466868368537233,45.87620599404159],[9.46698855296897,45.87621196533707],[9.467240644671918,45.876208135656185],[9.46731204413252,45.87619727704107],[9.467494026503172,45.876133807840354],[9.467568802670781,45.87607541235002],[9.467615119769906,45.876028455965525],[9.467661448978133,45.87594301316284],[9.467718732583421,45.87589309567482],[9.467784309715599,45.87586103729934],[9.46788910748328,45.875830105377815],[9.468022285840576,45.87585672364449],[9.468135525190146,45.87593493358825],[9.468423299418234,45.87599743316726],[9.468544505367959,45.87601612541565],[9.468909822428383,45.87605202418531],[9.469035220224335,45.876083407487165],[9.469084341348454,45.87618148284877],[9.469113952545834,45.87619828232106],[9.469237707182172,45.87622116662683],[9.469392520896179,45.87624607435029],[9.469485007653674,45.876205380938785],[9.469642374797418,45.876236641220984],[9.469762671936431,45.87618559965726],[9.469846621800853,45.876136534534496],[9.469893835004822,45.876157896711355],[9.469941162867915,45.87619132813354],[9.47004557743366,45.87630147041859],[9.470190304640235,45.87641376437799],[9.470556512739046,45.87653494791489],[9.470771139186926,45.87651347963555],[9.470823623937338,45.876527277249146],[9.470882946167972,45.876571000488674],[9.47126152291337,45.87698586818456],[9.471568872424442,45.877166303282614],[9.471530010404832,45.87684206590316],[9.4715294716673,45.87677837124622],[9.471486353958518,45.876613659114845],[9.471357707627902,45.87649403252505],[9.47128850314549,45.87639408785891],[9.47125836910313,45.876317050432526],[9.471236291315353,45.876228117050395],[9.471040131042914,45.8762083505739],[9.470885517636333,45.876170618474355],[9.470631738918682,45.87608598774538],[9.470466098025046,45.87600422480449],[9.470129903724871,45.875815714883316],[9.470006438317334,45.875772049883295],[9.469909103913256,45.87573892134441],[9.469707914174398,45.8756067653934],[9.469593193184494,45.87553794166524],[9.469241329711755,45.8752017404692],[9.469268807034556,45.87511357524333],[9.469264380654417,45.875071452841865],[9.46922916894534,45.87502299446382],[9.4690159695507,45.87487957290129],[9.468918333346135,45.87479192121291],[9.468890754943223,45.874719498937544],[9.468843357515587,45.87467757083694],[9.468657245097088,45.87458467456035],[9.468601958517286,45.87453619031071],[9.468294526094963,45.87415354559036],[9.468232146858673,45.87407590593386],[9.468264622780499,45.874040591495515],[9.468330631719942,45.873968809787435],[9.46822182714933,45.87371458592888],[9.468219421998068,45.873675368673794],[9.467904694726844,45.872520844505104],[9.468033744583845,45.87206731805823],[9.46823485261921,45.87163324340217],[9.468733625295183,45.87132409052099],[9.468914978575938,45.87119264307336],[9.469016936050302,45.87111298102879],[9.46905693551969,45.87107228733465],[9.469096503284671,45.8709404647556],[9.469101161451421,45.870890735554084],[9.469054454284537,45.87081867981388],[9.469054260384867,45.870774951400634],[9.469146252253742,45.87076913291461],[9.469163304858919,45.87074232224452],[9.469174355870448,45.87060403730335],[9.469142659599068,45.870418692940355],[9.469095292970014,45.870234510961794],[9.46904367075767,45.8700621011557],[9.469021425427101,45.869877464993955],[9.46909092872421,45.8698382522745],[9.469064435070361,45.86979189114533],[9.469180937294636,45.86977836204117],[9.469154204083386,45.86970353314682],[9.469251141518663,45.86970151500707],[9.469276621413876,45.86966873833879],[9.469165290573685,45.86952966882371],[9.469154438062118,45.86948938187388],[9.469205580543868,45.8692434295995],[9.46918635152158,45.869052858689166],[9.469259319463271,45.86894474134559],[9.469315922900893,45.868819617102105],[9.469377643543618,45.86878509845534],[9.469431930004125,45.86879037479368],[9.46949609384262,45.868602269474025],[9.469512928786394,45.868508387453865],[9.46954032660355,45.868420393396136],[9.469572189545676,45.868339392419045],[9.469560204820382,45.868285528304654],[9.469460967631761,45.868095187150296],[9.469426645027593,45.868004908511246],[9.469471196409772,45.867981810049535],[9.469642300834124,45.86801313093823],[9.46969944656751,45.86799543496464],[9.46973779342087,45.86796076917851],[9.469787958416736,45.86788065595657],[9.46978872349403,45.86781088945289],[9.46978272645452,45.86774287885718],[9.469986623567346,45.86744291570709],[9.470045477484403,45.867346709622154],[9.470069061137917,45.8672083729577],[9.470140197206288,45.86708364751147],[9.470193883752469,45.86701948660959],[9.470293442814715,45.8669271001373],[9.470452602676344,45.86678906036494],[9.470602835161527,45.86667565567622],[9.470679011730626,45.866638520616235],[9.470831661134511,45.86659937832485],[9.470986777312495,45.866567075091226],[9.471023876821521,45.86656188185342],[9.471300956143795,45.86653960604425],[9.471441264251027,45.866496112562906],[9.471502416728049,45.86647256678577],[9.471613219127647,45.8664221275946],[9.471660164479493,45.86640570761157],[9.471802463744567,45.866384445862],[9.47199612216462,45.86640341133913],[9.472072153742786,45.86640865960617],[9.472285950337628,45.86639731749797],[9.472472380864575,45.866382775937744],[9.472543671769406,45.866383516208536],[9.472673395277814,45.86640013475262],[9.47279313570015,45.86640934198815],[9.472866890080606,45.86643774860065],[9.472902668982947,45.86645461160088],[9.473224888512027,45.866637015150495],[9.47338932227585,45.866722055426614],[9.473789319574445,45.86672352081389],[9.473979854964407,45.866728013969414],[9.474105929660356,45.86672597885139],[9.474255897941584,45.866709659540035],[9.474367295674964,45.86668612869628],[9.474481035981482,45.8666684023812],[9.474684770088869,45.866620627280994],[9.474903699882404,45.86654787060121],[9.474947567698765,45.86650542162471],[9.474983820198817,45.86648402510498],[9.475004734925557,45.86643314797934],[9.475054255027091,45.86639180953581],[9.475127466948392,45.86636246032064],[9.475232014574313,45.86633951514983],[9.475458522918554,45.86630359669838],[9.475527878964707,45.86628896119256],[9.475569095676567,45.86627261564586],[9.475616631618148,45.866241905881864],[9.475643860030102,45.86621536688701],[9.475666657698678,45.86618594814766],[9.475679255972903,45.866072452579985],[9.475680937815028,45.86595394413495],[9.475697895675966,45.86591505410152],[9.475721459673947,45.865895442775894],[9.475762654018906,45.86587802618397],[9.475847431207374,45.86586342528109],[9.476070036824911,45.86583241817374],[9.476285572128909,45.86572783347579],[9.47635885044574,45.86569376509446],[9.476430187130253,45.86566059941768],[9.47649670535944,45.865623815760436],[9.476599282752563,45.86559366809761],[9.476640963796509,45.86556843666666],[9.476733582229855,45.865538294421704],[9.476786036904256,45.865487825403825],[9.476867474611256,45.865459448809425],[9.476942214451835,45.86539961613208],[9.476989127836156,45.86537612684484],[9.477092806631548,45.8653513204764],[9.477146398030964,45.86533589475129],[9.477267359390005,45.86524888514522],[9.477371134863176,45.86521404248795],[9.47744878643753,45.86518291812081],[9.477503544236265,45.8651638151228],[9.477541846446034,45.86512472760713],[9.47756754907345,45.86507815026232],[9.477594803735737,45.86505485089124],[9.477667090924102,45.86502770004464],[9.47777160152679,45.86500084645269],[9.477888018292601,45.86498326755939],[9.477932048943975,45.86497526191404],[9.4780719497055,45.86496346197785],[9.478108950133489,45.864969454557226],[9.478277586187232,45.86503194182193],[9.478385812602433,45.86505381918622],[9.478462618236284,45.86506534235708],[9.478575317721594,45.86512503919532],[9.47868388899174,45.865176553699236],[9.478874533952471,45.8651538655226],[9.479035639534484,45.86516591704736],[9.479108935813592,45.86517531236064],[9.47919186024526,45.86520170532374],[9.479301150985847,45.86520343408876],[9.479416080211001,45.86521963900593],[9.479549304154034,45.86522090709548],[9.479588113196714,45.8652433185398],[9.479684551969063,45.86530619582445],[9.479766243134828,45.86534043304083],[9.479864195922895,45.86541841666728],[9.480033365720866,45.86546170088701],[9.480327942173272,45.865548362536714],[9.48042715928612,45.86557257548112],[9.480491856853462,45.865564792475936],[9.480603339544285,45.86556066041034],[9.480688591327906,45.865541535633945],[9.480759017706713,45.86553326484881],[9.480877870426342,45.86547992241248],[9.480963770398045,45.86545680745169],[9.481021646702729,45.865446861219546],[9.48114879904888,45.86545063715941],[9.48133673528953,45.86548281473395],[9.481384018913024,45.865493470231684],[9.481578024580202,45.86555412213323],[9.48165491348614,45.86557498179422],[9.48191348570178,45.8653412809425],[9.482042057527305,45.86518883606465],[9.482072345801061,45.86513186700804],[9.482519979283612,45.86428989437004],[9.48260897115151,45.864273020505806],[9.482667351430498,45.864242586015415],[9.482723974032389,45.86416685905903],[9.482762189575345,45.864084027388174],[9.48285993678668,45.86393714812393],[9.482972900749369,45.86375336512712],[9.483253007248749,45.86333918972798],[9.483375131333545,45.86311709714948],[9.48345684303586,45.86304234374808],[9.483687404174775,45.862856442307034],[9.483732023013541,45.86280513918834],[9.483778402770257,45.862719221401676],[9.483812742180797,45.86269329837732],[9.484038189975717,45.86265923949951],[9.484172770675373,45.86256075212193],[9.48441697961818,45.86236704187085],[9.484521232102214,45.862223922802144],[9.48479618078625,45.86174809885369],[9.484873098081868,45.86161471433044],[9.485662414206068,45.86162817714709],[9.486459272767105,45.86141778425715],[9.4874799203136,45.86027936047048],[9.488363536976095,45.85968156384235],[9.489634219227204,45.859154083602654],[9.491559429885852,45.8583537868304],[9.492241176421603,45.85824283427898],[9.492796095280623,45.858357455352255],[9.493287494739919,45.858571352514524],[9.493729421937243,45.85901946733687],[9.493915738806589,45.859693699076914],[9.49395996596012,45.86032353018171],[9.494018581583942,45.86112432249932],[9.49401208443371,45.8618444000441],[9.493312720602784,45.862882473723865],[9.49280022443365,45.86319970508891],[9.492451860830155,45.863089438759744],[9.49181837232585,45.862888885625964],[9.4907347564603,45.86272254083609],[9.489642380939992,45.86302423859186],[9.488576717294523,45.86343382931654],[9.487614718162641,45.8639149669008],[9.487104695286684,45.864520178486494],[9.487470104224455,45.865058634484654],[9.488569389547568,45.865539981920875],[9.489718168187798,45.86578708022317],[9.49090830322241,45.86633999683535],[9.492356054788264,45.866882794313895],[9.494163900223933,45.86735201849508],[9.49574012156969,45.86784922354504],[9.497454978793213,45.86799478411068],[9.500486998189073,45.86847656171502],[9.501535498246337,45.86902099252028],[9.502543499390708,45.86935858877404],[9.504518194012775,45.86973690674918],[9.505990120759154,45.87008141754965],[9.506931523270465,45.87017624851112],[9.508658288711823,45.87020457449277],[9.510242926161983,45.87018851441398],[9.512056051659872,45.86980237940675],[9.513586575226755,45.86950749533835],[9.513937952297894,45.86939076232118],[9.514575609400715,45.869179029141925],[9.515385283112991,45.86895936392646],[9.517033370898437,45.86884391997539],[9.518013928090843,45.86899249035188],[9.518532216687358,45.86930514217519],[9.51946527813879,45.869885949752664],[9.52062480260666,45.86988067263586],[9.521564063930569,45.869741385415246],[9.523009722674525,45.87002279296333],[9.524018588751918,45.87034670844689],[9.52384840587811,45.87066697354364],[9.52368718851038,45.87133375211103],[9.523512590947398,45.871694568198],[9.523283176176351,45.87221764057701],[9.523027665090767,45.8727948424377],[9.522797540484522,45.873245918841846],[9.522512676600659,45.87386826641056],[9.522140887537375,45.87424347449199],[9.521881340072714,45.874388677146534],[9.521424836799927,45.87457527520875],[9.520384468312454,45.875106537600594],[9.519946864240014,45.875419052296806],[9.519476367916566,45.87574520756214],[9.519250922829896,45.876011741306506],[9.519017158654666,45.87624680955083],[9.51862915033512,45.87661310255892],[9.518189353038533,45.87677710591506],[9.517784568882432,45.87707145419551],[9.517575190977718,45.87733341238789],[9.516886916406317,45.87789005256883],[9.516621664438206,45.87820627219068],[9.516339342229081,45.87850907469331],[9.516130286782172,45.8788070308998],[9.515922254359415,45.87912748705504],[9.515409546911348,45.87942681158614],[9.514890295909638,45.87971266966704],[9.514362088331678,45.87998957144485],[9.514112495717121,45.88026070110816],[9.514068369360702,45.88062992734321],[9.513858215217894,45.88081087175372],[9.513639025505697,45.88097386340051],[9.513396434098965,45.881217974552754],[9.513111866631613,45.881277758948315],[9.512662900676423,45.881414777728544],[9.512148128593962,45.8814935825721],[9.511863636240935,45.88164786921314],[9.511539831947088,45.881910330434486],[9.51118338181784,45.882213451807594],[9.510918035618056,45.8825251418873],[9.510626324219404,45.88277396427031],[9.510256650665024,45.88321664206038],[9.509996471831872,45.883393304179165],[9.509670212732056,45.883475772791535],[9.509088341563793,45.883437869564865],[9.50843901685921,45.88333724174984],[9.508045465362493,45.88328500152739],[9.50747029540005,45.88318855405923],[9.506924241464734,45.88337097595906],[9.506468556692642,45.88357102192261],[9.506037304239733,45.88424793869364],[9.505464750859572,45.88408844328928],[9.504762477832315,45.883920526556224],[9.503549242542954,45.883718876831026],[9.502067631943728,45.88377039167722],[9.501026478857003,45.884071971105975],[9.500188241773882,45.88421602924085],[9.50011286983167,45.88422898599195],[9.498878612646394,45.884558396006064],[9.497722206699608,45.88495045735408],[9.496859801023518,45.885071222819334],[9.496271258214188,45.885550806954676],[9.495722040772513,45.88611121143456],[9.494912383997393,45.88636673684058],[9.49403643196579,45.88641554075767],[9.49369116630275,45.88672303850437],[9.49285188482758,45.886546663359596],[9.4921825929611,45.8866485521454],[9.492314574988923,45.88699900259964],[9.492034944313485,45.8874412150982],[9.491485929721462,45.888028620439236],[9.491567527097205,45.88851429182925],[9.491379052041479,45.8890641275939],[9.490572079720561,45.8896346290731],[9.488991963230058,45.890226427025155],[9.487952325035375,45.890725906454975],[9.48749416666154,45.89139388109045],[9.487154185051992,45.89231338365836],[9.48688532509957,45.89252154968862],[9.486656153719167,45.89284654026822],[9.486439259699221,45.89309947932144],[9.486365059057066,45.893459807977855],[9.48567681291524,45.89435378420671],[9.484847988833154,45.89539234930957],[9.484170934295715,45.89609725688501],[9.484005337928314,45.896322968654516],[9.483414743773567,45.89659547515895],[9.482264731769988,45.896276319327725],[9.480093887195505,45.89566443810423],[9.477563691390253,45.89523401214024],[9.475331185648336,45.894937317128765],[9.475133144672114,45.89495613007815],[9.473218823584908,45.89512608119164],[9.471742670471675,45.89586122488355],[9.471444074835974,45.89713152741063],[9.470587122850564,45.89792708523655],[9.468977508101315,45.89813172821528],[9.468173956403136,45.89915205875351],[9.466310239407743,45.89980772509234],[9.464404577437126,45.900076495941725]]]}}]}
