{"type":"FeatureCollection","metadata":{"code":"098033","referenceDate":"2026-01-01","sourceDbfExportDate":"2026-02-18","upstreamArchiveUrl":"https://www.istat.it/storage/cartografia/confini_amministrativi/non_generalizzati/2026/Limiti01012026.zip","sourceManifestSha256":"70ac8256c4785dc6ed2814c32b6965ae76f9161b51abaa1660059e1c6cbd8ca6","license":"https://creativecommons.org/licenses/by/4.0/","attribution":"Istat, Confini delle unità amministrative a fini statistici al 1° gennaio 2026, versione non generalizzata.","modifications":["Converted from WGS 84 / UTM zone 32N (EPSG:32632) to RFC 7946 WGS 84 geographic coordinates.","Converted from shapefile to per-municipality GeoJSON without geometry simplification."]},"features":[{"type":"Feature","id":"098033","properties":{"code":"098033","name":"Maccastorna","alternativeName":null,"regionCode":"03","regionName":"Lombardia","territorialUnitCode":"098","territorialUnitName":"Lodi"},"geometry":{"type":"Polygon","coordinates":[[[9.857246127322169,45.15274308465964],[9.855638085804417,45.15325024314003],[9.854858695328323,45.15387718468565],[9.854007419342748,45.15480172487168],[9.853686349375618,45.155153888590085],[9.853631011255008,45.155214641438555],[9.853611176850976,45.15523634692973],[9.853556531080752,45.15529627541285],[9.853156256653245,45.15573526120108],[9.852708376770314,45.15641372533886],[9.85244480194263,45.15754255697839],[9.852409383918628,45.15769416661643],[9.852320321675148,45.15795607813699],[9.852129391904333,45.15854239972981],[9.851941525163221,45.15874185182011],[9.851837024463217,45.1588737894147],[9.851716967705316,45.1590253495675],[9.85160438307211,45.15916745881832],[9.850967754271688,45.159991339112736],[9.850915591135621,45.16005775779669],[9.85049330389692,45.16059797413137],[9.84908693143682,45.160140368076625],[9.848959682551241,45.15909416865384],[9.848917549787332,45.15874769035316],[9.848868657360743,45.158345657982025],[9.848864877206696,45.1583145447668],[9.848623187575841,45.15632712861759],[9.848497869214029,45.15597137345906],[9.84842395730526,45.15576153792351],[9.848161229966626,45.15542584347352],[9.84746432757797,45.15453541063502],[9.846473500952253,45.15377762013071],[9.845960692532456,45.1534675851133],[9.845635676466546,45.15327107653177],[9.84499094618931,45.152881266054536],[9.843649468233174,45.1520701857078],[9.841584976520542,45.1509602175955],[9.840100073762795,45.15033203583578],[9.838975187031235,45.14996223685108],[9.839117283459123,45.14938601164359],[9.83914055949403,45.14929172250318],[9.839155338552965,45.149231809351285],[9.83916587029723,45.149196531737935],[9.839373578714106,45.1485010808299],[9.839473240217785,45.147492157401345],[9.839634131598594,45.14632077187948],[9.839548878197359,45.144845116243914],[9.839369921863554,45.14391926269972],[9.83896851806921,45.14343612750519],[9.838568862078112,45.14307000557875],[9.83846010433179,45.14259371559472],[9.838277986827032,45.1423159960896],[9.837100817509949,45.14183854592968],[9.835946327126251,45.141171881750296],[9.835443499183143,45.14070746892096],[9.835385768326669,45.14052681918607],[9.835256908676795,45.14012373265421],[9.83505800645413,45.13956709387804],[9.834791327092184,45.13872287832371],[9.83511506389811,45.13650610998763],[9.835291509370505,45.13552363445711],[9.835965830975509,45.134672553433695],[9.837624944759929,45.13420129994088],[9.839415395302131,45.13401712819671],[9.840597487393659,45.13397242917715],[9.84216688458899,45.13414667466707],[9.842348712860517,45.13416685765614],[9.84303047968254,45.13424254081903],[9.843181231368202,45.13497956147258],[9.845973631650743,45.134607844210805],[9.84569288268988,45.13380471183081],[9.845628392098263,45.13362022567327],[9.846366444265824,45.13365076239897],[9.846841952658599,45.13367111979272],[9.847703073815163,45.1337079464908],[9.847982661804782,45.133719866672266],[9.8510084133684,45.13450750229014],[9.85167042392304,45.133701420593106],[9.851603638361418,45.13348587378646],[9.851530962107732,45.13287430690148],[9.852060714645832,45.132582302382595],[9.851912937791916,45.132052317741234],[9.85105967296228,45.13196865978591],[9.851018309173758,45.13175292402003],[9.8509595527968,45.13122225755838],[9.850587327186673,45.13013583015267],[9.850046069166183,45.128798630212394],[9.851250902430754,45.12772744480939],[9.851370074075811,45.12783749913894],[9.851599027987099,45.128048904352426],[9.853437972659542,45.12772013315213],[9.853738857270333,45.1282849759291],[9.853686572965637,45.12904151269256],[9.853686863205446,45.129914666151336],[9.853610927860364,45.1316435510867],[9.853331996998154,45.13169965138031],[9.853048153181744,45.13313304011892],[9.854121805247651,45.13349407310273],[9.85412637366807,45.133800102768696],[9.85275410009938,45.13388236718548],[9.85195356473872,45.13471279047873],[9.851915012577738,45.13475278824929],[9.857012548374982,45.138000254909954],[9.85908199241449,45.137015328883116],[9.85922247611382,45.13694846407767],[9.858298236927062,45.13553314587935],[9.85853675870222,45.13532430541329],[9.859728972283898,45.135108305947384],[9.86121583135708,45.13503409178329],[9.862704993535829,45.13511287183972],[9.864205644542764,45.13511052108502],[9.86458959654704,45.13526964401296],[9.864911232747534,45.136356407081976],[9.865267659323637,45.137217864427264],[9.86604906123982,45.13842716435705],[9.866867424997691,45.13955517264565],[9.867506152074133,45.13973934036506],[9.868396618167102,45.13975058326672],[9.869975891687087,45.13989159515312],[9.871327907681778,45.14014233264579],[9.871573232550261,45.14024513607891],[9.871662131562172,45.14027976317545],[9.871715411977734,45.140304677395626],[9.871762802793002,45.140324534381364],[9.8724670793184,45.14061964208215],[9.872419783170631,45.14085404060367],[9.872203769424894,45.14170185465232],[9.871583931724745,45.14275978017749],[9.871094274938358,45.14401474129768],[9.871030056850291,45.1456445291752],[9.871536526449786,45.14716193066289],[9.872043734102256,45.148724343153525],[9.872244869551709,45.150235094438564],[9.872038293234613,45.15170392081821],[9.871845379305707,45.15323567197417],[9.871943121794727,45.154639180866766],[9.871878234350087,45.156223970140246],[9.871872151423672,45.156876160631874],[9.871870445947982,45.157056397241355],[9.871868543958403,45.157259203463056],[9.871645677887281,45.15788409113515],[9.87149108264566,45.158369271557376],[9.870903714414808,45.159066883501666],[9.87037077324459,45.15916096596625],[9.86959917051149,45.158910328549105],[9.868989872249719,45.15871240617727],[9.86841083197296,45.158284724716886],[9.868109428103718,45.157829924391876],[9.868042737220929,45.15772928483315],[9.86760356212548,45.157066666005434],[9.86666221581686,45.15623666611114],[9.86491351572992,45.15501669437834],[9.863507400827745,45.15373111194664],[9.862132967956413,45.15312606869188],[9.862085655929636,45.15309876096114],[9.861997963533707,45.153066636949355],[9.86177847696903,45.15297001659289],[9.859634551411494,45.15252709941628],[9.857246127322169,45.15274308465964]]]}}]}
