{"type":"FeatureCollection","metadata":{"code":"099025","referenceDate":"2026-01-01","sourceDbfExportDate":"2026-02-18","upstreamArchiveUrl":"https://www.istat.it/storage/cartografia/confini_amministrativi/non_generalizzati/2026/Limiti01012026.zip","sourceManifestSha256":"70ac8256c4785dc6ed2814c32b6965ae76f9161b51abaa1660059e1c6cbd8ca6","license":"https://creativecommons.org/licenses/by/4.0/","attribution":"Istat, Confini delle unità amministrative a fini statistici al 1° gennaio 2026, versione non generalizzata.","modifications":["Converted from WGS 84 / UTM zone 32N (EPSG:32632) to RFC 7946 WGS 84 geographic coordinates.","Converted from shapefile to per-municipality GeoJSON without geometry simplification."]},"features":[{"type":"Feature","id":"099025","properties":{"code":"099025","name":"San Leo","alternativeName":null,"regionCode":"08","regionName":"Emilia-Romagna","territorialUnitCode":"099","territorialUnitName":"Rimini"},"geometry":{"type":"Polygon","coordinates":[[[12.401743030368689,43.959381326769574],[12.400408228166945,43.95983820738928],[12.399903802761433,43.96017857738003],[12.399202425353614,43.9609798659243],[12.39826815012851,43.961630668561725],[12.397797805917666,43.96225658115309],[12.397219137771108,43.96199280945849],[12.396214896900764,43.961915826764624],[12.394990077218068,43.961656427710935],[12.393897374033942,43.96127353806392],[12.392538349580178,43.96082778733521],[12.391523573231149,43.96044267909696],[12.390096512184316,43.96016210532957],[12.389400943889177,43.96007266960352],[12.388631988158146,43.95997377665415],[12.388125075893981,43.95990549226208],[12.386198682235642,43.95980961016828],[12.384368618034994,43.959818882162445],[12.382776130684444,43.959677030346626],[12.381437654416029,43.95956364116274],[12.380371760787577,43.95973775584615],[12.379198052888805,43.96008063026459],[12.377657464732936,43.960809587892605],[12.376152016614343,43.96133176513883],[12.374985075043954,43.96178169996818],[12.373288329102278,43.962235581398716],[12.371868020516418,43.962493623669324],[12.370092179528244,43.96260909403821],[12.369850954370092,43.96260220062855],[12.368778722265123,43.96255900424674],[12.367216770663115,43.96203623433794],[12.365846525221311,43.96134661360079],[12.364909985861235,43.96025050508579],[12.364469986964679,43.9598376632642],[12.363278455872075,43.95872257679667],[12.36195351446344,43.95733021312189],[12.360689965884028,43.95589089847008],[12.359289556415314,43.95406845678611],[12.358227122261459,43.9523795732804],[12.35794967685233,43.951938294398445],[12.357710673838671,43.95150124880494],[12.357225891886333,43.95060976975536],[12.356756674764846,43.950103910352354],[12.356320131673627,43.94963802844711],[12.356111127177924,43.94921056679731],[12.3559316056278,43.94884444956636],[12.355882438016229,43.94874682068292],[12.355588819604773,43.94834581901124],[12.35528826492254,43.9477109448841],[12.355103509792666,43.94730674252318],[12.354699755097894,43.94671991442237],[12.354482208344773,43.94623114706194],[12.354278192745882,43.94570596864817],[12.353936330398646,43.945166835373215],[12.353729242885198,43.94480830192491],[12.353477756506113,43.94432503034949],[12.353287207357411,43.943817461287075],[12.353054996618956,43.94345516222042],[12.352590484734197,43.94317171036903],[12.35206307207562,43.94265602726266],[12.351427002255386,43.94220205088392],[12.350974517864088,43.941855218973295],[12.350134326509945,43.94128978074443],[12.350025980679398,43.94121686995549],[12.349644784456688,43.940863437928826],[12.349565476478995,43.94078248831031],[12.349469735746478,43.94068626557635],[12.348865421099916,43.94007604251437],[12.348591904644525,43.93985305234373],[12.34834310291681,43.939650209096584],[12.348070673312726,43.93918104405162],[12.347950629057747,43.93901603407382],[12.347878288452348,43.93891661265317],[12.347423751179734,43.93858783175646],[12.347167077292916,43.93838232588713],[12.347026425888703,43.93827985191214],[12.346840862567744,43.93813675770098],[12.346470548370622,43.937810004821436],[12.346447519252099,43.93778817334788],[12.34611402028247,43.93745133688098],[12.34585977777388,43.9371391852322],[12.345280712150341,43.93675552718667],[12.344826162843411,43.9363704672084],[12.344783720881274,43.936335699733306],[12.34462677115118,43.93620300363674],[12.344536524171025,43.93614581126339],[12.344029331815285,43.9358243916618],[12.343594923678117,43.93557603187486],[12.34315956111341,43.93524337511155],[12.343071848465192,43.935190711482996],[12.342894669712063,43.93508563254173],[12.342340526730027,43.934757468661154],[12.342272943546975,43.9347189178136],[12.340589456451125,43.933300718957895],[12.339268467842956,43.932236511330096],[12.338424134258329,43.93156347992703],[12.337868697297509,43.9312106032329],[12.337277464653468,43.930885778600725],[12.337190495654669,43.93083430405564],[12.336865138295707,43.93064124964151],[12.33659465187767,43.93048260155826],[12.335993512216179,43.930203074978564],[12.334796527337248,43.92973838853301],[12.334041384310577,43.92937782291046],[12.333502450588085,43.929096466072224],[12.333184212222571,43.92891894846071],[12.33293699276364,43.928780806226825],[12.332782541652868,43.92869450151029],[12.332187342112558,43.9282977426509],[12.33176070364698,43.927963582467875],[12.331305124040417,43.92749732733703],[12.331281606612166,43.92747326974451],[12.330902464448805,43.92709720640908],[12.330232406309001,43.92641902857618],[12.330166334910388,43.92635118267907],[12.329869325037293,43.926051496174026],[12.328990572128543,43.92503728595558],[12.328594687898644,43.92469546445644],[12.328323220202478,43.92446255090527],[12.327233769329407,43.92408017753686],[12.327094967849549,43.92404821126778],[12.326864754805824,43.92399640245937],[12.326737262573943,43.92394384927817],[12.326638502341938,43.923903964051945],[12.326432408603017,43.92383794595549],[12.325947063759818,43.923622514101666],[12.325353160670609,43.92341474346541],[12.324731678886643,43.92327079434657],[12.323973614318653,43.923022783650104],[12.32319239281873,43.92269441464819],[12.322517759118384,43.92237869307665],[12.32244101815947,43.92234266477451],[12.321633795780322,43.92193851681086],[12.321078045862391,43.921576562546605],[12.32066059395766,43.92123759235043],[12.32010635768932,43.92090259840372],[12.319549626047126,43.92052265994594],[12.31903145770993,43.92016410415037],[12.318591156399847,43.91986180196992],[12.31814885922539,43.91952354477379],[12.317717503258379,43.919157957760014],[12.317441619409983,43.918900388823715],[12.317245096944966,43.91872604007673],[12.317030407577315,43.918504954676386],[12.316944582958458,43.91841741813965],[12.316861991090923,43.91833203926269],[12.316646289627545,43.918036707327744],[12.316381601013195,43.91775630283571],[12.31633582630838,43.917717114514076],[12.316159453277793,43.91756917950204],[12.316025611064585,43.91740201155436],[12.315876837651487,43.91719026190937],[12.31579709861804,43.917044032337955],[12.315878234022493,43.91676709390082],[12.315963218928484,43.91650353825153],[12.31612030872811,43.91619287250297],[12.316452977578805,43.91590411536451],[12.31672722014026,43.91568457608805],[12.316911942991768,43.915555641488645],[12.317110883055685,43.91541685462791],[12.317504462805598,43.9151038166616],[12.317953915967285,43.91495570800497],[12.318558433925741,43.914852605398345],[12.31871777805326,43.91482237787963],[12.318894293458868,43.914788851817406],[12.319309165794254,43.91469124029532],[12.319513521455065,43.91455923761799],[12.31967434091302,43.91431598142076],[12.319864134767563,43.914089888407766],[12.320112632581527,43.913911603510215],[12.320339618541473,43.91373844535136],[12.320495753955907,43.91363487074037],[12.32059714999176,43.91344285866073],[12.320804943896224,43.91314871749257],[12.321094343750243,43.912978243550214],[12.321394674264532,43.91278044253826],[12.321817085320271,43.91253857340088],[12.322158215832255,43.912402603538595],[12.322516033588117,43.912342672931665],[12.323072283972566,43.91226796053333],[12.323402374743694,43.912213334973536],[12.323691047675439,43.91208563923468],[12.323806500846251,43.9120349951479],[12.324174243576076,43.91192975503709],[12.32442352562703,43.911895299576834],[12.324628404789374,43.91186700302115],[12.325147599017873,43.91179786132601],[12.325578254980378,43.91170428854706],[12.325861714779986,43.91165101442961],[12.326074184606192,43.911608811257445],[12.326366968450175,43.91155526419103],[12.326673288500663,43.91146531053886],[12.32708378714859,43.91106621734914],[12.327240505319379,43.91091760122095],[12.327598056208963,43.91085316001624],[12.327873536549857,43.91048951068721],[12.32797039105732,43.9102165978123],[12.328329940074246,43.909909015256915],[12.328577740649363,43.909663210181535],[12.328833101331737,43.909106581219866],[12.32924657915897,43.90876141077489],[12.330008874301546,43.908586123504286],[12.330721320893883,43.90818721100023],[12.3318293721043,43.90684493769803],[12.332171348733661,43.90605619569623],[12.332146869596945,43.90584083859923],[12.331995695408246,43.90536359132273],[12.331878557208949,43.90482683130792],[12.3319979905651,43.90451274203351],[12.33238815898865,43.90414123223494],[12.33282754467822,43.903759280999346],[12.333350432243407,43.90331186817966],[12.334031937100551,43.902639247705615],[12.334697952958726,43.90207961215562],[12.334967795564838,43.9017836322817],[12.334972062073868,43.90141438462804],[12.3349213316784,43.90095221247424],[12.334843103742521,43.90066640253507],[12.334836197376621,43.90031998892557],[12.334937651540425,43.899907388885126],[12.3348516402092,43.8994822587606],[12.334616463880298,43.899061487170364],[12.334447208866678,43.89870631151287],[12.334357342446577,43.89826778985385],[12.334297800299503,43.897814877706686],[12.334777596126765,43.895761682188436],[12.334986486823901,43.89521089703436],[12.335271522044364,43.89479743425683],[12.335749993754694,43.894225265832844],[12.336127514768123,43.893629037544066],[12.336431457087732,43.89305296479717],[12.336882032571872,43.89242758939076],[12.337083145454038,43.89201657438539],[12.337215738375292,43.89154904319169],[12.337145632991891,43.89090737824104],[12.337215919467184,43.890383149428786],[12.337389285922885,43.890144001661206],[12.337905993176602,43.88958871314257],[12.338407362062918,43.88814707394927],[12.338883191170245,43.88663865721706],[12.339235642087571,43.885818076375045],[12.339572054879044,43.88560116465345],[12.339712389089751,43.885439506763745],[12.33964946687111,43.88498219415704],[12.33988094361962,43.88450276338076],[12.341145041894562,43.88340120676587],[12.341803714607044,43.882826013814714],[12.343152565342594,43.88135053770234],[12.343858071663034,43.88066815151895],[12.344088170836743,43.879887150871326],[12.344176196823343,43.87923635526787],[12.344639954233665,43.87834947470176],[12.34517446650649,43.87772610798911],[12.346116335529972,43.87698726376291],[12.346936443412854,43.876296996478864],[12.347628585498365,43.87598860319532],[12.348506849927734,43.8756702444992],[12.349188230987991,43.87544768675757],[12.349924077900116,43.87480938718619],[12.350278939349417,43.87447936467454],[12.350804040030035,43.87385624771189],[12.351175565485521,43.87360222167429],[12.351577285898683,43.873221253803656],[12.352020111355067,43.87290664924636],[12.35232038013298,43.872546713558],[12.352441999867466,43.87221903322628],[12.352583596177693,43.8718592552233],[12.352639983655084,43.87153349052781],[12.352626363967714,43.87129080888746],[12.352762000507868,43.87110225270769],[12.353291860400022,43.87161787181872],[12.355115278132153,43.873117311091754],[12.35519741969282,43.87313964620581],[12.355604819805079,43.87324696879369],[12.355784904575284,43.873295693261866],[12.35766067210018,43.873897752318314],[12.358331578729812,43.8740985895161],[12.358376582799645,43.874124274710866],[12.359029825484148,43.87456420653866],[12.35908305546817,43.87462565272621],[12.359561714061384,43.875169760911476],[12.360313240202855,43.875696838733596],[12.361869881039583,43.87615516517402],[12.362441025064733,43.87632647986471],[12.364291526100846,43.87688151375083],[12.364794330891362,43.8770323167429],[12.365950131372461,43.87744388857799],[12.366457204585007,43.8775515929324],[12.366768946201114,43.877617806534545],[12.367268506958727,43.877648085390476],[12.36742487055114,43.87762950167439],[12.367772318008207,43.877588206762496],[12.368452752674779,43.87746009326677],[12.369184278181885,43.87746551209674],[12.370604602685898,43.877711676454076],[12.371082100420217,43.87757153338205],[12.371709717418605,43.877444959385635],[12.372478580075066,43.87739523660083],[12.37416492991557,43.877723526323436],[12.375223018037346,43.87794656687708],[12.375663895846243,43.87803932654414],[12.37632451062239,43.87827637313737],[12.376832718488991,43.87845940560895],[12.377232147501012,43.87869967273158],[12.377562107353898,43.87903202388168],[12.378461095845426,43.87957710918745],[12.378995754006029,43.87973233984419],[12.37985772324695,43.87978784693987],[12.379874800520158,43.88030951586985],[12.380215900532523,43.88039844821483],[12.38067459397062,43.880420875304964],[12.381681711310526,43.88056660093259],[12.383248718958852,43.881037837029275],[12.38412140524078,43.88128205769295],[12.384954781310137,43.881491424212875],[12.385706215231641,43.88178199651575],[12.386230582780865,43.881984759907695],[12.388176403718926,43.88364658973074],[12.389301578270675,43.88570638067725],[12.389758812555991,43.88690820652414],[12.390382384726301,43.88829865374595],[12.39054312273179,43.88866300201852],[12.390811585434854,43.88900614384863],[12.390616040414919,43.88972769041623],[12.390638875473128,43.89004546737661],[12.390643328006483,43.89010742290269],[12.390675432484755,43.89055420029569],[12.390945087403487,43.89135645859608],[12.390961913077339,43.89145565858906],[12.39115098274105,43.89257024588178],[12.391352892791812,43.893275482954614],[12.391239498496033,43.893580452527495],[12.391158538714084,43.89379892934976],[12.391003255385383,43.89435272445327],[12.391052193478298,43.89499498346639],[12.391300427547131,43.895419752259684],[12.391638394103627,43.89567079621772],[12.392023356305312,43.896091499654645],[12.392459574142043,43.89653768753693],[12.392485952426203,43.89656390098529],[12.392670366600536,43.89646836675151],[12.39273697160087,43.89572364161164],[12.39289155441094,43.89471971517453],[12.393442483150196,43.89346092608087],[12.39392657700893,43.89255973853463],[12.394320134326799,43.89187281212522],[12.39434650056147,43.891241818698184],[12.394036798815428,43.890611816517065],[12.39459528836812,43.88817340499631],[12.39467689084088,43.88741922811431],[12.394632104593713,43.88706944344874],[12.394454617076427,43.8865750564658],[12.394270007512011,43.88628770467073],[12.394236108831588,43.886234939223854],[12.394022276546787,43.885539064286036],[12.393923612810054,43.88489828445259],[12.39390334391069,43.88432269562484],[12.394149817792309,43.883622136370434],[12.394551658857138,43.882862937772444],[12.394859323580752,43.88236312427032],[12.394971902294738,43.881716062190904],[12.39501446396047,43.881584493117714],[12.39528949598443,43.88073429175484],[12.395683774403574,43.88000682468052],[12.396013517796929,43.879020189108175],[12.396436336086277,43.8777840944648],[12.396472422687433,43.87767859319045],[12.396558948885028,43.87749950253258],[12.39678575510192,43.87703005590339],[12.396900090039168,43.876793400083045],[12.396951244753293,43.876687518650485],[12.39701076244732,43.876603092007585],[12.397184688238491,43.876356375098375],[12.397466621730457,43.87595644122573],[12.39781288311632,43.87569855177559],[12.398202231706646,43.87526832109625],[12.398505103440447,43.87479107942376],[12.398644824646736,43.87457091585941],[12.398756696565295,43.874461781650055],[12.399163632093869,43.87406480441702],[12.40040516262743,43.87295643047901],[12.40060855213557,43.87277484919181],[12.40150947464794,43.87311635254173],[12.403966651183607,43.87404771090735],[12.403652444793435,43.87443070526817],[12.40354291841172,43.87491113022036],[12.403671642541656,43.87520439044072],[12.403591963556831,43.87555338179002],[12.404040017064696,43.87599017051607],[12.40457300442687,43.876388411889394],[12.404775901292625,43.87645438355441],[12.405292751493173,43.876132863836546],[12.405997085163015,43.875661698458636],[12.406230203035308,43.87538465190428],[12.407494393875691,43.876489217878174],[12.407749669492826,43.876712254597045],[12.409441972474557,43.876054063917316],[12.409749242751548,43.87576574449246],[12.41051393065284,43.875643865175554],[12.411782482631434,43.875191816656006],[12.412774337210429,43.874689508278884],[12.413179721963363,43.87459635941634],[12.413590659491472,43.87441679008082],[12.413798985662908,43.87432575620277],[12.414189279463343,43.87440411243479],[12.414666521280035,43.874533884657744],[12.415422444787291,43.87425918340421],[12.41652118580992,43.87366811590862],[12.417139479870022,43.8731634447769],[12.417628730509973,43.873013751869316],[12.418495327726905,43.872933783004456],[12.419098960640467,43.87282567341705],[12.41952821667463,43.872497709036196],[12.420010765866227,43.87223116772061],[12.420718410863063,43.87220095975882],[12.421168244280986,43.87223249244051],[12.42168747107055,43.87217191340598],[12.421927917826405,43.87218250072357],[12.422295707229113,43.87219869307387],[12.422684303410579,43.87237125756895],[12.423036376104918,43.87252760044133],[12.424312069355668,43.87279993872671],[12.42523709614938,43.87292523521479],[12.425987944792565,43.87299723143501],[12.42671863699845,43.87293478368827],[12.427673004592089,43.87264954288921],[12.428429355465171,43.872383746553474],[12.428933613850441,43.872062497076875],[12.42949065647364,43.871793677823504],[12.430168795513211,43.871683270105684],[12.43086189393212,43.871887514082886],[12.4314229911716,43.87212273047751],[12.431912913868256,43.872364586538254],[12.432136253275376,43.872569441332416],[12.432237650343666,43.87303454793846],[12.432253659603148,43.87331315870457],[12.432341343927815,43.873756169865445],[12.431985862419102,43.87450060280505],[12.432304960722782,43.87485562901165],[12.432333632281802,43.875300414618216],[12.432112317466627,43.8753475832491],[12.432146943343112,43.87578768831317],[12.431736647605057,43.876011594827965],[12.431324056393935,43.87597898443597],[12.431034095735573,43.87634782041385],[12.430670065907753,43.876943956525366],[12.430148975602556,43.87713517599777],[12.430108594816398,43.87713638949604],[12.42962454502319,43.87715993780173],[12.42907030267837,43.877424172013896],[12.428755213250675,43.87778925556903],[12.428511832860373,43.8781026684192],[12.428275027998852,43.87853067041292],[12.428307404210596,43.879094635234225],[12.427111350143896,43.879724751052265],[12.426540509532405,43.87997146520897],[12.425843874623062,43.88014092555296],[12.425103231792061,43.88030270005581],[12.424546808236036,43.880801055362724],[12.424108391911872,43.88140390370374],[12.423223758441527,43.88263683837806],[12.422740639385124,43.88376319463857],[12.422016958447639,43.88503630845592],[12.42156471701597,43.88795107645239],[12.421712943108425,43.88879966468748],[12.421490345036824,43.88947706005208],[12.421145334386988,43.88997356251358],[12.42068357835798,43.89038803376483],[12.41897586705748,43.892018711727005],[12.418716224809033,43.892266632392044],[12.418465525506587,43.89250601082778],[12.41825499369181,43.89270703382701],[12.418001311517658,43.893277317456196],[12.417995498039337,43.89361060149511],[12.418086567498523,43.893924921050704],[12.418115749508463,43.894025638404976],[12.418178713976316,43.894635955291356],[12.418201121128819,43.894790997295935],[12.418302441827997,43.895492033330704],[12.418241118123962,43.896486448024355],[12.418237863345144,43.896538312085454],[12.417869323294513,43.89749466051446],[12.417782700428438,43.89788438239401],[12.417773695104385,43.898031138712064],[12.417764990049317,43.898173007288605],[12.417755369823418,43.89832407196145],[12.417737129258589,43.898610485361615],[12.417681404030652,43.899049000320296],[12.417052763279482,43.899024900808726],[12.415791979091528,43.89899511827728],[12.414385112276019,43.89903721278127],[12.41328421952481,43.898714522977066],[12.412193222241683,43.898328747556114],[12.411027593425226,43.898007730708215],[12.409735551770328,43.89759412592125],[12.409322459728502,43.89704555515085],[12.40905766833131,43.89658291358185],[12.406787538108327,43.89549685727563],[12.405413303572312,43.89500510694111],[12.404300261164469,43.894949151927804],[12.402886149702747,43.89374782897671],[12.402844308436539,43.893039299302636],[12.402929658929423,43.89241585216668],[12.40269747860523,43.89200378543132],[12.40260960527819,43.891850961000685],[12.401963260786752,43.891592479997975],[12.401310951540982,43.89160301050452],[12.400660446086041,43.891929060336004],[12.399809326472095,43.892235284714694],[12.399080890994302,43.8923779533474],[12.398845822943,43.892424848490556],[12.398181826813008,43.89299369938672],[12.397757707322796,43.893375458477934],[12.397179486585534,43.89392884967382],[12.396868760360091,43.89438621067116],[12.396447610391055,43.894631300206335],[12.396219427525399,43.894998900620934],[12.395608659721486,43.89519484436817],[12.394884728893611,43.895411215039815],[12.394468277419724,43.89572519831211],[12.39411871140293,43.896368759127995],[12.393652819379302,43.896989432756484],[12.393586605766401,43.89707186074193],[12.393071388781207,43.89728451724951],[12.392722465436767,43.89742831154812],[12.391961642010829,43.89783036057561],[12.391620460813265,43.8983879716668],[12.391485473857916,43.898608546430914],[12.391263134370593,43.89932527250789],[12.391192232662437,43.899421446487665],[12.390696158569364,43.90006582466945],[12.38978473507795,43.90046379607013],[12.389264240936019,43.90070602035163],[12.388920943121377,43.90122366847445],[12.388862037272775,43.901506295358054],[12.389210166247826,43.90154706921487],[12.3898657563799,43.901616621253226],[12.391065330589461,43.90198926556677],[12.392288718942542,43.902005353988066],[12.393866607278861,43.90195844823212],[12.395334923733865,43.90194178830561],[12.396401460464306,43.90207183301458],[12.397222316346461,43.902601638211536],[12.398334777739498,43.9027945309873],[12.398536738177771,43.903061544067825],[12.39886372931109,43.903388285345294],[12.399983949171258,43.903815410604885],[12.401161989571436,43.90420508860466],[12.402312492751282,43.90452198075615],[12.403188419563358,43.90453032769777],[12.404131562948578,43.90463944823405],[12.404308536036186,43.90576972316382],[12.404502024183872,43.90595527111747],[12.404548142660754,43.906311785122654],[12.404638453371204,43.90640318925094],[12.404757733598055,43.90651859374403],[12.405099333854395,43.9068419595875],[12.40570376405133,43.9066874591082],[12.406299456098388,43.90607490856319],[12.406446004812395,43.905367037735445],[12.406393131769029,43.904615039882394],[12.406669691870388,43.903796892432815],[12.407037760616102,43.90331038205435],[12.408065523516136,43.90304338379514],[12.408294505366294,43.90298479972915],[12.408355651362323,43.902971665140974],[12.40935323365111,43.904632143465015],[12.409877247930256,43.90546726965747],[12.410057908364758,43.90623162643812],[12.410947825554196,43.90720436335878],[12.41209025608789,43.90823706840415],[12.412502575706752,43.90940412887912],[12.411829218940625,43.911130320277486],[12.409632018751982,43.917408018083584],[12.409479761944658,43.91784920934103],[12.408952052562176,43.91907586910513],[12.408275008632645,43.92052305637878],[12.408212006885966,43.92116414668847],[12.408272965831864,43.92152244449042],[12.408413722108318,43.92186035330042],[12.408679438415504,43.92253214058987],[12.40893758200084,43.923343699237854],[12.409055018860704,43.923709312695145],[12.409213025799652,43.924294285415975],[12.409371932204744,43.924622647755804],[12.40977769195101,43.925020161159715],[12.41035184462899,43.92542164383584],[12.410872103070828,43.92586074532681],[12.411417543740772,43.92619555888096],[12.411991416017024,43.92670057531177],[12.412482387317793,43.92722607344574],[12.413014878850818,43.9276062805586],[12.413658544859606,43.927915638448916],[12.41416358310797,43.92830566422416],[12.41472456885173,43.92874803196294],[12.415063184676706,43.92944013008167],[12.415164593403135,43.929851230587325],[12.415176594593204,43.93033252882843],[12.415249509621848,43.930735478789444],[12.41498797818827,43.93247636950315],[12.414737853439537,43.93321988208527],[12.414232152678377,43.934232124046005],[12.413560764373887,43.93507147295201],[12.413058546778236,43.93592826668168],[12.412767344569106,43.9364996574803],[12.412479738076186,43.937133961017324],[12.412202506469262,43.937731941621664],[12.411675238677816,43.93891358331056],[12.410324535560909,43.93991276316424],[12.40911758666974,43.94037645988185],[12.408118214894188,43.94076642318041],[12.407426190491892,43.94108418238884],[12.406749060564378,43.94166257800539],[12.406081787569553,43.94219565953578],[12.405658938207264,43.942590902410075],[12.4054208397382,43.94300313898395],[12.405068364785174,43.943594344039724],[12.404819873774187,43.9440429013662],[12.404809745707796,43.944083716090205],[12.404668724795746,43.94466861168357],[12.404598484723937,43.945183874152185],[12.404417715986538,43.945945511647245],[12.404426618479153,43.94675550938106],[12.40451492530943,43.94786473701166],[12.404401228966487,43.9487099010786],[12.404191460703961,43.94940038079673],[12.403734990784086,43.95051685214688],[12.403605361436187,43.95108340034902],[12.403662822787457,43.951707390106336],[12.403686732707158,43.95207129546139],[12.403786027359152,43.95250047416024],[12.40384557718986,43.95310639545578],[12.404515546716366,43.9546349140521],[12.404592687933706,43.95569617174001],[12.404258678497676,43.956094890853535],[12.403981757820706,43.95673206636958],[12.40335044801174,43.957417834297374],[12.403048961848981,43.957751714636046],[12.40261193540206,43.95823226933732],[12.401743030368689,43.959381326769574]]]}}]}
