{"type":"FeatureCollection","metadata":{"code":"102007","referenceDate":"2026-01-01","sourceDbfExportDate":"2026-02-18","upstreamArchiveUrl":"https://www.istat.it/storage/cartografia/confini_amministrativi/non_generalizzati/2026/Limiti01012026.zip","sourceManifestSha256":"70ac8256c4785dc6ed2814c32b6965ae76f9161b51abaa1660059e1c6cbd8ca6","license":"https://creativecommons.org/licenses/by/4.0/","attribution":"Istat, Confini delle unità amministrative a fini statistici al 1° gennaio 2026, versione non generalizzata.","modifications":["Converted from WGS 84 / UTM zone 32N (EPSG:32632) to RFC 7946 WGS 84 geographic coordinates.","Converted from shapefile to per-municipality GeoJSON without geometry simplification."]},"features":[{"type":"Feature","id":"102007","properties":{"code":"102007","name":"Dasà","alternativeName":null,"regionCode":"18","regionName":"Calabria","territorialUnitCode":"102","territorialUnitName":"Vibo Valentia"},"geometry":{"type":"Polygon","coordinates":[[[16.169517955578485,38.57950002639821],[16.169163613523892,38.579566837753546],[16.168784938408145,38.57957664898683],[16.1684394562879,38.579516963114045],[16.168127866201637,38.57942368426656],[16.16778794625142,38.57945128426392],[16.167668316571238,38.57946047684882],[16.167602513667273,38.57940131719477],[16.16754775834954,38.579350167938664],[16.16739323451621,38.57921046235351],[16.16719142567491,38.57902704249352],[16.16713344305908,38.578979283604156],[16.166926584687094,38.578807472643064],[16.166888400206552,38.5787758139398],[16.166743909877386,38.57868429888027],[16.166610068945115,38.578599526788906],[16.166567466356277,38.57856568569076],[16.16633151888421,38.578378260478225],[16.166293415052003,38.578313578900996],[16.166197528620458,38.57816110869818],[16.16616572916548,38.57810957234495],[16.16610516199743,38.57790384128707],[16.166081184279715,38.57782239897262],[16.16596193903437,38.577515676220834],[16.16585303938724,38.57720219546179],[16.16578873625056,38.577024157443795],[16.165732257464278,38.576867783400346],[16.165555230346246,38.57650082805677],[16.165369327992458,38.57626869080237],[16.164952341393118,38.57602963440514],[16.16457956586639,38.57578269298506],[16.164208156181388,38.57554915185188],[16.163895897740563,38.57533444766483],[16.163522789583453,38.575069520328924],[16.163184663385366,38.574839207973],[16.163151583732127,38.5748173404355],[16.163116372801767,38.574794063815254],[16.162697863524198,38.57445453766329],[16.162221242172105,38.57412850293268],[16.162162095183923,38.574085109616924],[16.161955382854924,38.57393345257561],[16.161558135784343,38.5735845308579],[16.161172616188797,38.573180923167996],[16.160961471503565,38.57288802488595],[16.160843484984103,38.57263888558419],[16.160666601683143,38.57233039313554],[16.160430505641372,38.57193108008404],[16.16024060809625,38.571578414058365],[16.159942965385213,38.570935478335706],[16.15977620044246,38.570527405058534],[16.159587456816126,38.57013005444425],[16.15953884356725,38.570029210327654],[16.159433849779,38.56971787075782],[16.1593842738453,38.569570898109205],[16.159156436821583,38.56906761980524],[16.15898741009664,38.568493254841165],[16.158956178032298,38.56843014881523],[16.158844081166777,38.56820519353177],[16.158433476161154,38.567657359237856],[16.158386510007055,38.56759438451001],[16.1578510255385,38.56719566654275],[16.157435720719015,38.567009791669484],[16.15709025235958,38.56687886082606],[16.15699658940064,38.566843362612666],[16.156774561239562,38.566732530383355],[16.1564991443802,38.5665950450042],[16.156221606459408,38.566454663778465],[16.155984495648152,38.56634992799502],[16.155782880423235,38.566261329913885],[16.155694185973655,38.5662065868708],[16.155648705638928,38.56617849236508],[16.155411727511524,38.56603210267476],[16.155173044032487,38.56581095877828],[16.15512982700885,38.56577091805534],[16.155015622414858,38.56566510555001],[16.15493498966183,38.565530804020604],[16.1547964563436,38.56530006272729],[16.154778606764577,38.5652703304352],[16.154591173850047,38.56498497201939],[16.154355053910816,38.56459913191116],[16.154330568568174,38.56450486281112],[16.154245802925736,38.564178521988595],[16.154136298316498,38.56379840790727],[16.153946729057495,38.5634771784438],[16.15375824920773,38.563137897805085],[16.153511642413477,38.562833676885404],[16.1532914048754,38.56263580281074],[16.151435640433416,38.56149028325591],[16.150595277608474,38.561249508229444],[16.150418319326405,38.56116009765203],[16.150293651928152,38.561097106827106],[16.149694579176728,38.56094946050726],[16.149348121734974,38.56083578941696],[16.148911143176296,38.5608131280382],[16.148510445344936,38.56083772654153],[16.148302067851855,38.56083014245137],[16.148254813397394,38.56082842249512],[16.148096462974603,38.56082265948739],[16.147990908252545,38.56081844535583],[16.147741281956982,38.56080847824589],[16.147409404704575,38.56085583999946],[16.147042132641236,38.5608783818726],[16.146704183752856,38.560903767911434],[16.146422643720815,38.56092493112757],[16.146388211298927,38.56092752185328],[16.14568800370405,38.56087153160457],[16.145212621179287,38.560599330128255],[16.144758665287803,38.56024034004459],[16.144651303839886,38.56015860843017],[16.144375899312344,38.55994894707317],[16.144119052638395,38.55969929704023],[16.143988236700608,38.559481024563],[16.14393183988983,38.55938689668806],[16.143789259340085,38.559151524515116],[16.143713630041926,38.55892604911678],[16.14368170766869,38.5588308605964],[16.14355004808027,38.55851517229345],[16.143566934678827,38.558393912853276],[16.14357886074277,38.5583082670938],[16.14360185190508,38.558143154993346],[16.143664948482705,38.55811945180609],[16.14433217592994,38.55786894525363],[16.144824633863703,38.55785221886432],[16.14537737706883,38.55782280041468],[16.14581092560701,38.557818694243444],[16.146315295914917,38.557792239466764],[16.146649639388446,38.55787068146827],[16.14702145744653,38.55809526794402],[16.147471691922654,38.55836771647129],[16.14758837941162,38.558438324666305],[16.14803920067567,38.55862205667244],[16.148509298111463,38.55861120124585],[16.148909649601546,38.55853264118051],[16.149253070294293,38.55845757477306],[16.14966578987517,38.558445740665874],[16.150090271842494,38.55845116681012],[16.15046944259383,38.55841889400681],[16.150835298661008,38.55839642859508],[16.15118938059516,38.55828471874466],[16.151402599099512,38.55795225326285],[16.151751828002894,38.557561947251635],[16.151930814130086,38.5572450886982],[16.152056800414083,38.55697332914296],[16.15207463197915,38.556934869997065],[16.15251721216739,38.55663330771793],[16.152812817529156,38.556394739059265],[16.153406456268158,38.556200837448436],[16.15380795040557,38.556162669351444],[16.15412885569027,38.55619244364194],[16.154474765905107,38.556315143416505],[16.15466260096175,38.5565330082166],[16.154850351582514,38.55676436261581],[16.155128057671163,38.5569497301225],[16.1554645600288,38.55713596178781],[16.15621127057542,38.55725650629811],[16.15658759668202,38.557143620303464],[16.156629604933343,38.5570892823062],[16.1567909043942,38.556879039138316],[16.156847533947058,38.55676082305047],[16.156913014667445,38.55662412951343],[16.157048014544227,38.55635494199948],[16.157231541955067,38.556157654565105],[16.157261491957833,38.55612590527118],[16.157521319480747,38.55591651503355],[16.15804743280373,38.55582120255945],[16.158275041327027,38.555824098535446],[16.158472021019985,38.55582665647802],[16.158653986796992,38.55589316229054],[16.158830079156274,38.55595752245547],[16.159006819199256,38.55620754831059],[16.15902566272218,38.5563416959959],[16.159046283609438,38.55648850932362],[16.15913292649704,38.55688350990841],[16.159151177198183,38.556934797449316],[16.159288536809417,38.55732375709714],[16.159453899192005,38.55764646549794],[16.15978155947152,38.55795917740668],[16.160243616152226,38.558169180583754],[16.160679279018233,38.558128886413655],[16.16112107651393,38.557791340936774],[16.161160659346073,38.55738408475994],[16.16127218217562,38.55715231845735],[16.16159485283694,38.556940444706356],[16.161752931776814,38.55683664335529],[16.161793425865515,38.55680972510289],[16.162090200987375,38.55666583514834],[16.162632396892008,38.55665273108131],[16.162813128877357,38.556648363990014],[16.163206149793186,38.556826598712476],[16.16363314822366,38.557029753596204],[16.16402840551324,38.557302311734695],[16.16438960919889,38.55763544179866],[16.164618361217354,38.55779293230974],[16.16474945192177,38.55788318413934],[16.165107148905523,38.558023108713776],[16.165566849489412,38.558080293597264],[16.16603583894893,38.557943484518916],[16.166494616974415,38.55784778212663],[16.166928681838442,38.55783455552302],[16.16725513367623,38.55801088832744],[16.16741460179755,38.55809702530632],[16.167820812564734,38.55836439917081],[16.16793090528275,38.55873547062364],[16.16798244506356,38.55913708844215],[16.167995209137473,38.55936278839865],[16.167999446950155,38.55943730904391],[16.16813801356151,38.55960457700871],[16.168279542017707,38.55977541845466],[16.16845925365973,38.55983474089982],[16.168530130715155,38.55985759458021],[16.16862604222193,38.55988904693107],[16.16879685251125,38.55987853184556],[16.169063492524135,38.55986661336354],[16.169354327891362,38.5601681766938],[16.16931321304164,38.56053060428858],[16.16927789775249,38.560849510238924],[16.169274016016274,38.56088387516668],[16.1693328140191,38.561182337286134],[16.169337929844975,38.56120829983499],[16.169376264989808,38.56129989331854],[16.169492058448046,38.561576522495756],[16.16962738668975,38.56173111760391],[16.16972472318183,38.56184108701756],[16.169817658799,38.561861960933456],[16.17007050536594,38.56191875416448],[16.170398775453226,38.56194425804493],[16.17058724497485,38.561958900563525],[16.170964822300085,38.5618232050473],[16.171169356390635,38.561714423992875],[16.171261183928834,38.56166550008599],[16.171350038124928,38.561628070351],[16.17150640138291,38.561562205425886],[16.17163638104321,38.56150745273275],[16.171980146241246,38.56145029827717],[16.172068201379947,38.5614511535642],[16.1723586404702,38.56145397740423],[16.172509148378587,38.56155272376599],[16.172548295055858,38.561577809044785],[16.172650319351106,38.561642454006744],[16.172766603001367,38.56168977970424],[16.173180524868233,38.5618531642381],[16.173252824903646,38.56183981585116],[16.173289651661282,38.56183301133921],[16.173815340348963,38.56173595705035],[16.173911788977563,38.56171814817945],[16.17408058971429,38.561656983382115],[16.17436993855235,38.56155225309595],[16.17449517667796,38.56150692336484],[16.174722025037468,38.56152197801361],[16.175057483397087,38.56154424221946],[16.175085002371233,38.56212082840703],[16.175091518829518,38.56225734054597],[16.175199573496492,38.562507075824115],[16.175268449719862,38.562648238023954],[16.17540145817818,38.56292195271205],[16.175457212858667,38.562990618364395],[16.175589290210166,38.56315328345922],[16.175914137210654,38.563394154202655],[16.176308096140083,38.5635812947546],[16.176770375578485,38.56369223893708],[16.177398374230325,38.56361305349849],[16.177889625911323,38.56348381512925],[16.178277640297903,38.5633249561494],[16.178630592347446,38.563159249406255],[16.17935356418295,38.5631416665979],[16.18003009064684,38.563117953939745],[16.180466494323117,38.56311352186968],[16.18078657468917,38.56304880967988],[16.181418750217816,38.5631402679929],[16.182099997580114,38.56327818220151],[16.18277910919717,38.563452188604074],[16.183563940078372,38.56363768954864],[16.184251743796715,38.56355475768087],[16.184697532851406,38.563486774221616],[16.185392434248588,38.563245982102885],[16.185815353192844,38.56319289199974],[16.186528485224084,38.5632343517433],[16.186895785596036,38.56328364775567],[16.186940359555766,38.563285392116406],[16.187229974645636,38.56331700358891],[16.18728190545414,38.56363350066682],[16.187345321169115,38.56409704134745],[16.18752885960481,38.5646569747976],[16.187640487121502,38.56483674956557],[16.187700158441398,38.56493284868254],[16.187719616876343,38.5649641754817],[16.18808359551321,38.5649070213111],[16.18816748880832,38.56489537685997],[16.188225140884782,38.56488729996743],[16.18894263462569,38.564785740552374],[16.189306770527505,38.5647714302944],[16.189500702257558,38.56476367852552],[16.189546053235638,38.56476189140185],[16.189580521224197,38.564759236949506],[16.18976280346927,38.5647453344527],[16.189798797598925,38.564742587502934],[16.18985877830583,38.564738085984175],[16.189931546707363,38.56473025698607],[16.190047451017435,38.56471775734226],[16.190136676715177,38.56470775149578],[16.190351718129172,38.56468096852565],[16.190901272537854,38.56454807391466],[16.19110308759805,38.564432157912684],[16.191466355770224,38.56432777241738],[16.191372993863837,38.56416346456358],[16.19127662158391,38.563992286751805],[16.191233689338684,38.563871071931125],[16.191237984622376,38.56377691696362],[16.19131777714277,38.5636521577803],[16.191380809746363,38.56357348070251],[16.191356330140568,38.563507154263725],[16.19134361172517,38.56344531571449],[16.191479084598353,38.56332916733417],[16.19167342016236,38.56323538086155],[16.191750126543155,38.563172329493604],[16.191797858536212,38.562975722173675],[16.191814029381582,38.56290832729179],[16.191819995866755,38.562880985245954],[16.191828686297438,38.56284048343695],[16.191848683277367,38.56275019601443],[16.19186909633531,38.56265750877508],[16.192068346280067,38.56233033273985],[16.192258720754413,38.562057686786275],[16.192664433358853,38.56154683633127],[16.192945448036497,38.56126409522046],[16.1932506046506,38.560750444667484],[16.19328059866166,38.56070534585741],[16.193403578436907,38.56052036402396],[16.193490630930448,38.560231602961856],[16.193578446505537,38.55997879689464],[16.193792355027576,38.559655208368824],[16.19409426459146,38.55920924488211],[16.19435540445157,38.558999692576634],[16.19460410831145,38.5588088925135],[16.194802208663965,38.55868732218938],[16.194888572356014,38.55863365908022],[16.195403247725395,38.558538883174286],[16.19581474623634,38.558486463155695],[16.196845881757206,38.558314792138994],[16.197430805191953,38.5582921257618],[16.197746446654826,38.55826738828484],[16.19813997468691,38.55823621791926],[16.198220868484597,38.55822983654694],[16.198463432309484,38.558221176387185],[16.198507187368776,38.55821958438928],[16.198910274776303,38.55820540632288],[16.199550636062597,38.55810733831424],[16.200190037321065,38.557928350113365],[16.201046553171917,38.55768648278375],[16.201140135019585,38.55766269511791],[16.20199604009091,38.5574433366835],[16.202246641261027,38.5572434110078],[16.202343265939096,38.55693607189312],[16.20236937223941,38.55643965926518],[16.202433942749423,38.5561837720641],[16.202647431557665,38.555842212333474],[16.202859850996887,38.55560417052048],[16.203165377156346,38.55533787226247],[16.203529832711236,38.55513090147815],[16.20397482084415,38.55502691303183],[16.20444604199775,38.55505623869595],[16.205019180169046,38.55501628216171],[16.205534630150588,38.554943910236055],[16.205957331599976,38.55483228447746],[16.206435585318065,38.554631749096174],[16.206925268877573,38.5544170371172],[16.207850263230917,38.554130386867925],[16.20833064350951,38.554051163720224],[16.208948645563577,38.55387347324131],[16.20960147480053,38.55374309250471],[16.210263038531416,38.55357168806015],[16.210606193005084,38.55352344898959],[16.21103174240993,38.55341162788091],[16.21149826291721,38.553351250494714],[16.211852420860012,38.55328434386869],[16.212186862637953,38.55326363099334],[16.213610688160966,38.55346469289442],[16.213669993838028,38.55347308836522],[16.21359542102968,38.55361410254215],[16.213560463303043,38.553678607953415],[16.213522663543593,38.553749617320065],[16.213447063377604,38.55389163156729],[16.213421078782346,38.55401911570831],[16.21340805850856,38.55408285321407],[16.213395027434167,38.55414658599093],[16.21337294647675,38.554251563677944],[16.213402209277067,38.55461408541571],[16.213430428012767,38.554854566693045],[16.21344203185125,38.55495347606322],[16.213539246970527,38.555293806812635],[16.213637037372983,38.555611605978555],[16.21371567530543,38.55576992247058],[16.21375199912265,38.555843049430486],[16.213780762932554,38.55590095627925],[16.213814783238547,38.55596944534763],[16.214038948756933,38.556080296461886],[16.21408151097432,38.55610134479191],[16.214131318596557,38.55611775291669],[16.214241132736365,38.55615377231366],[16.21430288916433,38.556173889600764],[16.214366849157635,38.55619617695222],[16.214400327667246,38.55620574655377],[16.214430853340993,38.5562150384842],[16.214878641776647,38.55635363591298],[16.21515692315278,38.55639840595881],[16.21519858806283,38.55640584606962],[16.215333540348166,38.55642828339781],[16.215394252751814,38.55643832608539],[16.21592399895386,38.5565224546331],[16.216119356335252,38.55655647638543],[16.216476424528246,38.55661865774349],[16.216983338317633,38.556717683356716],[16.217331277674674,38.556916523544544],[16.217410155852985,38.557401914710624],[16.216939879087903,38.55753902788745],[16.216517612088793,38.55765516342929],[16.216384888069133,38.55769986463632],[16.216171259202085,38.557771749629595],[16.216140829339654,38.55778198833505],[16.215673017733657,38.55798639342622],[16.21537336400627,38.558095346136554],[16.215240560772937,38.55814362966175],[16.2147024755404,38.55827594481946],[16.214302529306813,38.55838617525323],[16.21385851650385,38.558571117256164],[16.213103342284462,38.55868087293892],[16.212700573816246,38.55862035336132],[16.21237554390694,38.55847855698916],[16.2122823904029,38.55824559131859],[16.212245010794053,38.55814922823599],[16.21223613695429,38.557704470224486],[16.21219721397223,38.55737401309196],[16.211802023913087,38.55706114635031],[16.211422172728433,38.557057679645276],[16.21115286219716,38.55721379130907],[16.211004501859204,38.55744788081789],[16.210942901733027,38.55777557184229],[16.210697975819237,38.55831700345752],[16.210406067141363,38.55869042434439],[16.210180790200884,38.55894278086347],[16.20987595421371,38.55917305379871],[16.209555324011006,38.559345843883776],[16.209055112906455,38.55957022953161],[16.208587868141198,38.55975209478167],[16.208166018803283,38.55987266919851],[16.20775576050433,38.56012296785635],[16.2074726228441,38.56036989138535],[16.207213757756563,38.56068727713911],[16.20696067993639,38.56131919052813],[16.206749073576162,38.56166513542169],[16.20642067770038,38.56194634545095],[16.205920811287164,38.562188697664865],[16.20536057710135,38.5623717909251],[16.204812322528557,38.562531663257545],[16.20429807584087,38.56271642036171],[16.204264564400304,38.56273173886073],[16.20403911018254,38.56283477801587],[16.203830238585468,38.56293067071399],[16.20375206101155,38.562966617999344],[16.203215919462284,38.56316171493883],[16.202751140513474,38.56341226064302],[16.202245784073437,38.56368501977943],[16.201929165138583,38.563812568780435],[16.2016120306475,38.56386367001823],[16.201084218678762,38.56401325029124],[16.200688720124788,38.56411886082804],[16.200602999183662,38.56414199499704],[16.2004862396351,38.56464850940624],[16.200618245763298,38.56503617021273],[16.20040696988445,38.5654000851258],[16.20028072395642,38.56547556157978],[16.200088059113625,38.56559074668692],[16.199779415574877,38.56570111440433],[16.199677406485446,38.56573759075181],[16.199300601579818,38.56585083579599],[16.198356896315858,38.56596744127216],[16.198280536241235,38.56597687588442],[16.19828006963056,38.56602677906275],[16.19827306666608,38.566773500765514],[16.197802837852702,38.56688354463071],[16.197492582487385,38.56688921774774],[16.19732384811087,38.56698349547149],[16.19713047343679,38.56709156418653],[16.196915880562763,38.567424353610264],[16.196890881204418,38.56745139328451],[16.196713154160335,38.56764362674163],[16.19647688708479,38.56782145761807],[16.196361558056445,38.56790826266502],[16.196223336317328,38.56802190228641],[16.196059855437674,38.568156308937624],[16.19581824058441,38.568346676116334],[16.195781856803972,38.568439655556546],[16.195772325651195,38.568464391453325],[16.19565302680777,38.56877065594452],[16.19564958274856,38.56891558994353],[16.19564813676626,38.568967638148074],[16.195646267866284,38.56904944605419],[16.19543317407806,38.56939549732956],[16.19523733953978,38.569241254430835],[16.195171751120387,38.569189593532286],[16.195014849297678,38.569066010192614],[16.194647558160383,38.568845800793305],[16.19461450118609,38.56884289811057],[16.194195252938734,38.568806263857056],[16.193490985404406,38.568539402792474],[16.193356414575344,38.56852918407173],[16.192995916437543,38.568501809336745],[16.192870349973056,38.56849227438379],[16.19253013839633,38.568561932062025],[16.192492780827102,38.56856958076085],[16.192231549696,38.568707169390166],[16.191996835763057,38.56884185021538],[16.19192434223102,38.568884146440126],[16.19152382224386,38.56894879712589],[16.19147120208747,38.56893280940342],[16.191154454231725,38.56883662479987],[16.190691647300188,38.568649293694484],[16.190322843168868,38.56852813876468],[16.190056099013404,38.56839616707207],[16.189686558625485,38.56823905411766],[16.189387201965527,38.56816759199061],[16.18906497786445,38.568111007471],[16.188697047558808,38.5680842552053],[16.18842776938413,38.568153611243034],[16.188331293257015,38.5681788642318],[16.187920232470365,38.56830772810576],[16.18781043695849,38.56834586242829],[16.18770539742109,38.56838218359322],[16.18765056019754,38.56840117541124],[16.187603739292175,38.568417680590805],[16.187463454236866,38.56846639697694],[16.18709543749336,38.56861285170561],[16.18704263751823,38.568636822901574],[16.186741238913253,38.568775934063424],[16.186559455340642,38.56885983491482],[16.186312545600742,38.5689737965285],[16.18626767130429,38.569110077550775],[16.186218972338878,38.56925797943736],[16.18621084523668,38.56928266129268],[16.186171946968045,38.56940079586844],[16.186045015613537,38.569444165839585],[16.185986192401227,38.56946419547825],[16.18585053096863,38.569510470045174],[16.185579369833228,38.569720622021485],[16.185091276398932,38.56995315079008],[16.184656479257352,38.57015991355033],[16.18432798712989,38.57035559956491],[16.183904806234672,38.5705211630731],[16.183539190749084,38.57066065947392],[16.183187089803553,38.57083532162443],[16.18292569389378,38.57099989184679],[16.182703639437015,38.57140042740992],[16.18255712851081,38.57162536168849],[16.182295704404044,38.571789932377165],[16.181951743619177,38.5718741238412],[16.181609388674328,38.57193122356628],[16.18127615698541,38.57196528047758],[16.18081057866872,38.57223688338838],[16.180356138853796,38.57254829287172],[16.179750165136024,38.57273410590077],[16.180038476029633,38.57338205317755],[16.179787569019293,38.573608927354854],[16.17946071601984,38.573921457279575],[16.179247234431323,38.5742360068736],[16.178908385195456,38.5745717713545],[16.178694202844987,38.57476489013114],[16.178343070558462,38.57509242038402],[16.17815409475266,38.57550889118149],[16.17806804504663,38.57585156368412],[16.177971708242378,38.57624883585271],[16.177885290219375,38.576573531110164],[16.177683258328752,38.576873867211],[16.17723979308853,38.57716658952583],[16.176850592001003,38.57719959001212],[16.176379641550785,38.577174636239384],[16.176068966048128,38.577162296130446],[16.175460530902367,38.57712333456767],[16.17519298020861,38.57758513988178],[16.175070771111262,38.5778670465507],[16.174924747012422,38.57808295423716],[16.174678660163288,38.57844443185295],[16.17465071087039,38.57847171818294],[16.174339300040092,38.578775723096726],[16.17396381191252,38.57900115259456],[16.173609460368066,38.579113069639966],[16.17331117975289,38.579190117618026],[16.17324357608292,38.5792075783522],[16.172842588577144,38.57922329099999],[16.172451805697662,38.57919789623161],[16.1721754450721,38.5791995274179],[16.172091189962437,38.5791974105953],[16.171808479253784,38.57919702822267],[16.17156067275364,38.579174875959175],[16.17144244900951,38.579165101542564],[16.171233174781868,38.57914687810347],[16.171147199141583,38.57914478108907],[16.170763704016085,38.5791354301527],[16.170639445327538,38.57915823453469],[16.170099688221114,38.57925729596309],[16.169517955578485,38.57950002639821]]]}}]}
