{"type":"FeatureCollection","metadata":{"code":"102018","referenceDate":"2026-01-01","sourceDbfExportDate":"2026-02-18","upstreamArchiveUrl":"https://www.istat.it/storage/cartografia/confini_amministrativi/non_generalizzati/2026/Limiti01012026.zip","sourceManifestSha256":"70ac8256c4785dc6ed2814c32b6965ae76f9161b51abaa1660059e1c6cbd8ca6","license":"https://creativecommons.org/licenses/by/4.0/","attribution":"Istat, Confini delle unità amministrative a fini statistici al 1° gennaio 2026, versione non generalizzata.","modifications":["Converted from WGS 84 / UTM zone 32N (EPSG:32632) to RFC 7946 WGS 84 geographic coordinates.","Converted from shapefile to per-municipality GeoJSON without geometry simplification."]},"features":[{"type":"Feature","id":"102018","properties":{"code":"102018","name":"Joppolo","alternativeName":null,"regionCode":"18","regionName":"Calabria","territorialUnitCode":"102","territorialUnitName":"Vibo Valentia"},"geometry":{"type":"Polygon","coordinates":[[[15.88482681882491,38.61906964037142],[15.884384891146047,38.619209237585615],[15.884273910389572,38.61928334760011],[15.884111414626478,38.61939185705556],[15.884129839191695,38.61944882044143],[15.884221355327927,38.61973176928762],[15.883732683956705,38.619618714925274],[15.883367432404691,38.61953420213161],[15.883295218123394,38.6194981606562],[15.883140234625092,38.619420808031435],[15.88304508433521,38.61937331853865],[15.88263035973597,38.619294364880595],[15.882552977775745,38.61927692593181],[15.882250846784576,38.61920883247358],[15.881968971322515,38.619166882181034],[15.881904688339135,38.619157315348545],[15.881730936752538,38.61914074311349],[15.881467756597205,38.61911564057694],[15.881390115037354,38.619110460145556],[15.881110990322004,38.61909183617755],[15.88080829466633,38.61919073318199],[15.880563140975692,38.61936209560882],[15.88029965521906,38.61922527944853],[15.880251850985074,38.61920045787459],[15.880019292344201,38.619079700080796],[15.879657957445986,38.618987387647174],[15.87954742713187,38.6189591500058],[15.879140979583367,38.61884385965972],[15.879068778677267,38.61882337876452],[15.878983004232394,38.61879904789417],[15.878567699817536,38.61868412661754],[15.878479452476725,38.61865780629658],[15.878164788515273,38.61856395675422],[15.877883774378937,38.618476126710945],[15.87764641423995,38.618405624031276],[15.877293100829993,38.618246363679695],[15.877090487011698,38.61815503231291],[15.87686899004993,38.61807830320741],[15.876790951695822,38.618051270674385],[15.876695457926514,38.617994030871394],[15.876374173314941,38.617801449136124],[15.876097913854421,38.617742684127954],[15.875844505924691,38.61768879460929],[15.875520085821934,38.61768871943384],[15.875236131431581,38.61768419373084],[15.874942418206114,38.617652620676715],[15.874695841023907,38.617626113667924],[15.874542938348451,38.61734721814524],[15.874487617740332,38.617319159561376],[15.874329306333525,38.61723886438364],[15.87413816942685,38.61714191846659],[15.873767270221427,38.61726232446773],[15.873311071313578,38.61711852621481],[15.873166694356055,38.61707450066513],[15.872977327315013,38.61701675457898],[15.872918003247458,38.616961934015826],[15.872675316632066,38.61673766453945],[15.872557339862261,38.616699771279585],[15.872213834899938,38.61658943807249],[15.871971296413777,38.61656609684274],[15.871753674110327,38.61654461751149],[15.87138065292595,38.616388447449474],[15.87129218155842,38.61635140763616],[15.870782648801164,38.61628384402634],[15.870495874789832,38.61620510972799],[15.870243508188155,38.61613437175532],[15.870206875920745,38.616107392197385],[15.869989004006106,38.61594692812174],[15.869873291626146,38.61579196105741],[15.869766997350556,38.61564960365658],[15.869585438015195,38.615606330016895],[15.869040797309063,38.61547651413299],[15.868997339102988,38.61545308059366],[15.868898173211045,38.6153996046972],[15.868739980725937,38.61531430076566],[15.868388606961508,38.61508446909489],[15.868336206405058,38.615050193250674],[15.868304418704955,38.61498474745581],[15.86813440745387,38.61463471622704],[15.868063015138796,38.61454910566839],[15.867912810516318,38.61436898421447],[15.867749338288144,38.61439724131938],[15.867586382942266,38.61442546051551],[15.867477979482024,38.61444392560654],[15.867154044406004,38.61432301372357],[15.86711127381845,38.61426065448761],[15.867058392284068,38.614158482863964],[15.867001814767102,38.61404924823156],[15.866790728298497,38.61372445231925],[15.86676810571923,38.613689642586934],[15.866753513127662,38.61344756014546],[15.866730728917627,38.613278110468876],[15.866703698388951,38.61307709085758],[15.866462594724196,38.61293564380549],[15.866320714462924,38.612852406687324],[15.866264736254069,38.612819566249584],[15.86590781827803,38.61280460405885],[15.865875496293404,38.61279253809491],[15.8654811352007,38.61264532335711],[15.86548936040129,38.612451542865976],[15.86549874892414,38.612230393004694],[15.86543954372402,38.61202606465895],[15.865391346413611,38.61187231387115],[15.865158533600843,38.61161162358185],[15.865000315906913,38.61156996339851],[15.864824023688895,38.61152354425095],[15.864401093495621,38.61166948631625],[15.86403026560552,38.611430692553284],[15.863866592211686,38.611143423719064],[15.86354067615596,38.61098311157035],[15.863449904517397,38.61093854391817],[15.863404467849026,38.61093891926322],[15.863094684008644,38.61094147612546],[15.862824852279601,38.61087374871592],[15.862616187627355,38.6108213743191],[15.862237332449466,38.6107262522184],[15.86197694906683,38.61066089477009],[15.861639748625915,38.61042886080742],[15.861351848874442,38.6102703467282],[15.861038131686811,38.610178186799075],[15.860879889921177,38.61013170031574],[15.860748981789085,38.6100988697325],[15.860717123444914,38.61009112353092],[15.860531457772092,38.61004438782686],[15.860487784841565,38.61003336147508],[15.860448001773792,38.61000282566447],[15.860046853864404,38.609694921447165],[15.859979618563573,38.60962706857],[15.859817651444992,38.60946103597176],[15.859565181455864,38.60920164883004],[15.859524023915837,38.609158930650466],[15.859391853367622,38.60897471340582],[15.859357572819293,38.608926934687446],[15.859236753368833,38.60876035990889],[15.859179820110969,38.60873308587161],[15.858862602414362,38.608613031415985],[15.858734029636953,38.608557619679],[15.85858360210605,38.60849414535735],[15.858464560598883,38.608443892729234],[15.858379152226654,38.6084077454037],[15.858344739236529,38.608375559099045],[15.858300467628327,38.60833327577074],[15.858251632199906,38.60828665345609],[15.858134073487735,38.60817458160704],[15.858112292018028,38.608139675471236],[15.857923079423918,38.6078271032874],[15.857930183885443,38.60746678431395],[15.858120591842866,38.607059664015985],[15.858301590229962,38.60677908362636],[15.8582178928284,38.60651858798472],[15.858123391524911,38.6062497181738],[15.857925102179452,38.60604994399658],[15.857657493178166,38.60580756480143],[15.85749392341807,38.60551299330958],[15.857502017349317,38.60541245939743],[15.857513577945348,38.60526889402382],[15.857565253073961,38.60491337648184],[15.857577573756313,38.60482876798985],[15.857423908960918,38.604495900973724],[15.857256442155304,38.60428678219333],[15.857229713066173,38.604253405246936],[15.857121148270906,38.60411783679602],[15.857093043869295,38.604071454507775],[15.857014794954356,38.60394954558707],[15.85700009469986,38.603920403702695],[15.856983964008641,38.60388852165175],[15.856920486029775,38.603744108872476],[15.856874456061904,38.603633721202264],[15.856822107415718,38.60351484636969],[15.856733521108959,38.60331373426972],[15.85686150840965,38.60305693250083],[15.856913487388521,38.60301994360456],[15.856948226644052,38.602997933256596],[15.857125446865174,38.60288564580319],[15.857230729496917,38.60275942910588],[15.857358667732695,38.60267707390682],[15.857510918394643,38.60256395628611],[15.857845751657635,38.602281561249114],[15.85777572178228,38.60220019395414],[15.857939848639006,38.60209232760634],[15.858004662156874,38.60223056159241],[15.85812062161002,38.6021649278076],[15.858376777530907,38.602020630989024],[15.858245292181417,38.60195530881299],[15.858215309737407,38.60187970395129],[15.858278284242775,38.601864091602536],[15.858340508053587,38.601919943667696],[15.858434217163795,38.60190847422362],[15.858508128856238,38.60192792779174],[15.858557810533108,38.6018922683921],[15.858656046333653,38.601928144481775],[15.858777941604728,38.60189418335932],[15.85891144022278,38.60198154770661],[15.859087352373633,38.60191762336204],[15.859147021829834,38.60182781033386],[15.859281078718366,38.60180205996238],[15.859404424425204,38.60189153420136],[15.859646432246967,38.60160257143465],[15.859705173357256,38.601545570778704],[15.859876721117518,38.60137558455682],[15.860006508565268,38.6011580918209],[15.860039613376713,38.601075991227155],[15.860142904160421,38.60081983934182],[15.860188677962928,38.600706325603],[15.860283187683041,38.60061176235233],[15.860406715223702,38.6004881673165],[15.860283819518429,38.60035913800735],[15.860150399221807,38.60027349726582],[15.860141428916023,38.60017023352877],[15.860137613082284,38.60012633625139],[15.860195461849571,38.60009553978981],[15.86024903177969,38.59990897336701],[15.860418255136286,38.59997340111861],[15.860526660902087,38.59987774114045],[15.860634407224936,38.59981485355367],[15.860815425549712,38.59968253951152],[15.861060412313508,38.599709411466556],[15.861071339844663,38.59962544542461],[15.86086148726859,38.599572339561114],[15.860739587272592,38.59948727061941],[15.860734674757657,38.59935662456144],[15.860664817722714,38.59933990815474],[15.860614190524567,38.59928635067114],[15.860575482605434,38.599201765195346],[15.860695622536339,38.59906729513789],[15.8608165819166,38.59918217855223],[15.860875024412035,38.59911921962242],[15.861057448502223,38.59924238411852],[15.861201305275959,38.59923986139261],[15.861358999165372,38.59937398653925],[15.86163766877061,38.59927297626109],[15.861604922030295,38.5992016840754],[15.86170508696989,38.59917563159242],[15.861738140236312,38.599170740186224],[15.86172326267341,38.599027586084176],[15.861841663967482,38.59899680421806],[15.861964092969565,38.59916450623293],[15.862011539711457,38.599068768166816],[15.862087019507866,38.598963593607486],[15.862009051855793,38.59886089073221],[15.86204080421441,38.59874805136495],[15.86215153960938,38.59878188252175],[15.862128854782904,38.59873007511139],[15.862112176876591,38.598704489365204],[15.86206142839749,38.5986266360143],[15.862038315368979,38.59854017489645],[15.862104307651729,38.59852237359198],[15.862199254390463,38.598552763881045],[15.86226965889293,38.59851248361078],[15.862196078642166,38.59839149637127],[15.862256769340716,38.598356668796086],[15.862381657767695,38.59841054139633],[15.862280417975011,38.59827163915229],[15.862374493133906,38.5982244350641],[15.862515496083512,38.5983015897236],[15.862583596381839,38.59834900069007],[15.862752507422444,38.598172403389626],[15.862757590880548,38.598106635746404],[15.862519025134162,38.59796069135203],[15.862503793606129,38.59791339628466],[15.862460146485738,38.59783545219963],[15.862518983192906,38.59777711840382],[15.862541103356762,38.59766706982725],[15.862707670971206,38.59762452157245],[15.862797331423394,38.59772934316376],[15.86295287094072,38.59769041991403],[15.863055142564702,38.59760999783098],[15.863291669369653,38.597664503478725],[15.863328927559884,38.59773132826747],[15.863374186996204,38.59767139897056],[15.863405272248302,38.59753211843884],[15.863527871023761,38.59753333800146],[15.86361743998264,38.59732808509751],[15.863529186178061,38.59716664070658],[15.863395013755698,38.59716676358372],[15.863279668648198,38.59717541786607],[15.863234295127182,38.597179320730255],[15.863169441643883,38.59718489874727],[15.863057573511307,38.59705579303876],[15.863033454342148,38.596882728394476],[15.863034704787962,38.59685060943895],[15.86304189060774,38.59666609957704],[15.863074347623842,38.596613899821406],[15.863179191497403,38.596603431608465],[15.863214209057762,38.59659993478248],[15.863259834455528,38.59659491757825],[15.863175391228921,38.5965623354613],[15.86308434407762,38.59652720108102],[15.863061356548373,38.59644941107665],[15.863110593164906,38.5964012522651],[15.863156353421065,38.59638295466841],[15.863225568211854,38.5963442628226],[15.863334275225656,38.59631777139537],[15.863381911468775,38.596269485441475],[15.863543110356387,38.596289744112624],[15.863637286486407,38.59632287980378],[15.863667928078533,38.59636571068074],[15.863744042060318,38.59641568185049],[15.863922004883165,38.596443058956716],[15.8640756630662,38.596440823466125],[15.86409124219411,38.59633849240263],[15.864096620909665,38.5963031753132],[15.864133978752092,38.59620788267429],[15.864171549159927,38.596112056533556],[15.86412612091268,38.595999891919966],[15.863993392704488,38.59597478987684],[15.864016382037086,38.595892996616755],[15.864025115588626,38.59586193387168],[15.863903053215566,38.59580219907911],[15.86392397630441,38.59570676744723],[15.864011191054804,38.59561949759394],[15.864205472249555,38.595514130733996],[15.864274068761109,38.595513622223464],[15.864331419594654,38.59551236381997],[15.864428484358138,38.59546049668129],[15.864444630324854,38.595417876806856],[15.864471260949045,38.595347579356776],[15.864602913592867,38.59528597512462],[15.864734338852076,38.595207045619205],[15.864763959187032,38.59519412197035],[15.86483397255288,38.595163579944774],[15.864955435354094,38.595244392871976],[15.865042000471428,38.59521817206028],[15.864986652487595,38.5950882453459],[15.864886748602403,38.595037009384775],[15.864864182872592,38.594937726469986],[15.864862502256944,38.59485529160097],[15.864950342594764,38.59481998543334],[15.865035720578044,38.59481935383577],[15.865104780470315,38.59481884273233],[15.865160020708155,38.59482710371635],[15.86519898288658,38.59480951198308],[15.86529632675396,38.59476556096833],[15.865335580103949,38.59474783775747],[15.865444097302282,38.594729962811385],[15.865478056129856,38.59466882742788],[15.865466195948011,38.59459961458199],[15.865442198166578,38.59452996189527],[15.865294569340602,38.59445696769478],[15.865256334841902,38.59438450198158],[15.865341841829329,38.594349333078895],[15.865373374015679,38.59434358471449],[15.865440889464894,38.594331277629394],[15.865531763887278,38.59426825391065],[15.865605013548565,38.59421745316986],[15.865681601918212,38.59416491787346],[15.86574322260765,38.59417825326982],[15.86582635775155,38.594194433214604],[15.865934883511493,38.59412840806992],[15.866032865668465,38.593973020432266],[15.866153212458658,38.59393622360727],[15.866266914525593,38.59396081901875],[15.866307620307863,38.593965212535366],[15.866359453100984,38.5938568615369],[15.866270601736641,38.59360618415821],[15.866170287025078,38.59353752520923],[15.866139348632801,38.59351846097667],[15.866059341720385,38.59346915903533],[15.866146589097493,38.59334650337282],[15.866178599764703,38.59329503100866],[15.866152724421003,38.59326517521324],[15.866111475815117,38.59321757710331],[15.866176202407548,38.59309582886417],[15.866179273618945,38.59306622811604],[15.866186094807075,38.59300047498892],[15.866272697124803,38.592989133317914],[15.86631926044122,38.59298304205395],[15.866409206622983,38.59305634581062],[15.866472882648297,38.592998346690045],[15.866429484054388,38.59295656647593],[15.866459784222998,38.59282520467619],[15.866502392126892,38.59269928608484],[15.86651268629767,38.592638570247914],[15.866494816033379,38.592597745908684],[15.86647866983814,38.592560859880365],[15.866589447371947,38.59251833116204],[15.866795833960277,38.592479443084656],[15.866945341931013,38.59253609644082],[15.86717261116521,38.59257328536846],[15.867410537762037,38.59264257897839],[15.86752742450628,38.59271673622637],[15.8676598520994,38.5926300830374],[15.867778415746782,38.592519088821696],[15.867856419906731,38.592464036643335],[15.86788856656494,38.592385834570415],[15.867871414411965,38.59235627909207],[15.867843522369489,38.59230822245841],[15.867802411009855,38.59232706735408],[15.867766710877985,38.5923434328226],[15.867666808431512,38.592292200042024],[15.867632790988024,38.59221449011153],[15.867742355812338,38.59215304315297],[15.86779304198188,38.59214602708797],[15.867874531012989,38.59213474642138],[15.867906661290444,38.592112276862274],[15.867974261624207,38.5920606336713],[15.868027595169792,38.59202099961987],[15.86810315574365,38.59199063072462],[15.86820324777657,38.59195040327983],[15.868265655732728,38.59187536356922],[15.86835547825466,38.59176736473406],[15.868442084985803,38.5916980591788],[15.868464736944809,38.59167993373575],[15.86856197369741,38.591576097141186],[15.86859541945492,38.591540381749795],[15.868675860547638,38.59150636946195],[15.868803435942796,38.59145242610432],[15.868902505963048,38.59139083132993],[15.868983988023947,38.59137097555129],[15.869028861830355,38.59136004045666],[15.869122489129579,38.591337226092456],[15.869508333394586,38.59131704938962],[15.869551872872972,38.59131530022343],[15.86977295499244,38.59130641569241],[15.869936118888988,38.591318004725],[15.869993774761172,38.591322100819305],[15.870124047806446,38.591320957130165],[15.870159229711483,38.591320872200704],[15.8702016145105,38.59127630986718],[15.870265143715748,38.591227372708154],[15.870111050791362,38.591058281368],[15.870188177121822,38.59103050371192],[15.870254622329165,38.59099966430524],[15.870398022802588,38.59099859446863],[15.87043874342996,38.59101552572516],[15.87053106797538,38.59105391445836],[15.870553431689439,38.59100876048112],[15.870574056723445,38.59096711917433],[15.87052939503287,38.590915331388665],[15.870659422527227,38.59087984855825],[15.870771938222516,38.59090485601089],[15.871026061750266,38.59093760911409],[15.871223113383778,38.59080990023772],[15.871255904282298,38.59078864779797],[15.871287821862754,38.59075777439535],[15.87151760376783,38.59053549971621],[15.871554593016883,38.590527944068086],[15.871744209327483,38.590487540838936],[15.87189094508125,38.590394121177255],[15.87194453049922,38.590263794062544],[15.871877928329452,38.590238268889905],[15.871789369691893,38.59020432702546],[15.871730638978548,38.59012412561908],[15.871688425252426,38.59006647856411],[15.87172492984877,38.59006451830916],[15.87181501667395,38.590059681976875],[15.871875829962043,38.59005641704676],[15.871963969222685,38.59004710670338],[15.872001781994841,38.5900235558015],[15.872062399437482,38.58998579904874],[15.872161029490485,38.589924365254646],[15.872277082642318,38.589844739456424],[15.87231790447367,38.589809506523196],[15.872387689455604,38.58982613392788],[15.872519357633674,38.58987073840565],[15.872440303746162,38.589742087539015],[15.87243701523463,38.589604517716225],[15.872607215233659,38.58958463973489],[15.872832996437714,38.58966178124074],[15.872852281831584,38.58976871575819],[15.873009298373772,38.5898314126806],[15.873103796192654,38.58982607392441],[15.873185677113558,38.589821447234456],[15.873316775287257,38.58971650850935],[15.873407424941501,38.58967707059238],[15.873448447791706,38.589659224157124],[15.873679675776573,38.589622857606834],[15.873921701314709,38.58956906646222],[15.873967517590716,38.58954024055972],[15.87407495632126,38.58947264111423],[15.874098125589692,38.58944996998793],[15.874173076430848,38.58937663175356],[15.874338094631643,38.58934074435202],[15.874523968118224,38.58933944718883],[15.875052530371937,38.58912751624762],[15.87494106837657,38.58903307808017],[15.874863220252271,38.58898167451152],[15.874856789850453,38.58895531489236],[15.874840021262001,38.58888657837837],[15.874914127921715,38.58882725926457],[15.875111567559435,38.588766099256745],[15.875296987803937,38.58884145239575],[15.875324619488916,38.58892368917249],[15.87545704733671,38.588877202884206],[15.875545513625688,38.58884664693863],[15.875619479257026,38.588834456316945],[15.875658986094477,38.588827944761206],[15.87576733182331,38.58880944614574],[15.875908115305238,38.58873131989811],[15.87612744585779,38.588625738432704],[15.87617210637768,38.588619857307826],[15.876336717120562,38.58859818134617],[15.876738605077705,38.58855002467615],[15.876799318925515,38.5885427492215],[15.877053004914401,38.58854085346116],[15.87730479553507,38.58847697734327],[15.877404903793279,38.58845158195433],[15.877559153826894,38.58845686377722],[15.877664246933664,38.588460462885045],[15.877871991084339,38.58841421337611],[15.877907741775509,38.58840625380687],[15.87818105536945,38.588326660971774],[15.878253839498715,38.588304871415964],[15.878429631332422,38.58825224352357],[15.878477799245937,38.58823782348926],[15.878872981007417,38.588078935825976],[15.878982450737395,38.588039719230146],[15.87916953685664,38.58797269733729],[15.879410147568692,38.58780636886294],[15.879433233630635,38.58778534011799],[15.879523365928316,38.58770322904865],[15.879726528341113,38.58751815099809],[15.879945933610221,38.58730517793228],[15.880048805509883,38.587205324693045],[15.880086272457183,38.5871689575067],[15.88036956714905,38.58688097749151],[15.880424448131995,38.58682703581997],[15.880571818892278,38.58668219185631],[15.880609349886655,38.586645302472824],[15.880795690163527,38.58654860846468],[15.880942493801497,38.586346556587564],[15.881023494794796,38.586235067764314],[15.8810955342438,38.58616644296695],[15.881339696714218,38.58593384686255],[15.8814069303128,38.58586924072634],[15.881503238154,38.58577669509619],[15.881615614874297,38.5856483819788],[15.881644812294512,38.58561003667816],[15.881687710273281,38.58540277695095],[15.881696678384438,38.58535944998344],[15.881749602979804,38.58517715824426],[15.88182531914813,38.58505530463629],[15.881859697219616,38.58494273878521],[15.881941984039289,38.58467329430368],[15.881980568479062,38.584485720615035],[15.88200444565455,38.58436965068211],[15.882039221113905,38.58412660867965],[15.882045830833105,38.58403347265508],[15.882065585392649,38.58395775221988],[15.882206965771838,38.58379210707505],[15.882227632177303,38.5836793292069],[15.882263092709053,38.58356927534411],[15.88231635155098,38.583403985372],[15.882435278774055,38.58328449903977],[15.88252987793916,38.58319335474094],[15.882554657102169,38.58316948114422],[15.88258773455047,38.583100215581084],[15.882629825303919,38.58301207761134],[15.88271026134777,38.582849866663906],[15.88274099093394,38.582722084456364],[15.88276041904281,38.58264013710242],[15.882776692982372,38.58257150902419],[15.882848330680865,38.582481811294734],[15.882932512314488,38.58237335189336],[15.883020719634217,38.58225567944779],[15.883148178766342,38.58216734546176],[15.883189323500698,38.582137753014536],[15.883332752161113,38.58203478979046],[15.883440975886922,38.581893429400104],[15.883539707764506,38.58177070963002],[15.8835587705394,38.5817470126105],[15.883586409601671,38.581691572703356],[15.883618859442306,38.58162648738877],[15.883682200976784,38.58151028491209],[15.883810409250042,38.581412729349005],[15.8839213721503,38.58132970004496],[15.884028427088603,38.5812208697722],[15.884054895224171,38.58120248627901],[15.884125599146827,38.58112867970981],[15.884229732747023,38.581064039045124],[15.884323372549115,38.58100879566197],[15.884399234514282,38.58096404142281],[15.884455211404983,38.58092874381755],[15.884585743472355,38.58084647198589],[15.884787376952756,38.58072083902075],[15.884819585130545,38.58070077004724],[15.88496786171144,38.58058851993015],[15.88513416108581,38.580467195557084],[15.885162267028184,38.580446892106366],[15.885446996196203,38.58026361046563],[15.885558068956115,38.58022573119841],[15.88560654780334,38.580209198991895],[15.885676588175055,38.58014614870789],[15.885799103023066,38.58003586227953],[15.885976307711537,38.57992641584367],[15.886164044173084,38.579807334549656],[15.886214467501631,38.57977884092881],[15.886297052688025,38.579732170160014],[15.88637741097045,38.57968675748868],[15.886513275994956,38.57961052332815],[15.886574571361065,38.57957613039855],[15.886756558170882,38.57945551483872],[15.886798174830378,38.57942793305599],[15.887092441080398,38.57922501878623],[15.887184179051003,38.57913519192008],[15.887290328988286,38.57903159861356],[15.88734808889369,38.5789770348343],[15.887501218328094,38.578900501272635],[15.887701064288594,38.578803219849476],[15.887842981196114,38.5787436056909],[15.888066601117036,38.578655638450314],[15.8882442061171,38.578550661172486],[15.888377449305501,38.57847530160293],[15.888423209059853,38.57845554958313],[15.888607448596295,38.578380525538286],[15.888785209173315,38.57830702887331],[15.88898947878715,38.5782409563092],[15.889177585848389,38.57817700450136],[15.889452914696927,38.57812810570507],[15.889633135889786,38.578094946797],[15.88989910638944,38.57807471787479],[15.890114813357266,38.57805296636796],[15.890227341280672,38.57805631353229],[15.890388865520308,38.57796295003837],[15.890585653188138,38.5779989204952],[15.890902933848247,38.57794741779592],[15.89121073999085,38.57799467504117],[15.891490456672098,38.5780257376839],[15.891804869268643,38.578097121696096],[15.891929212260507,38.578103081029774],[15.892090198322395,38.57809355480345],[15.89234133873,38.57803819222101],[15.892479227098026,38.57796705109064],[15.892751698969457,38.57782046515023],[15.892938694412463,38.57767893772978],[15.893012430442454,38.57762272676678],[15.893149649163421,38.57751807263814],[15.893238376642623,38.57742733972499],[15.893342448162317,38.57731771438882],[15.89340430703644,38.57721169293443],[15.893613177018443,38.5769765506134],[15.89369458786221,38.57692135344633],[15.893791294699724,38.576857660623844],[15.893837880646748,38.57669682555686],[15.893970360167694,38.57643425974413],[15.894127692308041,38.576272588885196],[15.894153359609962,38.576192510348626],[15.894319594213256,38.57597162406131],[15.894443855561171,38.57572480227137],[15.89447373019616,38.57558568019728],[15.894499666858806,38.57554267174781],[15.894731545730789,38.575301568085415],[15.894907952078515,38.57492808351599],[15.895218763094201,38.57461210977966],[15.896003172958773,38.57389910587844],[15.896343139076448,38.57349213075914],[15.897304027570547,38.57255747053077],[15.897369264280682,38.57249401346915],[15.897603032010073,38.57228377136962],[15.89777905937353,38.57194601505657],[15.89791875688001,38.5715337887303],[15.89802467067432,38.57138934896538],[15.898312467753435,38.57077427364101],[15.898536738602743,38.570365111819775],[15.89863579377239,38.57018830069925],[15.898805858625677,38.56988581390225],[15.898910443128615,38.56967716490257],[15.899018868209103,38.569463811204415],[15.899119473520217,38.56922842136091],[15.899269931905664,38.569035058308486],[15.89939155272255,38.56888396661516],[15.899460372755636,38.56879450852985],[15.899483550626517,38.56876655255463],[15.899530981323526,38.56870934066384],[15.899623079067773,38.56859609454391],[15.89970778565811,38.56849193636051],[15.899740601922018,38.56834152816136],[15.899786221846764,38.56815329180481],[15.899867899784484,38.56799657577165],[15.899964265762385,38.56781463160187],[15.900015918720069,38.56767308225674],[15.900026109969833,38.56764531419237],[15.900106598250984,38.5674246034825],[15.900120593102407,38.5672170106864],[15.900126086778895,38.56713553127681],[15.90015739161267,38.566805275729614],[15.900168962927836,38.56676427424466],[15.900219371658467,38.56658566131353],[15.900288604515456,38.566352129085864],[15.900298901769398,38.56630662422775],[15.900337470566958,38.566137146879804],[15.900304265711187,38.56609300960835],[15.900297033214843,38.565968173724805],[15.900312351685132,38.56584889143558],[15.900249176590842,38.565772293880855],[15.900219771864585,38.56569222124408],[15.900268977413333,38.565540197079116],[15.900314347410777,38.56549522038849],[15.900438026459383,38.56549577604379],[15.900563381674548,38.56547103383943],[15.900607659260936,38.56546929721803],[15.900739498419888,38.56546061728684],[15.90085835879675,38.5653780141165],[15.900872716460984,38.56533522167402],[15.900901524311488,38.565267711804566],[15.900939613328456,38.56513361217885],[15.90094373229718,38.56500869235487],[15.900942675683583,38.56491427298205],[15.900862009976585,38.56483090656445],[15.900823379087292,38.564821814968674],[15.900696872942838,38.564792043085],[15.900661634463113,38.56469864262923],[15.900757694013382,38.5646622347643],[15.900811691700738,38.5646618963332],[15.900847348060369,38.5646133011475],[15.900909551569251,38.56454509240606],[15.900884923274395,38.56448083174948],[15.900953344302568,38.56441540829645],[15.901071387496621,38.56440565854243],[15.901164733278339,38.56443114393991],[15.9012878888218,38.56437714456403],[15.901338925369835,38.56432291258601],[15.901400152824074,38.564273697586316],[15.901485255106,38.564268582908014],[15.90156205287502,38.56429231671553],[15.901659831359728,38.564210311294374],[15.901810035726733,38.56408895417052],[15.901886559148112,38.56400173866682],[15.901929635446821,38.563953043674275],[15.901970828756467,38.56390790087822],[15.902070101697827,38.56379911549828],[15.902101741502308,38.56374373809288],[15.902226739829073,38.56352496255381],[15.902424275549672,38.56360268990038],[15.90243925936482,38.563541660958464],[15.902452479064777,38.563485014856894],[15.90253093971919,38.56347507531809],[15.902649095592077,38.56345473806276],[15.902731827560842,38.56344049821936],[15.902875642916078,38.56338699607044],[15.902973812280235,38.56334949870153],[15.903029016403012,38.56332841331377],[15.903394330621106,38.56313520267423],[15.903519920276073,38.563069979974806],[15.903626286539934,38.56301473911242],[15.903735024135315,38.562953745884826],[15.903981824695347,38.56289856590004],[15.904074200717872,38.56287548756251],[15.90417067483988,38.56285138618794],[15.904610148722785,38.56265565891604],[15.904835739621623,38.562505623939174],[15.904941581318944,38.5624324684163],[15.905048642535414,38.562358471231754],[15.905107527123118,38.56233954207398],[15.905166786297379,38.56232049261073],[15.905391828548092,38.56224815008481],[15.905627186848449,38.56212815762884],[15.9057138348179,38.56208390098403],[15.905875565222226,38.561927232444624],[15.905960461105302,38.56184553837345],[15.906210070066,38.56170027991563],[15.906250275531589,38.56167109734816],[15.906540798218622,38.5614602332175],[15.906582220099986,38.56143546817119],[15.906790252663013,38.561310486705764],[15.907087350218237,38.5610814425607],[15.907274282776363,38.56094936796719],[15.907321775130642,38.56092702025978],[15.907495488510829,38.560819464499595],[15.907572015570919,38.560916107985825],[15.907640338215728,38.56100238874361],[15.90767996495149,38.561052431351975],[15.907730256112126,38.56111593972912],[15.908041192907424,38.561533881231554],[15.908463474486565,38.561918224442344],[15.908711443587672,38.5621299581829],[15.908749776176174,38.562162697605864],[15.9087768157075,38.562185791161106],[15.908845958244743,38.5622454133607],[15.908869158393712,38.562265404629315],[15.9091645576555,38.56251999373012],[15.909508635863432,38.562850484695815],[15.909673108324197,38.56307854320979],[15.909964354323764,38.56332508164697],[15.91025442517631,38.56350741645561],[15.910882165497664,38.563953765062706],[15.911065203401211,38.56414762637645],[15.911316780369319,38.56434447770715],[15.91162945131266,38.56451063472923],[15.912049095797881,38.564687039334416],[15.912122641687606,38.56471877591069],[15.912310351288845,38.56479860923458],[15.912447384598664,38.56483199300655],[15.912840112042552,38.56492920903475],[15.913081139927806,38.56497788676978],[15.91346493101365,38.56508975155306],[15.913647334219037,38.56514829734313],[15.913690506962748,38.56516215988488],[15.914072664896525,38.56533741571646],[15.914404155961014,38.56555166478339],[15.914672291916624,38.56564372899596],[15.915012815668323,38.565758471642354],[15.91528627938792,38.56581321518182],[15.91535679838519,38.56582639480254],[15.915459113574839,38.56584832265132],[15.915693923806751,38.565887248036745],[15.915765250706665,38.56607381069526],[15.913356186544974,38.567193141808545],[15.912343546732183,38.56951606566905],[15.9125232094389,38.56992378007645],[15.912188727034385,38.57088386682967],[15.91115449119004,38.57143558819254],[15.91081651959395,38.572121450527156],[15.911352211675398,38.57334030169415],[15.91066787076139,38.574163669650666],[15.911023802590318,38.57483985388354],[15.91116986941485,38.57522641588695],[15.91137922800471,38.575783910926454],[15.911611121364839,38.575856465762605],[15.911709469823775,38.57588723709],[15.911832060074131,38.575925592504674],[15.912163767477512,38.57602853253801],[15.912254027885714,38.576057614058016],[15.913639349319757,38.575907917161096],[15.915561230542796,38.576851015567875],[15.918868062717465,38.57750546241241],[15.919329507530787,38.57764934894473],[15.922691381454944,38.57869648871047],[15.92323330592162,38.579787616197336],[15.92382554105185,38.581115382023874],[15.924750384186488,38.583058669734285],[15.924835338504261,38.583236868416456],[15.924934932055063,38.58344617077532],[15.92503452398888,38.58365547312826],[15.925311903795897,38.58423843921972],[15.925414121831459,38.584453189530485],[15.925525693265145,38.584691740484324],[15.925544518761493,38.584731524261315],[15.9257048115816,38.58507471600496],[15.925871502176141,38.58551015459995],[15.925937734111168,38.585889391976416],[15.925951594821122,38.58596876175451],[15.925886966737977,38.58624190860804],[15.925863196539481,38.586687114625285],[15.926242951379674,38.586751756950704],[15.926599038492057,38.58682462922638],[15.926958322703523,38.587217047006675],[15.927235477427425,38.58742212227146],[15.927568795074688,38.58765416308407],[15.927642955902053,38.58763907193812],[15.927696268925835,38.5876280982],[15.927779753081818,38.58761095432286],[15.927830267556157,38.587601010742524],[15.927945350583947,38.5875776674687],[15.928542412441741,38.58733521933865],[15.928980467140542,38.58745699433435],[15.929504856667382,38.58772736331111],[15.929673517412162,38.58797870738668],[15.929879406892244,38.58830773389484],[15.930203840419155,38.58882834456264],[15.930490086760836,38.58904180762186],[15.930791148592702,38.58934276345406],[15.93102287514773,38.58963488937956],[15.931183413059836,38.589872765687936],[15.931211808185134,38.590181470908796],[15.931168045261327,38.59044049872524],[15.930839849588143,38.59106285393542],[15.930717011655368,38.59135577149029],[15.93057084494582,38.59170428661414],[15.930410998611666,38.592141164939285],[15.930202407045279,38.59238186890903],[15.93012737182736,38.59246845601981],[15.930088494533473,38.592515760986565],[15.92980970483691,38.592851177035854],[15.929930337330417,38.593279380067976],[15.930169435632422,38.59343769843517],[15.930553436683011,38.59367053195294],[15.930815114879955,38.593876133449164],[15.931047522177078,38.59414572041387],[15.93129475568716,38.59440543064104],[15.931548932125214,38.59463321903158],[15.931614538230399,38.59470690061771],[15.931933127201166,38.595064712232556],[15.932013082043321,38.595215380530604],[15.93205579431984,38.59529584908769],[15.932267894014577,38.59550366027535],[15.932404167101257,38.59580144662424],[15.932629264282069,38.596143438997096],[15.932782451933543,38.59640874499795],[15.932848833522801,38.59662077945714],[15.932646212450926,38.59671836279345],[15.932310335769488,38.596861852586976],[15.932218195447,38.596901297170284],[15.931815097427343,38.597060265869494],[15.931535455283631,38.597162372427555],[15.931191234825794,38.597289683523485],[15.931114830126866,38.59731786799177],[15.930853312373502,38.59743040464048],[15.9307268322831,38.59748492633674],[15.930315245369343,38.59763518365322],[15.929763977073863,38.59779865139143],[15.929203431944805,38.59798946015651],[15.92897660130255,38.59802995229559],[15.928668036572057,38.59812927787963],[15.92833643099032,38.59825698639315],[15.928006399177232,38.59841607245178],[15.927418153666762,38.59857253463234],[15.926749336445953,38.59881475323431],[15.926352247773846,38.59888786513972],[15.925971299551541,38.599009490861164],[15.925486900252837,38.59912825747843],[15.924963254757568,38.59933035977479],[15.924647813123396,38.59940308886424],[15.92436072820335,38.5994876559992],[15.924024096696723,38.59959313439052],[15.923685844045917,38.59966723606106],[15.923138326901627,38.59980111478098],[15.922907385986571,38.59985750595313],[15.922837211514347,38.59988620460411],[15.92204707991106,38.600210025398525],[15.92171009491601,38.60025255409837],[15.921299069962288,38.60038944148032],[15.920889138744728,38.60090434895427],[15.920725958522437,38.601144385020014],[15.920560275897973,38.60138768092512],[15.92034469681148,38.60163443841287],[15.920174178616433,38.601828813210616],[15.919693146645942,38.60234807975339],[15.919185246719785,38.6027647853924],[15.919006358309252,38.60294416145866],[15.91866145189444,38.60329100574308],[15.918282794569254,38.60361490782467],[15.91775941095654,38.60402838969638],[15.917507621989769,38.60421201235579],[15.917316174873543,38.604351628163656],[15.916727373162699,38.60460704063546],[15.916058931665495,38.604898671204054],[15.915368364490515,38.605169112880866],[15.914693611457382,38.60542512344883],[15.914098280798786,38.605568452979156],[15.913356137150963,38.60586894044365],[15.912490706351376,38.60619922276075],[15.911350908292027,38.60647832218977],[15.910629599524,38.60648963980144],[15.909788311773596,38.60653506543624],[15.908807437208358,38.60653028166799],[15.907957898157491,38.606594168615544],[15.907296157620527,38.60658394662434],[15.906670859399421,38.60672899801665],[15.905989424379937,38.60688638531361],[15.905400412753677,38.606961797535526],[15.905103898489068,38.60723531535184],[15.905072211742729,38.6072640761364],[15.90503723059988,38.60736065674553],[15.90498389219217,38.60750773394385],[15.904858898226149,38.60790653050361],[15.904772135298225,38.60837505295073],[15.904779019219157,38.608833507807255],[15.904808746816984,38.609142162497356],[15.90486428936883,38.60967422105188],[15.904914748031487,38.610049125212385],[15.90490025928919,38.61031540416223],[15.904833354082019,38.61040583934322],[15.904779051379043,38.61047902307036],[15.904573040634583,38.61075768196543],[15.904332687191047,38.61110483161269],[15.903947926918994,38.61141106594312],[15.90362003349636,38.611727435766795],[15.903190749782302,38.611973305713654],[15.902827511907974,38.61230975392485],[15.902496550609472,38.61249718355099],[15.902464588956624,38.61251528535512],[15.902339510296205,38.61258611850593],[15.901998637257325,38.612789937576935],[15.901836213644968,38.61288701702422],[15.901758912179789,38.612941833725834],[15.901658608930635,38.613012960378875],[15.90146032516653,38.613153581290256],[15.901401874926188,38.61319503216224],[15.90117446194481,38.6131133572443],[15.901126327872527,38.61309606976443],[15.901090075832117,38.613083049235854],[15.900893369275789,38.61322035282124],[15.90082949023261,38.61326494136801],[15.900667838075844,38.61351126172531],[15.900551414343973,38.61362432750383],[15.900449373603113,38.61372385162544],[15.900377675424627,38.61381825214531],[15.900289580217924,38.613934167469445],[15.90025672359273,38.61400872106674],[15.900231797129488,38.61406594243752],[15.900179645060279,38.61418495089928],[15.900185430321406,38.61430889212836],[15.90019371736718,38.6144600844469],[15.899874588192437,38.614551835032344],[15.89981641284019,38.61456636620575],[15.89945244607731,38.614686902207325],[15.899316835760274,38.61471437086849],[15.898760497746311,38.614826869460416],[15.898526896378721,38.614866989706776],[15.898399604769253,38.61488875580484],[15.898194117692746,38.61496452543367],[15.898079817078063,38.61500667126793],[15.898056509226086,38.61502560622034],[15.897898912383434,38.615153358732236],[15.897863073281163,38.615182769519436],[15.897679610865092,38.615331786489726],[15.897658612650181,38.615358314361174],[15.897562399057053,38.615479858010914],[15.897541724381599,38.61550595911011],[15.897512946998512,38.61554231690909],[15.89738818732058,38.615699934599895],[15.897252575935429,38.615807760005396],[15.897119963157717,38.61591320235374],[15.896958874003584,38.616422672543244],[15.896892645181373,38.616689711873725],[15.896856488025962,38.61683362983419],[15.896763624509544,38.61704535775602],[15.896629609625094,38.61735091206969],[15.896482592734397,38.61745218718691],[15.896265924344728,38.61760145661702],[15.896129471713252,38.61769546545629],[15.895823676426119,38.617736720417],[15.895713414163547,38.61775159624698],[15.895538995446328,38.617787880326716],[15.895350817491803,38.61782705915388],[15.89495931992888,38.617751271706666],[15.89491308441305,38.61775534915944],[15.894413315600692,38.617799480554],[15.894340977064893,38.617805866273955],[15.893868747620365,38.61787432819958],[15.893280620556856,38.61794513330649],[15.892799493142796,38.6181445609894],[15.892691140030525,38.61827032862465],[15.892603462093884,38.61837211207375],[15.89240950441334,38.618296188408536],[15.892034494075277,38.61814944986707],[15.89180800179972,38.618387828973034],[15.891755157456988,38.61841319681535],[15.891487330611401,38.618541766036785],[15.891262929018593,38.61859453335496],[15.891052744552928,38.61864395756036],[15.890731314688049,38.61868547931833],[15.890527501121765,38.61871751832994],[15.890468369552059,38.61872681274936],[15.890088745824853,38.61878648555454],[15.889740777323258,38.61879157535002],[15.88954217289082,38.61879577718175],[15.889446053454312,38.61879742692956],[15.889402209575312,38.61878243065388],[15.889166268885278,38.61870106476434],[15.88910059230065,38.61867841104049],[15.888796458302938,38.61860753638959],[15.888731049123281,38.618592292347],[15.888328313625715,38.61854863864599],[15.888259293141026,38.61856184332944],[15.888219295756233,38.61856927591036],[15.887721243991788,38.618661036241214],[15.887653311526945,38.618646230555115],[15.88716922788758,38.61854072570499],[15.88706272727485,38.61846773507355],[15.886939026562427,38.618382957115564],[15.886879171469518,38.61834193648249],[15.886718714521791,38.61839598778755],[15.88649024191751,38.61847291939167],[15.886346043600032,38.61887521126402],[15.886028117429168,38.61919754325425],[15.885986066347739,38.619198385206886],[15.885683273569922,38.61920444793075],[15.88540599103188,38.61912931137257],[15.885315286365143,38.61910473247847],[15.884945609461301,38.619032115763595],[15.88482681882491,38.61906964037142]]]}}]}
