{"type":"FeatureCollection","metadata":{"code":"103015","referenceDate":"2026-01-01","sourceDbfExportDate":"2026-02-18","upstreamArchiveUrl":"https://www.istat.it/storage/cartografia/confini_amministrativi/non_generalizzati/2026/Limiti01012026.zip","sourceManifestSha256":"70ac8256c4785dc6ed2814c32b6965ae76f9161b51abaa1660059e1c6cbd8ca6","license":"https://creativecommons.org/licenses/by/4.0/","attribution":"Istat, Confini delle unità amministrative a fini statistici al 1° gennaio 2026, versione non generalizzata.","modifications":["Converted from WGS 84 / UTM zone 32N (EPSG:32632) to RFC 7946 WGS 84 geographic coordinates.","Converted from shapefile to per-municipality GeoJSON without geometry simplification."]},"features":[{"type":"Feature","id":"103015","properties":{"code":"103015","name":"Cambiasca","alternativeName":null,"regionCode":"01","regionName":"Piemonte","territorialUnitCode":"103","territorialUnitName":"Verbano-Cusio-Ossola"},"geometry":{"type":"Polygon","coordinates":[[[8.546922433986419,45.97745327978939],[8.546886044604987,45.97756114918976],[8.547128672935385,45.97783661106964],[8.547168309291985,45.97797176675822],[8.546931305164987,45.978245345566236],[8.546874353847194,45.97835311632957],[8.54683551038311,45.97871298951884],[8.546685149703272,45.978995887397545],[8.546674019974873,45.979121848665926],[8.546874221011306,45.9796041587885],[8.546586743576244,45.97978303352423],[8.546455032369593,45.979834747333456],[8.54626903777732,45.979907778010016],[8.546094075770254,45.9800870963505],[8.5458084460895,45.980040956924235],[8.545269496101168,45.9797418055206],[8.54500071324494,45.97950673469688],[8.544771657038913,45.9794473155159],[8.543489744717146,45.97942419231037],[8.542959496794907,45.97934557871048],[8.541614371506325,45.97896667356848],[8.540525857369481,45.97852296831015],[8.540453604816923,45.97849400616306],[8.53988280222664,45.978343196784124],[8.539628846925574,45.978319669485096],[8.539433726109955,45.978300891535355],[8.538908634616623,45.97818626214588],[8.53780220201474,45.97797479282297],[8.535675938254968,45.977619657917614],[8.534554612459235,45.9773585872694],[8.533589624026323,45.977075638272574],[8.531710742392901,45.97652473170741],[8.531457241549411,45.97645039799143],[8.531459139176913,45.97622539777805],[8.531350031743136,45.975864942818625],[8.531280166137194,45.97563513188111],[8.531249622249936,45.97554978998483],[8.531208120265127,45.97543383959435],[8.531105942213882,45.975148398655335],[8.530965638778603,45.97475630758139],[8.530781301442229,45.97396401836056],[8.530766251731139,45.97390330830385],[8.530728016129835,45.97373360545196],[8.530719251368799,45.97369325308822],[8.530712737326786,45.973651280894146],[8.530643122286195,45.97320693885448],[8.530499262603298,45.97318547871723],[8.53045658819969,45.97317917052285],[8.530049195544393,45.973127984800975],[8.529826442031576,45.97312805952863],[8.529039126878326,45.973128322467495],[8.52801917860395,45.97310612381297],[8.527338597954637,45.97307942218364],[8.52712107333604,45.97307181252414],[8.526397308717929,45.97309042000148],[8.525346542342692,45.973086060668436],[8.524183680946246,45.9730767086228],[8.523530632803428,45.97307398779682],[8.523320021477943,45.97307761781981],[8.523512104503428,45.9728803975038],[8.523759337813404,45.97260243281496],[8.523914096838102,45.972382566969685],[8.524017668796231,45.97220748341925],[8.524060678075967,45.97194215617988],[8.524184666300481,45.97178066708742],[8.524390064659492,45.971583519591356],[8.524627641164109,45.97125598177351],[8.524884542046005,45.97102304688943],[8.525028801287378,45.970852648828426],[8.525071509951266,45.970668312706295],[8.525114859172179,45.97036247380659],[8.525106891273774,45.97006993124433],[8.525088911016326,45.969924497335384],[8.52508533874597,45.969895589399634],[8.525040110008364,45.96952963318355],[8.525002960971962,45.96935283057905],[8.52494201311855,45.96906571639159],[8.524973754371704,45.968939842682204],[8.5250875863993,45.96878730801594],[8.525231222796627,45.968688901278455],[8.525476198717223,45.96867192962359],[8.525816205883647,45.968673340897034],[8.526023171786798,45.968714694076134],[8.527247921893325,45.96878726829208],[8.527744142364467,45.96868132408433],[8.527987308598226,45.96842083543467],[8.528029903610165,45.96808847250597],[8.527960065358116,45.96790816966235],[8.527484272862132,45.967415692122586],[8.52706829287286,45.96709895722172],[8.526576194365003,45.96677785710248],[8.52591551185985,45.966347156988476],[8.525492315350963,45.96607538029073],[8.524875177890642,45.96567792060101],[8.524534435710082,45.96545937759879],[8.524693163227044,45.96538804089544],[8.525088496137975,45.96514216867184],[8.525780400363933,45.964948680826836],[8.52616672635923,45.96484064566409],[8.526511199458986,45.96474307068237],[8.527017620858748,45.964664155057264],[8.527400634977402,45.964634239074364],[8.527906618283122,45.96455983500301],[8.528715541964827,45.96433816530709],[8.529493938807693,45.964053361323614],[8.530306924150501,45.96392168588183],[8.531304135341095,45.963943788949486],[8.531725930325248,45.96395001645534],[8.532528480180389,45.9638138020433],[8.533731896415885,45.963386692243056],[8.534171402514152,45.96315897946856],[8.534558352243627,45.96285003824312],[8.534968963384758,45.96274328185239],[8.535344721283197,45.96266424845983],[8.535813521566313,45.96259863338498],[8.536330458208338,45.962560236338796],[8.536429731090925,45.962541506892734],[8.536610814515905,45.96250736919248],[8.53666925598853,45.96246261218004],[8.536805567309989,45.96231916802998],[8.536912581629137,45.96208963394853],[8.536943150185289,45.96202270022905],[8.537068746615237,45.9618072153244],[8.537216759467476,45.96164655527287],[8.537290444550383,45.96157858819225],[8.537461228158937,45.961502275595066],[8.537879013460298,45.961316037997356],[8.538341388021895,45.96105182839425],[8.538809283290737,45.96065319277478],[8.539240465257697,45.960353428882165],[8.5394027848218,45.95996384943429],[8.539506267070612,45.95971547512454],[8.539710816138887,45.95907277557915],[8.53971765642554,45.95902921590249],[8.539764565465036,45.95903038227071],[8.53986646076402,45.95903334149884],[8.540211609761826,45.959045394357474],[8.540380010109548,45.959051274902194],[8.540435275453946,45.95905318743561],[8.541117174716462,45.9593034408622],[8.541212714470545,45.959335059502024],[8.541295697493762,45.95936232366209],[8.541419800260643,45.95927661931697],[8.541638790080043,45.95912698836138],[8.541838219825078,45.959029195680735],[8.542026824487422,45.95893810058389],[8.542101188563505,45.95890232669029],[8.542274777259173,45.95883382416996],[8.542647550854666,45.95869078788934],[8.54328561909598,45.95844464727194],[8.543440923361349,45.95838485161112],[8.543766512010306,45.958268100588995],[8.543934283042104,45.95820762139112],[8.544252599951385,45.95809375249701],[8.544291507736535,45.95807975719266],[8.544357145952583,45.95806535002923],[8.544631841373002,45.95800793769041],[8.544843785393166,45.957932268542535],[8.54527183711624,45.957762972693075],[8.54533903700432,45.95773173859273],[8.545633871294656,45.957593499181854],[8.545698447686828,45.95756489696215],[8.546123990112033,45.957408131822554],[8.547198231378081,45.95701235779068],[8.547288919041618,45.956978945694246],[8.547589788697836,45.957322157667186],[8.548127663040674,45.9570936661233],[8.548248614385663,45.95704226227806],[8.548631143218152,45.956957267120195],[8.549138350124469,45.956869263265645],[8.549491654515942,45.957014653421425],[8.550100428437352,45.9575795779624],[8.550048839282947,45.95762886816736],[8.5499551695372,45.95769150137158],[8.549669642730052,45.957892897748785],[8.549595357448812,45.95795109242862],[8.549456582470288,45.95805856034257],[8.549202717844956,45.95823305750282],[8.549046577189255,45.95834045911146],[8.548959576437639,45.9583761129502],[8.548916967856446,45.958384940695325],[8.54880078623467,45.95836625080242],[8.548503857373376,45.958301907753125],[8.548421066469546,45.958283795808164],[8.548355163346011,45.95827054866938],[8.54830268385399,45.95827477036205],[8.548216126089578,45.95828048279087],[8.54811504940149,45.95828726819769],[8.54807542755209,45.958300622949594],[8.54791201142249,45.95835676204959],[8.54783394309527,45.95838347694909],[8.54777236372877,45.9584047361885],[8.547531507741635,45.9584874786293],[8.547502695056476,45.95858989102242],[8.547474553687158,45.95869241676987],[8.54745226088239,45.95877336556398],[8.547537585547612,45.95883379650874],[8.548617896373687,45.9595995084314],[8.548764144621591,45.9597028941475],[8.548756597311524,45.959738868715675],[8.548772344364684,45.95979115131223],[8.548801379228577,45.9598875587106],[8.548937786418426,45.960072608426955],[8.549251832915125,45.96038436548321],[8.549515896341406,45.960547412382745],[8.5498719147105,45.96070632338554],[8.550064566457321,45.96086908591094],[8.55009402302746,45.96101769432976],[8.550089037334164,45.96108517691437],[8.550053978112924,45.96158006798697],[8.550056589120608,45.961854577392096],[8.55009937280337,45.96225077212103],[8.549969884493727,45.96250227564418],[8.549955196137597,45.9625992170492],[8.549905132371057,45.96292953122685],[8.549789378118719,45.963329598997284],[8.549737859499352,45.96341488823682],[8.549635180421967,45.96349549544425],[8.54932300257732,45.963543754440494],[8.548990709059092,45.96364144626079],[8.548969232166817,45.96375387473749],[8.549029143512797,45.96382672738485],[8.549051017242803,45.963852758283046],[8.549291839676117,45.96403218733894],[8.549631467768076,45.9642822463024],[8.549710912231765,45.964340996315066],[8.550016502606985,45.964535404575045],[8.550380889906846,45.96476665881482],[8.550639518240336,45.964930470939734],[8.550765656603089,45.96501135310108],[8.551148331700016,45.9652567191966],[8.55149163876456,45.96547667255869],[8.551564107181733,45.96552357005583],[8.552263217568623,45.966080925288416],[8.552289140344058,45.966102578320665],[8.552416421936746,45.966305598640396],[8.55264080188082,45.96666686066899],[8.552752325605471,45.96684549351191],[8.552779159179275,45.96688699408898],[8.552932230411932,45.967008259637545],[8.553291389649225,45.96728969009777],[8.553434167282294,45.96738605381033],[8.554022386788976,45.967778790151],[8.554120188702381,45.9678431106441],[8.554641779220802,45.968186293976764],[8.555119075531563,45.96847166480484],[8.555256781632442,45.96855319451301],[8.556181852409496,45.96908332062973],[8.556394146540969,45.96931814722885],[8.556543531357883,45.9694430216376],[8.556784835572413,45.969643673032415],[8.557278436989808,45.96985710199082],[8.557530276529981,45.96988322263673],[8.55759360121181,45.9698898184765],[8.557890609354214,45.96992246385644],[8.558320102879705,45.970000149151794],[8.55895920094942,45.97042161387971],[8.559434225359112,45.97079246789038],[8.55964910628495,45.970959799847634],[8.560025732275689,45.971253801189626],[8.560364715722445,45.971516068676365],[8.560596173474078,45.971702819754114],[8.561130837542928,45.972135667441094],[8.561384493258934,45.972350221564994],[8.561744922015457,45.97265542169573],[8.561774037280896,45.972708168560935],[8.561946548686917,45.973020700855855],[8.562022885599879,45.97336751045784],[8.56204000981212,45.97344856703836],[8.562006435387993,45.9738174608539],[8.561995052170346,45.974279113143304],[8.561978484566572,45.97490122882948],[8.562079185452593,45.9751366942005],[8.562124916146775,45.97515976192358],[8.562474184455052,45.97533182804168],[8.562669077001981,45.97537746346047],[8.563233944459638,45.97550972611308],[8.563474235517216,45.97558894310435],[8.563595216286373,45.9756288259613],[8.564079360560454,45.97578819134168],[8.56412031849759,45.975806704761006],[8.56453744025191,45.97600079797065],[8.564561110640655,45.976021313648005],[8.564848224061889,45.976281811992884],[8.564876696165625,45.97630818174006],[8.56499598301526,45.97679899239942],[8.565009825658972,45.97688453348887],[8.565018273721316,45.9769385697807],[8.564479188873836,45.977430893644645],[8.564193859831501,45.97769146433332],[8.563223396872795,45.97721074069028],[8.560433652359578,45.97605699690856],[8.558471323959369,45.97516739222412],[8.557293041159879,45.97475783334249],[8.55640329505629,45.974538369277575],[8.55549241474244,45.97439081562618],[8.554249421808404,45.97420597894685],[8.55382848189442,45.974384340621185],[8.553728750910581,45.97444694497695],[8.5535288609952,45.97452267838981],[8.553008140836901,45.97451614631119],[8.552686377606335,45.97449687847295],[8.552461154099575,45.97456349516344],[8.551496338221833,45.974555464648034],[8.551439846222497,45.974554995421386],[8.550934783166337,45.97450801807629],[8.550439104075906,45.97454656475371],[8.550096002537034,45.974671219180365],[8.549253886522534,45.975248420849574],[8.548972148669499,45.97536881730046],[8.548525136289198,45.975673052100795],[8.547844687330537,45.97585937110919],[8.547480594541302,45.97603794325595],[8.547295659159593,45.97615872061849],[8.547284386120655,45.97630267232244],[8.547321586792679,45.97634503421493],[8.547347019329928,45.97637365178946],[8.54748663390487,45.97653297608255],[8.547567288018373,45.97668630654997],[8.547546074247009,45.97676273578522],[8.547279435508878,45.97691017458091],[8.547283537670397,45.97700019653224],[8.547485859559842,45.97727099871181],[8.547438892401802,45.97739231979134],[8.547310540635598,45.97745031848102],[8.547004748665257,45.97739961545973],[8.546922433986419,45.97745327978939]]]}}]}
