{"type":"FeatureCollection","metadata":{"code":"108044","referenceDate":"2026-01-01","sourceDbfExportDate":"2026-02-18","upstreamArchiveUrl":"https://www.istat.it/storage/cartografia/confini_amministrativi/non_generalizzati/2026/Limiti01012026.zip","sourceManifestSha256":"70ac8256c4785dc6ed2814c32b6965ae76f9161b51abaa1660059e1c6cbd8ca6","license":"https://creativecommons.org/licenses/by/4.0/","attribution":"Istat, Confini delle unità amministrative a fini statistici al 1° gennaio 2026, versione non generalizzata.","modifications":["Converted from WGS 84 / UTM zone 32N (EPSG:32632) to RFC 7946 WGS 84 geographic coordinates.","Converted from shapefile to per-municipality GeoJSON without geometry simplification."]},"features":[{"type":"Feature","id":"108044","properties":{"code":"108044","name":"Usmate Velate","alternativeName":null,"regionCode":"03","regionName":"Lombardia","territorialUnitCode":"108","territorialUnitName":"Monza e della Brianza"},"geometry":{"type":"Polygon","coordinates":[[[9.347859752823759,45.669183737365884],[9.347451447565039,45.669590022668004],[9.346875090611622,45.669807779667416],[9.346195560802004,45.669953862879446],[9.345927955667566,45.67027870030448],[9.345469051724582,45.67081114380534],[9.344983789527378,45.671235643789146],[9.344576442639754,45.67180391068391],[9.343627601038511,45.67200480022269],[9.342830525164578,45.67182717303822],[9.342790412118182,45.671566272746624],[9.342777302795692,45.67145801453904],[9.34272279803408,45.671008415476166],[9.342668810637951,45.67057654831284],[9.341756477402448,45.670444272586806],[9.341302814840239,45.66973455105139],[9.340721024684996,45.66906122951009],[9.340144403227296,45.669242970576384],[9.339563992639842,45.668794658083726],[9.33881650497897,45.66831983291089],[9.338146739824564,45.667952794072],[9.337789581389245,45.66740478654401],[9.334763388778093,45.66678362919886],[9.329661033161905,45.66579036638092],[9.32909826769101,45.666143020359556],[9.328521991980665,45.66582620904125],[9.328443919222432,45.66578331122039],[9.327228258134626,45.66511492199439],[9.32707091359215,45.66502842138429],[9.326449317512166,45.66478718815142],[9.325715892497934,45.66449224083582],[9.325071652813785,45.66408901011538],[9.3252642275456,45.663521485797474],[9.325411758651846,45.66308901711165],[9.325865710542049,45.66251054618254],[9.326290321318494,45.66258502357083],[9.326573720655016,45.662598408203834],[9.327099841120381,45.66259690305544],[9.327484178691467,45.66256741321384],[9.327787296022086,45.662495555769375],[9.328029214208453,45.66233871051212],[9.328092462448053,45.66224236706792],[9.328169582683692,45.662125317714754],[9.328245533167303,45.661894478910355],[9.328248303803056,45.66175771603767],[9.328247545417849,45.66162815770707],[9.328165026598324,45.66135865449968],[9.328143402342139,45.6611173831193],[9.328172444911294,45.660837292093944],[9.328181660301537,45.6607481244634],[9.328342130409762,45.6605063118598],[9.328462818166935,45.66031909576287],[9.328501553494778,45.66007998568114],[9.328393262906275,45.65970959552919],[9.32837690961676,45.659106584935024],[9.328373848515158,45.6585894954496],[9.328373299483253,45.65850347374156],[9.328396222026004,45.658444918282214],[9.328563036414897,45.65802588293843],[9.328838156427672,45.65789437686284],[9.328944196302677,45.65784366391239],[9.329036599212413,45.65779948788171],[9.329061873846461,45.65773638185828],[9.329105064003029,45.65763027467673],[9.329340280866154,45.65705155699604],[9.329391401305916,45.65690872660098],[9.32941925567388,45.65683083988874],[9.3294666209439,45.6567001930871],[9.32971576237722,45.65669942751702],[9.329992758793665,45.65669860885105],[9.330208082761173,45.65620297457186],[9.330602110127764,45.6562288223806],[9.331651997540066,45.65629245347592],[9.331736098938977,45.65629759993174],[9.332425721014003,45.65635937298002],[9.332648771738107,45.655676811654764],[9.332841645567864,45.65508670310326],[9.332864950779099,45.655015331924496],[9.332875100390126,45.654971522905335],[9.332927049405804,45.654964071803924],[9.333050232035554,45.65497062364801],[9.333474456418651,45.655086397755696],[9.334180735461391,45.65513843023806],[9.334212462428011,45.655121620068215],[9.334507879150571,45.65494828124379],[9.335267840390918,45.65450507903697],[9.335958962945583,45.65417902192399],[9.336278597791903,45.653506286184346],[9.336424701911781,45.653198866962214],[9.336717126042,45.652583370205335],[9.33692419276781,45.65245708918586],[9.336548993554253,45.65194519700965],[9.336402969750983,45.65179675852346],[9.336191458793522,45.651581590894246],[9.336019459788679,45.65140662708656],[9.335838384908147,45.65117314334327],[9.335438436781024,45.650823285959454],[9.33534216825475,45.65044447855136],[9.33528073343529,45.65020269754461],[9.334918978377342,45.64979871447745],[9.334570398959515,45.649448702466884],[9.334426181354454,45.648936077768596],[9.333895199471922,45.64858445973491],[9.333814167036767,45.64853081532663],[9.333694181838956,45.64852589312569],[9.333581901827381,45.648552525271235],[9.333357378264033,45.6486163165814],[9.332975418570541,45.64867529369429],[9.33287139533947,45.648665364607325],[9.332600322825597,45.64863952763765],[9.332397673515983,45.648598032811954],[9.332151248913123,45.64850086470417],[9.331971951663405,45.648430161699814],[9.330572387015854,45.64830820646896],[9.330445867461087,45.64828685961237],[9.329942878399747,45.64820199021559],[9.329672589032544,45.64806774344354],[9.329924062550846,45.647184930580465],[9.330290248477283,45.646385051929585],[9.331113900670713,45.64637226173771],[9.331261365617154,45.646369150170564],[9.331375085680705,45.646368567443886],[9.33142367314766,45.646365812636716],[9.331511735455669,45.646360972968694],[9.33160729203781,45.646355449913145],[9.33173175371249,45.646347981461005],[9.331865399808047,45.64634049249436],[9.331928317897868,45.6463373142041],[9.332010630377168,45.6463325970679],[9.332137650009932,45.64632542136987],[9.332248216187457,45.6463247164301],[9.332351173259722,45.64631873198524],[9.33249431063344,45.64630866561388],[9.332583912785541,45.646302319286356],[9.332731754676512,45.6462872722209],[9.332876739255632,45.64627233860025],[9.33295834530094,45.646265596735255],[9.333047364773009,45.646259476765074],[9.333191483504605,45.6462474471616],[9.33357079453721,45.64611886401367],[9.33383127605675,45.646030446914466],[9.333945587190422,45.64597741341201],[9.33468886596856,45.645632027377204],[9.335999050156905,45.645535746691],[9.336432268620475,45.64550391995097],[9.337087141650091,45.64539088053218],[9.336992478907476,45.64459013556854],[9.337725117463613,45.6443925857308],[9.337912383337715,45.64434207512822],[9.338463680214888,45.64419345107771],[9.338559014952638,45.64416780132592],[9.338747709221037,45.644116923282226],[9.33816310945325,45.64293950426521],[9.34208957725744,45.640821520188304],[9.343150289462299,45.64011627204604],[9.34335356870137,45.63975538154712],[9.343429619108226,45.63962044791562],[9.340622944714003,45.638062696173144],[9.342307670111794,45.636590518467166],[9.34417599484992,45.637880996402295],[9.34488466196419,45.63836492601851],[9.345446470639507,45.63791318707695],[9.347689466178755,45.639185087545705],[9.348098941265821,45.63941727402443],[9.349448627037482,45.63836070123164],[9.349509641719717,45.638313833108676],[9.349547655483274,45.63829342872972],[9.349625761544603,45.63822311215595],[9.349797341791005,45.63808901416421],[9.351329253075935,45.638894402445324],[9.352299288778157,45.63807233055139],[9.352864171519112,45.63812459809703],[9.353020389937555,45.63848414508497],[9.353532568046212,45.63831155096936],[9.353778440848536,45.63864381397128],[9.35350972590566,45.63876166315261],[9.353833669997123,45.63926471266178],[9.35400240944431,45.63957020854468],[9.354695114846672,45.63954105450375],[9.355385235926972,45.641132063997425],[9.35587284012532,45.64113054611818],[9.355642967855859,45.63927708557281],[9.355710294229539,45.63610407728625],[9.35571211352875,45.63600956192027],[9.356699457659069,45.63591647054385],[9.357041466738826,45.635591391393476],[9.357184078384801,45.63545590292351],[9.357591323766822,45.63493258515188],[9.357832819017064,45.63457178024323],[9.357470430915045,45.63414136262744],[9.357341432344562,45.6339881752803],[9.356696744989838,45.633486137160126],[9.356717535484794,45.63272099781284],[9.356816672566104,45.63254518899538],[9.356869814673436,45.63245052044176],[9.356957584750928,45.63245132184134],[9.357601140690454,45.63245722189948],[9.357950431860608,45.632915175401074],[9.359326704170815,45.633459903408735],[9.359904398025932,45.633625071930794],[9.360136604053992,45.63369146367684],[9.360381168601062,45.63381670543423],[9.360486595477445,45.63424840561641],[9.361258820414356,45.6346240060885],[9.362119971474133,45.63486431008943],[9.362353255642022,45.63522360022],[9.362741198380618,45.63541386826533],[9.362790747373314,45.63543815113815],[9.363088508854215,45.63550749429039],[9.363436590543389,45.635607109620445],[9.36349368033411,45.63562203603911],[9.363844618937112,45.63571382643119],[9.36443562724086,45.63583795556508],[9.365228133545067,45.635376369424115],[9.365096029639977,45.634791741414055],[9.365324275959534,45.63437697003509],[9.366554701528164,45.63461379901568],[9.366092323811971,45.63534209202091],[9.365795802604314,45.63586058782877],[9.365452358406879,45.636320742230154],[9.365097022203548,45.63692493933158],[9.364818144676986,45.637447873829075],[9.364822525325486,45.63812292264378],[9.364940467312223,45.6385005846087],[9.365454045646391,45.63855293577479],[9.365860181766964,45.63786757847062],[9.366002226342932,45.637342674880365],[9.366486657666167,45.63555237282406],[9.371045291111018,45.636131702631815],[9.371661997146928,45.636255734310005],[9.371910503675785,45.6364472249117],[9.372255323582644,45.63671292971649],[9.37265611628854,45.6371706602026],[9.372876389864444,45.63749396926094],[9.373341577460053,45.63798750696999],[9.373268587564997,45.6385907873669],[9.372567675425445,45.63931315251908],[9.372486438956413,45.63980236262816],[9.372468970282629,45.639907538607865],[9.37283108498531,45.640338389771685],[9.372952908653248,45.64129208571271],[9.37296530708675,45.64138631452955],[9.37309463027019,45.642368373645105],[9.373394439634863,45.642294452519415],[9.373536321630183,45.642788436811834],[9.37373453265223,45.64305533440588],[9.373769535657365,45.643111948146796],[9.373781314176679,45.64314433449974],[9.373828160129811,45.643241455886034],[9.374025844731644,45.64344345089572],[9.37340273751727,45.6435346522669],[9.373028832911995,45.642887412888534],[9.372527782012492,45.64296766721881],[9.37203030521724,45.64370308954968],[9.37196855978696,45.643779518431636],[9.371871728472227,45.643801553769855],[9.371648093615011,45.64385252279695],[9.371907902143567,45.64432872382061],[9.371036446200687,45.64450256756295],[9.371418569111087,45.64601346250518],[9.37104666644221,45.646050671938845],[9.371130192425126,45.64625223969504],[9.371229173736038,45.64649109652854],[9.371614061021875,45.64643194685911],[9.372844492457983,45.6462428242563],[9.373016163968147,45.646971317576444],[9.373135439699531,45.64745927225862],[9.373174449994412,45.64761887491957],[9.370981993699681,45.64798427498729],[9.370971533946113,45.64808003538164],[9.370964324317661,45.64814616234084],[9.370549781385954,45.64823208107669],[9.370837422104364,45.6492083561221],[9.371105278132713,45.64921686887938],[9.37113043367973,45.64931271609033],[9.371165821726724,45.649475031422924],[9.371085525024224,45.64951584223993],[9.371009060637851,45.6495570842992],[9.370915331814116,45.64960624104934],[9.370835286480556,45.649646692637425],[9.370802147489426,45.64966580200828],[9.369074444675894,45.65057548679965],[9.369585326162754,45.652148987319784],[9.371612722888027,45.65208839886937],[9.371630755906471,45.65259305569777],[9.371733628105831,45.65310488289703],[9.371788286614908,45.65327383459214],[9.373074957494877,45.65343876872669],[9.372935774827036,45.65376649485996],[9.372797329880063,45.65409248752501],[9.372547526961414,45.65468076204285],[9.372373565298401,45.6547001320671],[9.371997027115842,45.65446645790129],[9.371434731154961,45.65448707141799],[9.370939045495463,45.654460496537176],[9.37089831884467,45.65451371154517],[9.37077989871559,45.65466785913112],[9.371732736496673,45.65497483632759],[9.372287234931624,45.65509253649798],[9.372179665390519,45.65520654937697],[9.372148498310336,45.65523603342645],[9.372101569402407,45.6552852285586],[9.372076416768854,45.65531200353118],[9.372032902037837,45.655362776172645],[9.371955938644662,45.65544470268704],[9.371304887532965,45.6559778759338],[9.37053942357914,45.656682409206546],[9.370452146150406,45.656796154789106],[9.36982658481533,45.65761167126564],[9.369790336163295,45.65764778946334],[9.369553482115473,45.65782236756528],[9.36929763731322,45.65804768066876],[9.369292242350141,45.658106629631895],[9.36935353705258,45.65817756731042],[9.369443867015272,45.65825856766772],[9.369441242491046,45.65829922327041],[9.369487854793878,45.65833971784162],[9.369589497202266,45.658382063180035],[9.369728829627118,45.65862298287829],[9.36920383223324,45.66007366069522],[9.369162565901236,45.660441536949854],[9.369089035288695,45.661096830155245],[9.369365975929071,45.66177009053527],[9.369558210962142,45.66223743647999],[9.369469196518187,45.6626097686734],[9.369247326530472,45.663539599296016],[9.368765615639742,45.66350067374445],[9.368700708433861,45.66387928386016],[9.368547423340793,45.6640014037472],[9.368364821319544,45.66406280531205],[9.368210030208354,45.663955191136075],[9.368103552061553,45.66387446243614],[9.36801594625293,45.66373286109508],[9.36792838507823,45.66359800569977],[9.36775412310624,45.663463429357435],[9.367531857371894,45.663349284372416],[9.367367889509067,45.66330927718082],[9.367319109198656,45.66321483116685],[9.367117043034156,45.66324252381885],[9.366934618437949,45.66333094678153],[9.366810506781826,45.66350025227316],[9.366657131553817,45.663608839797064],[9.366272768817069,45.663745210146494],[9.365994703104422,45.663935286300855],[9.36589012193475,45.664145064567265],[9.365824474962885,45.66441554870895],[9.365806392342218,45.66459802563067],[9.365788177679221,45.66476024558842],[9.365856315507026,45.66486812255896],[9.365837926165293,45.66500331883878],[9.365781196522951,45.66516566121103],[9.365868622930964,45.66528024146816],[9.365965918210133,45.665428578438586],[9.365995955415208,45.665604155045635],[9.365977874276991,45.66578663195178],[9.365854545353741,45.66607756087313],[9.365651765446094,45.66599712026945],[9.365382016322902,45.66598447119216],[9.365284853485486,45.6658564095915],[9.365379818635358,45.665646663597364],[9.36548411489949,45.66539633241012],[9.365376609946962,45.66515344375323],[9.365240361245283,45.664937670220205],[9.365066716409773,45.664897690673385],[9.364834435382257,45.664722758934026],[9.364774376757765,45.66454390972595],[9.364745970521808,45.664459475864135],[9.364562266370294,45.6643519490601],[9.364388605720189,45.66430522056981],[9.364367932480011,45.66408907907378],[9.36426080473809,45.663900249196274],[9.364068950594971,45.66402245363736],[9.36117907287033,45.664133398439944],[9.361045054677849,45.66413850431069],[9.360876656720784,45.663040813721494],[9.360781259336903,45.66305011050439],[9.360647928407607,45.663055896007045],[9.3601732994939,45.663076435595904],[9.359266725861083,45.66319822595224],[9.359351036876971,45.66444721095733],[9.358203233846787,45.66453431940088],[9.358140782657278,45.66480453165861],[9.35805482577252,45.66541685450404],[9.358491065004284,45.66537948474394],[9.359373854772041,45.66536325490026],[9.359594476347292,45.665386358111114],[9.359719236283823,45.66538277724083],[9.359851718476751,45.66583169912484],[9.359954480475755,45.66598605186651],[9.36019473204566,45.6664255086152],[9.359346537415643,45.6663984281807],[9.359381505755156,45.666558930718224],[9.35880522524741,45.66662022706301],[9.358014065355418,45.666673612642676],[9.358094744368556,45.667230843399174],[9.357717443370413,45.66733299001646],[9.357561990797755,45.66737497068636],[9.357040584649548,45.66741372638929],[9.35671156540516,45.66741024833325],[9.356259051871108,45.66741166843623],[9.355998377382583,45.66704345775355],[9.355943835479454,45.666539577770806],[9.355773236044557,45.66595506210466],[9.355767959098744,45.66591157639977],[9.355678694227324,45.665190411514004],[9.355841477779746,45.66454185125164],[9.354595208214144,45.664374698737625],[9.354276049156201,45.6646547188538],[9.354072489406194,45.66494337533046],[9.353959244949253,45.66515449801055],[9.353869314233325,45.66532192470549],[9.353731056593423,45.665790383192096],[9.353477051229778,45.66622321865453],[9.353068297525521,45.66654850875513],[9.352736545759402,45.666873561453535],[9.352172653551605,45.66741085315586],[9.350985887317563,45.668166063882886],[9.350333621804296,45.668564113327356],[9.350024940242527,45.66853419189063],[9.34952451223078,45.66848569355574],[9.349088633076095,45.668586033160004],[9.348588352434287,45.66865056683162],[9.348273748167028,45.668630842322145],[9.348177240898368,45.66862471075823],[9.347859752823759,45.669183737365884]]]}}]}
