{"type":"FeatureCollection","metadata":{"code":"109002","referenceDate":"2026-01-01","sourceDbfExportDate":"2026-02-18","upstreamArchiveUrl":"https://www.istat.it/storage/cartografia/confini_amministrativi/non_generalizzati/2026/Limiti01012026.zip","sourceManifestSha256":"70ac8256c4785dc6ed2814c32b6965ae76f9161b51abaa1660059e1c6cbd8ca6","license":"https://creativecommons.org/licenses/by/4.0/","attribution":"Istat, Confini delle unità amministrative a fini statistici al 1° gennaio 2026, versione non generalizzata.","modifications":["Converted from WGS 84 / UTM zone 32N (EPSG:32632) to RFC 7946 WGS 84 geographic coordinates.","Converted from shapefile to per-municipality GeoJSON without geometry simplification."]},"features":[{"type":"Feature","id":"109002","properties":{"code":"109002","name":"Amandola","alternativeName":null,"regionCode":"11","regionName":"Marche","territorialUnitCode":"109","territorialUnitName":"Fermo"},"geometry":{"type":"Polygon","coordinates":[[[13.373902386601735,43.041688392958115],[13.37384715365085,43.04194709698451],[13.37382832342529,43.042199906357006],[13.373773594040351,43.042422579085056],[13.373679079920787,43.04264677516585],[13.373524452733552,43.04293179377856],[13.373166158289639,43.04307155613974],[13.372860948603668,43.0430517306017],[13.37261553435227,43.0429665926894],[13.372325543487088,43.0428156364317],[13.37198773370717,43.04263950097003],[13.371743146944935,43.042522819113515],[13.371598405522759,43.042429324239535],[13.371480173339208,43.04233500731387],[13.37128609364623,43.04218018503748],[13.370903449349148,43.04210704742872],[13.36982336716288,43.04133133745599],[13.369759602892472,43.04129327853309],[13.369220907085808,43.04097175042787],[13.369041993251656,43.04082998672502],[13.368806417844498,43.04064332465355],[13.368570560300574,43.0404564369896],[13.368208799435275,43.040245193257576],[13.367879557782055,43.04005971452904],[13.367373712068478,43.03976394634891],[13.366818778217109,43.03942503729608],[13.3662987882571,43.03910279531422],[13.365864806451674,43.03878176611276],[13.365481576398098,43.038440788247435],[13.36514584712016,43.03812050189753],[13.364809601725165,43.037793328774924],[13.364714050085416,43.03770035460008],[13.364507052350255,43.037484059317265],[13.364452211844013,43.037426755016114],[13.364021185538167,43.037060589544495],[13.363613687696951,43.03668001873654],[13.363239917520106,43.036428704056064],[13.362847375393956,43.03620542992353],[13.362705945989203,43.0361249858657],[13.362369859237885,43.03588573296129],[13.3621052365435,43.03570227100531],[13.361814543553853,43.035497296750655],[13.361747309859632,43.03547478647799],[13.361512817778092,43.03539627838626],[13.360998237228607,43.035235862497366],[13.360683193548322,43.03507683024774],[13.36039742339498,43.034768127188876],[13.360295502039582,43.034542437098274],[13.360251084203016,43.03430554868291],[13.360010441889994,43.034157179327714],[13.359667991868049,43.03404420557096],[13.359266131500979,43.033915492494195],[13.358828383557064,43.0337566361027],[13.358622167273968,43.03366096862288],[13.358344421420535,43.03359503969825],[13.358035368673182,43.033606831138066],[13.357727270520023,43.03363209017797],[13.357661669311652,43.0336312769149],[13.35737104625103,43.03362767289525],[13.357231363477807,43.0336049083859],[13.356945788607373,43.03355836424018],[13.356605919730377,43.03343839077894],[13.356542981916524,43.03341617272566],[13.356271605233857,43.03327121836496],[13.35614566835378,43.033203948369575],[13.356071024788996,43.03316407724454],[13.355969819387232,43.03312141961327],[13.355767410342164,43.03303610581143],[13.35539036132439,43.03291093445745],[13.355340271489894,43.03289683835275],[13.355214265682244,43.03286137929026],[13.355024082520256,43.03280785842417],[13.354794150828313,43.03276710755184],[13.354715718642309,43.0327427043799],[13.354088258564401,43.032547479842854],[13.353821026121496,43.032464333618016],[13.353460802247056,43.03235225167626],[13.353247467496118,43.03228587302024],[13.35283919976511,43.03223965739759],[13.3526226954822,43.03221514817957],[13.352223897311237,43.03221600129546],[13.352143679426478,43.03221617210415],[13.351996890047365,43.03221648521671],[13.351608689482077,43.03219364102671],[13.351346675568934,43.032178222331716],[13.35099261785955,43.03215913974465],[13.350906381659467,43.03215449169982],[13.350817299837292,43.03212862419007],[13.350367591447755,43.03199803671519],[13.350248555604884,43.031963469893945],[13.349738298145127,43.0317766170115],[13.34959716044912,43.031724933245705],[13.349457972091198,43.031673963763474],[13.349110090577305,43.031570462479564],[13.348787281647617,43.03147442003112],[13.348507819035111,43.03139043759632],[13.348105229187993,43.0313293485993],[13.347865747688983,43.03132868750346],[13.347773687844686,43.03132843984617],[13.347667516645554,43.03121543954319],[13.347558604689436,43.03110704507457],[13.34754415904726,43.03090277279023],[13.347540825429661,43.03085563261628],[13.347549198922394,43.030540202951585],[13.347482624024927,43.03045495688589],[13.347265824079269,43.03017735656079],[13.347168582786216,43.03014719603156],[13.346839216068817,43.0300450385567],[13.346700072849286,43.0300345776619],[13.34654619593826,43.03002300982527],[13.346481422497646,43.030018139544026],[13.346361482684612,43.03004746215927],[13.346197927527287,43.03008744737375],[13.345941962984563,43.03015560265549],[13.345803440725051,43.030192487637315],[13.345604348944121,43.030240576401035],[13.345335279634176,43.0302535635692],[13.345164053243833,43.030261827162626],[13.344829378149269,43.030301567033966],[13.344724683038567,43.03029617856338],[13.344376729525791,43.030278269251355],[13.344103369040758,43.03018712935265],[13.343952614524815,43.030136867535845],[13.343503149305194,43.02994236002189],[13.34347129623463,43.029925762769984],[13.343213288208444,43.029791324626366],[13.343031968502487,43.029723941706074],[13.342838353796937,43.02965199040995],[13.342762734841816,43.02962389049411],[13.34237128765504,43.029598257051695],[13.342222220883265,43.02961617702338],[13.341878454122634,43.0296575052569],[13.341609329229957,43.029626235625095],[13.34141135189498,43.02960323273029],[13.340983821258044,43.029457630827444],[13.340864365071134,43.029416947883824],[13.340758885615992,43.02936018507979],[13.340551827165989,43.02924875997726],[13.340347025340403,43.02912906389057],[13.340190224737059,43.029037420939396],[13.339871264900104,43.028995519810145],[13.339722906122617,43.0289799949234],[13.339508337980119,43.02895753976798],[13.339271648321638,43.028932769794366],[13.339100171658675,43.02885050421354],[13.33890646695187,43.0287575747125],[13.338677483172235,43.02853894258815],[13.338570927009762,43.02843720144385],[13.338467195913408,43.02818455015131],[13.3384368476993,43.02814576791674],[13.33840048785734,43.02809930282826],[13.338231156144243,43.027882904953415],[13.33785100834523,43.02784332277005],[13.337801008642682,43.027830370586514],[13.337547880599034,43.02776480173526],[13.337482020944785,43.027684023275185],[13.337369879816395,43.02754648091437],[13.33721393181342,43.02733632575178],[13.337140435488145,43.02725687331485],[13.336928312841772,43.02702755696127],[13.336736356359072,43.02681201847063],[13.336691758786726,43.02676194103896],[13.336485605311937,43.026579350118006],[13.336462700520638,43.02655906197053],[13.336171395296333,43.026430571380004],[13.336005059507588,43.02638961814348],[13.335856067735623,43.02635293562908],[13.335743674298916,43.02632526347882],[13.335501326347206,43.02619491204297],[13.335400822240663,43.02594251618357],[13.335308038080857,43.02571607624877],[13.335250280178089,43.02551794748483],[13.335239247848508,43.02548010231391],[13.335177519407608,43.02543131363673],[13.334940355340704,43.02524385822391],[13.334696738850655,43.02509547641996],[13.334655919586556,43.02477748247326],[13.334733497524393,43.02463723983382],[13.334772923224639,43.02456596937481],[13.334819872755604,43.02423106976951],[13.334819140502848,43.02418383042849],[13.334815547472765,43.02395213456341],[13.33473771963668,43.02373676056552],[13.334724080125222,43.023699015169846],[13.334667638234162,43.0235075876682],[13.334534665287547,43.0232943060342],[13.334442820228038,43.02314698816859],[13.334402906408167,43.023146512025406],[13.333991490758681,43.02314160430744],[13.333929266899588,43.022867117391016],[13.333902455384369,43.02274884224928],[13.333979142832687,43.02241506550985],[13.333986967699603,43.02238100639469],[13.333841381894805,43.02227398989313],[13.333728320532805,43.02228025003272],[13.3333249656931,43.022302584955106],[13.333102732632545,43.02232451081877],[13.33283428878591,43.02234820702534],[13.332602541959345,43.022467285974294],[13.332517517325634,43.02251097410355],[13.332446466153897,43.02254748149682],[13.332280292337797,43.02280137173433],[13.332151730483131,43.02293454298459],[13.332077300882222,43.023011642549214],[13.331948866450613,43.02314808052736],[13.33180045239399,43.02330574132778],[13.331749554357847,43.023399954876275],[13.331683756637652,43.0235217422904],[13.331616013178508,43.02373588601772],[13.331624393702619,43.023854860601034],[13.331634987976543,43.02400526176661],[13.3316555518066,43.024166539870926],[13.331637847199362,43.024304510110504],[13.331621882551273,43.02442890947112],[13.33148155322658,43.02461429405994],[13.331440090489126,43.02463539431766],[13.33127128004421,43.024721302017085],[13.330954513679114,43.02462302393851],[13.330948141528122,43.02444545193684],[13.330954910955729,43.02419310565114],[13.330923170688287,43.023960226817984],[13.330899780227778,43.023497449022194],[13.331007839125135,43.02311521767923],[13.331201562265244,43.02272973827121],[13.331345375292482,43.02246319253237],[13.33135034771437,43.02222892176553],[13.33120856969156,43.02204522971929],[13.330965085868693,43.021941922199304],[13.33069839279742,43.02185749967238],[13.330433291568392,43.0216649778589],[13.330063017473346,43.021372905383856],[13.32987589610729,43.021024371705],[13.329860950445399,43.02063780034109],[13.329991792767073,43.02031772918548],[13.330247752751996,43.01998841351004],[13.330633354643647,43.019757718393315],[13.330982344709968,43.019573427301424],[13.331243662141244,43.019450979674225],[13.331518489178961,43.019215478340605],[13.331621249365558,43.019063029719746],[13.33160238043637,43.01883866528842],[13.33143719440191,43.018583835784355],[13.331295955468153,43.018364111133955],[13.331094694168,43.018119653095866],[13.330978991050905,43.017826933704406],[13.330884797024487,43.01770896159669],[13.330555458712404,43.017649421779176],[13.330185390538889,43.01770846653586],[13.329770180676789,43.01769269507494],[13.329451285192736,43.017650762788556],[13.329110773749507,43.01751961606172],[13.328708015280396,43.017462853225354],[13.328256742166825,43.01732689858978],[13.32800104625391,43.01722404636073],[13.327664979536191,43.017025203227156],[13.327585257258574,43.01680764498626],[13.327801031982684,43.01643033906741],[13.328129561462179,43.01612979023158],[13.328194968524656,43.01610030226341],[13.3284419296136,43.01599190993846],[13.3287474306736,43.01593081593079],[13.328951360458186,43.01573402036359],[13.329005074761225,43.015538416279284],[13.328765112603973,43.01535394092103],[13.328507727849084,43.01531417668618],[13.328165636876799,43.0152911252614],[13.327919325467905,43.015277949966034],[13.327659714080848,43.015337302382385],[13.327436135722673,43.01547549939621],[13.327186458149246,43.01562982810965],[13.32701109817881,43.01553518457651],[13.32685810047528,43.01545319957846],[13.326689017743071,43.01536056860038],[13.326654104870904,43.015343884372236],[13.326498324101253,43.01517872399492],[13.326405208883381,43.01498868192207],[13.326339428403687,43.0147075717928],[13.326236939129664,43.014427852721695],[13.326157202041921,43.01431391265795],[13.326083491260825,43.014208582838144],[13.325879303843411,43.0140092415996],[13.325480381334334,43.01387579496237],[13.32516267292883,43.01380679573541],[13.324903064537951,43.01386614263441],[13.324798498305485,43.014036660219375],[13.32469901270472,43.014232176539785],[13.324658363390244,43.014312061933815],[13.324456220234476,43.01449077568767],[13.324058509049836,43.014636377125],[13.323679178071439,43.01465073488759],[13.323314125332661,43.014475483977286],[13.32334612876054,43.014276202466775],[13.32354638132852,43.014070552386904],[13.323850449286613,43.013770941610424],[13.324028557081812,43.01351211009857],[13.32409515331188,43.013325023000846],[13.3240288512963,43.013079945188416],[13.323778814461415,43.01275178891606],[13.323539413428476,43.01253126799193],[13.323064661366072,43.01240968597303],[13.322854182105097,43.01239062399043],[13.322573860575455,43.01236523620828],[13.322528261229523,43.01235945288072],[13.322245820423486,43.012323629546735],[13.32200238997335,43.01222030045082],[13.32175076112877,43.01200023832818],[13.321538393981589,43.01168415683392],[13.32122751290803,43.011362798143466],[13.320838203329139,43.01127848857723],[13.320313134179322,43.011226321849975],[13.319822787504844,43.011100814322944],[13.319606172805836,43.01094244631394],[13.319672880074572,43.010582046094896],[13.32004027227412,43.01035432621087],[13.32064436321625,43.010308971971355],[13.321234955866633,43.01024611855934],[13.321616280258896,43.010173172341354],[13.322021758550736,43.01009481028252],[13.322539783814962,43.0100031840887],[13.322715431968513,43.00988399762907],[13.322454662465278,43.00953373616939],[13.322071006056854,43.00922413658154],[13.321719487957866,43.009066374774974],[13.321356902961826,43.00888202065409],[13.321105385238656,43.00870696917693],[13.320916654339612,43.00842150380436],[13.32079026797028,43.00810667023298],[13.320777722164637,43.007665987384534],[13.320944666644854,43.007335556549165],[13.321348298934346,43.0069691634753],[13.321634812876491,43.0067692578519],[13.321720326135722,43.006595533054536],[13.321777059896814,43.00648027489393],[13.32171424303916,43.006376824894225],[13.321614064862581,43.00621184356132],[13.32120375383297,43.00591682161732],[13.320729357427302,43.00557571410284],[13.320638629321373,43.00551047660302],[13.321215462412082,43.00503399635079],[13.320772782562377,43.00471311976532],[13.320362583954278,43.00441802289901],[13.320173649318678,43.00417307860959],[13.32005569391553,43.00393445226848],[13.320039304409724,43.00370098835247],[13.319876454135674,43.003347017672645],[13.31961721395181,43.0029741841381],[13.319401390082872,43.00273925761505],[13.319146936823428,43.00260932899745],[13.318842157813386,43.00254882615544],[13.318507254861924,43.00271454170439],[13.318251477996045,43.00313385642468],[13.318079134074921,43.00351850636124],[13.3178492124113,43.00386931912242],[13.31768225877675,43.004199744988],[13.317476934254211,43.004464096999754],[13.317413607335178,43.004610542046855],[13.317347535228985,43.004761592449995],[13.31689799605891,43.004517486952665],[13.316699268543807,43.00426390358249],[13.316608448359725,43.003974730151235],[13.316702944995743,43.00366054866857],[13.316810214326848,43.003309871296146],[13.316867466918705,43.003033110179686],[13.316837595876116,43.00278214856935],[13.316792298802001,43.0026173002216],[13.31669752571442,43.00249033543923],[13.316444696714003,43.00225229985499],[13.316219397916136,43.00201322355355],[13.315862718809054,43.001999690031596],[13.315638096828382,43.00225126286488],[13.315343484357761,43.00268554317972],[13.315148453357134,43.003053039184344],[13.314941185656238,43.00342099704785],[13.314686010921614,43.003849285330865],[13.314532718695904,43.00398112005755],[13.313901339220765,43.00381139477102],[13.313348042298571,43.00383678850148],[13.312915377883131,43.00392064842318],[13.312693129717003,43.00398756016241],[13.312502673466494,43.00420182390287],[13.312260796669882,43.00455757848867],[13.312023199464226,43.00475561518407],[13.311728849535235,43.00471270535466],[13.311152244592106,43.00471195917425],[13.310735634650657,43.00471867698232],[13.31043722756692,43.0047929597395],[13.310185902035967,43.005014017957855],[13.309958814867128,43.00527467601511],[13.309816829112812,43.005568136306394],[13.309771235031585,43.00588046736834],[13.309714261876731,43.00616171705181],[13.309365191465764,43.006300930470275],[13.30895231516088,43.00618595737532],[13.308651502363494,43.00596322016237],[13.30846323625869,43.00572723340234],[13.308334573850763,43.005466490262464],[13.308158461043632,43.00518502905205],[13.307784392192938,43.004879520718916],[13.307436536211437,43.004685563101496],[13.307195966624176,43.004447045512634],[13.30697561611905,43.004059210695196],[13.30680705515497,43.003885501283676],[13.306553249725996,43.00376452326404],[13.306258278924496,43.003712619334834],[13.305955075065174,43.003674530807594],[13.305637900886772,43.00352442764645],[13.305512231746455,43.003218552762576],[13.305454698230577,43.00270303487086],[13.30549991672904,43.00234120135258],[13.305528790753163,43.00221933386606],[13.305582780349805,43.00199145398169],[13.305712001175252,43.00173449403951],[13.30589204159655,43.001502627519876],[13.305992410764938,43.001359294177746],[13.30669164920284,43.00085073934648],[13.306873671146676,43.00071835419793],[13.306839001468907,43.000661140670225],[13.30674173817452,43.00049824811716],[13.306454138844956,43.00028851072217],[13.306329277567878,43.00020868991714],[13.306174857476567,43.000109971511364],[13.305922161748326,42.99991692370668],[13.305805294772865,42.999736761702934],[13.305700663701948,42.99955613931162],[13.305707541171099,42.99930378941977],[13.305585585090357,42.999182341348586],[13.305195197026684,42.999125028181055],[13.30494848842576,42.999192845648714],[13.304760284621217,42.999307976252986],[13.304609492685307,42.99947571671197],[13.304485201489708,42.99958393699055],[13.304247199248547,42.99973245464248],[13.304000487116296,42.999800271103936],[13.303804744682697,42.9998076454037],[13.303562488509563,42.999632205628544],[13.303430103335398,42.999493140588164],[13.303279207861726,42.99926474048497],[13.303306725389957,42.99908814130201],[13.303351569844759,42.998852367946924],[13.303357737283305,42.998780387387235],[13.303370144964404,42.998635590717676],[13.303301828396668,42.998404079947775],[13.3032070894032,42.99827710151035],[13.30295159308062,42.99821920116962],[13.302657359484781,42.99822128068903],[13.302202519855596,42.99820689856149],[13.30209908144075,42.99817478151345],[13.30202991581442,42.998150377076314],[13.301910557812835,42.99810985512923],[13.301449912801827,42.99792462845189],[13.301258251823192,42.99781480256526],[13.301064630213633,42.99763302460148],[13.30064649289617,42.9972661281058],[13.300616771632834,42.997235736268436],[13.300370770599732,42.997006410673755],[13.300259437738598,42.996918854112046],[13.299939228007972,42.996667023345196],[13.299530121016724,42.99638531420544],[13.299012096059897,42.99608069319149],[13.29851618835728,42.99582925657395],[13.298031263888335,42.99555939793794],[13.297693843795614,42.99533800737668],[13.297380653867025,42.99515621927132],[13.297018382869929,42.994886244134804],[13.296793499223194,42.99465161469914],[13.296663496378608,42.99445843300333],[13.296526762891691,42.99408093723886],[13.296463503998774,42.99374569558418],[13.296438047155018,42.993337004834935],[13.296362168508942,42.992952719458714],[13.296237986927999,42.99257925289701],[13.296136154083277,42.992218451642074],[13.296022164920448,42.991903123081194],[13.295867475712676,42.99166360126963],[13.295836036491362,42.99160851272023],[13.295496767096294,42.991360175897455],[13.29503094078475,42.99114360504418],[13.294805831406636,42.99103727815872],[13.29471691860068,42.99099335408613],[13.294560337161995,42.99090245452003],[13.294320492963674,42.990760667279474],[13.294096094253913,42.990620548013524],[13.294064386254227,42.99059765772566],[13.293698933520703,42.99033383070961],[13.293383441488517,42.990063006587086],[13.293327188195983,42.990014717299175],[13.29306462787601,42.989722975418424],[13.292709046253616,42.98941599494366],[13.292669879148175,42.98938218079633],[13.292271280547055,42.989118056742065],[13.29180519447189,42.988721417611025],[13.291351589229635,42.98828379276692],[13.291015896788114,42.987954278050346],[13.290947479987377,42.987915309079916],[13.29078602697764,42.98782336184002],[13.29050785539511,42.98770326155216],[13.290088951631374,42.987543429584626],[13.289909487490759,42.98747589108374],[13.289670046160424,42.98738359432404],[13.289234605882937,42.987206373433516],[13.288860012503164,42.98702236500903],[13.28846182708053,42.9868077301654],[13.288350209364513,42.98673219901889],[13.288001724759578,42.986496381238595],[13.287812487325791,42.986332422250065],[13.286850468729138,42.98554922801647],[13.286571768515172,42.985265200713464],[13.286357699005817,42.98504703905818],[13.286279584931922,42.98496742899946],[13.285736321528173,42.9846501882499],[13.285328543000627,42.98434136714952],[13.284893587965126,42.98404150475562],[13.284845508487747,42.98400835794074],[13.284424636419514,42.983731536263996],[13.284272555847922,42.98363073261644],[13.28405182090155,42.983484421767216],[13.28347369739339,42.9831504705407],[13.282877988829688,42.98291621131469],[13.282260256092105,42.98267377111482],[13.281787238904023,42.98248442479507],[13.281118967013366,42.98217634740626],[13.280688888896826,42.981854840895885],[13.280194539918106,42.981490722979615],[13.279603539759991,42.981103215097036],[13.279095537827642,42.98080712876385],[13.278434474679562,42.9803817228949],[13.278060455621791,42.980116627746504],[13.277918436900027,42.98001390633753],[13.277424432126926,42.97965426584128],[13.276762457552596,42.97921538009803],[13.27628137927543,42.97890926981003],[13.275891118399027,42.978719051981095],[13.275846599445053,42.97869595892763],[13.275738590529574,42.978641480302095],[13.27526256692241,42.97845221902505],[13.274434307843151,42.978267131915366],[13.27365290864376,42.97813880675999],[13.272773360812728,42.97800964515848],[13.272340542701377,42.97796948886555],[13.271943414710535,42.97793264127324],[13.271280755539456,42.97788089004395],[13.27073241570939,42.97779785079452],[13.270293524619882,42.97770171481452],[13.269784403486229,42.97743263829836],[13.269485941281966,42.97715118585607],[13.269235265812933,42.97693997286562],[13.269096731435413,42.976666048272335],[13.269061933058492,42.97620818133403],[13.269048849953114,42.97575400464816],[13.269006289019172,42.97544948374987],[13.268946154132427,42.97502407513891],[13.268811400950904,42.9745834477617],[13.268701987125896,42.974110361745375],[13.268483079631649,42.973605353827395],[13.268124324267031,42.973249622535434],[13.267814596185898,42.97298209044582],[13.267285779785096,42.97256068286508],[13.266806507657419,42.97214642499889],[13.266376469030407,42.97173482830819],[13.265859953847524,42.97135797047634],[13.26548790876647,42.97111976956863],[13.264634643833226,42.970881523714766],[13.264101869837956,42.97071234006521],[13.263317215839436,42.97057956299153],[13.262473121102877,42.970606555927354],[13.261758670533284,42.970646712684335],[13.260754930017786,42.97062562750573],[13.260023807492164,42.97051333977596],[13.259093969430564,42.97040845507072],[13.258017124330763,42.97034955659719],[13.25680602929975,42.970255134630925],[13.255924802672695,42.97014391115964],[13.25479187368221,42.96993851656961],[13.25314521657058,42.9696171865968],[13.251677294549246,42.969487254044594],[13.250725420593295,42.96932910056365],[13.250261888916734,42.96927431862135],[13.250564038697695,42.968011619910826],[13.250647121368138,42.96690562515989],[13.250677087683142,42.966229262903035],[13.250880938349537,42.96514128240505],[13.251527319103745,42.96527028863385],[13.251992866429738,42.965221452725324],[13.252263386730403,42.965188876728725],[13.252656184718251,42.965151748054275],[13.25320771912406,42.965194241179915],[13.253733023392842,42.96530073175663],[13.254526187648276,42.9654692711492],[13.25520744375027,42.96561496359617],[13.255974078017681,42.96584300367886],[13.256851077696021,42.96607142749685],[13.257875395321351,42.96625834117439],[13.258777965992937,42.96636875428724],[13.259856867129532,42.96641406426307],[13.260839092413525,42.96639094329563],[13.261808776502965,42.96636377996899],[13.262717271318357,42.966293875386086],[13.263503223918232,42.96626905058564],[13.264174614675547,42.966316021238214],[13.264874659752326,42.96628989235231],[13.265464913376539,42.96622734292573],[13.26609511415931,42.96607776698168],[13.266746502181885,42.96601292825066],[13.267519597674474,42.96597955341558],[13.268861485149644,42.96583939039379],[13.269587626684087,42.96565920136446],[13.270429871057702,42.965429651499754],[13.271232370105848,42.96520158125452],[13.27241835823896,42.964846624879776],[13.273223840476907,42.96457341324102],[13.27417748672039,42.96422712818408],[13.274885134734452,42.96395756381581],[13.275613297854486,42.96371874000058],[13.276531168121165,42.96338727916554],[13.277249464373144,42.963094794147466],[13.277957588269544,42.962744163719975],[13.278849166550001,42.96243167544345],[13.279892763976271,42.9619694331048],[13.281058672445832,42.961547614257775],[13.281985337739762,42.96121127849796],[13.28240428353078,42.96111004576555],[13.283150854066802,42.96118109599447],[13.283418470487794,42.961283604288866],[13.28386282106557,42.961636078306604],[13.284126952860658,42.961864761521724],[13.284522276203484,42.9621290386744],[13.284933132480543,42.962352217734484],[13.285421150204327,42.96245095599676],[13.286025931226346,42.96233373615551],[13.286447110403111,42.96208835124405],[13.286866678024017,42.96199608211111],[13.286956727448828,42.96201296090339],[13.287223194680795,42.96205473253303],[13.287708290324584,42.962243604063744],[13.288445489880262,42.962576066248616],[13.288640313805423,42.96264528009505],[13.28878498584745,42.96269837130277],[13.289046230573174,42.962621040392065],[13.289355931622525,42.962447354637135],[13.289897588928035,42.96243602068457],[13.290494159902712,42.962553170475196],[13.291250375213897,42.96271833938859],[13.291842540762072,42.96281081002692],[13.291947509743103,42.962827202739774],[13.292789418769209,42.96285859473197],[13.29352608011085,42.9628309140792],[13.294438388931237,42.96272910169026],[13.29506753261131,42.96256590056414],[13.295930469317426,42.962371398124496],[13.296809548787838,42.96214477039812],[13.297301131462387,42.96198673117035],[13.298253557611988,42.96175733359238],[13.298563614587103,42.96163312698702],[13.300149624435123,42.96099723629696],[13.302634610799577,42.960201425219815],[13.303515903714748,42.959875626847186],[13.303955173809625,42.959715027798914],[13.304185506974303,42.959634325069665],[13.304610277804276,42.95957330547606],[13.304725796339142,42.959559949793125],[13.305179174536828,42.959601387639594],[13.305850584385034,42.95969312766256],[13.306311878661377,42.95971625599126],[13.306364152840507,42.95971878737254],[13.306520270546224,42.95976017042583],[13.306620117806018,42.9597856685668],[13.306766281920515,42.95981617140667],[13.30702224753828,42.959883049865695],[13.307509493361465,42.96005824980819],[13.307571362287824,42.96007987958939],[13.307625719744898,42.96009888356401],[13.307798219998984,42.960155402109365],[13.307854963318631,42.96017802268677],[13.307902224530197,42.96019649909587],[13.30840601438724,42.96038907802565],[13.309280834879974,42.960716215039035],[13.309678200061516,42.96087678987563],[13.310246047256294,42.9610401926906],[13.310300575561719,42.96105588381009],[13.310578987831727,42.96110552942977],[13.310738139839874,42.96113390931644],[13.31141300403721,42.9610994403829],[13.31185760079054,42.96101513815768],[13.3121278894858,42.96090661455276],[13.312265976197132,42.96085117141102],[13.312800980510515,42.96056988261667],[13.313292173404875,42.96031950432817],[13.31336011497117,42.96028317598059],[13.313994486659137,42.9600206384613],[13.314498628210043,42.95991156932047],[13.31509054922559,42.95983069344137],[13.31582661144752,42.959838903671134],[13.316677911118543,42.96000481325291],[13.317261280740151,42.96023936360153],[13.317749411070327,42.960382975361284],[13.318269366761168,42.96054338877665],[13.31884194382772,42.96069828585564],[13.318940979843479,42.960725075979305],[13.31969404298617,42.960975706236994],[13.320338246654002,42.96120343803483],[13.320506705096749,42.961267123453226],[13.320955260990681,42.961436697014],[13.321390687385172,42.961658813568],[13.321756170374641,42.96175752958582],[13.322075529907991,42.961722940441845],[13.322347244063225,42.96170815957183],[13.322703187392413,42.961627168044174],[13.3228796494425,42.96152145585101],[13.323337343534247,42.96127455361394],[13.32402493166003,42.960897406076],[13.324458794701439,42.96066040550969],[13.324708195780323,42.96050241146743],[13.325068478869346,42.9603087077945],[13.325253565307712,42.96023867872399],[13.325600642743705,42.960162515490055],[13.326065408096747,42.960234950469385],[13.326284305288269,42.96025367081924],[13.326629679751228,42.960240592127455],[13.32683783178389,42.96023721094545],[13.327090568276429,42.96021413418779],[13.327713376716735,42.96000597742356],[13.32840616170867,42.95979066455831],[13.328566792290209,42.95972155573819],[13.328856348462564,42.95948100242383],[13.32909287675252,42.95931448417454],[13.329306965661889,42.95909029331541],[13.329542521950433,42.959040852217406],[13.32987503307159,42.95901924786184],[13.330251159770365,42.95909502496834],[13.330673741974667,42.959308590338466],[13.330989572813273,42.959485685997045],[13.331288525402128,42.959771459440155],[13.33152213416128,42.96008671937737],[13.331686709729174,42.96042260278353],[13.33186759876751,42.96094693506134],[13.331959672130113,42.96125405540536],[13.3321563964838,42.961611226460775],[13.332321047159,42.96142491871986],[13.332426577414084,42.96118233114966],[13.332521575379245,42.96087712063193],[13.332515593935918,42.960661269880525],[13.332596571152799,42.960374596695566],[13.332849336730181,42.960090411934985],[13.333010393826118,42.95994025182398],[13.333149739799918,42.959786414172235],[13.333281724670945,42.959484300969805],[13.333301885614034,42.959204436465434],[13.333447913920146,42.95889018876318],[13.333472237093169,42.95883784560369],[13.333599784792588,42.958603425141334],[13.333740503908546,42.95838200988225],[13.333829424180461,42.958334038139725],[13.333964889451872,42.958260956925976],[13.334346093012769,42.958147460252526],[13.33491361376664,42.95811242368548],[13.335279204791938,42.95812556076906],[13.335775463310695,42.95834081308837],[13.335969477221992,42.95844148889658],[13.336322521467277,42.95858114416373],[13.33670234774809,42.95853521577581],[13.336900800353103,42.95843765058364],[13.33728600839129,42.958206949110334],[13.33771673131419,42.95823111158387],[13.338032998570661,42.95832714131011],[13.338163040778195,42.95852027446666],[13.33842566152008,42.958811911110445],[13.338775656584486,42.95895167450404],[13.339052298243152,42.959224769695126],[13.339254538307856,42.95944216946316],[13.339777169206341,42.9595528645506],[13.340474434673665,42.95970644093019],[13.341006659576234,42.95986628400799],[13.341359722418744,42.96000592280959],[13.34171046940633,42.96019966831295],[13.34214542935224,42.96045773689899],[13.342602209820216,42.96076449074274],[13.342852737284998,42.96097104527192],[13.34308421377327,42.96112103996286],[13.343113091859509,42.96113975213552],[13.343154591603406,42.961166644762365],[13.343470881637035,42.96126265924961],[13.343662693438143,42.96130887163593],[13.343745225162047,42.96132875612991],[13.343875810301327,42.961355303630114],[13.344303914455349,42.96129851091204],[13.344375528281782,42.961273329045135],[13.344677417856037,42.96116276330367],[13.34473982440022,42.96100468795314],[13.344765825750132,42.96093882229066],[13.344770283638915,42.96078334768735],[13.34477202819578,42.96072250908768],[13.344743552345339,42.9604489941296],[13.344727877329392,42.96033479908942],[13.344693148583522,42.96008177841717],[13.344669624848542,42.96000891616849],[13.344630694737331,42.959888333491776],[13.344591212742976,42.95976604045229],[13.34455771505798,42.959440947423666],[13.344542699624666,42.959295215719855],[13.344565846571395,42.95919056619361],[13.344624034921921,42.9589274918726],[13.344588173977748,42.95850570413856],[13.344473067481125,42.95817696190724],[13.344554094361895,42.9579352951026],[13.34487593889805,42.95780601389488],[13.345182609638888,42.95772232537503],[13.345345939759232,42.9576485949745],[13.345503575926143,42.95748381447358],[13.34568558571352,42.95729354746605],[13.345898241085212,42.95713690500406],[13.346149359733296,42.956960792381466],[13.346532841713106,42.95679314857358],[13.346793456655595,42.95675172273644],[13.347027197505696,42.956720321225745],[13.347405528573944,42.956696921442756],[13.347603227976505,42.95667589348837],[13.347816827446719,42.9565327164928],[13.347934718094105,42.95624913052604],[13.348288185000328,42.95630770374059],[13.348443542070234,42.956468349998396],[13.3485502079865,42.95659033539283],[13.34880094036116,42.956756354237115],[13.349046495409455,42.956805528551335],[13.349365696137989,42.95672585258656],[13.349703324569019,42.956559943741276],[13.350037896200675,42.95639415029004],[13.35032399696413,42.95627971964792],[13.350696188448152,42.95612599674298],[13.351092397124205,42.95592183983287],[13.351339397854748,42.95581789903896],[13.351597582313131,42.95578555719821],[13.35202754056374,42.95575567491769],[13.352454898071873,42.95590595417236],[13.352502234033013,42.95595321069158],[13.352728528019744,42.95617913063383],[13.35276049228945,42.95622815661452],[13.35288317340081,42.956416325872766],[13.353062690593916,42.95662819862241],[13.353093782014227,42.95666489263943],[13.35330234836705,42.956710965436386],[13.353500247240135,42.95664940482821],[13.353823217863033,42.95649304565463],[13.354222675563575,42.95624824016463],[13.354572397364624,42.95603683959271],[13.354967755805724,42.955864213189386],[13.355351955345148,42.95575053221425],[13.3557462733553,42.955649968218374],[13.355990876444599,42.95568565889746],[13.356330968974177,42.955771726899066],[13.356633236871817,42.9558862452181],[13.356923716038402,42.95605073039149],[13.357042589675421,42.95608529201368],[13.357252221973955,42.95614624076694],[13.357668402897511,42.956224901185024],[13.357932534004384,42.956363378851854],[13.358052194097512,42.95653887930838],[13.358269016421874,42.95670166900386],[13.358315256488593,42.95673455061292],[13.358378952536974,42.956779843564156],[13.35861749004668,42.95694946778125],[13.358853646260814,42.956999046970225],[13.359124289235993,42.95705586565722],[13.359233531694402,42.957078799166155],[13.35960956460419,42.957157740947444],[13.360215758096247,42.95728499839211],[13.36035940833436,42.957315153669356],[13.360559158674251,42.95737703793834],[13.360760440917465,42.95743939727719],[13.361044859043238,42.95738802609332],[13.361343363266233,42.957232579589686],[13.361421905871133,42.95717330980997],[13.361494655003066,42.957118763689955],[13.361643210243669,42.95700955460567],[13.361797195715575,42.956760588888194],[13.361815229717118,42.956695626823205],[13.361833824310818,42.95662864462323],[13.36186465696131,42.956501422371666],[13.36181178100204,42.95627385912066],[13.361820675845445,42.95617020232223],[13.361826895737856,42.9560977188884],[13.361807758157388,42.955913883969444],[13.361876489442098,42.955672674619315],[13.362031499951206,42.95535164406037],[13.362294544619665,42.95508500878164],[13.362545409133697,42.95494938474804],[13.362817543187607,42.95476793151536],[13.363007286097677,42.95463464051618],[13.36329881487374,42.95440994006887],[13.363382123264973,42.95434572690597],[13.363506591645688,42.95421867340068],[13.363670754982852,42.954051102302394],[13.363943444096748,42.95396415880452],[13.364288521079466,42.953860945436695],[13.36453056517133,42.95368950851743],[13.364577391538251,42.953656340492465],[13.36487931466369,42.95341972554689],[13.365040396889484,42.95331453602962],[13.365214460030968,42.95326286912132],[13.365625437107338,42.95300858049641],[13.365751188542038,42.952837215389394],[13.365682634178249,42.95269128261891],[13.365453585932725,42.95252897329095],[13.365162148211747,42.95235104158654],[13.364873964277145,42.95213247002568],[13.364649831949256,42.95186643524368],[13.364695127930142,42.95155409411239],[13.364954186907063,42.95140464685932],[13.365283703386355,42.95142806924873],[13.365527586162456,42.951540294049835],[13.365586241243381,42.95159623922064],[13.365718177389134,42.95172207847109],[13.365835746803775,42.95191115464202],[13.36595280594533,42.952136263324846],[13.365990558300762,42.95215423801791],[13.366171608479428,42.952240441856425],[13.366478342481594,42.952201709325344],[13.366776102151999,42.952122804204],[13.36700560974351,42.952118533448136],[13.367212509573308,42.95222766657472],[13.367426751555712,42.95237931935891],[13.367538326706025,42.95245829843339],[13.367813786359132,42.95271336186895],[13.367994458857861,42.95284150280507],[13.368306829401968,42.95305470116944],[13.368497642389949,42.95332644305919],[13.368746505097675,42.95346770320474],[13.36890629869197,42.95355840411367],[13.36930731976226,42.953682618107344],[13.369329791286845,42.95370881176197],[13.369557835787678,42.95397464428969],[13.369919196111404,42.95423091873444],[13.370070844334544,42.954468204928716],[13.370096778983068,42.95451524720302],[13.370236119027231,42.95476799172451],[13.370426734282871,42.95494976715653],[13.370715587454821,42.95517730209132],[13.37102004026263,42.955192663297474],[13.371146544517108,42.955075283185025],[13.371161950793915,42.95490363233758],[13.371394137114718,42.954548125009765],[13.371670124935893,42.95433499272489],[13.371828296497357,42.954153830928064],[13.371857169727125,42.95412076171316],[13.371875812026266,42.953908459578926],[13.371687048128187,42.953623091518935],[13.371583972617538,42.95337944817086],[13.37171397049826,42.9530953739883],[13.371951689551167,42.952861197196135],[13.372236944946177,42.9525609785282],[13.37238223706836,42.95240806417494],[13.372548090261134,42.952541929261294],[13.372632504377028,42.95261006118724],[13.372656718003224,42.95269703616657],[13.372710628323308,42.952890672594684],[13.372791170776875,42.95316218719218],[13.37290908412199,42.953355744366576],[13.373187875242587,42.953484623014006],[13.373263043422396,42.95349947044383],[13.373589103323962,42.95356385787635],[13.374127508535626,42.9536422194729],[13.374382364360365,42.95373599845488],[13.374649066383732,42.95391035184731],[13.374988663556952,42.9540323960593],[13.375302541066587,42.95413741768039],[13.375680461128741,42.95419496923152],[13.37600221416091,42.954065603019586],[13.376069875141706,42.95389645259289],[13.37612600587139,42.95365121593979],[13.376153809388187,42.953438575776694],[13.376363681000969,42.95341250485746],[13.376572970464764,42.953386506271265],[13.376905181046533,42.95340069299149],[13.377336861580389,42.95322669407213],[13.377621694322634,42.95322478284204],[13.377860315874862,42.95330567115173],[13.378019114629769,42.95347064730795],[13.378057935730068,42.95356378676349],[13.378144695918687,42.953771943496264],[13.378077811185989,42.953995085019855],[13.37803816429016,42.95412715089496],[13.378075806631545,42.9541378835298],[13.378316517052818,42.95420651567882],[13.378649106476567,42.95422978146645],[13.378879574660802,42.95423895480754],[13.378985360089654,42.95404583236268],[13.379223052399738,42.9538116415553],[13.379447192962578,42.95364549338472],[13.379657646455673,42.95350237765362],[13.37973701606483,42.95336878843989],[13.379876546066928,42.95321938881573],[13.38017311906703,42.95315858267174],[13.38053966754426,42.95319396396235],[13.38096958483722,42.953163974042575],[13.381351295004569,42.95305930343956],[13.381572003096215,42.95297431219893],[13.381817059006389,42.95305944705181],[13.382023212462714,42.953114562064094],[13.382504756864083,42.9532699288927],[13.382546942966519,42.9532835396577],[13.382751049243133,42.953438635758204],[13.382756869279936,42.95349529064693],[13.382770789092628,42.95363057908053],[13.382921526162018,42.95385437792541],[13.38311819624466,42.95390535311132],[13.383288321221194,42.95397085131672],[13.383468525841947,42.95413499758297],[13.383635869308186,42.954290634671466],[13.38388795846708,42.954474530193785],[13.384206228422604,42.954511834084144],[13.38450037061866,42.95455456468489],[13.384800079718035,42.954718624974234],[13.385117393165126,42.954742458114374],[13.385210616283773,42.95454531144178],[13.385153323786094,42.95429992248556],[13.38508882423607,42.95399628978103],[13.384937759781796,42.953768004789644],[13.384745054124167,42.95351430796752],[13.38469031938356,42.95330483365128],[13.384974055210899,42.953244426666245],[13.385357253388612,42.95337602312915],[13.385423174316736,42.95339824811537],[13.385754163303943,42.95339904640541],[13.385972895262741,42.95307103609673],[13.386211442587589,42.95302752233798],[13.386254211483559,42.953019721187815],[13.38660882545395,42.95305112230296],[13.38703659819358,42.953120225950485],[13.38740602231255,42.95310153880247],[13.38765672031093,42.95319353262217],[13.387783595087368,42.953240091048414],[13.387960262837566,42.953440388054624],[13.388127705516617,42.95359606599609],[13.388217005051404,42.95364659438518],[13.38852652663783,42.9538192702993],[13.388902958487064,42.953984874202675],[13.389381589782422,42.95399349484997],[13.389812003800513,42.95392743936591],[13.39022353107739,42.95357848633046],[13.390473740416958,42.95336632012745],[13.39069535862502,42.953380311274294],[13.39090443374984,42.95339028243654],[13.391230429097515,42.9534070124262],[13.391576376259414,42.953402718099525],[13.392030395840214,42.953410022875154],[13.392347669822398,42.95351936837588],[13.392492858975263,42.953621824505646],[13.392657806575418,42.953786542680035],[13.39303765683601,42.95387097205318],[13.39324350027149,42.953921576944076],[13.393450945104156,42.953994628028056],[13.393836877519584,42.95416435089136],[13.39411521631287,42.95432920750124],[13.394300832901788,42.95445033578042],[13.394356246030593,42.954486497032576],[13.394498893734314,42.95452848429186],[13.394545687684838,42.95454225816681],[13.394734967041662,42.95459797300759],[13.395184788781092,42.95467520187426],[13.3956485812361,42.95481941495988],[13.396156439032229,42.954979937024525],[13.396294674931905,42.955019976917995],[13.396513138044693,42.955083253889576],[13.396740671914129,42.95522304935617],[13.39693313832391,42.95538670304839],[13.397011331138753,42.95549614249029],[13.397205472946881,42.95576786033489],[13.397455338137025,42.956005830634126],[13.397624001889403,42.9561794016791],[13.397919857087881,42.95646061599786],[13.398015327462987,42.95668202032865],[13.398069297364739,42.95692302873704],[13.398196611667903,42.95716121260538],[13.398511006843396,42.957315667809034],[13.398748572950199,42.957295266954695],[13.399014899107762,42.957377294706966],[13.39923101351025,42.95757154431814],[13.399522590656545,42.95766385168304],[13.399728452686576,42.95771444490422],[13.39979820282503,42.95791883169351],[13.39987241738476,42.958271599259916],[13.400097168799128,42.95867258753486],[13.40032211682996,42.958947523143664],[13.400586645545875,42.95917591831619],[13.40078894422433,42.95934818892289],[13.400683350156744,42.95967186919137],[13.400570498456707,42.95976527277611],[13.40048369863537,42.959837114748574],[13.400340487840209,42.960063208781996],[13.400469912763828,42.960287804692186],[13.400717375262142,42.960436415526935],[13.400822114946823,42.960499318196526],[13.401050471187888,42.960693092633925],[13.401299239597748,42.96095810530232],[13.401302213507082,42.9613001115011],[13.401159623346473,42.961620715849],[13.401035384002107,42.962186445891255],[13.400993121296166,42.96237889515428],[13.400902855620068,42.96248815882267],[13.400854904357749,42.962546274519994],[13.400764970704886,42.96261726328374],[13.400654924101675,42.96270703233431],[13.400596659257237,42.96273040462622],[13.400208029543213,42.96288630357999],[13.399973051522345,42.96290210899435],[13.3999119361313,42.96290613290242],[13.399726103289224,42.96291836862174],[13.399305657242023,42.96282427124463],[13.398811665936078,42.96285904963186],[13.398278054457556,42.9630686611137],[13.397807684419833,42.963176801664815],[13.397371745712732,42.96325210358988],[13.396743312830392,42.963163751468684],[13.396294414897728,42.96301446851575],[13.395868479402944,42.962838699474325],[13.395795511646677,42.962808588533484],[13.395316827338819,42.96275723186903],[13.395236118142103,42.96277539314252],[13.395196176696455,42.962784379984754],[13.395047452404599,42.96281921278718],[13.39488570486633,42.962857096118235],[13.394307369479511,42.96304140069456],[13.393952637065839,42.96318109124429],[13.393921141276133,42.96319327308058],[13.393797551157817,42.96324107550145],[13.393486445033528,42.963478315194045],[13.393367883168864,42.96374827354985],[13.393262418417354,42.9640314283792],[13.393247712181582,42.964253058915496],[13.393240259303768,42.964365398217545],[13.393172925774172,42.964624577568856],[13.392951090811865,42.964651114476176],[13.392692233514905,42.96466943560358],[13.392533308779624,42.96468069339872],[13.392150257445454,42.96485296691132],[13.391947333243799,42.965058839019896],[13.39181574342052,42.96549154878155],[13.391853711259497,42.96589523202156],[13.391883864553293,42.965988386413585],[13.39195589880635,42.96621091636339],[13.392215821087571,42.966547457882314],[13.39250242583623,42.96686964445334],[13.39286232511268,42.96718892372691],[13.393257494578641,42.96740105728492],[13.393398059440061,42.96739699495207],[13.39349300583403,42.96739425108549],[13.393779386482828,42.967284202274676],[13.394186970623258,42.96711557307878],[13.394522520430469,42.967003528523584],[13.39483158802148,42.966867845443915],[13.395381738633672,42.96688944460038],[13.395449043513914,42.96718846215247],[13.395341982593388,42.967449172105376],[13.395239752824416,42.967691688687346],[13.39523387531723,42.96795300726446],[13.395421200280678,42.96821589581091],[13.395574905806901,42.968480076688856],[13.395601955194168,42.96890218413608],[13.395676806234793,42.96926393388177],[13.395770197885357,42.96949892468001],[13.39614156756848,42.969763732482846],[13.396576315941552,42.97005761129293],[13.39686289428855,42.970379699353366],[13.39708543430453,42.97074926683498],[13.397261339426578,42.97106661032639],[13.397511419649721,42.9713495869308],[13.397712112995437,42.971524358049],[13.397848050539826,42.9716427359691],[13.398137080955049,42.971775837325694],[13.398588979512946,42.971888804841406],[13.399076575493716,42.97197806789887],[13.399488546253995,42.97212425984419],[13.39995248222285,42.97226844885345],[13.399993374038237,42.972286270482506],[13.400351099740822,42.972442163477496],[13.400589719749556,42.97256158324334],[13.40077705608952,42.97265533632652],[13.401164901713521,42.97280695311891],[13.40163479011848,42.97299142047039],[13.401981494671793,42.972953302535316],[13.402304225862206,42.97292285981123],[13.402691281810613,42.97302048235315],[13.402812286972575,42.97307383482723],[13.402972958896886,42.97314467409777],[13.403173309040449,42.97286010426118],[13.403178660696446,42.97263481878707],[13.403175822760437,42.97233782394147],[13.4031558794165,42.972286516080466],[13.403136911381885,42.972237720341894],[13.403070660971867,42.972067280147634],[13.402969198693905,42.9718055978025],[13.402914567395996,42.97147008452337],[13.402924295330665,42.97109161938006],[13.402994159522374,42.9708683058878],[13.403120156807537,42.97070139222736],[13.40314944605959,42.97064544709922],[13.403209152954172,42.97053140386896],[13.40327445912927,42.97040895904146],[13.403314563187909,42.970333773046505],[13.40342574848349,42.97021694689932],[13.40357570678152,42.9700851221182],[13.403948152571154,42.96993571723383],[13.404043374162338,42.969910742035694],[13.404270072045394,42.969851281767454],[13.404664384691575,42.96975054844758],[13.40490231635109,42.96973462201882],[13.404964231407329,42.969745190324176],[13.405035506022978,42.96975735590099],[13.405709058953795,42.969872319662116],[13.405962440661193,42.96981528059738],[13.406067011412624,42.96975013261017],[13.4061472978485,42.96970011296515],[13.406297023772233,42.96961534542494],[13.406889613299825,42.96927984178194],[13.407037748810568,42.969465444276686],[13.40719473958098,42.96960343884562],[13.407411411903523,42.96976163786713],[13.407748897113558,42.96993768325991],[13.408173575095516,42.97013287124829],[13.408576867581086,42.97024335216224],[13.40890487644681,42.97032972831449],[13.409352728205752,42.9705060110239],[13.409658700420485,42.97058423230798],[13.409987198128883,42.970634573505144],[13.410512917686852,42.97078533755771],[13.410901093843357,42.97094140995672],[13.411226853437592,42.97108188562168],[13.411411213903174,42.971206345238436],[13.41152960917337,42.97128627221792],[13.411719995847445,42.971420989180714],[13.411758842547401,42.97144847758882],[13.412061440685344,42.971607850862156],[13.412365329320387,42.97169965012777],[13.41247470017903,42.971796413188194],[13.412604219521599,42.97191100036246],[13.412828147493727,42.97221295947111],[13.412992393713354,42.972494715542226],[13.41310709256725,42.972683852389245],[13.413145540544269,42.97274989134854],[13.413362236512526,42.97299360773048],[13.41371246620132,42.9731331308051],[13.413993519176593,42.973248315107035],[13.41420877328686,42.97342906383695],[13.41449722933137,42.97364749796583],[13.414789869625912,42.97375323017471],[13.415041140090326,42.97381782035404],[13.41527701584912,42.9738784529468],[13.415520352447665,42.97392207857527],[13.415752097321937,42.973963626343185],[13.41607933240789,42.97416705258774],[13.416244561736992,42.97437674087895],[13.416348497697903,42.9746293121245],[13.41652290526373,42.97500970558841],[13.416556257296508,42.97513975704408],[13.416599494389528,42.97530834996789],[13.416507153816672,42.97555950691433],[13.416393896402393,42.97577545952188],[13.416289486934486,42.975986568352255],[13.416138258183105,42.97618598218093],[13.416010999937654,42.97633495234842],[13.415981364646534,42.97639260849784],[13.415965711486162,42.97642306288883],[13.4158953263679,42.97656000109305],[13.415778846750152,42.976731062417485],[13.415760831067608,42.97690731992819],[13.415707696753598,42.97724643929655],[13.415645164277544,42.9776455484755],[13.41558933768928,42.97785027714712],[13.415465453754953,42.97800361789985],[13.415206097704903,42.97806315995817],[13.414837977234633,42.97805938063253],[13.414503162553617,42.978135342113404],[13.41435176201868,42.97837527476008],[13.414331006029958,42.9787271999662],[13.414283541448025,42.979048645934114],[13.4141102866351,42.979271787224185],[13.413991675589257,42.979424551715596],[13.4139630895553,42.97953740430019],[13.41389610008237,42.979801875832095],[13.413875773536533,42.98015871451079],[13.413943560059804,42.980421259264006],[13.413968904151606,42.9806074714714],[13.4139953665098,42.9808018919173],[13.413751601448896,42.98112191914817],[13.413661172782785,42.98140000960331],[13.413693099915239,42.9815898082927],[13.413714589740065,42.981717557560785],[13.413753585071012,42.98182634310905],[13.413818046145504,42.98200616240398],[13.413755612765332,42.98241821781681],[13.413741101270462,42.98250608727483],[13.413725683991856,42.982599437778234],[13.413929447223033,42.98268938662477],[13.414710256072675,42.983034057324716],[13.414778320305823,42.98317097507876],[13.414747428258499,42.983424257399],[13.414679207235746,42.98375550880982],[13.414721045208253,42.98399697717851],[13.414702075125208,42.984330669289285],[13.414693376599427,42.98463726988322],[13.414598926137263,42.98498754132539],[13.41444059274535,42.98534478298024],[13.414301525396358,42.985548262063254],[13.414213066317673,42.985677689399864],[13.413923104168418,42.9859950005013],[13.413559923953095,42.9861890964274],[13.413039366134814,42.986497309698336],[13.412645931527623,42.986526012767484],[13.412360307173508,42.986604568755446],[13.412222077146268,42.98677196498495],[13.412153683091832,42.9869726757457],[13.412099770259642,42.98720433843684],[13.41199903310323,42.98733877501822],[13.411674781671806,42.98747734211913],[13.411258810090887,42.98753392046233],[13.41096368931692,42.987522809246336],[13.410775247712353,42.98767413611168],[13.410723426314023,42.98780668285445],[13.410666607391853,42.98808347231423],[13.410576967785122,42.98824448884119],[13.410410401953783,42.988530017046806],[13.409961094655511,42.988848969420665],[13.409748830754301,42.98901021747861],[13.409605432208096,42.98927684465375],[13.409774227713557,42.98945039145683],[13.4099666833972,42.989569006170726],[13.410196795243658,42.98969967071565],[13.410462311238803,42.98981096232888],[13.410558536412033,42.98995579940629],[13.410526825141563,42.990155092870154],[13.410217200470457,42.99028408793399],[13.409883598728765,42.99037799578196],[13.409599396974935,42.99051951258203],[13.409362671707932,42.99059617355926],[13.409208967018458,42.99089020771584],[13.409165178258057,42.99113498309822],[13.409195256910872,42.99134089445766],[13.409029320347015,42.99163539959631],[13.40874398226032,42.99180396781848],[13.408616354714518,42.99194844247477],[13.408565167511783,42.99208996698827],[13.408531020570011,42.99246941656521],[13.408394355281917,42.99291584592622],[13.408324478769856,42.99331017910063],[13.408227567552517,42.99366954350191],[13.408124225662652,42.9939391246481],[13.408117610745341,42.994146452219944],[13.408275314321212,42.99429341949268],[13.408444935278373,42.99434989621312],[13.40872462958311,42.994487653347385],[13.40896296098067,42.99469002879436],[13.408933008860943,42.99495677805006],[13.40874389760987,42.9950991242524],[13.408482205636927,42.99521275993522],[13.408236444925466,42.99533478345639],[13.407950931097604,42.995458340429195],[13.407897818630023,42.99548739955572],[13.407689392918625,42.99561698447523],[13.407620653682878,42.99581320423149],[13.407627711688605,42.99608302674198],[13.407702034784123,42.9964357835195],[13.407792134462746,42.996751918594946],[13.407849083818851,42.99703331987091],[13.407851469359391,42.99736634427413],[13.407793661475246,42.99771519615473],[13.40764139339176,42.997901135012825],[13.40752598361406,42.99804513704641],[13.407373226524733,42.99826710639822],[13.407305606440923,42.9985218036995],[13.407311377133706,42.998773668510424],[13.40730556007738,42.99903498451646],[13.407239388534782,42.99926711783401],[13.407099675826187,42.99937154259472],[13.406852610411264,42.999475607996104],[13.406619070901455,42.99951162693951],[13.40628590054495,42.999569494067046],[13.405974934715022,42.999680524007886],[13.40576503999992,42.99983267017695],[13.405708524505377,43.00002841732601],[13.405766928535058,43.0002017257697],[13.405873621150462,43.00036416939705],[13.405962939430898,43.00045525729748],[13.406654517958883,43.00073468747202],[13.407023888999335,43.000882493957945],[13.407326627038998,43.001041873335524],[13.407483704878523,43.0011798633679],[13.407564008152569,43.0013163130083],[13.407645913622513,43.00156073938069],[13.407689356773545,43.00173912565704],[13.407781724187833,43.00200115467061],[13.40804470681978,43.00224759576008],[13.408239621533154,43.00227158531152],[13.408607245223564,43.002266401117325],[13.408849151830177,43.00243262567471],[13.408988040556315,43.0027018604315],[13.409055949421662,43.00296483238219],[13.408977391543704,43.003152428639254],[13.408667378414647,43.00327693314026],[13.408309404084267,43.00333126287008],[13.407938545188296,43.003462616005976],[13.407716896168317,43.00357920649144],[13.407523078099333,43.003870283630086],[13.407503742641538,43.00411411471524],[13.407681423247412,43.00436835035879],[13.408034884319848,43.004507764068435],[13.408472529440688,43.00466643583513],[13.40884949425112,43.0047914359895],[13.409163361801248,43.00497739038268],[13.4092319213527,43.005163809731435],[13.409177180586349,43.005427014095424],[13.409109240935452,43.00567722306845],[13.40926149771806,43.00600446137968],[13.409629142132117,43.00599927295769],[13.409909060149861,43.00601097493117],[13.410241935774202,43.00603413553084],[13.410510907591137,43.00606426416223],[13.410753646629793,43.00611341421152],[13.410997020800764,43.006171537924956],[13.411191948365508,43.00628105144801],[13.411372388620844,43.00644514247993],[13.411407810215893,43.00651131483701],[13.411499872902041,43.00668330496138],[13.411556208064608,43.006870194036054],[13.411537694053937,43.007168012309855],[13.411512099203025,43.007324306167845],[13.411477166111345,43.0075214733054],[13.411423399430792,43.007798145860576],[13.411390075981629,43.00806052408062],[13.411347416489606,43.008192716281606],[13.41130726314232,43.008318389693926],[13.41128458328104,43.00838872171116],[13.411221088285735,43.00839437797969],[13.410928241269023,43.008420476151905],[13.410810570758406,43.00844752793812],[13.410692578297112,43.008470090429135],[13.41026391195787,43.00843712482969],[13.409861646524009,43.008344617522724],[13.409642728530333,43.00828554554017],[13.409138725448146,43.008314003901745],[13.408781686505591,43.00842456743389],[13.408540497291574,43.00845964328973],[13.408423519474184,43.00847665520671],[13.40820312917017,43.0084826476681],[13.408028655035022,43.00848739272661],[13.407774677821505,43.00852127954138],[13.407648917622517,43.00853805874574],[13.407594805822209,43.0085533219911],[13.407279156752384,43.008642356959164],[13.40699531694101,43.00874733027893],[13.406857878386438,43.00879815915888],[13.406795963641564,43.00882530659091],[13.40646862369406,43.008968833930346],[13.406385314224314,43.00900536310799],[13.405987944582401,43.00915583095464],[13.405802800902334,43.00922576947867],[13.40562960159249,43.00929119468327],[13.405551585263787,43.00932346405935],[13.405221237536319,43.00946015155537],[13.404971501876764,43.00960917723828],[13.40475754979313,43.009747973285535],[13.404670485477268,43.00980760060265],[13.404620138716654,43.00984208047645],[13.40452073507791,43.009910158524825],[13.40423272095425,43.010128335725845],[13.40404483987153,43.01028863328556],[13.403659102570575,43.01055559274639],[13.403450156160995,43.01063586065339],[13.403372546405997,43.010665673903524],[13.403026436748243,43.01071502827145],[13.402840052344429,43.010682033753355],[13.402650561616401,43.01064848791366],[13.40221961639971,43.01058383455289],[13.4021731112465,43.010576858546386],[13.402079616042554,43.01055726123917],[13.40184180798237,43.01050741476245],[13.401755870683104,43.01048940131303],[13.40164595678984,43.01047674308336],[13.401598152284038,43.01047123761694],[13.40125797538082,43.01043205984599],[13.401107948263656,43.01039844580808],[13.40106653938453,43.01038916894295],[13.400977446304973,43.01036920664999],[13.40074367164799,43.01031682832179],[13.4006463459084,43.010288878366474],[13.40034300618997,43.01020176628076],[13.400050111389596,43.01001619879773],[13.400004699909406,43.00998741989386],[13.399787074154066,43.009849501886755],[13.399710090247465,43.009802306514395],[13.399540193540615,43.00969814929875],[13.399338109524916,43.00957426026108],[13.398866059960692,43.00940780670156],[13.398569530687306,43.009464241416765],[13.39784648111994,43.009549007509484],[13.397596243958185,43.00957824225219],[13.397572122964553,43.009630938472135],[13.397415877681404,43.009972277477765],[13.397275501988169,43.009926073052576],[13.397183425655077,43.009895739265694],[13.396962735784241,43.00985471749411],[13.396597330065003,43.00980576051254],[13.39628873324025,43.009822139270916],[13.395978488684987,43.00998713286572],[13.395826945571322,43.01022704664819],[13.395625673709759,43.010414855396114],[13.39536177247626,43.01062758082696],[13.395074064009458,43.01076469696639],[13.394802611916276,43.010914688181394],[13.394492380917981,43.01099414752812],[13.39438182255275,43.0109771315024],[13.394234985408147,43.010954531658726],[13.393953440235315,43.01092034665545],[13.393502067311081,43.01087018490877],[13.3925977862118,43.01104901231156],[13.392392041313226,43.011088435104575],[13.392129755799289,43.01123806930757],[13.392001556424015,43.01141856045077],[13.391787218509608,43.01163837523448],[13.391750156604681,43.011710121625434],[13.391723480042645,43.011761763370096],[13.391710914026126,43.01178608882458],[13.391568948321975,43.01206091154117],[13.391504337406058,43.01222995423392],[13.39141120857774,43.01247211811701],[13.39138852435119,43.01262592344336],[13.391367806456776,43.01276638872213],[13.39124645030419,43.01317169474379],[13.391191932755353,43.01336241524594],[13.391138462825142,43.01354947705382],[13.391120518695296,43.01377074402418],[13.391187086094906,43.01401577101734],[13.39120208298108,43.01406250824825],[13.391254149126084,43.01422476691907],[13.391280826487192,43.01436671795789],[13.391298664702624,43.01446163923334],[13.391301611209677,43.01480364572513],[13.391292000579964,43.015141633329016],[13.391261153269804,43.015439923718674],[13.39126412482723,43.01552865238104],[13.391274704944104,43.01584454415105],[13.39119607730452,43.01603213103274],[13.391006367890574,43.01621048400685],[13.39083052323257,43.01632528116992],[13.390702456216792,43.01655078098518],[13.390690688366842,43.01662160789897],[13.39065954466537,43.016809020424624],[13.390493204257066,43.01701343805797],[13.390270938759393,43.01716607649077],[13.389737654763577,43.01734412696601],[13.389461964058974,43.01752127995409],[13.389212170217998,43.01776045886012],[13.388908096777726,43.018055742107904],[13.388604982643749,43.018364491630244],[13.38833447341154,43.01844240829751],[13.388173923840037,43.018459366393856],[13.387964769040556,43.018481458657604],[13.387865621130038,43.01849193055199],[13.38743753016595,43.01846786038806],[13.386986777647868,43.01834112186149],[13.386633278069084,43.01820164453589],[13.386458695085887,43.01794725794887],[13.386292651586464,43.01768353904787],[13.385823944970385,43.01777806339809],[13.385535686229018,43.0175640518804],[13.385282179750268,43.017407226446124],[13.385109452842311,43.01735083474819],[13.38480550912739,43.017303982259676],[13.384542333975054,43.01735098211279],[13.384484454125442,43.01736132194812],[13.384212804134588,43.017466281388394],[13.384131362551802,43.01750669041289],[13.38375063669764,43.01769559373023],[13.383342247976735,43.01790483410833],[13.38307755542844,43.01810861789888],[13.382726679918502,43.018392116352686],[13.382499048760545,43.01868444879416],[13.382415932849245,43.01880672956466],[13.38214089346554,43.019211369516434],[13.381948144849824,43.01960589978777],[13.381889538488167,43.01994576629069],[13.381989508273007,43.020315561658954],[13.38203733469523,43.020502361659034],[13.382112772839,43.0207970036052],[13.382357128409959,43.0212557933704],[13.382604227126123,43.02170997481562],[13.382665200101366,43.021671401968405],[13.382839048201722,43.02156141610095],[13.383003184357923,43.021411068431206],[13.383268953234804,43.02118029232597],[13.38357751083687,43.02103340421309],[13.383812806910369,43.0210833661926],[13.383882752674715,43.02109821650215],[13.383987471853464,43.0213192763314],[13.384093150760494,43.02155380405819],[13.384255781394982,43.02189868519512],[13.384418554213207,43.02228857583991],[13.384482652366383,43.02262823532337],[13.384505981556902,43.02271810765653],[13.384605300948671,43.02310069477292],[13.384582459412824,43.02342568484983],[13.384562808605205,43.02365730246657],[13.384549122511494,43.02381860104035],[13.384396722080323,43.024004514267624],[13.384184772000696,43.02412969033488],[13.384078223144396,43.02439937300852],[13.383985831435472,43.024695521006244],[13.383858542663962,43.02488947206985],[13.383730151836135,43.02502494524301],[13.383628796317694,43.02519539364908],[13.38361082628832,43.02541666041135],[13.38368897703446,43.02565224483536],[13.383807871679505,43.02585486770303],[13.383844232600536,43.02588080151823],[13.38396549860538,43.02596729518587],[13.384011349476063,43.02599999798037],[13.384181210321223,43.026033910300825],[13.384257206458615,43.02604908272011],[13.384490155768631,43.026089651951146],[13.384669341210145,43.026235834113464],[13.384662793129909,43.02648817293846],[13.384558840642166,43.02670823865203],[13.384407395398156,43.02690762006027],[13.384178463860126,43.0271820001853],[13.383776417944174,43.02748102928063],[13.383378105829756,43.02770338811293],[13.38301814296764,43.02786125151645],[13.382632243307683,43.028042616983114],[13.38216245252689,43.02820919311313],[13.381665583680936,43.028426322833596],[13.38129091414606,43.028679277876336],[13.381138312233823,43.02890570901943],[13.381034343468144,43.029125772190206],[13.381012762981463,43.02946871960173],[13.38107881235205,43.02974978511437],[13.38156839371536,43.0303342168841],[13.381880861894675,43.03054280768395],[13.382194790615992,43.03072883352873],[13.382665687218566,43.031007870511544],[13.383176543539141,43.03124485766927],[13.383428184444066,43.03137475018722],[13.38376852074945,43.03158676788333],[13.384142978706103,43.031846991707354],[13.384452046018753,43.03213673391091],[13.38456020505484,43.032276632832456],[13.384688110838612,43.032564324915825],[13.384217012007108,43.03271295341659],[13.383967354722826,43.03282607162123],[13.383597581907644,43.032889780584746],[13.383094175527898,43.03288659141727],[13.382663346862177,43.0329976553764],[13.382559481881941,43.033060066857374],[13.382451048009267,43.0331252221557],[13.382063150901823,43.03335830220806],[13.381888521992542,43.03349104556568],[13.381775729499948,43.03363041979988],[13.381670936635862,43.03388202638447],[13.381651639857147,43.034170866877794],[13.381690979698872,43.034421446100616],[13.3817089005139,43.03467284604512],[13.381600328043136,43.03508665455527],[13.381370176172483,43.03547361522925],[13.381190299880808,43.03579112296378],[13.380984622977877,43.03617714410555],[13.380951943021614,43.03649350740285],[13.381025822019518,43.036927326246754],[13.38105220283501,43.037340458773244],[13.381118123817402,43.037576513797895],[13.381200344405483,43.037739918763194],[13.381353728561386,43.037954612427704],[13.381497471963108,43.0381201579991],[13.381663417384495,43.03833887100145],[13.381818264521858,43.03853099985545],[13.381876007485102,43.03869534240131],[13.381821309696752,43.038918017668635],[13.38156116272057,43.039013527576714],[13.381385237387942,43.03912831350225],[13.381282574938343,43.03928080350876],[13.381212214186014,43.039585107302585],[13.381165834363417,43.039924504098586],[13.38115927506193,43.0401768438884],[13.381175878823717,43.0404958184363],[13.381234443502047,43.0406286194174],[13.38135093226686,43.04088524173868],[13.381283350203809,43.041099407729774],[13.381091556642595,43.04103473940415],[13.380970008513595,43.04092236048745],[13.380825759276492,43.040792846568664],[13.380705031016792,43.04064892466681],[13.380432155298614,43.0403937975334],[13.380260506248185,43.04031034882117],[13.380055516723642,43.04023267994095],[13.379858385796489,43.04022223256893],[13.379624352991511,43.040253714238766],[13.379413617504067,43.04039684149211],[13.379236043609325,43.04057470984178],[13.37919165526544,43.0407699789744],[13.379197330197378,43.04102184963536],[13.37920588317518,43.04131412351793],[13.379245998743837,43.041618692134065],[13.379275515408274,43.041860645482124],[13.379330474479747,43.04211512817893],[13.37937483438767,43.042306994718885],[13.37831771610467,43.04241504339815],[13.378109203297525,43.042287989314445],[13.377817650776109,43.042168890118695],[13.377464438142871,43.042024600681756],[13.37697726086993,43.04194873716318],[13.376415360071382,43.041857728127255],[13.376075196717128,43.04180820821547],[13.375950246435638,43.04179001805479],[13.375484174806752,43.041708838844805],[13.374970921534441,43.04161145752614],[13.374520473157489,43.041534176662765],[13.374153745860943,43.04151220890897],[13.373902386601735,43.041688392958115]]]}}]}
