{"type":"FeatureCollection","metadata":{"code":"112002","referenceDate":"2026-01-01","sourceDbfExportDate":"2026-02-18","upstreamArchiveUrl":"https://www.istat.it/storage/cartografia/confini_amministrativi/non_generalizzati/2026/Limiti01012026.zip","sourceManifestSha256":"70ac8256c4785dc6ed2814c32b6965ae76f9161b51abaa1660059e1c6cbd8ca6","license":"https://creativecommons.org/licenses/by/4.0/","attribution":"Istat, Confini delle unità amministrative a fini statistici al 1° gennaio 2026, versione non generalizzata.","modifications":["Converted from WGS 84 / UTM zone 32N (EPSG:32632) to RFC 7946 WGS 84 geographic coordinates.","Converted from shapefile to per-municipality GeoJSON without geometry simplification."]},"features":[{"type":"Feature","id":"112002","properties":{"code":"112002","name":"Anela","alternativeName":null,"regionCode":"20","regionName":"Sardegna","territorialUnitCode":"312","territorialUnitName":"Sassari"},"geometry":{"type":"Polygon","coordinates":[[[8.995009364403034,40.493374457928034],[8.994707240175506,40.493459960925286],[8.994388595366342,40.49387435866342],[8.994211567647447,40.494108582949984],[8.99393963843955,40.494348088517796],[8.993904729282074,40.49437883540542],[8.992653875236948,40.49430669132024],[8.992343141610073,40.494180482553695],[8.992096362736271,40.494083178312955],[8.99205130796976,40.49405312830161],[8.991839681407509,40.49392826008811],[8.991615817798653,40.493770591415256],[8.99152109607658,40.493703013162104],[8.99111992113875,40.49339667864252],[8.990754112915592,40.49336061382699],[8.990401902720608,40.49327532362953],[8.990270314272628,40.49324345758804],[8.989768717458988,40.492924620633666],[8.98951517957452,40.4926668179349],[8.989361821431496,40.4923785175422],[8.989291062460948,40.49210824178259],[8.989361905369488,40.49184698812238],[8.989609757849879,40.49152268810947],[8.989674999188564,40.49132666455097],[8.989692395096235,40.49127945335128],[8.989680646026157,40.49094612067386],[8.989586316262802,40.49049566398638],[8.989470040026253,40.490338958368284],[8.989380918209568,40.49022804716333],[8.989102617737002,40.4898920183886],[8.988843046454395,40.489747849915496],[8.98876088942573,40.4897366410183],[8.98851266036663,40.48970277326009],[8.98830029977701,40.48950455491626],[8.98831258349856,40.48944270550584],[8.988359349060351,40.48920726440233],[8.988040831272594,40.48879281967927],[8.987332880915282,40.488657609561834],[8.986707488868744,40.48872961074448],[8.986400655819772,40.48894579019516],[8.986262054615711,40.48916233218674],[8.98594038751379,40.489342130136585],[8.985715178211933,40.489273810403276],[8.985385838029629,40.48917088960786],[8.985043697333602,40.48894562166147],[8.98466613322557,40.48883746461333],[8.984217788183818,40.48866623430897],[8.983734078125767,40.48836887072655],[8.98343912866695,40.48820666791505],[8.982967138338502,40.488251643621844],[8.982660316335952,40.48838673270133],[8.98262569611817,40.48838720768399],[8.982011339385663,40.488395642555226],[8.981818937546771,40.48837634751761],[8.981291588203154,40.48832345686926],[8.980891047676613,40.48836620320003],[8.980701593088378,40.488386422241796],[8.979993613594269,40.488413328979256],[8.979474456661814,40.48834116652635],[8.979120531999687,40.488142905142126],[8.97877840896579,40.48794464573588],[8.97836547470529,40.48780042542289],[8.977869839222393,40.48798051150182],[8.977527621534591,40.488079544016024],[8.977229497630733,40.48821078702589],[8.977156083871808,40.48827063761228],[8.977028863121085,40.488384229007224],[8.97698473150353,40.48842177891587],[8.976890242949027,40.48869202855552],[8.976877607984417,40.488880749190436],[8.976854661318413,40.489223551148605],[8.976925310646612,40.48965599552036],[8.976996026660132,40.48989925184097],[8.977161110903944,40.49023261626725],[8.97740877448372,40.4906290598666],[8.97710188458159,40.49089926786286],[8.97648829233191,40.49088112749579],[8.976153808672633,40.49081538759698],[8.975662353836647,40.49071879476846],[8.975060617011302,40.49055650473112],[8.974718449727376,40.49047534995991],[8.973963440916512,40.489997706969625],[8.973574166576233,40.48969131403555],[8.973102291183741,40.48940291775655],[8.972760155155443,40.48926770294726],[8.9721937657059,40.489276577107496],[8.971308747235975,40.48937546021939],[8.970612553430337,40.489402311510425],[8.970235005977136,40.48930311637176],[8.96977489479444,40.48913182702594],[8.969302932868143,40.48907764840289],[8.969222420075187,40.489102597343994],[8.968925290618197,40.489194664088984],[8.968571165593483,40.48948285576634],[8.96804010176924,40.48964487101915],[8.966741990724554,40.48992378313806],[8.965893321922865,40.48998998827297],[8.965821569766524,40.48999558601319],[8.965362255617972,40.48985882721546],[8.965293510938821,40.48984002184786],[8.964547359158143,40.48967088042075],[8.964972287098263,40.489409749678956],[8.965208448233456,40.489085498321785],[8.965420944166826,40.48888736503541],[8.965690423829143,40.488817411777426],[8.965975598572047,40.4887433850205],[8.966270683025359,40.48855428348298],[8.966412389936288,40.4883291005543],[8.966695766469506,40.48795080556349],[8.966825693362946,40.48768057350357],[8.966920207592178,40.487437358279294],[8.967392378466755,40.48703208917684],[8.967746487018061,40.486761919068464],[8.967836639030386,40.48658075522484],[8.967849142951495,40.48655314508639],[8.967887241999698,40.4864758076389],[8.967923881581266,40.48640302564588],[8.967940276911714,40.48635541199616],[8.967923895703318,40.48628165491823],[8.967913644122863,40.48623539243672],[8.967864900285337,40.485879073018054],[8.96786171758269,40.4857934609894],[8.967857584871549,40.48568102786951],[8.967853251538036,40.4855637550328],[8.967868060913291,40.48542953880125],[8.96787274468056,40.48535630107412],[8.967888829239747,40.485185388646386],[8.96819579381946,40.48478006918308],[8.968455453592433,40.48459996122765],[8.96889215709011,40.484284765674765],[8.969045138610664,40.4839806919615],[8.969090089082577,40.483879534195076],[8.969116545656112,40.48382536716414],[8.96911141719191,40.48378055209002],[8.96905778733708,40.48331184023987],[8.968645208292248,40.4825099300296],[8.968534387982553,40.48222365628498],[8.968492008893257,40.48212250193993],[8.96842135283595,40.48183419575721],[8.968362505445489,40.48152787374741],[8.968445236634356,40.4812215913313],[8.968752121316156,40.480942395911924],[8.969165108381857,40.48083439910598],[8.969300531295426,40.48082738286899],[8.969507264858679,40.48081647177635],[8.969877009371437,40.48087977623881],[8.970227492852587,40.48095328631816],[8.970472614995135,40.48099319623452],[8.970569016719631,40.48101494524901],[8.970673369678655,40.480989975259035],[8.971006468411987,40.48091027243181],[8.971123593989914,40.48088233225108],[8.971170788555433,40.480870952987175],[8.97117839928628,40.480841442132224],[8.97141720031463,40.47991544559893],[8.971438593153234,40.47981972789286],[8.971494419597088,40.47937043763656],[8.971488273382288,40.47929101229823],[8.971478396199352,40.47885301665064],[8.971160316432275,40.47777186002969],[8.97112272948014,40.47742045778348],[8.971129129711223,40.47732686788949],[8.971148800186006,40.47711420048397],[8.971597266734486,40.47673593472342],[8.97203381603652,40.476636942431625],[8.972670922481226,40.47652898702487],[8.973095674935344,40.47642097887003],[8.973327279864984,40.47621382599309],[8.97343792039637,40.476114751820376],[8.97348312671801,40.47600186967688],[8.973532392163598,40.47588053974689],[8.973641149243129,40.47580190649924],[8.97398081626304,40.47555631810603],[8.974407822866658,40.47550206808614],[8.9761752092428,40.47527751218116],[8.977136010503914,40.47519488593616],[8.97891224128132,40.47504381016065],[8.980583596671469,40.474902299480746],[8.980894873704733,40.4748760566037],[8.981202062694036,40.474850005017394],[8.98124715686447,40.4748402708443],[8.981153918325369,40.47429645159151],[8.981194276323075,40.47422906317162],[8.981329425565782,40.4740034260834],[8.981531596560911,40.473665882667845],[8.98181477190748,40.47348574810137],[8.982192312083173,40.473341662766295],[8.982192381100155,40.47308040172451],[8.982169012475614,40.472705993115746],[8.982168896831704,40.47266598474221],[8.982227377964925,40.472623805199405],[8.98227508747588,40.47258998799127],[8.982546463134572,40.47239577222285],[8.982601358132046,40.47221427215643],[8.982618229976937,40.47216823836994],[8.9826527249599,40.47204443736802],[8.982652800000293,40.471752822021195],[8.982652808416946,40.47172011370654],[8.982652826962694,40.471648042079586],[8.982594797253437,40.47131223571212],[8.9826257679036,40.471271947319636],[8.98286532879389,40.471003929997984],[8.982900728816462,40.47096339533775],[8.982944019778477,40.47081925755357],[8.983030598787552,40.47053098192529],[8.983013063448833,40.470366506195745],[8.983009124392112,40.47032991708722],[8.98298437292899,40.47009672181286],[8.983023038198192,40.46991816324705],[8.983087836087616,40.46962064462786],[8.983161273228268,40.46947809132635],[8.983290446550772,40.46921570649393],[8.983483676273828,40.468932493596355],[8.983631771465827,40.46879820473319],[8.983660608505257,40.46877361044601],[8.983797236534151,40.468656491935945],[8.983930542750318,40.46856714866773],[8.984045573725139,40.46848908658522],[8.984116360705137,40.4684410491546],[8.984218564804682,40.468234203158595],[8.984281774268277,40.468112406417404],[8.984446803821914,40.467774427271245],[8.984720967474951,40.46711041948159],[8.984863390748002,40.46676547447887],[8.984974766551058,40.466492496942884],[8.985006044520631,40.46642241581005],[8.985060521253802,40.46628802278493],[8.98523752148999,40.465990748752866],[8.985285565100352,40.46586234852771],[8.985308756519792,40.465786870740246],[8.98533194472873,40.46572049031134],[8.985313072686457,40.46566712625865],[8.985214062445335,40.46538714218563],[8.985202322206073,40.465134888346135],[8.985343734870973,40.465013241484975],[8.98540246138761,40.46496374313816],[8.985497262934246,40.46488267337906],[8.985584188992082,40.46478780245481],[8.985733225309838,40.464630451284926],[8.985936291182663,40.464314418807426],[8.986040003893915,40.46415301122418],[8.986082385404746,40.463915288379845],[8.986181720829839,40.46330618115233],[8.986170211974677,40.46190978310235],[8.986163746838256,40.46181927709383],[8.986155540158679,40.46170308688326],[8.986136398127888,40.46143342834517],[8.986139541614307,40.46139829510256],[8.98614839403875,40.46136212649939],[8.98624046294785,40.46114662582355],[8.98636208824896,40.46085359458504],[8.986846516687418,40.460319003046884],[8.986972598307641,40.460180145895045],[8.987201261829993,40.45992572245874],[8.987798386736657,40.45926131654121],[8.988116200029419,40.45901169166203],[8.989449810358867,40.4579641804698],[8.99026371255622,40.4572615483996],[8.990676551272948,40.45692824883715],[8.991950332414847,40.45671212820682],[8.992705153516216,40.456658123765926],[8.993330240801686,40.45659509879397],[8.993672259089283,40.456658180750516],[8.994002481909618,40.456757298343014],[8.994320908560775,40.456892448967906],[8.994800803308134,40.45683901341265],[8.994887026003733,40.45682941266811],[8.995335223851693,40.45646006164008],[8.995795214132576,40.45603665563609],[8.996113662775354,40.455793423124376],[8.996396732783028,40.455451089519954],[8.996442472369537,40.455371902821206],[8.996573655064166,40.45514478847362],[8.996856720854794,40.45478443551848],[8.997198749778919,40.45447813695063],[8.9994985150325,40.45267636527688],[8.999665975697285,40.45254780517815],[9.000991264681339,40.45153034641565],[9.001868914120339,40.45085652796911],[9.00294203789399,40.45002767478154],[9.004970252759449,40.44798255546762],[9.005842813577045,40.44704557503202],[9.006939394807768,40.44604551088324],[9.007493569208837,40.445549979916635],[9.010040403596856,40.4438921234168],[9.010523791238702,40.443423610297216],[9.012669461901162,40.44122518878473],[9.01358897696158,40.44020706249596],[9.014520303754686,40.439414153354626],[9.015527481676372,40.43857862141953],[9.016453630801255,40.437810283964545],[9.018085148161493,40.436500569119644],[9.01839866874281,40.43625142464673],[9.01890380194277,40.43582508915701],[9.018987588176651,40.43578701098337],[9.019176677428462,40.43569273714427],[9.021593504536916,40.435106722502454],[9.024470120305471,40.434565606497856],[9.025142130666723,40.434493389312685],[9.0256844167152,40.43434011679385],[9.02646251963609,40.434231831813605],[9.026573043141083,40.43421153773378],[9.026636138553101,40.43420068523699],[9.026689045029734,40.43419015578318],[9.026748886818101,40.434180550838754],[9.027099136039672,40.43411456662149],[9.027334785058947,40.434000188051165],[9.027375733461199,40.43398315562018],[9.027437140302911,40.43395228210673],[9.02760600862295,40.43387120302341],[9.02787328044956,40.43364264404752],[9.027996477622985,40.43353889491734],[9.028093529983986,40.433471780413726],[9.02836032609719,40.43329444089848],[9.028729283004223,40.43316109671532],[9.02913834266706,40.433023975436434],[9.029621555483976,40.43263646288351],[9.029798302964481,40.43241119107922],[9.029998640861903,40.43221294026107],[9.030387599268591,40.431987612281176],[9.03065868888606,40.431825377300186],[9.031106595460274,40.431609040368365],[9.031401226454694,40.4313747251673],[9.031707602701772,40.43105031559007],[9.032226125122376,40.430599719320526],[9.03250896269008,40.4303744136738],[9.032956884491618,40.430221132532786],[9.033475536328243,40.4300588209642],[9.03413564809319,40.42987844622043],[9.034532847167908,40.429715448568565],[9.034593179183313,40.42969234373111],[9.03551470222986,40.42931946914773],[9.035872839638959,40.42916615647991],[9.036849280505486,40.428746279652366],[9.037106193894555,40.42863427071261],[9.037251986584966,40.42857142115966],[9.037294448125147,40.42855313874949],[9.037387107723257,40.42852181469636],[9.0374745385499,40.42849225805394],[9.037788926928489,40.428384945230064],[9.039828592079772,40.427696432086336],[9.041761533802587,40.42698403375742],[9.042124718791866,40.426865098524715],[9.042194284449609,40.42684365123367],[9.042504074421311,40.42674051828765],[9.042931180368097,40.42668255606059],[9.042998560116375,40.42667250475325],[9.043079705626598,40.426662399628846],[9.0433485382516,40.42662591484812],[9.043635695872931,40.42658694231208],[9.04875172741882,40.42620651809233],[9.050769740824649,40.426040167014975],[9.051250767157605,40.42600050917826],[9.051498312225121,40.425980100693494],[9.051840126043126,40.425906609954595],[9.052170152390866,40.42583565419058],[9.05243149362548,40.42577522790144],[9.052483955101412,40.425763989524064],[9.053714178277536,40.42548359349386],[9.054315226460787,40.42527610431595],[9.05505755603032,40.424852326384034],[9.055802462688346,40.42447422235385],[9.055840548491751,40.42445388745498],[9.055890071353895,40.42442777936414],[9.056143238431194,40.42429985575173],[9.056773742099097,40.42397900266116],[9.0568106168082,40.42396023742801],[9.056883033221913,40.42392588510593],[9.057343522056463,40.42368904516869],[9.058839973456774,40.42294054086403],[9.060006657028246,40.42256155996792],[9.060619383216853,40.422281959617926],[9.060996475503012,40.42214662504892],[9.061338170690062,40.42197527145847],[9.061479379527887,40.421704924856165],[9.062068656782888,40.42157848289948],[9.062705108575823,40.42147903889316],[9.06299945119933,40.42110049842699],[9.063541485422151,40.42088398413693],[9.06403650910148,40.420820647010295],[9.064484347453549,40.42072129841037],[9.064932071883717,40.42050483014927],[9.06523842912835,40.420378530556086],[9.065969052190532,40.420161898296215],[9.066204777091581,40.420057779094115],[9.066463917568012,40.41994539717735],[9.066793782292166,40.41975601591047],[9.067960547439066,40.41955713655742],[9.068561600809055,40.4194486728393],[9.068926855404824,40.41929530107023],[9.069527671851015,40.418961605579646],[9.070081398118228,40.41869099863791],[9.07089451683207,40.41849230346181],[9.071331975737996,40.4183618224742],[9.071471036872532,40.41832126930342],[9.071837204297909,40.418212440693004],[9.072791797458198,40.41804967986897],[9.073322133993576,40.41796826332709],[9.073640349521833,40.41793202449363],[9.07414713049952,40.41786863746543],[9.074488779393466,40.41770625407504],[9.074771423047421,40.417480844696094],[9.07494585673049,40.41709666988537],[9.074976495783822,40.41701977584039],[9.074947409233808,40.41674198582052],[9.07514738763794,40.416381492669466],[9.075264794942212,40.4159669989175],[9.075158322599691,40.415615713931125],[9.074981130383739,40.41526447470822],[9.074973591126117,40.41510907260061],[9.074970573183776,40.41504488523865],[9.074961576503359,40.414881483039686],[9.074957034518327,40.414796018842814],[9.07500467390746,40.41474689436547],[9.07513809331656,40.41460957669814],[9.075298456220374,40.41444444268277],[9.075624846804898,40.41428272795264],[9.075770684933977,40.414210677254324],[9.075993632713699,40.41423761696133],[9.076142173599212,40.41425599971696],[9.076276549727837,40.41427262943628],[9.076959781858383,40.41471884246318],[9.076978847098864,40.41474072291709],[9.077112468412665,40.4149407416023],[9.077185001706468,40.41504680752192],[9.077300123039155,40.41525661866446],[9.077397607832452,40.4154340553886],[9.077546907096048,40.41552518383621],[9.077725865107023,40.4156277067521],[9.077794613074781,40.415673484670855],[9.077987362142528,40.41579402160966],[9.078541616304504,40.41602788259355],[9.078750906060955,40.416090804298946],[9.079142957802494,40.41620765467936],[9.079525708151943,40.41630111425989],[9.079574789567106,40.41631534648251],[9.079791428133372,40.41636937191316],[9.080121580950333,40.41646909383017],[9.080416360820998,40.41655813023211],[9.080711053609127,40.41657363865632],[9.080923233017975,40.416584804039985],[9.08130041537679,40.41658453853637],[9.081371137731734,40.41658448878591],[9.081889822463195,40.41663169090649],[9.081960551558666,40.41663812737941],[9.082293693838452,40.4167304840965],[9.08247940454316,40.416822444208],[9.082668111566289,40.41691690552024],[9.082986549526792,40.417069831157555],[9.083069117382458,40.41711681224269],[9.083192121289404,40.41718680147867],[9.083618603530672,40.41742950033183],[9.083656302586808,40.41743806688924],[9.083752503490617,40.41746049759571],[9.083930048892775,40.417501586611614],[9.084437087205211,40.41765437207835],[9.084708643428016,40.418014536702046],[9.084956571147716,40.41832967228803],[9.085187662185076,40.41854241995513],[9.085298802880331,40.41864473779059],[9.085464175899167,40.41873425398528],[9.08554326021408,40.4187770610249],[9.085664461847319,40.41884266689309],[9.085770032649865,40.418909440103356],[9.086148134535902,40.4191486158235],[9.086591521122044,40.419376889003416],[9.086619954933973,40.41939149225253],[9.086756102476256,40.419461280429246],[9.087037484982991,40.4196059729598],[9.087197912106733,40.41968837315623],[9.087304515824673,40.419703956010395],[9.087810982088175,40.41977804747527],[9.087988874983001,40.41977347342649],[9.088176361390207,40.41976858457617],[9.088254187061503,40.41975523580612],[9.08863142493328,40.41969039490863],[9.088859903143437,40.41965107209552],[9.089019025756164,40.41961662484606],[9.089319168896184,40.4195517473399],[9.089504523260544,40.41952007289049],[9.090061927734169,40.41942491518024],[9.09059978777217,40.419292636198385],[9.090981046313665,40.4191989687249],[9.092006416622356,40.41909905670771],[9.092607475305368,40.419026504572805],[9.093562291680808,40.41905276330106],[9.093969710182236,40.419089259581774],[9.09465865496434,40.41915097151878],[9.09533081765652,40.41934861868279],[9.095755689143173,40.41971763986815],[9.09596830003739,40.42002377182962],[9.096346491061237,40.42071715602638],[9.096724600720307,40.42134747586837],[9.096854873544252,40.42177079291393],[9.097079555878839,40.4222661036814],[9.097374904176524,40.42271630877052],[9.09811897688599,40.423697667868325],[9.098520564013304,40.42423787109101],[9.098886595402671,40.42464296621715],[9.099148952119394,40.42491880762831],[9.099323444235598,40.425102053260375],[9.09976017568699,40.42548005829024],[9.100208473411739,40.42570489720965],[9.10045784422777,40.42579006849282],[9.100550512620279,40.42582171901455],[9.100935958013645,40.425859800811295],[9.101092870965532,40.42587530357546],[9.101200216487447,40.42589894783628],[9.101352305558185,40.42593244931808],[9.101540986074387,40.42597401047418],[9.101867938944824,40.42610148411528],[9.101939506436958,40.426126786256425],[9.102020432287471,40.426160938778374],[9.102051889998705,40.42617540130874],[9.102157144367998,40.42622277658743],[9.102330570324908,40.42630165315483],[9.102614443418512,40.426432522304445],[9.10307460077464,40.426693375178175],[9.103462184446206,40.4270279606648],[9.103522816948992,40.42708016747426],[9.104390806349613,40.42782958834011],[9.104437546227972,40.427869923258534],[9.104500725926215,40.42792773903461],[9.104420507599762,40.427978211302744],[9.102159172977816,40.42939690665646],[9.09958638138977,40.430973129142124],[9.099490844023878,40.43102958691455],[9.098119065902408,40.43186888827205],[9.09650532932386,40.43287926055196],[9.096223542250835,40.43306378248115],[9.09613442498784,40.433122139349415],[9.096098956139043,40.433145366432335],[9.092170540428972,40.43571163978157],[9.090563754797484,40.43671736705622],[9.08901441311921,40.43768917946612],[9.08493699582,40.44024873052081],[9.082687695980164,40.441654985519556],[9.082658099707299,40.441673487976566],[9.08260708883592,40.44170537525173],[9.081791156405925,40.44221496478981],[9.079599530758657,40.44355884117273],[9.079234296190899,40.44382035442984],[9.078892809859502,40.444225994244995],[9.077249929964616,40.44607292642319],[9.076964374937795,40.4463939671488],[9.0759716899905,40.4471108421505],[9.075465176052214,40.44760667098189],[9.074416488357818,40.44836410908828],[9.073721378700426,40.44895915063569],[9.073356023554423,40.4491575823643],[9.072177296492338,40.44966282942672],[9.070526905305261,40.45023141684198],[9.069819689168225,40.45057418918801],[9.068487840852766,40.451313726529946],[9.067650796618716,40.45157548142227],[9.066423969890677,40.45201767823854],[9.066377595281756,40.45203567892399],[9.065461461494161,40.45241101846743],[9.065210532820421,40.45251382163662],[9.065004021965576,40.45259588107446],[9.064599033278595,40.452757217748335],[9.064289998647142,40.45294829725572],[9.06424777240962,40.4529682227232],[9.064120622049055,40.45305306529838],[9.063913910121741,40.45318121612327],[9.062678312792464,40.453846483623366],[9.062216504622581,40.45409205250717],[9.061756713862525,40.4542634709226],[9.061190525519413,40.454155663800066],[9.060836483445886,40.453894588764776],[9.058971717699842,40.452300957953874],[9.056661081943542,40.45042929701886],[9.056104034340693,40.44997805607794],[9.053944538671255,40.44821331366761],[9.053567100661335,40.44811438995193],[9.052941978862057,40.44796152408131],[9.052293351661435,40.44790776559446],[9.051019761500491,40.44789932559133],[9.050477348851938,40.447953617423316],[9.0499232906063,40.44820611109843],[9.047597699819534,40.449512346876446],[9.046905588777793,40.44990107334911],[9.044982062776489,40.450952250140126],[9.044782613345227,40.45106200163695],[9.04465831971452,40.45113275582543],[9.04364013437138,40.45168614472056],[9.042942949884358,40.452082760131546],[9.042526276485212,40.45233056882231],[9.042422568197537,40.45239206968465],[9.042219307137684,40.45250770557565],[9.041848227376486,40.45272284798339],[9.040197693229365,40.45360631871502],[9.039891212857356,40.453858676815045],[9.039785209976976,40.454092947981636],[9.039632052890237,40.45436327159034],[9.039325624738751,40.45471472815987],[9.038653934155185,40.45566991124185],[9.038441836363164,40.45600331562808],[9.038206244228935,40.45650789918159],[9.037819835563274,40.4576072855525],[9.037768428447304,40.45775126578414],[9.037736746004429,40.457844880553516],[9.03772018479263,40.457891837720176],[9.037709606964615,40.45793486406926],[9.037665009258864,40.45805112827062],[9.03764258819118,40.45812284250378],[9.037629252075643,40.45814772634118],[9.03706402509843,40.459778540904715],[9.036333667666236,40.46145444967898],[9.035944387144092,40.46251194743279],[9.0359142541688,40.46259380429425],[9.035872642182394,40.462706846036994],[9.035792046677296,40.462925778150456],[9.03575655188745,40.46302219709963],[9.035497273650396,40.463427682879754],[9.035465696303955,40.46348772276848],[9.035061283777349,40.46425664485078],[9.034964001959995,40.464437789209704],[9.03471955012078,40.46489638797984],[9.034389728483713,40.465779368822346],[9.03427687796611,40.46603421682559],[9.03398915055112,40.46671642295962],[9.033623855122018,40.46746427747779],[9.03330556802203,40.46786977428167],[9.032810418876812,40.46844649197393],[9.032232714660264,40.469077284960534],[9.031251258165069,40.47031741863078],[9.030770834234852,40.47092452806422],[9.029839419101927,40.47206891470072],[9.02922002038713,40.47290705922679],[9.02912024261154,40.473042069918826],[9.028518878029116,40.47369086703183],[9.027976431601525,40.4742045125677],[9.02761786235548,40.47454168456721],[9.027021226745623,40.47509662880895],[9.025452813979957,40.4767276120101],[9.025122608312344,40.47706101670045],[9.024804211517738,40.47743045412406],[9.024249991995363,40.478178317130066],[9.022693417575105,40.480340790075104],[9.022221710593747,40.480998537135655],[9.021767635515102,40.48148848800834],[9.021561236594268,40.48171037186856],[9.021040722279178,40.48223708732206],[9.020216632774378,40.483070971452754],[9.020122388509131,40.483557472893935],[9.020158100159238,40.48461151705214],[9.01982783232669,40.48495391522081],[9.018211700732921,40.48614336605642],[9.017055599979551,40.48699038528183],[9.01668609353639,40.487168884021344],[9.016064515109203,40.48722476058109],[9.015627944302304,40.487242838521055],[9.015179547448987,40.487143799719576],[9.015113894889693,40.48713031367921],[9.014565955816211,40.487017752986795],[9.013598391632568,40.4869097632677],[9.01312642058886,40.48690981783414],[9.012886481213593,40.486956711676484],[9.012619071190038,40.48700897290768],[9.012017352418749,40.48726128841842],[9.010790312424815,40.487828974602536],[9.010078679362131,40.488135808403875],[9.008831716320287,40.48866697532015],[9.006613492562488,40.489667118763606],[9.00425361355771,40.49080235940941],[9.00067824170945,40.49230693288118],[8.997114501463832,40.49402761150292],[8.996418276069512,40.493937501708075],[8.996146882246784,40.493631188599075],[8.99585188658665,40.49337892728596],[8.99526187147855,40.49330683324411],[8.995009364403034,40.493374457928034]]]}}]}
