{"type":"FeatureCollection","metadata":{"code":"114031","referenceDate":"2026-01-01","sourceDbfExportDate":"2026-02-18","upstreamArchiveUrl":"https://www.istat.it/storage/cartografia/confini_amministrativi/non_generalizzati/2026/Limiti01012026.zip","sourceManifestSha256":"70ac8256c4785dc6ed2814c32b6965ae76f9161b51abaa1660059e1c6cbd8ca6","license":"https://creativecommons.org/licenses/by/4.0/","attribution":"Istat, Confini delle unità amministrative a fini statistici al 1° gennaio 2026, versione non generalizzata.","modifications":["Converted from WGS 84 / UTM zone 32N (EPSG:32632) to RFC 7946 WGS 84 geographic coordinates.","Converted from shapefile to per-municipality GeoJSON without geometry simplification."]},"features":[{"type":"Feature","id":"114031","properties":{"code":"114031","name":"Onanì","alternativeName":null,"regionCode":"20","regionName":"Sardegna","territorialUnitCode":"114","territorialUnitName":"Nuoro"},"geometry":{"type":"Polygon","coordinates":[[[9.499892519743646,40.591737345798904],[9.5001670007021,40.592096507896315],[9.50051238927861,40.592455361186566],[9.50076297385857,40.592778590963135],[9.500800307103544,40.593030674358],[9.50074390872722,40.593391268174194],[9.500675867315492,40.59349861946327],[9.50060649176006,40.5936080746474],[9.50057627872528,40.59365574063496],[9.500451896316088,40.593851980943946],[9.500300416207569,40.5941409176393],[9.500125701961853,40.59448400675005],[9.499998190292862,40.59481788244295],[9.499835626133612,40.59520596258526],[9.499684811045958,40.59558498283061],[9.499570320162485,40.59608095860161],[9.499739058951945,40.596521658072085],[9.500061838645847,40.597015741574985],[9.500323718172384,40.59726685259461],[9.50099957299022,40.59756121674791],[9.500674832730393,40.59759867450528],[9.50005879131122,40.59766775255126],[9.499936794443414,40.59768295240317],[9.499215745880209,40.597668053379195],[9.49887288169367,40.597651517089844],[9.498528813150546,40.59747282808419],[9.498089866907346,40.59724950313257],[9.498022035006715,40.59721496753177],[9.497950011205036,40.59717104836052],[9.497532074376409,40.59693660120213],[9.497140674662214,40.59674910307344],[9.496796081863854,40.596498340571976],[9.496449563084086,40.596339317604404],[9.49630987521686,40.59627521115536],[9.495859725059443,40.59613300427204],[9.495338868978255,40.596018126222845],[9.494344498249847,40.595797167480754],[9.493078255980825,40.59556835222212],[9.492686876568877,40.5953808379368],[9.492093736870554,40.59507706916376],[9.49164294367233,40.59484476120893],[9.491416822129542,40.594629513503776],[9.491202190209739,40.5943691723713],[9.491033974236226,40.59399152061315],[9.49095110338232,40.593875193289485],[9.490747518814961,40.593605361266526],[9.49053309148075,40.59337204444061],[9.49027093353311,40.593075868928715],[9.490068064002868,40.59280646685339],[9.489935824808008,40.59266326588299],[9.489877472622975,40.59260007411839],[9.48944532559317,40.59224287098615],[9.489373063977974,40.59217358126567],[9.489128184582775,40.59194560958328],[9.488700859412669,40.59168616501138],[9.488140645575848,40.59157019744998],[9.488094601218325,40.5915716145202],[9.48800627999078,40.59157054988387],[9.487944644250822,40.59157224807459],[9.487801898202934,40.59157285098265],[9.487550567495274,40.59159521435959],[9.48737674008614,40.59161068006448],[9.48719959371854,40.591660599355606],[9.48701112444835,40.591711319253015],[9.486950813758986,40.591695321592134],[9.486868592373105,40.591672707379836],[9.48669957467373,40.59163002232924],[9.486570899567907,40.59159619214419],[9.48643687306165,40.591558217768224],[9.486369937433667,40.591543330563155],[9.485898282460418,40.591436733952754],[9.485670830207411,40.59139602648426],[9.485633231055528,40.59139437469266],[9.48556700964805,40.591384074917755],[9.485410822942203,40.591392571753296],[9.485193344940791,40.59140430866731],[9.485097498697531,40.591412266027426],[9.485023613381808,40.59141338348405],[9.485018906304814,40.591360703401136],[9.485015078976474,40.591293210009404],[9.485011186296989,40.5912660656353],[9.48500330864191,40.591161381882856],[9.484997635668073,40.59108917741277],[9.484980488563764,40.591036701806175],[9.48488887410005,40.590756310025675],[9.484858658771982,40.59074236686848],[9.48479266245121,40.59071191114792],[9.484521308635165,40.590586686429944],[9.483823258870746,40.59047249846325],[9.483267339805442,40.59040275497548],[9.482829525752955,40.59032350726703],[9.482532805488319,40.590144572337024],[9.482492997788167,40.5901191544414],[9.482423213631414,40.59008134395876],[9.482248033267057,40.58998360351811],[9.481870020753895,40.59000319872923],[9.481261262049491,40.59018591237651],[9.481243140728065,40.589924733554305],[9.481280907508705,40.58956715528747],[9.481287501320859,40.589519153978664],[9.481233505303306,40.58950608370943],[9.480885018272742,40.5894217339947],[9.48054361888633,40.5896033305222],[9.480095543593773,40.58974032529779],[9.479682853166603,40.58986816166434],[9.479412350591867,40.59004946040782],[9.479071008286631,40.59024006026819],[9.478646495699358,40.590367942860134],[9.478233219845375,40.59041469878482],[9.478189193655274,40.59025574363787],[9.47817620121113,40.59020957490679],[9.478160457417452,40.590153745680816],[9.478512719951437,40.58983698051226],[9.478818031379184,40.589565452153025],[9.479064515215592,40.58933020230374],[9.479357942089772,40.58904971385611],[9.47927329449486,40.58877980188307],[9.478788166435729,40.58869172627796],[9.47854833708341,40.58866024685806],[9.478255898386934,40.588621860584325],[9.477864985331466,40.58848834770423],[9.477618177365853,40.58833088323753],[9.477559752396619,40.58829350480221],[9.477321426932361,40.58853293030402],[9.477279546009523,40.58857650972621],[9.476920994460531,40.588681432799106],[9.476671243264601,40.58845724461635],[9.476598297234368,40.588169264678385],[9.476477892125503,40.58785445484523],[9.476134573096115,40.58776578302993],[9.47599117756141,40.58754115489332],[9.475998696073999,40.587450065291314],[9.476035886664286,40.58718061987274],[9.475761363095678,40.58679437355646],[9.475345557027882,40.58648077873968],[9.4744581840755,40.58632226963437],[9.47372430112783,40.58614510575695],[9.473369432113628,40.58609250840259],[9.47305593707425,40.58613494504436],[9.47297831422028,40.58614601765514],[9.47282638998906,40.58616680230318],[9.472503229374263,40.58640871559645],[9.472414977454113,40.5864747789191],[9.472334902393525,40.58652217125253],[9.472288858032528,40.586550862585064],[9.472144341961325,40.58663804272153],[9.471671939781395,40.586676007988736],[9.470950380941968,40.58657084688429],[9.470417173397344,40.586424055687196],[9.470375883533062,40.58641195559085],[9.470343423347776,40.58640241046997],[9.470368945152638,40.58636748828377],[9.470411882387854,40.5863140027258],[9.470569100702571,40.58612196235862],[9.470626117264667,40.5860270111302],[9.470720946360839,40.5858690925528],[9.470841942068782,40.585698574680734],[9.470863108046798,40.585671615933975],[9.4709003222599,40.58562512455859],[9.470920713149813,40.585599531998305],[9.470943308892693,40.585573417842284],[9.471155126038369,40.58531822639256],[9.471301992272,40.585171820070485],[9.471387686247775,40.58507896131386],[9.471516605356996,40.58474876019065],[9.47126682480268,40.58451555139837],[9.470602728599792,40.5841759254874],[9.470583217600062,40.584122508660315],[9.470556620281322,40.58404969042292],[9.470458160017607,40.583780127954284],[9.469830594493063,40.58359349821206],[9.469382222056447,40.58368540853093],[9.468708466858573,40.58365210891363],[9.468223513806395,40.58358200576135],[9.46779430754529,40.58367220973803],[9.46771327276698,40.583664259643676],[9.467384838711135,40.58362143753783],[9.467063742561798,40.58332544619471],[9.466721586018236,40.58339889989164],[9.466439319499615,40.58358922394339],[9.466248452685319,40.58332873978121],[9.465810266857776,40.583186367849066],[9.46537420686057,40.5833502828337],[9.464997286784158,40.583522967869136],[9.464902949319347,40.58354669670337],[9.464844063721717,40.583561317201685],[9.464631628998042,40.583614506046736],[9.464332231660288,40.58345731098627],[9.46424561854441,40.58341134103048],[9.464204701253852,40.583391002234336],[9.463895996153155,40.583176031871155],[9.46356492212682,40.58311433866487],[9.463470068519543,40.58309666284378],[9.462962052048008,40.58310770882979],[9.462454159477009,40.583136769778434],[9.462028357715115,40.583075411719776],[9.461708650427282,40.58297759359963],[9.461411832879428,40.582771577900274],[9.461150588201901,40.5825834362175],[9.460806511143664,40.582377607598204],[9.460532712583122,40.58208141020088],[9.460248088723484,40.58192939504591],[9.459951835629832,40.581804452035286],[9.458874342684554,40.58147541254022],[9.458117105111585,40.58132526943646],[9.457596549898689,40.58122823623396],[9.457323751770469,40.58107616699005],[9.45699114174528,40.58081622841999],[9.456469427409175,40.58054802833175],[9.456372083323982,40.580501247105914],[9.456320039810262,40.58047691439143],[9.456244202199505,40.58044081097463],[9.455959724251331,40.5803067860974],[9.45575569282115,40.58028080613254],[9.4556182457135,40.58026289279218],[9.455415732513325,40.58023686119386],[9.454718691184313,40.58024861595786],[9.45419657652028,40.58026059055978],[9.451991451697433,40.58057012278569],[9.451826188287471,40.58059329143474],[9.451411743004364,40.5804597798363],[9.451326897801145,40.58042954161825],[9.45096167168043,40.58029937927037],[9.45036939639738,40.58007647036975],[9.449765249375476,40.57984459578706],[9.449184857564221,40.57963064336974],[9.44882931787089,40.57946986773838],[9.44820167139946,40.57925609394994],[9.447822926158953,40.57915846632492],[9.447341922657829,40.57915468775705],[9.447184698744763,40.57915046324566],[9.447134943255302,40.57915306210969],[9.447059087698435,40.579156960141155],[9.446156876600737,40.57914689528144],[9.44563382493756,40.57913752073876],[9.445412140424368,40.57912864705345],[9.445329700405644,40.57913206934587],[9.444821677388937,40.57910044167296],[9.44475490345343,40.579095466433905],[9.44439588971737,40.57907260437616],[9.444228021273812,40.579041358688904],[9.444156136756652,40.57903184337408],[9.444037742419974,40.57901259165448],[9.443980659672059,40.579003325634396],[9.4438522475555,40.5789823554991],[9.44381196692155,40.578977093235665],[9.443709839839324,40.57895812732365],[9.443640561829787,40.5789412567552],[9.443570171566753,40.57892932636849],[9.443023615161042,40.57881662029094],[9.442125434055999,40.57878402597661],[9.441700446906601,40.57883970489669],[9.441308462492348,40.57897295667038],[9.44127323319394,40.57898783694657],[9.441239560843194,40.578998532957186],[9.441194418104754,40.57901229974284],[9.441158376693245,40.57907551109804],[9.441041703368711,40.57928365219486],[9.440938739026228,40.57979754645509],[9.439897876723004,40.5796303474375],[9.439235401376864,40.57950674608786],[9.439099407955403,40.579489245383904],[9.438537716806017,40.579419308227095],[9.438032838191447,40.579351711438655],[9.43798985312366,40.579346254700596],[9.43788729498948,40.57933168790319],[9.4376686566598,40.57932350761751],[9.437450017198199,40.579315326922185],[9.436965537277327,40.57930815260263],[9.436315353804966,40.57925655704879],[9.435853393972096,40.57907812560843],[9.435178122561927,40.57880139864965],[9.435028739147327,40.578664841975815],[9.434913145569848,40.5785583222571],[9.434726467796146,40.57838869532961],[9.433744193960402,40.57814014143661],[9.433247502110312,40.578069935342846],[9.430526311483101,40.57749453751884],[9.429756444564072,40.577200114421636],[9.428916617074739,40.57705008594451],[9.428443681598308,40.5769977877795],[9.427852771820074,40.57697295216931],[9.427143943231743,40.576984584160314],[9.426600350577887,40.57696857513568],[9.426310827253396,40.576940889458946],[9.426055859201858,40.576916458443776],[9.425606940193342,40.576819089636956],[9.425096626909127,40.57646061680541],[9.424707026667598,40.57617444453492],[9.424535197413741,40.57605530958583],[9.424496844579929,40.576031896849],[9.42447086130951,40.57601192237691],[9.424296428215186,40.57589773169191],[9.424116414455607,40.57578000272748],[9.423720022735472,40.575601489942095],[9.42321122585414,40.5753774757573],[9.422713543357249,40.57514506923175],[9.422184878249677,40.57488887325812],[9.421923716551618,40.57478222279884],[9.421886951320992,40.57476771856449],[9.42184601464892,40.57475176110586],[9.421813088226735,40.5747378482256],[9.421750164071286,40.57470678837191],[9.421663526232557,40.57467528532198],[9.421491443456686,40.574612555750576],[9.4212782972194,40.57455405939723],[9.42121626914648,40.574537711968475],[9.421161826110994,40.57452343321691],[9.42107992748188,40.574500760058406],[9.420710381183873,40.574452003661065],[9.420631568760538,40.57443743863709],[9.42057067344543,40.574441195430275],[9.42009810062917,40.57444291492722],[9.419979732404984,40.574407310746636],[9.419565442815465,40.57428269290715],[9.419387596648582,40.57418198982666],[9.419265079472085,40.57411261581549],[9.419233462863211,40.574094712820944],[9.41906914292585,40.57402883348832],[9.418795254384769,40.57391968970359],[9.41870158488473,40.5738823658627],[9.41863498959823,40.57385582024301],[9.418507974614291,40.57379665435702],[9.41825026334139,40.573674816627346],[9.417858937445436,40.573442003962455],[9.417261231949496,40.57327077878498],[9.41720797709322,40.57325519119004],[9.41649790058152,40.57305956009867],[9.415835476291312,40.57292681430722],[9.415350152718727,40.57277541035453],[9.414794224882664,40.572669302246744],[9.414024814672844,40.57242882458355],[9.413432619106523,40.572187708600026],[9.413108824459698,40.57211365276427],[9.412734577967276,40.57202809717906],[9.412214323415133,40.57195788466365],[9.411493841785838,40.57198747899143],[9.411115906708083,40.572006842328136],[9.410737697166837,40.57198116193866],[9.41013265032558,40.571893854362955],[9.410078705754147,40.57188037219732],[9.409637465989201,40.571732821868174],[9.409575524627739,40.57169182769485],[9.409545714558455,40.5716679130187],[9.40922217609915,40.57143698915079],[9.409068675379576,40.57109116949196],[9.40904250033373,40.571032229718945],[9.409025631522814,40.570976822702676],[9.408994623340565,40.57087498535105],[9.408957905697052,40.570745230776986],[9.40892194103553,40.5706362894312],[9.408917827086443,40.56996064367555],[9.40894915501537,40.56928487238442],[9.408932458460392,40.569062628412944],[9.408911849783358,40.56877990365779],[9.40889410648995,40.5687451075053],[9.408865748269129,40.56869511130106],[9.408813844373203,40.56860785570991],[9.408791879766614,40.56856852949916],[9.408765131276617,40.56851124749716],[9.408723217520405,40.56845160926823],[9.408595812905425,40.568295154100205],[9.40855673440344,40.56825372804105],[9.408510792461392,40.568194461630135],[9.408501723950065,40.56813086307884],[9.408468881509414,40.567996093752406],[9.40844379794797,40.56787117251631],[9.408438646205548,40.56784535055928],[9.408415179811742,40.56773380268436],[9.408386431960313,40.56761005562881],[9.408389469449144,40.5673224679024],[9.408392812564614,40.567160761081695],[9.408462600426246,40.56691693492101],[9.40852589718102,40.5666823729739],[9.408555631970325,40.56649443262862],[9.408565934906091,40.566433722270475],[9.408588484993825,40.566313241506926],[9.4086399997327,40.56604279461923],[9.408657171223961,40.565952645949466],[9.40868810403114,40.5655918037175],[9.408696163154247,40.56544754387874],[9.408706627591188,40.56519573016949],[9.408708527909639,40.56514206472979],[9.40873334021195,40.5648803274079],[9.408702254017715,40.56468199687581],[9.408697005744157,40.56464727087533],[9.408683994931923,40.564541226468194],[9.408669876801289,40.564484822230774],[9.40861755503767,40.56424047011236],[9.408598937934883,40.56413304733795],[9.408494560802518,40.563993371516005],[9.408393150927465,40.56385632471027],[9.408348807490967,40.56379443455259],[9.40831450984347,40.5637461690472],[9.408283975067844,40.563721500723176],[9.40810568622402,40.563607415109765],[9.408008492878057,40.56352937298212],[9.407806135801648,40.56341166023851],[9.407708153729306,40.56335245822229],[9.407580399349621,40.563296226888845],[9.40728176137769,40.56316477736967],[9.406961190890186,40.562895642221086],[9.406486954590823,40.562609030064664],[9.406428595287077,40.562523042843225],[9.406308245329683,40.56235741252607],[9.406326042908361,40.56231046226716],[9.406358113677584,40.56222817668528],[9.406405302202637,40.56210138805291],[9.406424515821737,40.56205070311534],[9.406476949911914,40.561992634725854],[9.406518540864438,40.561944853880796],[9.406883081857972,40.56153684441823],[9.407225058417353,40.56124662889324],[9.407302781827084,40.56078637714292],[9.407265380270305,40.560462191599804],[9.407230265473327,40.560389580289666],[9.407073989999331,40.56006647577008],[9.406918472707233,40.55974270529412],[9.406631774737198,40.55921219452308],[9.406310245456687,40.558780902430634],[9.406001076144502,40.5584396540236],[9.405798158417744,40.55808902271518],[9.405676726968965,40.55753991100228],[9.40553249016861,40.5571260108198],[9.405353907880501,40.55689240799196],[9.405186866595809,40.556613720811605],[9.405185296276656,40.556352460155395],[9.405207054026803,40.55629796018862],[9.405336558361295,40.55597356211495],[9.405547091749893,40.55563048780899],[9.405910350752485,40.55515174401858],[9.405979094868691,40.55480015805173],[9.40589478598481,40.554530189044705],[9.40572999376523,40.55439356771274],[9.405633643102105,40.55431489436387],[9.405489163454593,40.55424463300674],[9.404934742801249,40.55397501047456],[9.40460274036882,40.55375996176919],[9.40422360655381,40.55356309481493],[9.40352482932359,40.553241219709776],[9.403459455523876,40.55320223046057],[9.4031574582107,40.55303529834227],[9.402824224404403,40.55261304486636],[9.40277520070699,40.55231592461507],[9.402811326200883,40.55207208705407],[9.40282060741463,40.552009466222856],[9.402936011173566,40.55155862119751],[9.402839855501988,40.55127968309828],[9.402554250081101,40.55092032497931],[9.40263541138364,40.5506677945504],[9.40299921402505,40.550037781822176],[9.40302114968393,40.54999979671929],[9.403408665450652,40.54962908174259],[9.40380820222225,40.54929435907414],[9.40418362765769,40.54887863916725],[9.404466035247658,40.54870648337769],[9.404795895505167,40.54857019539224],[9.405082336565505,40.548513427207766],[9.40539748865896,40.54845097114999],[9.405927677857271,40.54824190645688],[9.406067490156055,40.547926105061826],[9.406065803415943,40.54764683742539],[9.405972402904581,40.54735813181539],[9.405967198063896,40.54733012878217],[9.40594765089674,40.547145393132375],[9.405894268370263,40.54662043130636],[9.405963329398586,40.546322896312816],[9.406162348043084,40.546033914302974],[9.406373664398064,40.54582596711772],[9.406856918339034,40.54567111665747],[9.407079390057762,40.54559596444345],[9.407316593319456,40.54551625721202],[9.407645996371627,40.545307892231826],[9.407927996331692,40.545072666933194],[9.40836295713382,40.54473778251976],[9.40848045713775,40.544647296024316],[9.408892460426054,40.544429626498065],[9.409293584152632,40.54436514472206],[9.409907764470075,40.54438098432453],[9.410616858315564,40.54446855561902],[9.411029954918199,40.54443105111363],[9.411438369790831,40.54436671703484],[9.411964913827262,40.544283800203],[9.412421600163785,40.54412879956324],[9.412704076048348,40.54397464113897],[9.412740248743779,40.5439443635867],[9.41297429896226,40.54374845448311],[9.413113581081893,40.543519890424115],[9.41316136015803,40.54344148434117],[9.413181202506523,40.54301587265394],[9.41312302988061,40.54279701620986],[9.41310986263512,40.542747987206305],[9.41314296451587,40.542369496963595],[9.413176840983535,40.54211712879044],[9.41335048103345,40.54154895027714],[9.41338319337358,40.541107398837084],[9.413410758808181,40.540844640610324],[9.413285459532172,40.540576226608465],[9.412767945982894,40.54035504447174],[9.412443022209413,40.540207265675285],[9.412350056591036,40.540165161860976],[9.412241185515118,40.53974213367448],[9.412097775515884,40.539463371326484],[9.411753793520877,40.53921234959673],[9.411267346936082,40.53883570996205],[9.410993503106566,40.53846732113192],[9.410967960171973,40.53815210228841],[9.411083397542377,40.537719266782915],[9.411412419016077,40.537456838645454],[9.411823652945962,40.53712204605192],[9.411904761980876,40.53686950876324],[9.412055010576333,40.53667835764311],[9.41211511758006,40.5366013592789],[9.412141155317505,40.53657397205704],[9.412255625840418,40.536318717322615],[9.412440865290671,40.536221377837016],[9.41259694213047,40.5361373213552],[9.41288187276099,40.5363885517508],[9.413201121946411,40.536459481047466],[9.413555960073948,40.53655730977138],[9.414146676244297,40.536609246646485],[9.414605898456049,40.53640039620565],[9.414874863388738,40.53597601384545],[9.415109235003108,40.53568688905562],[9.415344105276608,40.53547884145003],[9.415685798648255,40.5353604974996],[9.415979879808718,40.53535943914097],[9.41631159396851,40.535358244447906],[9.4168432650108,40.53541038028343],[9.41738635191819,40.53539941083117],[9.417729328073694,40.53548825977414],[9.418131677886327,40.53563094642427],[9.41832183082384,40.53582845277226],[9.41876084082144,40.53616919909781],[9.418922302245543,40.536206463020314],[9.419068287332609,40.53624015585446],[9.419434042697825,40.53619378408536],[9.419893976612123,40.53610202521269],[9.42000322831012,40.53597267254506],[9.420169616933864,40.53577567117788],[9.420222167658961,40.53571345089763],[9.420373750992315,40.535406598650226],[9.420667078054333,40.53510823825814],[9.420949385575051,40.53493604226577],[9.421455690691321,40.53470897518557],[9.421890979731245,40.534455138414714],[9.421997957709946,40.534248219842226],[9.4220309714079,40.53418436108425],[9.421805165635313,40.53395095522811],[9.42146213560941,40.53385310962282],[9.421035836666581,40.53365646910582],[9.42103444699779,40.533627053703],[9.421030951926427,40.53336351645617],[9.421268142602594,40.53304301953678],[9.421509893942785,40.53286807721419],[9.421656025045733,40.532762329622464],[9.422020515077293,40.53251775956793],[9.422586400524402,40.532380559173006],[9.422963371789356,40.53224404678393],[9.422596225530583,40.53206521238295],[9.422507459002691,40.53204682724517],[9.422040568354493,40.53195012803758],[9.422014806856748,40.531607885343504],[9.42262734493951,40.53138042499494],[9.422684368810232,40.53124404186114],[9.422766921731426,40.53104660723669],[9.422233981521865,40.53078729860737],[9.421797981910323,40.530924024134514],[9.4214205077083,40.530979455064056],[9.420994790943652,40.53087290060464],[9.420651552482802,40.53073901753432],[9.420189461721144,40.53047944149909],[9.420494462325435,40.530163021895845],[9.4208953768945,40.53008048269872],[9.42137859809409,40.52994358836653],[9.421494856637585,40.529654880156485],[9.421528244179216,40.529330439312794],[9.421267262902193,40.529133196254115],[9.420700444277426,40.52911724348232],[9.420636178927634,40.52906074635985],[9.420427322043338,40.52886598908566],[9.420377692114664,40.528613077928654],[9.420341920397735,40.52842486537668],[9.419951245612733,40.52825511694365],[9.419700656324673,40.528309290961076],[9.419475129777394,40.528356290625304],[9.419418846468675,40.528362136332284],[9.419214197463182,40.52838304008523],[9.419113847489959,40.5283932905213],[9.418781590579197,40.528124229685154],[9.418343529587865,40.527927620707445],[9.417456502275869,40.52767858109864],[9.417148761499101,40.52755356820847],[9.417228834865165,40.52713887049337],[9.417214850067479,40.52678757494283],[9.417082024985923,40.526310584981566],[9.417115167156588,40.52623074971473],[9.417177502588284,40.526067350190345],[9.417195229741752,40.52602301443709],[9.41720987831992,40.52598580325837],[9.416936614394746,40.52570751501947],[9.416745713190837,40.52538388437609],[9.41656695421065,40.52511426239538],[9.416340695152025,40.524799767451015],[9.415822053862767,40.524709077971174],[9.41577215932582,40.52470196566829],[9.415454162617163,40.52462278025626],[9.415251021274067,40.52422712040259],[9.415139320869507,40.52407281381239],[9.415012855875718,40.52389464768891],[9.414693664551478,40.52382372205846],[9.414576578952735,40.52373242750287],[9.414373364356575,40.52357262236438],[9.414357687542065,40.52346239013639],[9.414350195242509,40.52336800052162],[9.414349229152332,40.52330256118264],[9.414351642559016,40.52326982932496],[9.414355952878086,40.52323092043616],[9.414359890550296,40.52320377406566],[9.414404895995643,40.52294189009664],[9.414497562039243,40.52265327316034],[9.414613449294434,40.52230151107089],[9.414468957545902,40.52184257656015],[9.414325244318468,40.52150976345662],[9.41425180715982,40.521086609623524],[9.414261837587016,40.520798288997305],[9.414873471069466,40.52043573927977],[9.415428410475533,40.520451763467946],[9.415982903456479,40.52039571587731],[9.416337996216667,40.52054758743338],[9.416741001687596,40.52063952782716],[9.416829169550027,40.52060054069582],[9.41707775686476,40.52045121582892],[9.417175191024917,40.520391417640084],[9.417314614317537,40.520030558803356],[9.417619749271044,40.51974117173746],[9.417880908203154,40.51997445858823],[9.417988997110228,40.52027136129628],[9.41856788058053,40.52034133660767],[9.418651812981983,40.52032937677098],[9.418957103688532,40.52028587237698],[9.419245279746653,40.52024080135391],[9.419369878605984,40.520221313312646],[9.419640545999478,40.52008519730863],[9.419944434416871,40.51959761348069],[9.41996620313463,40.519494927795186],[9.419981892884524,40.51942091447178],[9.420013237841326,40.51927304379634],[9.420072840900595,40.519236680514695],[9.420117089792255,40.51920968377904],[9.420295480953865,40.519100848352025],[9.420395204793797,40.518684379116536],[9.420384290880925,40.5186393524266],[9.420279759716632,40.51837089553325],[9.419852078140668,40.51803941257027],[9.41942521072703,40.517734660023116],[9.41916505124476,40.51738324389832],[9.419142950654923,40.517353498109465],[9.419061289614572,40.517230263460405],[9.419036795015522,40.517196136267245],[9.418995426225104,40.517133074924935],[9.418859701266301,40.51693026452845],[9.418843961660805,40.5169045658699],[9.418783254809851,40.516799736037655],[9.418742503169488,40.51677944058893],[9.418474028059551,40.51663902475811],[9.41798983314858,40.51660474135503],[9.417564659963789,40.516570243563756],[9.41756160633873,40.51649492799379],[9.417562734263482,40.51617916982414],[9.417643264880237,40.51592131896509],[9.417806730933266,40.51563244405407],[9.417926285093904,40.51528886675476],[9.417869520913488,40.515147069196026],[9.417850361177091,40.51510900174607],[9.417838987335223,40.51508021780216],[9.41782850438415,40.515049287404],[9.417724979477272,40.51483047365879],[9.417714332497917,40.514805432999616],[9.417685212942416,40.51474288723736],[9.417659213559409,40.51468704366785],[9.417703963680225,40.514611031871034],[9.417727771650757,40.514573203667965],[9.417739367966746,40.514545799730506],[9.41775125637674,40.51452190642903],[9.417810873898679,40.51439821046103],[9.418259529264846,40.514414605365],[9.418427656103567,40.51444203620616],[9.418463228436357,40.514444024502204],[9.418536887886583,40.5144547252511],[9.41868485726672,40.51447612695376],[9.418931672252938,40.514304063977214],[9.419000363218542,40.51396147708338],[9.41896124712306,40.51389816428088],[9.4188095992022,40.51365586658961],[9.41836010773667,40.513504343296965],[9.418247600967394,40.513437547291005],[9.418186634343686,40.51340253387881],[9.418100439856541,40.51335166314526],[9.4180386056789,40.51331149876516],[9.417996867260916,40.5132678301495],[9.417968431764068,40.51323706288769],[9.417919573664987,40.51318147320792],[9.417766851827551,40.51301100015788],[9.41792913700857,40.51253294185546],[9.418966999146475,40.51239405013238],[9.41949736775934,40.51226600143703],[9.419815722555393,40.512210792441635],[9.420487727209396,40.51208222456702],[9.420911014576676,40.51181942539524],[9.421038607208855,40.51171801513186],[9.42129855144637,40.51150270211441],[9.4216640004513,40.51142929749354],[9.421931432845994,40.511490557095364],[9.421987411163242,40.511499538236116],[9.42213468535703,40.511535175846966],[9.422386712721934,40.51185908577994],[9.422467519845101,40.51186439486844],[9.422531975352955,40.5118678267619],[9.422776391605456,40.51188468679058],[9.423366954421384,40.51194558745981],[9.423350448635384,40.51119790923189],[9.423382062462771,40.51059419718482],[9.423403471877167,40.51041163942067],[9.42341550481228,40.51028786167558],[9.422989123665252,40.510055191799815],[9.422715786890654,40.509758898737516],[9.422737639349739,40.50947954258682],[9.422806307395616,40.509136953262185],[9.422391906939533,40.50893126419749],[9.422084525521077,40.508851307478146],[9.421634778048595,40.50865475284953],[9.42150263537808,40.50828587072694],[9.42149472525166,40.50824990693885],[9.42141753590196,40.50788978907234],[9.421286014843599,40.507620001269736],[9.420895854315349,40.50751331618787],[9.42020916837427,40.50717347691091],[9.420058905491652,40.506931798047056],[9.420027826264558,40.50688127788157],[9.419887017315224,40.506616096042706],[9.4195037278988,40.50571659783415],[9.419324954702844,40.50543797022475],[9.419146351238748,40.50518636953611],[9.419099238874924,40.504920860292884],[9.419093362439357,40.504876490774286],[9.41908563759583,40.50483266579405],[9.419068968051038,40.504759505787796],[9.419048458323351,40.50462817162391],[9.419222739932515,40.50418610326136],[9.419580031687833,40.503983542439556],[9.419622299568188,40.50395915662257],[9.41973350605232,40.503943139313776],[9.419999929001987,40.50390400572291],[9.420589462769978,40.50381177189141],[9.42092942702872,40.50378246124504],[9.4209817874206,40.503779946201725],[9.421025909357683,40.50377414764729],[9.421462072324426,40.50369147700036],[9.421968706125721,40.503554494449766],[9.422333886490444,40.50344505363998],[9.422651349077517,40.50325470629938],[9.422862593005096,40.50306474589239],[9.423109072630133,40.502847630059925],[9.42339455189794,40.50254399993668],[9.423452786532325,40.50247977597108],[9.423695305173982,40.50223287708659],[9.4238706287187,40.501961966581575],[9.424163860648315,40.501672588022636],[9.424289522110353,40.50161332602466],[9.424390618197716,40.50156649640611],[9.424587469552987,40.501472828597414],[9.425209930604364,40.50075883592577],[9.425430176820125,40.50036163375843],[9.42559075624807,40.50020140695443],[9.42563628528982,40.50016267362742],[9.425427675118739,40.499965245937894],[9.425001466460012,40.49975060032332],[9.424657129625727,40.49941853642694],[9.424290215438997,40.49924871428635],[9.423947473721627,40.499168892145484],[9.42354572575245,40.499089285253156],[9.423144376112774,40.49907273749478],[9.42276691057939,40.499101145895864],[9.422388767879953,40.49902144772279],[9.422198651483471,40.498814937568106],[9.422362120143374,40.49870039912159],[9.422457147263925,40.49863380692035],[9.422952563477835,40.498595958935724],[9.423246739132715,40.49845974806859],[9.42348111653035,40.49819763068705],[9.423757186416383,40.49800611743238],[9.423833612871753,40.49795309946932],[9.424039665171534,40.49770457937365],[9.424078255603506,40.49744770147108],[9.42402923711054,40.49715959554561],[9.424015224409636,40.496808299141904],[9.424249137976238,40.496474110835855],[9.424528027725986,40.49640454452665],[9.424579044563806,40.49639182020432],[9.424818364610905,40.49625801582141],[9.425049420351712,40.49612883141615],[9.42533351993949,40.495877376837264],[9.425366271964007,40.495848389691986],[9.425402815762732,40.49582111290073],[9.425577973439509,40.495695924157296],[9.42561387603153,40.49566730011339],[9.425823815165035,40.495423285856795],[9.425761851401495,40.49495505026517],[9.42560092936133,40.49455925099652],[9.425600804125171,40.49432838704617],[9.425598268507482,40.49414484898985],[9.425553561401408,40.49373961257682],[9.425246075175751,40.49363263737476],[9.4249728538058,40.493345356400404],[9.42485331920365,40.493102554865054],[9.424684767690005,40.492571648213435],[9.424612434297993,40.49232867293677],[9.424634217069935,40.49204030686622],[9.425035752478962,40.49209288482521],[9.425401776034278,40.49212757411625],[9.425484616070916,40.492112641261734],[9.425592285719196,40.49209932952608],[9.425837972094843,40.49206290566792],[9.426120427489689,40.49194474855369],[9.426460284517697,40.49157412888139],[9.426502289002684,40.49145235333715],[9.426549802028953,40.49129933406642],[9.42657747246182,40.49124964552342],[9.426602561375939,40.49120262505709],[9.426654099807093,40.491078985432225],[9.426720250963285,40.49093239546493],[9.426739156673388,40.490888389684],[9.426855668701606,40.49065372730447],[9.426959981791164,40.49035604778522],[9.427406078385506,40.48999404171944],[9.427734747035926,40.48972255765429],[9.428098812658371,40.48945094153658],[9.428309884824463,40.48924295434029],[9.428485327104223,40.48899906285731],[9.428235595133538,40.48869368517341],[9.427974924535416,40.48852348063808],[9.427595576267201,40.48824560844028],[9.427617230746463,40.48793922499727],[9.4279940581338,40.487820714041774],[9.42816886932429,40.48747772720327],[9.42828399618936,40.48702685324076],[9.428270421979141,40.48674762716432],[9.428185368312661,40.4863605578718],[9.428117642262501,40.48628576466504],[9.428079669094675,40.48624382606543],[9.428048737289009,40.48620664695746],[9.427961979092435,40.486114145775005],[9.427857780990665,40.48599900549762],[9.42761501595258,40.48573205634034],[9.427380726440516,40.485662583333315],[9.427230486676365,40.48561855413177],[9.427090108637133,40.48555421262636],[9.426951576115737,40.4855000929561],[9.426847386862189,40.48545446700445],[9.426655138695704,40.48534784807229],[9.42662379364263,40.48533018811104],[9.4264877151806,40.485251308382274],[9.426419897993712,40.48520284241626],[9.426349805268714,40.485149217238515],[9.426218376612637,40.48504352725325],[9.425981150595936,40.484846204608374],[9.425636658154172,40.484478108124456],[9.425543864540169,40.48443232190175],[9.425056712305384,40.48419195601213],[9.424713534238258,40.48403105726801],[9.424276541391608,40.48392419110616],[9.424211706954889,40.48391068404693],[9.42413563454627,40.48389929386729],[9.424100319448796,40.48389139643177],[9.423898161557739,40.483852405624816],[9.423850831207853,40.483843098126144],[9.423596898711834,40.48378597593061],[9.423472942167454,40.48375633107331],[9.423093527398114,40.4834604260322],[9.422761421363845,40.48318236380739],[9.422558985676003,40.48288580948459],[9.422356948202525,40.48265231550562],[9.422283392174698,40.48221114636082],[9.422232022282595,40.481544671691324],[9.42204498090708,40.48096603929824],[9.421967333107721,40.48072582540003],[9.4218117616919,40.480375044439356],[9.421668497047637,40.480105298576674],[9.421489727453451,40.4798176639751],[9.42150788948589,40.47973486615611],[9.421547082325995,40.47955619607019],[9.421646623749423,40.47951079691046],[9.421704563647207,40.47948437289552],[9.422323517352256,40.47920202985207],[9.423911547544439,40.478457482486256],[9.424474815120918,40.47809127979567],[9.425110002447571,40.477678311604166],[9.425498769148032,40.47729197258173],[9.425719651185997,40.47707246800991],[9.425600963139676,40.476984913126],[9.42549634036878,40.476907809955094],[9.424771440929991,40.476373265767485],[9.424593178924061,40.476166715100085],[9.42435576342105,40.47593335428227],[9.42413037220822,40.475735984024546],[9.423750602399325,40.475377019727134],[9.423490108042504,40.47522482199483],[9.423082546802233,40.47511320358828],[9.423048840780268,40.47510360082154],[9.422757969275871,40.47483466108528],[9.422689311186804,40.47455235140323],[9.422659305925395,40.47442604651943],[9.422637050299565,40.47410180576602],[9.422633341047895,40.47404776518772],[9.422772810783975,40.473713923952175],[9.422809114876642,40.47365072888861],[9.422889505296219,40.47351079581531],[9.422912844348456,40.473470169812146],[9.423060158049935,40.47319936177273],[9.423192738792869,40.47295563545422],[9.423176772511903,40.47274848722883],[9.423167053138421,40.47262239735523],[9.422884069761121,40.47264435740256],[9.42280153221735,40.47265076206333],[9.422423820437746,40.47261610789022],[9.422293659592913,40.47255271942795],[9.421896279300196,40.47235474948928],[9.421816965645803,40.47230132354577],[9.42169577215947,40.472210129552884],[9.42164967360284,40.47217988415487],[9.421523966690673,40.472087864100004],[9.421263488918756,40.47193566207874],[9.420885275680117,40.471819923448585],[9.420332045729623,40.471831429436634],[9.420284088808236,40.47182974255966],[9.419929841228306,40.47181469764503],[9.419856704931934,40.471810455214225],[9.41979499510448,40.47180719286153],[9.419755416784778,40.47180446181891],[9.419638945220669,40.47180643698995],[9.41932804980879,40.47180756529602],[9.41895846055318,40.471840283970224],[9.418905264948934,40.47184963895578],[9.41880605969546,40.47185648945858],[9.418420236909169,40.47189193550665],[9.41865365012375,40.471483040802696],[9.418662799608649,40.4714507544403],[9.419047774964975,40.470367147950995],[9.418445560769248,40.47027023122827],[9.418395636647274,40.46982897305777],[9.418582526604062,40.469531001084746],[9.418805361222663,40.469322987079224],[9.419171538049092,40.46940274101504],[9.419561026219547,40.469437363117045],[9.420007923294902,40.46921952513688],[9.420059001430454,40.46905621839137],[9.420073835697531,40.469008788684775],[9.42012357645586,40.468849746236025],[9.420167146593553,40.468771552527784],[9.420194599022032,40.46872222647975],[9.420231308607171,40.468655803662294],[9.420299196566008,40.46853320695881],[9.420329558126522,40.4684786486634],[9.420363522282834,40.468405379911204],[9.420464393926313,40.46825782344196],[9.420505302064619,40.468199481678056],[9.420668455768746,40.467963213504916],[9.420678192746664,40.467934945558866],[9.420696457955273,40.467833853581446],[9.420703633572167,40.46780192557564],[9.420763853437707,40.46748706767129],[9.420832579895675,40.46707563252767],[9.42086557058229,40.466774989021424],[9.42094650816935,40.46651343496917],[9.42100289683492,40.466098816650934],[9.420975593786201,40.46550432417315],[9.420550910347432,40.465496861052216],[9.419972440406928,40.46541788382987],[9.419652848682537,40.46523886561424],[9.419392066665864,40.465032605127895],[9.419037092738579,40.464853713564466],[9.418811698377208,40.46464732435811],[9.418422070547265,40.46458567215131],[9.418655454038849,40.46417942392617],[9.41884210356877,40.46384541597619],[9.418852107919161,40.46355709223463],[9.418814932554458,40.463268940332945],[9.418766074542203,40.46299884791149],[9.418669871050346,40.46270190072614],[9.418623904296423,40.462510543981864],[9.4186093334559,40.46244986319271],[9.418600836747311,40.46237620810401],[9.418571937286645,40.462125675783746],[9.418676074992247,40.46180097579064],[9.418862885798202,40.4614939933256],[9.419084797457227,40.46114183896949],[9.419342650418793,40.46087964333419],[9.419623137344422,40.4604642129852],[9.419704184519018,40.4602206763143],[9.419737493090818,40.45988722337452],[9.419688297586736,40.45956307903361],[9.419559533180768,40.45917745205223],[9.419532058095937,40.45909518205319],[9.419246032051266,40.458618743865486],[9.41990318638605,40.45808482920792],[9.420936889661768,40.457414404442694],[9.42113717423646,40.45715446474575],[9.421194266573147,40.4570801491852],[9.421407898113577,40.45729559678355],[9.42176362699759,40.45760060438227],[9.422213089326295,40.45780617080175],[9.42256837864268,40.45782295910968],[9.422743981770477,40.45783125671614],[9.4233095791472,40.457748106323],[9.423710286547378,40.45770159297951],[9.42416956639992,40.45759180089103],[9.424546345394164,40.4574913190595],[9.425135143105024,40.45742825839823],[9.425373383407642,40.4574194017314],[9.425878554597135,40.457405289349545],[9.426539404478698,40.45746591516135],[9.427248573623489,40.45770653867412],[9.427638340820199,40.457795186972525],[9.4280989871285,40.45790158957201],[9.428323958990186,40.45793711669178],[9.428478788054072,40.45796257452406],[9.42889026486564,40.45806982738681],[9.429208986789678,40.45811368872108],[9.429657441958664,40.458157067935765],[9.430011719114425,40.45822782203219],[9.43034229399622,40.45828064609183],[9.430982185165957,40.45834942723765],[9.431803930857663,40.458149074993905],[9.432169079379154,40.45807563802065],[9.432676621633092,40.458136802689104],[9.433310486753731,40.45812313370106],[9.433492801688613,40.45811895012344],[9.43367900078353,40.45811500123652],[9.434138613615598,40.45805922169157],[9.43480947166047,40.457840484874396],[9.434929710622669,40.45782006127546],[9.435384433401886,40.4577393320103],[9.435905484343166,40.45771023124812],[9.436413900282899,40.457906510105765],[9.43691288718215,40.45802903376667],[9.437028173116852,40.45805734222105],[9.437594513999622,40.45809123493523],[9.438066971681666,40.45819755306522],[9.438845486623116,40.458212618183104],[9.439587151957102,40.45800259386997],[9.440057848706482,40.457838641000265],[9.440505131870703,40.45770180257622],[9.440630385050483,40.4577879120311],[9.440896093881554,40.45797058159557],[9.441204443272351,40.45823066558125],[9.44174784740995,40.45836372497218],[9.44223293442528,40.45859610350731],[9.442718734408112,40.45893658488121],[9.443129259051547,40.45921716066426],[9.443334807016594,40.45935764510547],[9.443619228122701,40.459563760081856],[9.443880597264735,40.459851043345644],[9.444129579868262,40.460048284983074],[9.444577166172492,40.459956473985706],[9.444835212124476,40.45973926604071],[9.445248603388773,40.45982776396035],[9.445674919969663,40.46008738144363],[9.445751251116521,40.46013573233493],[9.446113153372332,40.460364969428056],[9.446195297784213,40.460427080517924],[9.44624875019588,40.460465245478936],[9.446611018676096,40.46074142298467],[9.447086368904468,40.461185710324386],[9.44718067084512,40.46127075033129],[9.447335492350145,40.461495375443306],[9.447620054264576,40.46171949799889],[9.44789288445055,40.46195267433874],[9.448519493342094,40.46217546878431],[9.449116138750258,40.46229890566594],[9.449605975242287,40.46237845392252],[9.449983583855952,40.46240401165622],[9.450620975109258,40.46247359998741],[9.451141264078451,40.46266976750291],[9.451673352027361,40.46286588656102],[9.45179613079952,40.462927512321016],[9.451996101002136,40.463031079497505],[9.453308134438338,40.46392261344373],[9.453592483983115,40.46411068585779],[9.45443089470138,40.46425153638366],[9.455398992401502,40.4643828609196],[9.456638315857731,40.464504097142004],[9.45668186041729,40.46452161974961],[9.457170551591645,40.4647182181754],[9.458068379960723,40.46492186957474],[9.4586181920049,40.464867224424104],[9.458799182222227,40.46484689892051],[9.459518066104517,40.46475395386763],[9.459989919467727,40.46469668415274],[9.460060208339335,40.46468872962191],[9.460239996196648,40.46467176251247],[9.460390305010703,40.464660343185585],[9.460668726148164,40.4649548760529],[9.460705485326613,40.464989374674076],[9.461007782022724,40.46526145923613],[9.461113591155344,40.46539942038548],[9.461139377914527,40.46543847706129],[9.461172780831914,40.4654937069849],[9.461165308141466,40.465873439448714],[9.461073349457118,40.46622515571294],[9.461050504483673,40.4662649640397],[9.46103122678639,40.466297395955614],[9.46099956128279,40.46635002146193],[9.460943876050658,40.46644594554168],[9.460910124628297,40.466505084759646],[9.460547484434581,40.466947968976655],[9.460055888553043,40.46750848180918],[9.459681750013225,40.467996454143986],[9.45955513045041,40.46845641432828],[9.459471809540046,40.4686375612056],[9.459438893023151,40.46870912730872],[9.459358286607786,40.46899773466261],[9.459407434407328,40.469285825400284],[9.459491811572384,40.46950078585224],[9.459527479969761,40.469591652307685],[9.459777282708941,40.46989696389902],[9.460050371269016,40.470157136239216],[9.46032333891967,40.47039929125784],[9.46060822777248,40.47065941615638],[9.461048748819024,40.47125225071954],[9.461310236454143,40.47153949334004],[9.461489646495602,40.47189913524341],[9.461586113441506,40.47220505489339],[9.461658989527933,40.47251106777189],[9.46172253681011,40.47317747585674],[9.461889848200167,40.47349212027318],[9.462091871901798,40.473707527377194],[9.462164628441663,40.473995523198504],[9.462142826161248,40.474256870030494],[9.46207488632547,40.474671552758466],[9.462042214088312,40.475068077313324],[9.461749762312916,40.47542960388331],[9.461610050712356,40.475700429651845],[9.46132920481937,40.47603488173494],[9.461333304729234,40.476229524913364],[9.461331439694868,40.47635916213899],[9.461498202153091,40.476592728924025],[9.461549757423201,40.47674677716611],[9.461630685931745,40.47698859277767],[9.461661083989355,40.477075982198336],[9.46171000981475,40.47722272283793],[9.461726958440561,40.47726752451197],[9.461761711831599,40.47731039829511],[9.461909880233188,40.47749316934791],[9.46195993546343,40.47755429363079],[9.462024387819978,40.47763577385765],[9.462156875611992,40.47803163701312],[9.462218148708768,40.478364722640556],[9.46232599343135,40.47860753275008],[9.46216546254137,40.47928384498652],[9.46212012631883,40.47955429468787],[9.462157619850926,40.47986044831244],[9.462160385693666,40.48004785522405],[9.462160276359773,40.480247822271224],[9.462070279388106,40.48088781610929],[9.46185248043815,40.48181660690777],[9.46181346965006,40.481983701430856],[9.46170840852713,40.48243562359186],[9.461646164094553,40.482700307180444],[9.461543189632451,40.483169182952885],[9.461052883031272,40.48337307035372],[9.460932950829497,40.48364908452149],[9.461064519753846,40.48390981806504],[9.461078105867756,40.484171023082396],[9.461060767322595,40.48441016589198],[9.461034981167098,40.48476578460778],[9.461072904413857,40.485134999590855],[9.46128737504421,40.4854404470481],[9.461609391335005,40.48567161063886],[9.461654977859997,40.48570926184472],[9.461622729275097,40.48616884592575],[9.461320587556976,40.486845721669766],[9.461264060869805,40.487206304418336],[9.461301553921107,40.487512457918],[9.46154000299766,40.48787186302659],[9.461801990126437,40.48822216457427],[9.461909912410972,40.4884739833214],[9.46199460638719,40.4887799478683],[9.462091163476911,40.489094873897564],[9.46215213665719,40.4893829160495],[9.462073125668608,40.489905748984064],[9.462170548857173,40.490346797289995],[9.46236107219016,40.490598284268415],[9.462645931265047,40.49084038523681],[9.462906760829723,40.49101951971385],[9.463179080628198,40.49115356260028],[9.463582313408653,40.49144923979418],[9.46374930753774,40.49170982869027],[9.463892827307825,40.49198852863162],[9.464084230638543,40.49236613496964],[9.464259518693089,40.4928172838942],[9.464276446794525,40.492860846412206],[9.46432637914588,40.49325703759071],[9.464425561262622,40.49395032551463],[9.464441585306915,40.494562867532956],[9.464562756058237,40.49502183506252],[9.464765039959506,40.495264262484774],[9.464963902006186,40.4953559271806],[9.465076091447047,40.49540249814539],[9.465245368865649,40.49553128579745],[9.46532189633008,40.49558634239632],[9.46538257940232,40.49582933875268],[9.465467237616274,40.49612629149173],[9.465700901392074,40.496382091688005],[9.46577641789672,40.49646738438596],[9.466060815492451,40.4966374075566],[9.466440492428816,40.496933169421546],[9.466467650270403,40.49744656801382],[9.466351826496801,40.49776234699763],[9.4660937058802,40.49797960197345],[9.465953716583419,40.498214398094774],[9.465838761474824,40.49865629780371],[9.465934851323084,40.49889915100877],[9.466066656941505,40.499186904972476],[9.466209828323839,40.49941155009022],[9.466471511878854,40.499707787624025],[9.46677896549529,40.49979663506954],[9.467144237668624,40.4997140792737],[9.467579878301837,40.49956817481131],[9.467876094795026,40.49973814557744],[9.46816101253435,40.49998023224368],[9.468479017491886,40.4998888538264],[9.468928276637568,40.500004147538085],[9.469036558519967,40.500301002458976],[9.467716474930912,40.50075679765706],[9.467342495888348,40.50107362196286],[9.466753177219353,40.50118411130029],[9.466329076308632,40.501293930169076],[9.466094668779231,40.50152910729146],[9.46612064138554,40.501871340777086],[9.466159646668284,40.50193662642079],[9.466347433019628,40.50223977923859],[9.466631731706759,40.50239178325294],[9.466939510159591,40.50252567375342],[9.467209160645703,40.502577876487955],[9.467258591472387,40.502587445965545],[9.467825632474227,40.5026662326252],[9.467991305946443,40.502730883176206],[9.468058197553074,40.502756664413596],[9.468192484768528,40.50280889139356],[9.468246563734073,40.50282187943943],[9.468621877067177,40.50291868383629],[9.469398390531492,40.50311030274731],[9.469659158890714,40.5032714029152],[9.470015097970508,40.50354022308075],[9.470430111278409,40.503817809741214],[9.470738533522914,40.50404177622405],[9.471130454312922,40.50439152613479],[9.471498458413054,40.504696328339946],[9.47191224233021,40.50513273367552],[9.472068776099501,40.50527021891192],[9.472223370585079,40.50540507042789],[9.472241326626333,40.505441032913915],[9.472311665429205,40.50558190963364],[9.47240293184895,40.50576469244503],[9.472675330243872,40.50589871217196],[9.473005828249821,40.50597947030306],[9.473071569108901,40.50599477680185],[9.47325407807384,40.5059815034722],[9.473431176371276,40.505967688960276],[9.473844098509726,40.505943998504186],[9.473944651183913,40.50594217085591],[9.474423324123055,40.50607172680501],[9.474814068787397,40.506250300382064],[9.47500768024932,40.506987256792506],[9.474996730263008,40.50703904657636],[9.474942516780025,40.50724306833196],[9.474895489304451,40.50727868933964],[9.474586729478913,40.507485436853095],[9.474445387270274,40.507526967459796],[9.473871469973497,40.507693563749605],[9.473809351028594,40.50771384898094],[9.473689299719288,40.50793310663735],[9.473646207164544,40.50801181167535],[9.47331883843793,40.50845458843995],[9.473140934113715,40.50851755536717],[9.47293204991516,40.508591282985066],[9.472777245760351,40.508645991794275],[9.472683008480105,40.508672711383774],[9.472164706795544,40.50881966548622],[9.472094050343188,40.508842823399675],[9.471858530825529,40.508920013721855],[9.471504164642708,40.5088809198017],[9.47138604307068,40.508867889152185],[9.471209290959738,40.50881072833828],[9.47117058248514,40.508799754696994],[9.470995667952968,40.50874336173435],[9.470756308123411,40.508783440440624],[9.470406225493118,40.508844860292044],[9.470324135653753,40.508920868783456],[9.470181453994446,40.50905297931184],[9.470113044800568,40.50911632034556],[9.4700751562141,40.50924981518555],[9.46999784752926,40.50952218849627],[9.469881831487031,40.50981094517357],[9.469779314830264,40.51034288601277],[9.469640947161723,40.51081191062028],[9.469597316536248,40.5113255948687],[9.46963791319885,40.51169536465918],[9.469644765510413,40.511757837343275],[9.469647730211088,40.51178485306275],[9.469754736921288,40.511895903051155],[9.4698379643435,40.511982274993876],[9.470180825731227,40.512061960187744],[9.47034559821505,40.511998240481205],[9.470639103758394,40.51188370292588],[9.47072801018482,40.51184790948186],[9.470766725944525,40.51182339515601],[9.471098140356588,40.511580753201685],[9.471522171757945,40.51145289930986],[9.47167147868012,40.51146210975382],[9.472112602578129,40.51148931995094],[9.472207072324661,40.511495147438566],[9.472291365155968,40.51152993248731],[9.472704261110099,40.511700318900964],[9.472825808630999,40.51178107700955],[9.473000733981914,40.51189730098899],[9.473296783714195,40.51219451586583],[9.473316062184217,40.512221798901564],[9.473372089838296,40.51226041061156],[9.473547231780943,40.51239956065156],[9.474128196500589,40.5127665428661],[9.474560208480654,40.51275783536033],[9.474603371442864,40.51275614639473],[9.474674301454225,40.512751739771915],[9.475070243357544,40.512447362324124],[9.475174819694999,40.512212701360376],[9.475455236637156,40.51180614862032],[9.475541943738454,40.511738275133],[9.475654717346393,40.51164711425018],[9.475807358770858,40.51152542352742],[9.476125471251832,40.51144303359493],[9.476243548148929,40.51144898213469],[9.476456087555054,40.511459688837604],[9.476834490176111,40.51155722565473],[9.47690840081957,40.51161302932344],[9.477083698497516,40.51174538331853],[9.477251115126379,40.51205099375841],[9.47718514834871,40.51273594122191],[9.477116371926464,40.51302450988423],[9.47708227815304,40.51319796036269],[9.477076824638177,40.51322425928775],[9.47703662012198,40.51343023927263],[9.4770224238681,40.51352939544238],[9.477008954172177,40.51362348017355],[9.477000142905998,40.513685002638],[9.476957884098688,40.51398012111575],[9.47673572171356,40.514278330531134],[9.475864096883244,40.514543180901875],[9.47557799411812,40.514741177244744],[9.475424522291098,40.514851002634835],[9.475253293529388,40.5149691116068],[9.47504580033277,40.51521031364115],[9.475081898062625,40.515340301314815],[9.475089341307871,40.51538939290966],[9.475103686987989,40.51546062264401],[9.475127461816882,40.51553717933685],[9.475496119267389,40.5159230441494],[9.475684302513903,40.51616925266625],[9.47567654507358,40.51623712647968],[9.475670822755902,40.51626475345031],[9.47564057845624,40.516406384183],[9.475618423680482,40.51652613581321],[9.475146261292307,40.51652807821762],[9.474617846400198,40.51664193547007],[9.474509789223806,40.516664894396655],[9.47446264260728,40.51667502935843],[9.474435433502515,40.51669315896728],[9.474255594326994,40.51681298735826],[9.474204159048114,40.51684725856851],[9.474052672544804,40.517127155667275],[9.473560066638516,40.51757961917432],[9.473183976994752,40.51781539060672],[9.472772915615973,40.518114366512165],[9.472480083972393,40.51843988352514],[9.472344127613452,40.518677691700724],[9.47227021417662,40.51882511076922],[9.472245813114085,40.518865437231],[9.472201534887159,40.518953373401324],[9.472168003205523,40.51901986219354],[9.47211888344054,40.519117035163525],[9.471896618444278,40.519406227446545],[9.471580765590993,40.51981718325581],[9.471555186279064,40.51985474052098],[9.471452083918676,40.51998460981306],[9.471475355149067,40.52026126687586],[9.47147337207554,40.52029482606963],[9.471490636122192,40.520346075969115],[9.471511644399472,40.52040333486704],[9.471550372560392,40.5205337497341],[9.471585976529054,40.52056063216309],[9.471632654560052,40.52059604409356],[9.471965750336809,40.52084736507471],[9.472238462071722,40.52101741897385],[9.472739908038246,40.52120296988636],[9.472936784860249,40.52127581957432],[9.473244599054077,40.52140068360791],[9.4735364155984,40.52153743660984],[9.473647297284899,40.52158822051025],[9.473861753332608,40.52186661568896],[9.473875588475094,40.522154843200234],[9.473772006118285,40.52253363975313],[9.473730006410017,40.522645279538125],[9.47360972610431,40.52295769715037],[9.473434867662286,40.52327372380821],[9.47312875569408,40.52353410344477],[9.473094542106894,40.5235634018521],[9.47264790257709,40.523844503956084],[9.472188631994934,40.52400854157295],[9.47194324651118,40.52405793464963],[9.471823170245358,40.52408210499788],[9.471613368476545,40.52410206582291],[9.471304102731382,40.52413823907536],[9.471020751495699,40.52413492780815],[9.470841115210176,40.524132396877654],[9.470737390572136,40.52413157804798],[9.470373311988405,40.524403326949454],[9.470223303741168,40.524899424444406],[9.470367363163733,40.52524117494873],[9.470640655939045,40.52549231051313],[9.470854544819385,40.52568963479283],[9.471199496241857,40.52605759132079],[9.471178471173667,40.52642704060704],[9.471002834455412,40.526634960312734],[9.470318348332174,40.52667378409674],[9.469775341650895,40.52668500192424],[9.469387886032102,40.52699287749419],[9.469326991535308,40.52715081358773],[9.469272484187803,40.527292186910806],[9.469213938632258,40.52744402876548],[9.469208393621432,40.52752484608224],[9.469181787219432,40.52791262013667],[9.469184556341915,40.52797567050733],[9.469192379485555,40.528124671678775],[9.469199679259306,40.52832017366346],[9.469202792225724,40.52842591865521],[9.469205601429762,40.52849707959657],[9.46920459941469,40.528551642645574],[9.469251059971805,40.52938078266306],[9.469372516994195,40.52986676786933],[9.469728911142802,40.5301806293579],[9.469966551441617,40.53039587549873],[9.470229210118873,40.53066436568696],[9.470251973715506,40.53069203044971],[9.470295856562073,40.530774595232465],[9.470383776672664,40.53093744665888],[9.47044333577752,40.53104259690417],[9.47058709467463,40.53133930424934],[9.470612535863305,40.53160045765633],[9.470579321141484,40.53191590258895],[9.470581904986878,40.53228525524863],[9.470596610982208,40.53269960222917],[9.47060089668624,40.53331218700831],[9.470676076737664,40.5339977435026],[9.47074737735735,40.53424939291449],[9.470755606441038,40.53427677623606],[9.470880362432865,40.53472496977351],[9.470918726911325,40.534860413879706],[9.470922078352643,40.53499960784742],[9.470935580263804,40.53558105331442],[9.47092548113029,40.53564717759576],[9.470879129760494,40.5359506463274],[9.470715779514792,40.53623058656385],[9.470623656737438,40.53656427555151],[9.470626244748239,40.53693362159025],[9.470605214879372,40.53730306920786],[9.470654399217548,40.537582143457016],[9.470869020707541,40.53787856051987],[9.471424808277586,40.537993409197284],[9.471778601199802,40.53792890365373],[9.472120206095093,40.53781039334026],[9.472472793741805,40.537574722111955],[9.472754153325436,40.537285287764846],[9.473012022907373,40.53701396761993],[9.47337533306876,40.536625099043476],[9.473460295176965,40.53651034759927],[9.473579281591626,40.53634275808127],[9.473655986954434,40.536236568170885],[9.47381945186342,40.53597464116096],[9.473839576398799,40.53547907266246],[9.473826453610766,40.53543253595602],[9.473754504726193,40.53513710512581],[9.473562352495742,40.53467844155438],[9.473548769295293,40.53442624927671],[9.473569973695106,40.53408382611094],[9.473579750095704,40.53379550238512],[9.473612634430644,40.53343501345993],[9.4736580867117,40.53318258004622],[9.473938978675335,40.53283008299304],[9.474332223270006,40.53272670636222],[9.474386815618901,40.532711130136796],[9.47489406739517,40.532645983999515],[9.475697508050962,40.53272375847959],[9.476112854485057,40.53301934039347],[9.476209059375169,40.53314302200982],[9.476315421738132,40.533279761543305],[9.476397044003779,40.533352429735274],[9.476564964975271,40.53350395380133],[9.476669788765077,40.53369182046243],[9.47672043564891,40.53378258719423],[9.477018359748707,40.53416873848037],[9.477163176899907,40.53460957396058],[9.47737896822182,40.535068133848156],[9.477547404676315,40.53550887118505],[9.477667141658893,40.535742606292196],[9.477928761020292,40.53600278123047],[9.478189743096253,40.5361728690382],[9.478603518043814,40.53624322718408],[9.479040139109696,40.53620538213937],[9.479322363404272,40.53604205212209],[9.4794579430387,40.53590837566261],[9.479533432777917,40.53583394783642],[9.479596064545545,40.53549586071776],[9.479602177599247,40.535453654693896],[9.479670560475112,40.53519375005418],[9.47972747605038,40.53489622218464],[9.479701034405654,40.53449994226879],[9.479659664512932,40.53434454170165],[9.479631546988301,40.53423789642776],[9.47960000559863,40.5341185339522],[9.479353407737388,40.533826408819984],[9.479335027535258,40.53379467637738],[9.479079745144295,40.533475511259475],[9.479028732455717,40.53334058985512],[9.478920975304217,40.533062136576184],[9.478952100861571,40.53289068401081],[9.47898008187184,40.532755199973366],[9.479309210299501,40.532537639057836],[9.47934465281747,40.53254069830529],[9.479934505101983,40.532589975422724],[9.480004656059842,40.532600427160915],[9.480325628900232,40.53267756012927],[9.480692543964267,40.53280215827716],[9.481104145432331,40.532978437160594],[9.481406839590928,40.533012954452566],[9.481497024547467,40.5330240299135],[9.481533612972546,40.53296230146789],[9.48172603648107,40.53264837273364],[9.481793021130366,40.53242491184318],[9.481857167728998,40.532202723089455],[9.481950429569764,40.53197711288711],[9.48196162127811,40.531950039439835],[9.482171754089023,40.53161583534037],[9.482293485017587,40.53152829750553],[9.482430208841516,40.53143457988615],[9.482664662118072,40.531199370574384],[9.482824221597319,40.531069248431244],[9.48287023349726,40.53103172588295],[9.48291846914589,40.53099477149426],[9.482971076341189,40.53094968357489],[9.48307549981324,40.53086432623974],[9.483310271284576,40.530674158889425],[9.483721232113469,40.53035712957143],[9.483907803045442,40.53003202890297],[9.484023403888612,40.52968920827907],[9.48442339344206,40.52948933751002],[9.48490888108363,40.52968549568735],[9.485229080912513,40.52988234693676],[9.485572831778537,40.53007008849702],[9.486177107305917,40.53036483932323],[9.486508665782212,40.53049857673729],[9.486863447586453,40.53057816180701],[9.487454033608477,40.53061170753929],[9.487902746117967,40.5306188226348],[9.48823543432714,40.53072488390915],[9.488338452551133,40.53088964157537],[9.488439785221447,40.53104903064568],[9.488492442748177,40.53113413784628],[9.488488783910563,40.53122456415049],[9.48848035064932,40.531349186882004],[9.488464523355626,40.5315623742397],[9.488041900459955,40.5318974874393],[9.487215429866632,40.531900975293425],[9.486861423067735,40.531929494220044],[9.486471996623289,40.531958160289584],[9.486018040889768,40.53209105493393],[9.485847535616331,40.532140973315215],[9.485506244084565,40.53229555861544],[9.48521243859637,40.532485978289316],[9.484965859302918,40.53267619900664],[9.484731993285846,40.532992490738046],[9.484485311169898,40.53340625456977],[9.484452000926494,40.5334621252104],[9.484327432350623,40.533768958773216],[9.4842431720715,40.53397650444419],[9.484192517913613,40.534219955708394],[9.484099167948877,40.53463481832461],[9.4840972426255,40.53467114584113],[9.484085374093143,40.53497457264827],[9.48408274253899,40.53502663449163],[9.484078917286064,40.535121034234564],[9.48404784276806,40.53557190031578],[9.484032126188776,40.53582420228115],[9.483991478614152,40.53602256778873],[9.483899094626631,40.53647339686785],[9.483805461740566,40.53692461304732],[9.483801393518098,40.536950173055004],[9.48376975666924,40.537104557941],[9.483725507337022,40.53751915050581],[9.483847343303172,40.53804115279157],[9.484026794818027,40.53836472020518],[9.48420579404036,40.538625225936556],[9.484539012168243,40.53898418276383],[9.484847838219105,40.53923513494265],[9.48519169990737,40.53943188570561],[9.485735586996233,40.539528697606535],[9.48580445564564,40.53951874691009],[9.485888936561402,40.53950654135449],[9.486260382633565,40.53945340811693],[9.48631359610323,40.539445186946544],[9.48633373540869,40.53941904571047],[9.486478622230864,40.539230992795275],[9.486529168465113,40.53916538609096],[9.486606059798525,40.53906558320428],[9.48663400150436,40.53900870849113],[9.48678063684291,40.538713503049976],[9.486872230278085,40.5383167286638],[9.486893237412934,40.53795628639378],[9.486900043491605,40.53781191242576],[9.486899878201118,40.53763478440049],[9.486902110419313,40.53755085067119],[9.486858799238886,40.537429494842335],[9.48683891573499,40.53736949908639],[9.48681996860976,40.53730770300396],[9.486685789893048,40.537029249618705],[9.48662303600226,40.53651600946588],[9.486666811759152,40.536038356242386],[9.486772011878468,40.535559810882056],[9.48678499696442,40.53549634782727],[9.486849667082545,40.535199763112814],[9.486982079568707,40.53510911685728],[9.487037655912092,40.535071071287454],[9.487433150919115,40.534801657656715],[9.48768387063614,40.534628687963334],[9.487990269923122,40.53454631498359],[9.488284599589925,40.534427956530216],[9.488649444457641,40.53426425454967],[9.48913229293523,40.5340910439213],[9.489343181835894,40.533864929856],[9.489364109032037,40.53349547830374],[9.48951510891165,40.53315250249586],[9.489832650212065,40.53297998823337],[9.490178686053127,40.53289388017996],[9.490421943904154,40.53283334945502],[9.490869751083643,40.532714332881916],[9.491199225318987,40.5325597829037],[9.49164663421879,40.53238671149713],[9.492153864904362,40.53232149060144],[9.492650608417309,40.53243648877324],[9.492747307352195,40.53274237697352],[9.492561959293576,40.53322964521457],[9.49236368044175,40.5335638175331],[9.49225299735052,40.53373535224274],[9.492176883057173,40.53385288789752],[9.492089261724312,40.53396715182067],[9.491989748767764,40.534096922908425],[9.491638168874376,40.534458773339935],[9.491063497921385,40.53499273952375],[9.49063730827096,40.53532938077887],[9.490576516581504,40.53537739606085],[9.490477160996562,40.5354725961468],[9.49040227485169,40.53554517271023],[9.490066247229707,40.5358708319442],[9.489996016411562,40.53595545143155],[9.489961199416818,40.535997401338676],[9.489773620055601,40.53622341765308],[9.489714485079983,40.536448889337116],[9.48969319705942,40.536530059780205],[9.489689889908567,40.53667703079002],[9.489684275357044,40.536926486154684],[9.490052477878393,40.53722221739755],[9.490433689766732,40.537528070496364],[9.490410977871017,40.537806270185875],[9.490271189229151,40.53806811913236],[9.490203953263437,40.53856389087116],[9.490502238698655,40.538986040118836],[9.490559707139251,40.53910750199632],[9.4906463015249,40.539309748272196],[9.490684551081268,40.539696965296464],[9.490745498445474,40.53995796297454],[9.490983700829796,40.540236224428746],[9.491491583868935,40.54025208292478],[9.491801671674365,40.54004116492557],[9.491842648322402,40.540014951156245],[9.491890598778946,40.53998772481152],[9.492179474164791,40.539819806424866],[9.492265409895056,40.53976931476667],[9.492632557477124,40.539643631531575],[9.493115763105244,40.53951544648694],[9.493479235355828,40.539162549961965],[9.493607073416229,40.53888273043671],[9.493711558972294,40.53863904528082],[9.49387422353532,40.53827799643411],[9.494168691349875,40.53817764028662],[9.494583796467452,40.538247031849366],[9.494641600668732,40.53825669510409],[9.49497281697904,40.53833635596809],[9.495304100418819,40.538425025402425],[9.495554007419798,40.538436117669754],[9.495865834589038,40.53845019228757],[9.495918249367937,40.538449705172],[9.496414302363517,40.538456302840764],[9.496518156494943,40.53847307442473],[9.496599385296818,40.538487365711696],[9.496792619331604,40.538517739192336],[9.496866953347794,40.538549930907706],[9.497124372138233,40.538669461937666],[9.497529172688557,40.53911816135487],[9.497706239351684,40.539393098352605],[9.497779899128531,40.53949466006016],[9.49779951281439,40.539531954413874],[9.497811570912013,40.53956503181611],[9.497821383428619,40.53959178112626],[9.49790002271752,40.539765200660476],[9.497632769795672,40.54035192640017],[9.497196998856484,40.54050695201849],[9.496935768050363,40.54051653160799],[9.49663048862914,40.54052774587831],[9.496523689419696,40.54054003808017],[9.495934123112503,40.54059089843127],[9.495796766435538,40.54060529496923],[9.49569826558073,40.54061415083824],[9.49534378471095,40.54064110593925],[9.495288944121024,40.54064515180338],[9.494978182934183,40.54066961838885],[9.494753760218675,40.54071660609463],[9.494701644314667,40.54072682102295],[9.494447595859258,40.540779968239995],[9.494301735656604,40.5408214441254],[9.49416608817749,40.54086301398389],[9.493988884336353,40.540918412556465],[9.493952388601933,40.54093294139356],[9.49348183936148,40.541126460697114],[9.493106152947616,40.54142535672796],[9.492860090660894,40.54168766304661],[9.492637314810665,40.54190482502605],[9.492545354850954,40.54224755273269],[9.492572205602519,40.54268887092664],[9.49266858819635,40.542949716366216],[9.49301407803487,40.54336264856041],[9.493169441621129,40.54361423295577],[9.49335461988205,40.54391391176863],[9.493349757799924,40.544090931304794],[9.493341984211849,40.54425404361527],[9.49331266711131,40.544330287694834],[9.493238372766774,40.54453741679817],[9.493200666398051,40.54465009802044],[9.492896274919225,40.54501175025645],[9.492519573327318,40.5451755159641],[9.492071686368703,40.54529453914274],[9.491363339646218,40.545324580474635],[9.490949430047854,40.545245259917685],[9.490750049330945,40.54524228448304],[9.490654160117563,40.54524058725365],[9.490585672304642,40.54523950332034],[9.490500619720336,40.54523815724231],[9.49024187030276,40.545383396921835],[9.490407323797108,40.545560757460635],[9.490479958630244,40.54564364271449],[9.49060523254286,40.54568249413957],[9.49102395112413,40.54581455519592],[9.491248586295985,40.54585570609387],[9.491397239397715,40.54588340603518],[9.491511510550504,40.54590762417113],[9.491561923612739,40.545924107690524],[9.491839183125828,40.54602593638717],[9.491947455231754,40.54606982713359],[9.49210227098425,40.54620606254861],[9.492304040671144,40.546383616997296],[9.492530197945225,40.546625891545304],[9.49278004294915,40.546877073506096],[9.493054234336824,40.54722724797196],[9.493469084260346,40.54743267965754],[9.494026181202482,40.54770957285398],[9.49455986106618,40.54801358936576],[9.495342145499382,40.5483976178523],[9.495934022813868,40.548584263727165],[9.496868714905249,40.54881447724143],[9.497531457735503,40.54900081012418],[9.498066035510515,40.54911101078833],[9.4983587747895,40.54917135575053],[9.49843039865375,40.549186120460156],[9.498951020924975,40.54931765442487],[9.499376985455578,40.54942527120608],[9.499501633293137,40.54946977683288],[9.499541581921095,40.54948175080194],[9.499844765224001,40.54959223896707],[9.500134532426525,40.549652959839584],[9.500406584791849,40.54970909370976],[9.500726147286297,40.54980126200486],[9.500868175206945,40.549842225105984],[9.501098162035012,40.54991329896221],[9.50127065158017,40.54996660315445],[9.501316705436386,40.54997237983031],[9.501518318108127,40.55001740153288],[9.50162731508916,40.55004181900703],[9.50174378649771,40.550063646294895],[9.502145860868522,40.55013397059534],[9.502512574546655,40.550213455286645],[9.503022490027744,40.55049051007533],[9.503150156427544,40.55069661716568],[9.50334527734525,40.55101160175531],[9.502778865217502,40.5510771320441],[9.50248496022732,40.55125858752513],[9.50219071714713,40.55139499928791],[9.501965485239358,40.551576396360666],[9.501920698737896,40.55161238504747],[9.501838294286724,40.551711839867814],[9.50154613345891,40.55206445241811],[9.501482959704031,40.55216221540874],[9.501343667140668,40.5523727990534],[9.501167241210489,40.552615634160354],[9.501018664700926,40.552817201940044],[9.500860617265849,40.553067422526105],[9.50077510602041,40.553202924676036],[9.500751895995357,40.55325820469653],[9.50064247762741,40.55351880863522],[9.50058624260299,40.55365083696905],[9.500407234272362,40.55397025036668],[9.50020160881229,40.55433089165449],[9.500184373770951,40.5543711720178],[9.50015892605102,40.554426163403235],[9.500089115743632,40.554572768961634],[9.500063212059233,40.554628726248446],[9.500026615061612,40.55470619437437],[9.50000513330201,40.5547499146621],[9.499969432480254,40.55481799253522],[9.499951781565013,40.55487528252992],[9.499859032067755,40.55531828843426],[9.500132775755993,40.555767230696816],[9.500172364784644,40.55577750240585],[9.500654043956194,40.5559781726432],[9.500772856977221,40.555962118290985],[9.500810226734638,40.55595446181789],[9.501019780570322,40.555922533871126],[9.501492014932905,40.55589345835536],[9.50194049348652,40.55584646726151],[9.50208539371261,40.55575372093118],[9.502222610111556,40.55566506542037],[9.502504050506905,40.555393576116494],[9.502540312717676,40.555355705410896],[9.502582010524947,40.55531215887614],[9.502703284155787,40.55518550691575],[9.503061099612198,40.55485617389248],[9.503120114799115,40.55480590049721],[9.503164571274626,40.554787005351955],[9.503667516779437,40.55461375228904],[9.50371366831728,40.55462233924553],[9.50374954003562,40.55462911697851],[9.50414062026755,40.554701776732394],[9.504567496116437,40.554925133457374],[9.504710916127088,40.55514972723603],[9.504868516399284,40.55568956697301],[9.504847262771722,40.556004968844775],[9.504838971545206,40.556473463197555],[9.504806244715034,40.55683395864528],[9.504797866723816,40.557101449026945],[9.504907914265157,40.557550948061284],[9.504916190176397,40.55759505539109],[9.504891345703793,40.557806401415526],[9.504868052930233,40.558045706000854],[9.504799034714056,40.5583605741271],[9.504779104780468,40.55845149229871],[9.504765268820801,40.55851461307982],[9.504468420178071,40.55887981238484],[9.504449270361,40.55890337223019],[9.504025476211922,40.55909440648247],[9.503669723557637,40.55926460322654],[9.503574308973889,40.55931760666691],[9.50349591750597,40.55935797116253],[9.503390018999513,40.55941248588424],[9.503175657936895,40.559702735208674],[9.503092126446079,40.559810170361885],[9.502793359638483,40.56018083213454],[9.502742939364957,40.56026213051866],[9.502653304210247,40.56040666161948],[9.502583511365176,40.56055110632988],[9.502509962124856,40.560701737511124],[9.502360988667409,40.56096594987898],[9.50226890357219,40.56112903788552],[9.501962334030436,40.56120244038894],[9.5014714295827,40.56118368161135],[9.501406938393483,40.561182174167904],[9.501285786450161,40.56117663063974],[9.500783136005333,40.561380229144426],[9.500052056999209,40.56149782474424],[9.499841714736824,40.56165991272717],[9.499722660253456,40.561821670354774],[9.499628084813361,40.56260484941383],[9.49917278776842,40.56304464865857],[9.498702959589986,40.563348808211664],[9.498187593828762,40.56342132797907],[9.498033058053847,40.563363554642486],[9.49791217997252,40.56336358109222],[9.497738265160137,40.5632336370406],[9.497526985512255,40.5630068956764],[9.496610406636853,40.56262599659852],[9.495435105686589,40.56229820462503],[9.49372726040903,40.56187906839654],[9.493348338225033,40.56181116478057],[9.492999882213132,40.561812652289944],[9.49281397018246,40.56190821883811],[9.492779008470208,40.56223080453966],[9.492905246979118,40.56246728043135],[9.492927036958282,40.56271791337892],[9.492959555612586,40.563092886018936],[9.493050575315694,40.563487725775595],[9.493168144781059,40.563743265955985],[9.493390626649187,40.56404570681109],[9.493953659551217,40.56423921673051],[9.49421336342812,40.56425083556481],[9.494612211689022,40.56435335224501],[9.49494667573525,40.56449494549949],[9.49522028225007,40.5646081856031],[9.495623726719447,40.564851585880895],[9.49613463759742,40.56546268053093],[9.497017631447209,40.566590317547245],[9.497175983967784,40.56674296704734],[9.497482665645666,40.567254611529954],[9.497521855059842,40.56794801622806],[9.497553707544132,40.56797509301914],[9.49796300254377,40.56825563301046],[9.498412902790177,40.56838882488574],[9.49898237905058,40.5683111578764],[9.499042830204008,40.5682920583237],[9.499099566006674,40.56827264776913],[9.49938010487659,40.56818645482207],[9.49969562553981,40.568035970392124],[9.49986024485872,40.56796850795823],[9.499921288794226,40.56794278116428],[9.50010092411084,40.567871710220224],[9.500440396991964,40.56779448823775],[9.500857268547076,40.567707908246824],[9.501028317569398,40.567710835846334],[9.501455711825853,40.56770900577786],[9.501538402274367,40.567708646815234],[9.501869368303295,40.56773423607205],[9.502046961323403,40.567786698691286],[9.502260073538695,40.56784965238914],[9.502388905290545,40.56791674695234],[9.502556544594466,40.56800151280447],[9.502639614746315,40.568060226109715],[9.502852335861185,40.56821057627527],[9.502682711628962,40.568537499218635],[9.502612457648748,40.56869198704008],[9.502387709951087,40.569214857813094],[9.502117027934327,40.56949686601171],[9.50154140650288,40.569870550403905],[9.501216637529353,40.56994889557877],[9.500467698950876,40.56963923783673],[9.499060237340974,40.56929168743457],[9.499047631448027,40.569486416152486],[9.498630066241933,40.56961106134119],[9.498518828859202,40.56964213910965],[9.498468336469193,40.56965549280724],[9.498045567864924,40.5698318160374],[9.49758716200497,40.570037851993156],[9.497397967326464,40.57012288697016],[9.497339225937106,40.5701672049067],[9.497301892211757,40.57019537056635],[9.497057470609448,40.570379776197406],[9.496843931070487,40.57068308794907],[9.49667819051631,40.57103434434119],[9.496593527562364,40.57141375240085],[9.49653973760826,40.572043913531175],[9.496652008840863,40.57224052667003],[9.496844798510157,40.57231619186489],[9.497192283904846,40.57227199487369],[9.497741531981713,40.5721925949416],[9.498380189134117,40.57207022184549],[9.498767851363866,40.57216366966526],[9.499229997903429,40.57241180789529],[9.499426677098281,40.572617190289996],[9.499721891268177,40.57284251966574],[9.499759823302515,40.572877561276435],[9.49988624036735,40.57312357674663],[9.499910002667981,40.57315007976848],[9.500080265773846,40.57337248764949],[9.500306140166082,40.57356069376281],[9.50062646191865,40.57373948221151],[9.500911006907213,40.57387337973649],[9.501291007874475,40.574132986307156],[9.5015055087497,40.574317919632875],[9.501623956552233,40.57441982249139],[9.501680419131638,40.57451920619166],[9.501771250789501,40.57468042418332],[9.501791576073055,40.57471638391489],[9.501808110983829,40.57476860036384],[9.5018879751604,40.575020981414816],[9.501779828546415,40.57513212855248],[9.50173784337078,40.57517623086291],[9.501513215233631,40.57541126611668],[9.501206714273527,40.57550268394277],[9.50100880250142,40.57558898599339],[9.500924108996754,40.57563003274046],[9.500737564618998,40.575964166237924],[9.500748315376379,40.576036158902],[9.50078730807597,40.57629727532926],[9.50083673806814,40.57648624596146],[9.50086027709963,40.576576231491046],[9.500923322222347,40.57680071448152],[9.500931474126498,40.576840725264425],[9.500959233011672,40.5769361536328],[9.500993865827734,40.57706212640935],[9.501220025382771,40.57728636474525],[9.501474780587792,40.57738435553578],[9.50152471398914,40.57740129971357],[9.501729537713425,40.577482345753275],[9.502123872307696,40.57757450455939],[9.502214632748473,40.577591983567736],[9.502276897204654,40.57760076044217],[9.502770851014883,40.577694028863014],[9.503001216056068,40.577782841511386],[9.50311744511709,40.57782765165559],[9.503186283488327,40.577854190977654],[9.503232976397644,40.57787219265484],[9.50330444008548,40.57794869253826],[9.503459280018761,40.578114442721755],[9.50358837494363,40.57827638878203],[9.503673974195666,40.57838377038846],[9.503900021698126,40.5786260855456],[9.503982674488787,40.57871952596857],[9.504316239348443,40.5789485209494],[9.50450091369079,40.57909008042947],[9.504617405230363,40.57917441870939],[9.504692927174954,40.57922987784732],[9.504734031443093,40.579260286884264],[9.505080281464476,40.579479312673186],[9.505114659304159,40.5795012169057],[9.505324158789007,40.5796140120703],[9.50544415375459,40.579673302209464],[9.505682218844026,40.57990648841913],[9.505736359501677,40.580011335044105],[9.505826103897276,40.58018512986963],[9.505855134573244,40.58056387859106],[9.505822074632558,40.58065617839919],[9.505748486570287,40.580861128319164],[9.505688505715948,40.58091081611262],[9.50562782655229,40.58096271319633],[9.505431439564784,40.58112376964377],[9.505297260872076,40.5811348555557],[9.505100804125561,40.58115108742528],[9.50497091180806,40.581161819086894],[9.504545220703182,40.58111863497579],[9.504502289901444,40.58111009651515],[9.504339915494384,40.58116546128598],[9.503924652422594,40.58109238577103],[9.502460166771767,40.58081585415508],[9.501312112054858,40.5805296105789],[9.500253168968511,40.58048427515339],[9.50002192086779,40.58049867881276],[9.499965948005082,40.58050304172608],[9.499665746485844,40.580510106292],[9.498942877476962,40.58057601341356],[9.498520012880384,40.58076469329712],[9.498304206793275,40.58097003325659],[9.498175285039988,40.58109305912079],[9.498157988675674,40.58118045371577],[9.49807069673239,40.581270296033594],[9.497965790753884,40.581819679544935],[9.497942491011806,40.582143003679874],[9.498059749393049,40.582817944958705],[9.497387154065683,40.5844198127091],[9.496830703839008,40.58505490697618],[9.496444329478798,40.58584310256939],[9.496457005879911,40.586048223405854],[9.4968409627818,40.586363008800106],[9.497608890038808,40.58676207382197],[9.498349632503258,40.58700628103871],[9.499329359064868,40.58744662698193],[9.50034501159013,40.58819473079381],[9.500504011853142,40.588725923306704],[9.499644935421562,40.58913826492659],[9.499428947539121,40.58917996393338],[9.499253318591801,40.589272950144135],[9.49884123050699,40.58947652647244],[9.498664200876517,40.58950731997797],[9.498570871346551,40.58952355406081],[9.498203923538997,40.58958738200445],[9.49779608931312,40.58997868744944],[9.497779943257214,40.59001247977749],[9.497724241296677,40.59023808104892],[9.49794947062048,40.59046233824306],[9.498067006036047,40.59057095903748],[9.498172715553583,40.59060180435416],[9.498500883154625,40.590692552477314],[9.498536947582403,40.590705882144334],[9.498595311338443,40.59074096195409],[9.49897663332577,40.5909395266352],[9.499202498436942,40.59111872546136],[9.499273199047924,40.59116537119209],[9.499551176934915,40.59134697734628],[9.499611787028126,40.591416021907],[9.499892519743646,40.591737345798904]]]}}]}
