{"type":"FeatureCollection","metadata":{"code":"114032","referenceDate":"2026-01-01","sourceDbfExportDate":"2026-02-18","upstreamArchiveUrl":"https://www.istat.it/storage/cartografia/confini_amministrativi/non_generalizzati/2026/Limiti01012026.zip","sourceManifestSha256":"70ac8256c4785dc6ed2814c32b6965ae76f9161b51abaa1660059e1c6cbd8ca6","license":"https://creativecommons.org/licenses/by/4.0/","attribution":"Istat, Confini delle unità amministrative a fini statistici al 1° gennaio 2026, versione non generalizzata.","modifications":["Converted from WGS 84 / UTM zone 32N (EPSG:32632) to RFC 7946 WGS 84 geographic coordinates.","Converted from shapefile to per-municipality GeoJSON without geometry simplification."]},"features":[{"type":"Feature","id":"114032","properties":{"code":"114032","name":"Onifai","alternativeName":null,"regionCode":"20","regionName":"Sardegna","territorialUnitCode":"114","territorialUnitName":"Nuoro"},"geometry":{"type":"Polygon","coordinates":[[[9.684133656839572,40.40032776130146],[9.684354056275948,40.400624762789796],[9.68446531343932,40.40077468549798],[9.684633503602596,40.401001329206686],[9.68475474043984,40.40116120701793],[9.684791305526286,40.40122572605924],[9.684842737848497,40.40131572477881],[9.6850490560454,40.40167369248481],[9.685232455542707,40.401990377318015],[9.685304141242229,40.40211983804214],[9.685345681830768,40.40219193376403],[9.685472363025355,40.40240463382551],[9.685571167470147,40.40257352756124],[9.685814528488521,40.40299451873203],[9.685831115442616,40.40302077818159],[9.686112127175459,40.4034691833749],[9.686275349535379,40.40372948309018],[9.686424564769698,40.40392042022058],[9.686768476575313,40.404366193526684],[9.686956007858711,40.40460832250121],[9.687027453378235,40.404680870537945],[9.687158878814902,40.40481432373132],[9.68743231739613,40.40509197758803],[9.687620024755068,40.405263656211986],[9.687967641264216,40.405584304814205],[9.68814597657356,40.40570937047351],[9.688216904695182,40.405759111686486],[9.688262433763422,40.40579103456947],[9.688489908040799,40.40595056774745],[9.688770585964852,40.406156102747154],[9.68881050174423,40.40618531108494],[9.688927966836124,40.40627042527322],[9.689000974854798,40.40632639057929],[9.689178750931339,40.40646892382332],[9.689369323037665,40.406665986226564],[9.689560630574261,40.40693511461514],[9.68981058780596,40.407176866495426],[9.690120664920283,40.40753537588895],[9.690908946680162,40.408557692868634],[9.691108272439406,40.40878771639949],[9.691254667235977,40.40894912593265],[9.691334817511871,40.40903504088483],[9.691647806860567,40.40935507525645],[9.692028982979906,40.40974918934165],[9.692469734168242,40.410206008737525],[9.693088469238118,40.410778876428395],[9.693588530673077,40.411271372110235],[9.694064565916692,40.41171896453628],[9.694634426598105,40.4121209460317],[9.695144811568015,40.412469228870414],[9.695690742796272,40.412835313645154],[9.695870717817758,40.41294020854776],[9.696212459969631,40.41313847826314],[9.696687225035863,40.41345994153032],[9.697094377431062,40.41373119315173],[9.697209416388596,40.413808143983424],[9.69806375237083,40.414361545446866],[9.698681175312606,40.414799255718414],[9.698866865250661,40.414946783614084],[9.699311045108749,40.41529995428376],[9.69980978546054,40.415657295703426],[9.700094753521432,40.41583452256102],[9.70042667104105,40.416040945486735],[9.70106760345458,40.41646949134476],[9.701744837495925,40.41698790369649],[9.702161755694659,40.41740879380053],[9.703203727538837,40.41786191847754],[9.703523834803269,40.418040150073146],[9.704023181058984,40.418451523600574],[9.704378840783207,40.41864755438035],[9.706942911254757,40.420370635163856],[9.708200808045845,40.42117374261471],[9.708629105584619,40.421549494965355],[9.7089167204405,40.42199817978098],[9.709142944764565,40.42221300737424],[9.709407072569418,40.42239341086301],[9.710306494004424,40.42300769539122],[9.710399367675247,40.42306532489062],[9.712893232424019,40.42461335940753],[9.713286786019754,40.42504336166392],[9.713526630851483,40.42542926707101],[9.713744712213767,40.42598647599043],[9.714242969490071,40.42739780386089],[9.715018196011355,40.42935696313468],[9.716718827915033,40.43519326309721],[9.716734102693861,40.43524384047393],[9.717894188251437,40.439285059135145],[9.718734850650705,40.441829363017746],[9.719627161146223,40.444787748171606],[9.720388690094323,40.447638832877054],[9.720595014524854,40.44818709073278],[9.721012917607524,40.44867096664648],[9.721129891155663,40.44879540875805],[9.721442330716236,40.44912774219905],[9.72178747154583,40.44942288148735],[9.722299146648025,40.44985211403595],[9.72330947102721,40.45059353600889],[9.723891530883744,40.450986284102285],[9.724295264829053,40.45124501378326],[9.724793823594032,40.45154819151675],[9.72554108820668,40.4519489050979],[9.726029241230806,40.45224082657209],[9.726182066324174,40.45233219603372],[9.726680255742032,40.45272259910478],[9.72896521197686,40.454512851752554],[9.732615982550671,40.457291539112155],[9.736040124909794,40.459810295142354],[9.737110801332935,40.46065030787038],[9.737718586854394,40.46122299956216],[9.738147403340989,40.461607644614894],[9.742359681761942,40.466036703918206],[9.745416005097082,40.469250163375165],[9.745540068359684,40.469383389320896],[9.745568321415002,40.469411133014276],[9.74584293650328,40.46969557734539],[9.746176491257577,40.470050020211055],[9.746444029384746,40.47032970068298],[9.747207284113312,40.47113329748683],[9.747491033151821,40.47143327862261],[9.750825720158096,40.47493686992381],[9.75126337779296,40.47539688265223],[9.752992920510524,40.47729946506274],[9.75306261804552,40.47737613193267],[9.75325501496562,40.477589601595405],[9.753210363542111,40.477614832925795],[9.751140487370506,40.47856476695757],[9.749760252311466,40.47919939031034],[9.740489281138927,40.48368251354413],[9.738748453089826,40.484171123662954],[9.729757068673509,40.487363330760225],[9.728881387599928,40.48767393235471],[9.7251023533127,40.489014222549486],[9.724911373895463,40.48909222440511],[9.724422541462816,40.48929874801247],[9.723804767185941,40.48955696948882],[9.723696980004886,40.48960205309117],[9.721478759904794,40.49052959562856],[9.7214471287258,40.49048657818722],[9.721123652115116,40.48990396382948],[9.720880660716139,40.48963794533947],[9.720753453505326,40.48949186533227],[9.720466332807382,40.48912429236027],[9.720168860964035,40.48889191614253],[9.719706017556968,40.488642552147994],[9.719501841251374,40.48846900432823],[9.719313104082529,40.48831167071106],[9.718943790535073,40.48798064110246],[9.718874794168146,40.487891462990014],[9.718680763758103,40.487657954715],[9.718406324092122,40.48737137797014],[9.718120569563396,40.48712991460866],[9.71770330821192,40.48672710831785],[9.717238474929967,40.48628855999658],[9.716737486320598,40.48577816252915],[9.716283793706175,40.48527647864449],[9.714758446068032,40.483853513306435],[9.712851162305343,40.48200946628386],[9.712124128732455,40.48131462477993],[9.710884628309524,40.48012969491774],[9.710258674234618,40.47954054675826],[9.70957394355871,40.47890353201076],[9.70727321058036,40.47663838857031],[9.70474812788256,40.47433853046672],[9.703318486627563,40.4729959064265],[9.703021427129034,40.47279050948486],[9.702616421693216,40.472414598739576],[9.702423089426667,40.471974338527616],[9.702349498499201,40.471704518797345],[9.702202413482224,40.47117388842656],[9.701999495245547,40.47094539438829],[9.701796578390498,40.47071689997326],[9.698261254412992,40.468783382269244],[9.696755254395264,40.46801770579344],[9.695403552093994,40.46734117007024],[9.694521888415416,40.466803485354276],[9.693955384615608,40.46645799312063],[9.693586400497514,40.466277762718754],[9.693508191062554,40.46624131594629],[9.692390518011443,40.465692598228884],[9.691062125772943,40.464979836630675],[9.688500238144636,40.46359874503036],[9.687218461369161,40.46282259829903],[9.686554868049296,40.462520239235644],[9.685819598098675,40.46212821185558],[9.685262529974999,40.46186124912517],[9.68478802368176,40.461593793688735],[9.684230324190885,40.461263766821006],[9.683589433083746,40.460871166390575],[9.68311494036123,40.46060370482986],[9.682604978571375,40.46032744088387],[9.682059458432649,40.460033367426625],[9.68177605525559,40.45985374529693],[9.681454059242315,40.45964956177542],[9.680955451523662,40.45932817951827],[9.68039606146587,40.45882697498882],[9.680084132682762,40.45851787365646],[9.679609790945904,40.45804782508443],[9.679208696740663,40.457592602657066],[9.677951493483787,40.45616568997751],[9.677285834724543,40.455647075254625],[9.67693326795455,40.4553226916062],[9.676842903070318,40.45523263175557],[9.676714381505025,40.45511074843495],[9.676599611428665,40.4550031718368],[9.676464698090458,40.45487712204897],[9.676324099280247,40.45474281078603],[9.676034554234416,40.454429192490124],[9.675843651473043,40.45421644342197],[9.675732374594496,40.454092442841365],[9.675667474717034,40.45402471512343],[9.675628166969432,40.45398031792825],[9.674937381003508,40.453138306134456],[9.674747708507827,40.452697788885246],[9.673935286934533,40.450810845118184],[9.67285359750241,40.448772119443944],[9.672187894323152,40.44733178691082],[9.671792702204725,40.446478958423086],[9.671759667883713,40.44640768194762],[9.671704450083014,40.44628261095558],[9.671683887217272,40.44623857098964],[9.67148628533924,40.44584244789808],[9.670855949547642,40.44459119690817],[9.670829442161589,40.444539667848765],[9.670609089061742,40.44410050306582],[9.670383128375986,40.443651366736916],[9.670325164514031,40.44353615328608],[9.670157169554225,40.443202229914306],[9.669931213775442,40.44275309259114],[9.66978020145244,40.44245256931346],[9.669725078716358,40.442342905741604],[9.66926664823958,40.44143261514732],[9.668969852506736,40.440840879469334],[9.668903626626268,40.44070626258446],[9.667991618634598,40.43889045776162],[9.667699299127065,40.43794620751492],[9.66759183638948,40.43765974938414],[9.667491976843118,40.4374024698008],[9.667476348301157,40.43736096718695],[9.667432877972193,40.43723604681933],[9.667411017046028,40.4371228863798],[9.667272394508025,40.436507255036254],[9.667257933037085,40.436237070510245],[9.667126021515113,40.43601260712244],[9.666838443986759,40.435545801541096],[9.666800494427468,40.43528476051595],[9.666632061236403,40.43494339163686],[9.66625106693813,40.434567211597845],[9.666012080010008,40.43424426640599],[9.665785774393672,40.43401133703885],[9.665228040116496,40.43364518029934],[9.664394445697715,40.43309586738952],[9.662835535496416,40.43206899639835],[9.659889944621879,40.43050056569559],[9.659797069149665,40.430451112764835],[9.658705988801648,40.429756910022014],[9.657727984370396,40.42913451057386],[9.657649972580927,40.42908481728041],[9.655278829530674,40.42771090013854],[9.652371582517764,40.42574536873208],[9.651534084675056,40.425014490401196],[9.651067294591654,40.424604138196756],[9.650742782158474,40.42432226674739],[9.649801651000779,40.42348799356183],[9.649680646999752,40.423380563218124],[9.649367499308132,40.423102114966326],[9.649316217536686,40.42305711720376],[9.648440752096798,40.42228101098494],[9.648329324759162,40.42218247507338],[9.647771436948556,40.42178019760372],[9.647237131275913,40.421377786284424],[9.646891508839836,40.421153840275984],[9.646727096300719,40.42104730821384],[9.646465454146773,40.42080552886322],[9.646331222809808,40.42049303365003],[9.646292167172893,40.42040376684794],[9.646248525424125,40.420302094072035],[9.645992987648176,40.41946568635581],[9.64569168763697,40.4187736784326],[9.645425494178763,40.418054445578136],[9.645336964014382,40.41742431017515],[9.643909277773435,40.414685298413964],[9.64365605071552,40.41419945319535],[9.642493289745302,40.41215186959615],[9.642381398634674,40.41188586163563],[9.641793899116713,40.41048908962641],[9.641445806576314,40.40938433613853],[9.641377841321898,40.40916862245973],[9.641363830888034,40.40913017377832],[9.64135014665826,40.40908648180686],[9.641335859787526,40.409033558876345],[9.641285884262183,40.40887676828581],[9.641162004594365,40.40848358761424],[9.640879417850917,40.407268939090926],[9.64076724658753,40.40687143078461],[9.640729962811907,40.406739578750276],[9.640658323367767,40.40648882427527],[9.64055625473269,40.40612762847375],[9.640528248978658,40.40602859097248],[9.640355048486835,40.40541608524286],[9.640361029288908,40.40356019598973],[9.640264058096824,40.4023799954132],[9.64026088191855,40.4023295936642],[9.64022838850331,40.40193029909002],[9.640191747886306,40.40148005133498],[9.64016097173656,40.4011018437498],[9.64016072858378,40.40102977241077],[9.640159214544834,40.40057933009393],[9.64015770292218,40.40012888772886],[9.640156187824067,40.39967844534824],[9.640155550306991,40.39948859856572],[9.640154662970714,40.39922460295679],[9.640154463054033,40.3991740117251],[9.640425250108938,40.39915421389001],[9.64068431318904,40.39913516146982],[9.640751243695174,40.39915196912631],[9.641015798904881,40.3992104177432],[9.641074013852299,40.3992230915101],[9.64150876647482,40.3993543247287],[9.641552694267855,40.39933268262253],[9.64160503260524,40.39930189465227],[9.641748602019167,40.39921934945362],[9.641827711542433,40.39917386492134],[9.641967680840505,40.398938647098426],[9.64208500861566,40.39876703016516],[9.642187723908465,40.39861761608348],[9.64223049479121,40.39855539960379],[9.642423464546374,40.39831469938748],[9.64246713753111,40.398260403101794],[9.642772754085197,40.39818062553425],[9.64301590162269,40.39811715507017],[9.643072067142736,40.39810249394249],[9.643107989994807,40.398094337324174],[9.643537764420802,40.39808327765518],[9.644021812155518,40.398179681739364],[9.644341413899733,40.39833105481462],[9.644720275451919,40.398518132047926],[9.644911813634646,40.39883237929321],[9.644843787074564,40.39911327644767],[9.644862493549267,40.39920202424587],[9.644905531897418,40.39940899141159],[9.645142149801314,40.39950746420945],[9.645482288563144,40.39964901670449],[9.645674540516904,40.39972902509403],[9.645733738091721,40.39975807134399],[9.646219156610009,40.39999625251266],[9.646275233150194,40.400027526755316],[9.646325780628665,40.40005571743563],[9.64639508709365,40.40009436818111],[9.646539030379545,40.40017464427123],[9.646631329020975,40.40023275296144],[9.646918409410581,40.400414061303266],[9.646977688182648,40.400451470490324],[9.647062683225121,40.40045266066148],[9.647437327574272,40.40045790681597],[9.647507746902795,40.40042823296882],[9.647719006880264,40.400339212059656],[9.648095862118419,40.40031492453037],[9.64848449506415,40.40028987602041],[9.648684828221866,40.40029034781084],[9.649274042126256,40.400291732683],[9.649615785385382,40.4002925348618],[9.649863331570177,40.40030097185085],[9.65045272556251,40.400321057967204],[9.650523452250736,40.40032346821064],[9.651040619775182,40.400185423005105],[9.651303307227186,40.40006682645856],[9.651404341337479,40.40002121189398],[9.651627104053176,40.399903804398164],[9.651732622893759,40.39984818941441],[9.652121121320281,40.399618252958376],[9.65221279796723,40.399540792895785],[9.652305314765972,40.399461640618746],[9.652575105831597,40.39923082538544],[9.652646212282326,40.39915882075175],[9.652788355352163,40.39901006846237],[9.65296243740522,40.398706115403634],[9.652993729783718,40.398651885076404],[9.653010725639916,40.398500049061795],[9.653034030465601,40.398291748097876],[9.653036891279443,40.39826098573134],[9.65302935410441,40.398164242783146],[9.65301989368701,40.398107729959484],[9.65300969832868,40.397868064749574],[9.6532655282292,40.39751526798732],[9.653461917152622,40.39710875295324],[9.6534946528817,40.396838297105994],[9.653278731529165,40.396443120907755],[9.6529574656022,40.396120611012506],[9.652841263636551,40.39582169327968],[9.652824499535653,40.39577887402738],[9.652656636686098,40.39547365939478],[9.652348291175715,40.39526819209375],[9.65244020413486,40.39502442985496],[9.65267106859575,40.3945276305445],[9.652677726096368,40.394413045962565],[9.65271882685778,40.393374246610904],[9.65259465682186,40.39271728896844],[9.652483575557483,40.39219539279562],[9.652562135535488,40.39178954285602],[9.652934021889905,40.391255911359366],[9.653294992323952,40.390812429478515],[9.65337699187052,40.39061037590159],[9.65351362516432,40.39027064097344],[9.65343369667786,40.38966899296212],[9.653411968459967,40.38950545463888],[9.653135337632811,40.388921431347626],[9.652763416892695,40.3882298351562],[9.652498317457425,40.38761871778592],[9.652375637330156,40.38711490378841],[9.652261439036375,40.38626869939435],[9.652257561125076,40.386208795403995],[9.652206060014905,40.38541315211853],[9.6522268411405,40.3851247471028],[9.6527593213597,40.38536498571267],[9.653173302510172,40.385533819306445],[9.653429354479885,40.38563285578072],[9.653563545120969,40.38568477817773],[9.653965835225588,40.385862684997626],[9.654367954247311,40.3860225731664],[9.654829502431921,40.38623617713204],[9.65883990940749,40.38792511230888],[9.660589696578457,40.38854573859594],[9.661322165065469,40.38874875936359],[9.663165178630104,40.38926072754155],[9.666047212084713,40.38999191178386],[9.671598940953645,40.391410252961705],[9.672936033600964,40.391768385392695],[9.674068072220827,40.39207155408476],[9.674548487150638,40.39219616991123],[9.674687930810961,40.392232561210754],[9.675990815501972,40.392570326068956],[9.676299872099008,40.39265168719631],[9.676546589451796,40.39271542200171],[9.676808895831426,40.39278421102636],[9.677151381840588,40.392873300393916],[9.677301208312684,40.39291033404042],[9.677969142993266,40.39307718790587],[9.679643727542537,40.393489309667665],[9.679741512447444,40.39356556436193],[9.679781324529689,40.3935966089634],[9.679855055632299,40.39365407687754],[9.679976260761846,40.39374860013055],[9.680022426840509,40.394045681597994],[9.680092156778375,40.394483736429144],[9.680246493479508,40.394846191958045],[9.680272582868568,40.39487994415877],[9.68067628239556,40.39540222138066],[9.680807059951446,40.395527874114784],[9.680852415063573,40.39557023623957],[9.680943753004335,40.39565877028225],[9.681044969347289,40.39575340738],[9.681078589318643,40.39578824117283],[9.68111857180465,40.39584044752773],[9.681184311549478,40.39592656366885],[9.681454597121926,40.39628952895671],[9.681642207117532,40.39654162425234],[9.68178836083567,40.39673801188393],[9.682122129006993,40.39718649377683],[9.68221558513053,40.39731206862821],[9.682239474952182,40.39734415224983],[9.682456034783131,40.39763497384956],[9.682789998042399,40.398083452573985],[9.682836753825317,40.398146240013915],[9.683058445929687,40.39853231733089],[9.683240057773459,40.398850317006506],[9.683312875990884,40.3989775876582],[9.68337222503416,40.399077191713296],[9.683429919400117,40.39917011447537],[9.6835263795626,40.399357888934766],[9.683559109284532,40.39942859507245],[9.683806319218084,40.39987924839398],[9.683820818659923,40.399906188968096],[9.683949490263172,40.40007939946564],[9.68403592996756,40.40019606915972],[9.684068717422376,40.400240602538524],[9.684133656839572,40.40032776130146]]]}}]}
