{"type":"FeatureCollection","metadata":{"code":"117026","referenceDate":"2026-01-01","sourceDbfExportDate":"2026-02-18","upstreamArchiveUrl":"https://www.istat.it/storage/cartografia/confini_amministrativi/non_generalizzati/2026/Limiti01012026.zip","sourceManifestSha256":"70ac8256c4785dc6ed2814c32b6965ae76f9161b51abaa1660059e1c6cbd8ca6","license":"https://creativecommons.org/licenses/by/4.0/","attribution":"Istat, Confini delle unità amministrative a fini statistici al 1° gennaio 2026, versione non generalizzata.","modifications":["Converted from WGS 84 / UTM zone 32N (EPSG:32632) to RFC 7946 WGS 84 geographic coordinates.","Converted from shapefile to per-municipality GeoJSON without geometry simplification."]},"features":[{"type":"Feature","id":"117026","properties":{"code":"117026","name":"Villamar","alternativeName":null,"regionCode":"20","regionName":"Sardegna","territorialUnitCode":"117","territorialUnitName":"Medio Campidano"},"geometry":{"type":"Polygon","coordinates":[[[8.966514893168668,39.65768746474885],[8.966106909208275,39.65766031540549],[8.965594040630787,39.657579072492325],[8.965209350460144,39.657596978573814],[8.964859621148747,39.65763291463549],[8.964463301055416,39.65759675271098],[8.962796539971926,39.657235820048705],[8.9609783083556,39.65678471018897],[8.959824395871316,39.656577080833095],[8.959253194554144,39.656603912866046],[8.95881020203718,39.65665781773767],[8.958332201237603,39.65677478072581],[8.957994031333872,39.65697288452961],[8.957784432266982,39.65660338832094],[8.957656381801444,39.65631501270777],[8.957551614193012,39.65608070748004],[8.95754012823312,39.655801385493774],[8.957761891632284,39.65533293232513],[8.95803027203292,39.65487350588853],[8.958578458184538,39.65432407640701],[8.959103561637804,39.65336917346642],[8.959570333848736,39.65247732011067],[8.959862102574984,39.65184670260217],[8.960095493714448,39.65137824867106],[8.960352274862224,39.650765638478084],[8.960422348203602,39.65052238481598],[8.96036421895753,39.650261066730586],[8.958452896280605,39.649881967806735],[8.957089209689924,39.64982740994278],[8.956413207003788,39.64978210650287],[8.95612190548348,39.64963783306061],[8.955947310193318,39.64925933504199],[8.95563287899134,39.64883573256277],[8.955329927448984,39.64869145176026],[8.954945377493456,39.64856515924225],[8.954199466877547,39.6485017959757],[8.953197222399735,39.64831218091688],[8.952824315592649,39.64821291621046],[8.952291908089103,39.6479093328699],[8.952007300947857,39.64774404778521],[8.951624332247345,39.64745555948377],[8.951422462331696,39.64728475249986],[8.950785648130417,39.64675240512029],[8.95040125765631,39.64642787162556],[8.949702197454497,39.646085180304766],[8.949224450709888,39.64593179824194],[8.948513752905901,39.64558008429973],[8.948222592969413,39.645291625337414],[8.947197574040064,39.64448023914054],[8.94683642719788,39.64428184747877],[8.946521893676946,39.644092487414845],[8.946254015990355,39.64385809630545],[8.945788024369211,39.64360559156351],[8.945515508060081,39.64344511934334],[8.94538030263951,39.643362123614374],[8.945201048803934,39.64328473302272],[8.944867670199569,39.64314563375091],[8.943900710971343,39.642685647015],[8.943279595408224,39.64258508442425],[8.943220405664205,39.642573146515964],[8.943003431684652,39.64254104537268],[8.942385871818173,39.64238756551113],[8.942106343969769,39.642171179712356],[8.94174528417508,39.64190069111582],[8.941267812483263,39.64147696645803],[8.940604260953599,39.64081039846841],[8.940566425021553,39.64076985861915],[8.93988216730248,39.640070652911646],[8.939276628116886,39.63952972066985],[8.938834189482703,39.639060953231166],[8.938484707624358,39.63890759339384],[8.937937201167408,39.63865501376069],[8.936935380688958,39.63820395954659],[8.936201723642958,39.63762690092232],[8.935479757563183,39.63702281210141],[8.935420816521578,39.63699935509768],[8.935336336472755,39.636964709192824],[8.934862346789108,39.63677918942054],[8.935282116854692,39.636518125176515],[8.935086459341358,39.63389601994537],[8.935009919671591,39.63297648752682],[8.93500455756884,39.63294347141924],[8.934994711823924,39.63283779855518],[8.934990571062501,39.63274243314468],[8.934902054200304,39.63171542341787],[8.934669213150796,39.63149003511743],[8.934459822354535,39.63111148497961],[8.934099063531303,39.63061571376852],[8.933737956279522,39.63048936397732],[8.93347007925724,39.63035405611357],[8.93335388359834,39.63001159875802],[8.933051208123285,39.62971408403879],[8.932736751987854,39.629551717379115],[8.93172370993157,39.62883030146848],[8.932225246695005,39.62832601836009],[8.9322605535655,39.627965626418195],[8.932262231675727,39.62624465784268],[8.932378995690975,39.62599243691358],[8.932335368349289,39.625923708231596],[8.932216116618283,39.625740055731825],[8.932240624103446,39.62450565710661],[8.932066054617746,39.624298317162285],[8.931981613623337,39.62422102621169],[8.931930956565626,39.624176800593155],[8.931809953485674,39.6240638997615],[8.931425777184526,39.62373930148111],[8.930308786265448,39.622206883286374],[8.930169199821298,39.62198154151299],[8.929872051783518,39.62190514993828],[8.929818317119052,39.62189099550465],[8.929784816222428,39.6218821964385],[8.92928405115479,39.62165663473771],[8.929226172072838,39.62128717615589],[8.929228261840898,39.621257852208664],[8.929229995283563,39.621211175832066],[8.929261611281166,39.62080965147548],[8.92936686352031,39.62042227133755],[8.929192450582802,39.62007977293247],[8.929029588885376,39.61983639473383],[8.928793431177835,39.61949300737994],[8.928482814204155,39.61905216233546],[8.928283615468189,39.61870624850577],[8.927843647825867,39.61794508958412],[8.92780068882606,39.61787133262116],[8.927757729915491,39.617797577443504],[8.927714769930027,39.61772382314943],[8.927671807703707,39.61765007063927],[8.927628375891677,39.61757647730378],[8.927468326656719,39.61730147657613],[8.92743094502133,39.61723149560384],[8.927393280187957,39.61716167752993],[8.927343124268798,39.617078193670714],[8.927286797813116,39.61695080095986],[8.927066763756297,39.616453140367774],[8.926525547345104,39.615229011348426],[8.926506309108174,39.615185498767076],[8.92619212653503,39.61484290705712],[8.925726556477034,39.6144461553851],[8.925317460634426,39.61415785310281],[8.925241878694008,39.614101730956975],[8.925191073548772,39.61406737853273],[8.92500178574075,39.61396964320137],[8.924736989668638,39.613832816594645],[8.924553137023818,39.61376150435338],[8.92420133015619,39.61362523089089],[8.923898577721246,39.61349888823233],[8.923712451796678,39.613255487072905],[8.923421698967278,39.612813789598455],[8.922816435236937,39.61235386204199],[8.920552913650845,39.610615920136226],[8.92051114938978,39.61058385236235],[8.920244178172696,39.610378861931075],[8.919999888745012,39.610081352307375],[8.920734569357412,39.60938805975614],[8.921783976307852,39.60849674753116],[8.922215253089764,39.608253758661284],[8.922821397520673,39.60788473870104],[8.92342770423847,39.607362540444164],[8.92369546323442,39.607506881403296],[8.924208217540428,39.60730898973533],[8.92459265057667,39.60728220863489],[8.925128882315587,39.60691313207394],[8.926376207402784,39.606030915746054],[8.926597726653316,39.60584183808271],[8.9270871364653,39.605670950143555],[8.927529865879421,39.60558112387301],[8.927821334963731,39.60532901545684],[8.928602553098917,39.604563619008786],[8.929092307385165,39.604041318291614],[8.929313903349883,39.60376213304283],[8.92995458821034,39.60371746895327],[8.9303859601746,39.60332127336612],[8.930700911899942,39.60286193383016],[8.93161004570235,39.60224976839978],[8.932134483267763,39.601952734694635],[8.932973532830873,39.601520725086274],[8.93366098204161,39.60126882958433],[8.933998907201888,39.60111584664135],[8.934441879053034,39.60072865191873],[8.93952187104847,39.59878517144985],[8.939953087888448,39.598470031948374],[8.940372615051261,39.598199937870454],[8.940838627707873,39.59804699970582],[8.941304676341598,39.597849008445266],[8.941584302502214,39.5977320146921],[8.941887206759743,39.59763305276533],[8.942201614903981,39.59770529211408],[8.943004931532334,39.598102143269934],[8.943947768329593,39.59881441938492],[8.94419260409792,39.5985081854152],[8.94427432827336,39.59826494489459],[8.944623891348034,39.59807589483079],[8.9451130529223,39.59809414778273],[8.945450745493611,39.59818441018775],[8.945800038107237,39.59833775001615],[8.946172737080737,39.59834693369535],[8.946429174987733,39.59808575159965],[8.946906778248552,39.59798685700503],[8.947314587490823,39.597770794149646],[8.947652703038848,39.59730240826176],[8.947904450168547,39.597118013036344],[8.947931020455394,39.59709616294035],[8.947980161152373,39.59705125444271],[8.948561490724096,39.596861302168506],[8.948969083263622,39.596924554000196],[8.949306887995121,39.596861629757505],[8.949621424399545,39.59676265272484],[8.949881632627436,39.596832229361226],[8.949925432928676,39.59684717492392],[8.95001832764274,39.59686661167291],[8.950331744764707,39.59695217575693],[8.950704475248498,39.59690728233434],[8.950972473032374,39.59673619935023],[8.951228886978086,39.59647500657407],[8.951532034637903,39.5959975850735],[8.95200552665559,39.59549770624504],[8.953512532117529,39.59516043041539],[8.953850419844208,39.594953326946786],[8.953955411115619,39.59469206783151],[8.954025450132866,39.59444881655455],[8.954277846579615,39.59433546036161],[8.954320237178235,39.59431648393982],[8.95538847553939,39.59383664281329],[8.956413515924439,39.593575731014745],[8.956762931669079,39.593530810281024],[8.957543457941386,39.59316167292783],[8.958591842568218,39.59278361563204],[8.959774734083874,39.59227627408991],[8.959936847241304,39.592205888297734],[8.960059619624948,39.5921534042161],[8.960478974328755,39.59198235108474],[8.960828426286682,39.59185632418094],[8.961142796675285,39.59198257496442],[8.961515335207993,39.59222597806262],[8.962365614117262,39.59201000785586],[8.962680134192816,39.59186594408914],[8.963025133069475,39.59172622859689],[8.963066605306224,39.59170976439727],[8.963169370237585,39.59166787144489],[8.963705160542522,39.59152387481797],[8.964136102040825,39.59144291467384],[8.964869895493278,39.59124491097832],[8.965254299532635,39.59106481957254],[8.965557172348355,39.59090272272964],[8.965860012795972,39.590803698162816],[8.96652372303106,39.59101113138249],[8.966907998352136,39.591092335409805],[8.967245719213276,39.59111045107494],[8.967932859609716,39.5910385601186],[8.968177319198128,39.59126388650717],[8.968689729939307,39.591282046585754],[8.968980793027646,39.59147134206741],[8.969469827613137,39.591687720313494],[8.970052021208902,39.591931151855675],[8.970331471492567,39.592057368775215],[8.970564315339416,39.59223763494878],[8.970684803665373,39.59235751684427],[8.97071793481718,39.59237383589211],[8.970785505474772,39.59243592400214],[8.971099856555247,39.59266126174067],[8.971588842368533,39.59303080663509],[8.971926345910479,39.59361656250745],[8.971902834744933,39.59415717843258],[8.972112361720121,39.59442754014404],[8.972461693146412,39.59458079994087],[8.972811034322673,39.594716036917],[8.973183693192201,39.594788206989094],[8.973672750535941,39.59504060826507],[8.973940549609269,39.59522988683135],[8.975372556275405,39.59669888787196],[8.975544555109947,39.59676256577363],[8.976082918371743,39.596969346478225],[8.976525513997252,39.596924385485494],[8.97694018298926,39.59695734848159],[8.976979729138264,39.596960517182126],[8.977468838892896,39.59714082076006],[8.978004512387724,39.59740222316449],[8.978528605217107,39.597465394200846],[8.978726676789693,39.59722215082721],[8.979052833537915,39.597078044100435],[8.979588544241889,39.597231315854025],[8.97992626558631,39.59736653023833],[8.980345508681808,39.59752878784407],[8.980729827516015,39.597636976470355],[8.981138219701746,39.59765506434091],[8.9816266725033,39.59752899749133],[8.981964495067665,39.5972947810443],[8.982209146585442,39.59703351898698],[8.982908106509573,39.596429929537074],[8.983572130101424,39.595763258759206],[8.984504016026513,39.59506958883946],[8.985342694611964,39.59446600398727],[8.98664727673373,39.593520072737014],[8.987544129291658,39.59301559240634],[8.988161412943159,39.592808417788675],[8.989279511361152,39.59237602893259],[8.989931696649156,39.59234004642284],[8.990316021805477,39.59230403733663],[8.99124773520223,39.59208786253928],[8.991841707404255,39.59188066747965],[8.992447330932574,39.59159237618395],[8.99304131606342,39.5911779366696],[8.994997906569148,39.590042729973135],[8.995533613859957,39.58995264738423],[8.99578983002102,39.589781460360236],[8.9966632839711,39.58915076226878],[8.998573181184597,39.58779023520735],[8.999062287352748,39.58751992953326],[8.99941164776849,39.58730368293752],[8.99963290828161,39.5869973304886],[9.000110360276437,39.58646571917465],[9.00078576769011,39.58578993841477],[9.001507745537493,39.58528535068427],[9.002136554557206,39.58477174882395],[9.003117597657956,39.584059907390504],[9.003382497096828,39.583708495096744],[9.003720187000463,39.58361838116446],[9.00402295600876,39.58377154694675],[9.004079741005864,39.58405987759462],[9.004186012596488,39.58429414372649],[9.004710024403176,39.584285113218364],[9.005047720615277,39.58426707813943],[9.005525162585554,39.5843661704717],[9.005827935802204,39.58448329063205],[9.006363614276818,39.58469951152668],[9.007481564945934,39.585167984688866],[9.008273434231498,39.58531209638755],[9.008739223681072,39.58526701094819],[9.009030365899278,39.58542016451355],[9.009531134963561,39.585690436167795],[9.009950378023783,39.58586159863606],[9.010847121336472,39.58636609894281],[9.011464358229,39.58665437218444],[9.01183701743467,39.58675345063431],[9.012570684228887,39.58687951803055],[9.013350953812072,39.587104690352795],[9.014073018191347,39.587410958499966],[9.014259398640109,39.587690256877266],[9.014375917730332,39.58800560538414],[9.014399313763864,39.58851919419786],[9.014527504923707,39.58895167592027],[9.014783761396671,39.58921294464078],[9.015051737622622,39.58980759401542],[9.015191658583252,39.59060048831567],[9.01528504422925,39.591600626766116],[9.01547147400704,39.59202408910276],[9.015611297034036,39.59233943393006],[9.015762773678206,39.59268180740233],[9.015856139528251,39.59354678940077],[9.015879615364403,39.5943487086261],[9.016170813412689,39.59451085448494],[9.016368883908532,39.59485322054458],[9.016476642551595,39.59528956348956],[9.017102930187958,39.5961415968045],[9.017405805725867,39.59638483078078],[9.017638099470306,39.59651218703224],[9.017731961077596,39.596564989191116],[9.018337638038739,39.5967360915712],[9.018489137687137,39.59707846122426],[9.0187105694397,39.5976010271124],[9.018943780586923,39.598601138809656],[9.019095376359674,39.59926788022235],[9.019142444404473,39.60100687020297],[9.019167664333107,39.6012030382957],[9.019294189852133,39.60218720155052],[9.019445726257125,39.60260165210038],[9.019655480171199,39.60293499969936],[9.020016675667051,39.60332238253254],[9.020226251146571,39.603525977236686],[9.020471074536328,39.60376381035291],[9.021111847364104,39.60420520354816],[9.021822529027341,39.604682619938245],[9.023034243859515,39.6056104518596],[9.023185752933168,39.605853701177494],[9.02323156023072,39.606006569963036],[9.023263710501185,39.60610907774019],[9.023349012570698,39.60639428895357],[9.023337566705436,39.60699798457695],[9.023116811447787,39.60870098245588],[9.02275581848565,39.60907047790662],[9.022977326497065,39.609611054481384],[9.023268792036767,39.61033182388939],[9.023607052469032,39.61162023328372],[9.023670803999053,39.612044948389936],[9.023828904601919,39.613124914170335],[9.02385245746844,39.6138637562218],[9.02387077248694,39.6138920703585],[9.024120543823487,39.61427817674914],[9.024411888896717,39.61456644610112],[9.024505179011996,39.61482772634372],[9.024668420886337,39.61523315630071],[9.024705173487057,39.61527340246243],[9.024948129817474,39.61553944753311],[9.025484120266288,39.615791620637545],[9.02565896705666,39.61605288197988],[9.025624156163389,39.616431322878796],[9.025606022540336,39.61669671379162],[9.025607019498759,39.61678441990158],[9.025608890818262,39.61683262062178],[9.02558950746718,39.6172512714683],[9.025717820136858,39.61768373866295],[9.025892685998997,39.61798104025354],[9.026090887054051,39.61836843939872],[9.025601493076556,39.61816131093693],[9.025205332789028,39.61803525289486],[9.024844139349863,39.61794522761838],[9.024482955204162,39.617882231508375],[9.02346935296718,39.6178193688023],[9.023370104169793,39.6178232272387],[9.023280265299864,39.617826719685006],[9.022293560092793,39.61786590120517],[9.021871978823375,39.61788279203663],[9.021442047339503,39.61789926299514],[9.021139311229035,39.617909919206824],[9.020195629973637,39.61790107668292],[9.0200743608733,39.61789463273947],[9.018609547275451,39.61781668797665],[9.018563163705899,39.61781353995568],[9.018444627590632,39.61780955821815],[9.018353803715327,39.61780304366734],[9.01743447107188,39.617802408568025],[9.015651978418365,39.61784771437438],[9.014461933809079,39.61791741986771],[9.01435132784653,39.61792293082702],[9.014240698530232,39.6179282695853],[9.014130044658753,39.61793325323153],[9.014019402542885,39.617938836863466],[9.01390876157372,39.61794441768678],[9.01379811825595,39.61794999480081],[9.013687490100063,39.61795574480734],[9.013590915672635,39.617960434343566],[9.013494355245077,39.61796529049025],[9.013397794803303,39.617970142952515],[9.013301235512388,39.61797499173025],[9.013214818597094,39.617983300168355],[9.012888949983338,39.61800006548198],[9.01235496153816,39.618028319733575],[9.011372101893464,39.61807126814302],[9.01050543480882,39.618106191149415],[9.009810886727681,39.61813386334011],[9.008118612264871,39.61820664475741],[9.00764823119756,39.61822694736686],[9.00616863552524,39.6183081289264],[9.005807472848655,39.6183081475413],[9.005744791443988,39.61830291291361],[9.005376400758403,39.618272132106064],[9.004968641483218,39.61836225333344],[9.004176457328631,39.6191101411364],[9.004071081807469,39.61920963767055],[9.00312794942132,39.62006526880623],[9.003092606120223,39.6201052723006],[9.002650290067262,39.620605900737424],[9.002230872772,39.6209753329817],[9.001982096887403,39.621107133414576],[9.001811447258346,39.62120059740324],[9.000925987465822,39.621930443309786],[9.000518205206266,39.62243502415916],[9.000087114495049,39.62299366499315],[8.99956280709156,39.623507251913686],[8.999234267640942,39.62375926539114],[8.999183496024019,39.623800580381754],[8.999143356421179,39.62383162088236],[8.998906442633253,39.624068754302606],[8.998874393417704,39.62410785908236],[8.998847384624211,39.624145824990016],[8.998818800761327,39.624169447238],[8.998798874919915,39.62420435237691],[8.99874644379638,39.6242961866005],[8.998709621395845,39.62436341540584],[8.998651285900815,39.624470281548305],[8.998587010006236,39.62458935125646],[8.998543924304565,39.62466916924301],[8.99846238322522,39.624816644807574],[8.998222850735765,39.625264026925905],[8.998212101423006,39.62528852510107],[8.998117421026867,39.62545720254484],[8.998094232830946,39.62550357411976],[8.998058463580842,39.62557298143332],[8.99802789474275,39.625631582667474],[8.997998175225936,39.625691586824715],[8.997984043206287,39.625717959979966],[8.997967378941757,39.62575475179825],[8.9979266597268,39.62582522310809],[8.99788946150288,39.62589893730458],[8.997852179307703,39.62597262896071],[8.997820665030877,39.6260352631673],[8.997743491999588,39.62616485446178],[8.997733465861614,39.62619230260301],[8.997647363166072,39.62637113991439],[8.997632340449616,39.6264040239098],[8.997605364584127,39.62645522306645],[8.99757326371916,39.62651946554229],[8.997548941926627,39.62657472211639],[8.9975264624436,39.62662492119531],[8.997503785360623,39.62666078023838],[8.997470812711724,39.62672585792751],[8.997425550723122,39.62679018927505],[8.99739641124117,39.62682928738587],[8.997279640113684,39.62697649996917],[8.997249993843841,39.627009697129694],[8.997205960109769,39.627060999402616],[8.997133450042305,39.6271393303083],[8.997034317219933,39.62724649371845],[8.996614834801061,39.62751679104889],[8.99642965694511,39.627624852435204],[8.99629748790512,39.62770198168069],[8.99599725803401,39.62787718492266],[8.995573334545002,39.62817738286688],[8.995495562341398,39.62822743164857],[8.995411478904767,39.62828191503862],[8.995309757325062,39.62835470495031],[8.995041747973085,39.628507869408274],[8.994849169181267,39.628555277261036],[8.994506569363288,39.628637202875304],[8.994016348833478,39.62863396465672],[8.993573572538688,39.62857086923794],[8.993308526969745,39.62860881050541],[8.993142435662467,39.628633917257915],[8.99289379122905,39.628775439185155],[8.99278119777051,39.628841132337996],[8.99268786965987,39.62989533197622],[8.992716000307174,39.6300245597023],[8.99273591276904,39.63010707529812],[8.992792694163759,39.6303548606497],[8.992865576532113,39.63066882728006],[8.992823996996883,39.6307098931217],[8.992768827804403,39.630765380114134],[8.99271299901724,39.63082056428979],[8.992606142999335,39.63093309175124],[8.992553793262239,39.63098983036031],[8.992493333419418,39.631055224691195],[8.99215170226664,39.631309911966596],[8.992149594242914,39.63167120180831],[8.992128239459522,39.63268848711336],[8.992046614240524,39.63316602780742],[8.991985921134447,39.63336410589953],[8.991836783958714,39.633832775506],[8.991696917457363,39.63408505423715],[8.990768861416948,39.63478706520024],[8.990613069027665,39.634904910179515],[8.989859497528537,39.635431767942826],[8.989834164318168,39.63545495121466],[8.989736318225562,39.6355146768633],[8.989167920456245,39.635868886885405],[8.98913217002534,39.63589074360512],[8.989051857239827,39.63593865231045],[8.988960629012071,39.63599081101556],[8.988869622029636,39.636043182314495],[8.988778521698077,39.636095453517534],[8.988687294226327,39.63614760029315],[8.988456995906473,39.6362832918235],[8.988299866189307,39.63633420631572],[8.988197952125335,39.636370344707],[8.98810889210499,39.63639806593713],[8.988019830848037,39.63642578799976],[8.987930865048378,39.63645368750816],[8.987084068919899,39.63673097164063],[8.986986972918794,39.63676440549093],[8.986891113066422,39.63679893686224],[8.986534055242016,39.63691380525052],[8.984739201590301,39.6378596647234],[8.983996184523885,39.63833933972446],[8.983014180802243,39.638967691312935],[8.981580525038693,39.639823451156396],[8.981126550495564,39.6400489833748],[8.981067256561158,39.64007837273996],[8.98011190725043,39.64055304211958],[8.979723972501256,39.64072336641649],[8.979086205488839,39.641003376495405],[8.978619876108544,39.64152588806935],[8.977793690656194,39.64226314368354],[8.977617315790875,39.64241771769717],[8.97724776890304,39.64282084867687],[8.977174344018081,39.642900944473794],[8.977022724089462,39.64306634296893],[8.976719541741915,39.64355283745034],[8.97605276264783,39.64432992181739],[8.975751810633797,39.64467892510092],[8.97557682596933,39.64513841298787],[8.975378539541264,39.645570864573195],[8.97528327470626,39.64591669148495],[8.975256428195742,39.64600179667464],[8.975016763768538,39.64687727872252],[8.974596902299911,39.647625040588494],[8.974318739608663,39.64810647727723],[8.974293670517628,39.648145316255615],[8.974277136687869,39.64817487645746],[8.97422369535749,39.648264686093924],[8.973850567453725,39.648670065755944],[8.973517932590182,39.64908838418187],[8.973478229322144,39.649138515014165],[8.973442427941613,39.649183557679386],[8.973417518200192,39.64924836342299],[8.97323476782545,39.64971807508754],[8.973115697242992,39.65014758439661],[8.973057286192386,39.65048996136254],[8.972907727367115,39.65069737900298],[8.972614114702914,39.651120578385],[8.972089339777325,39.65176018261034],[8.971879436792147,39.65199439915109],[8.971355005479891,39.65176901418071],[8.970982088000989,39.651588715610885],[8.969759128793541,39.65278589915653],[8.969473235015386,39.65306842027446],[8.969186293867628,39.65331822474347],[8.968894749028804,39.653624495976],[8.968638081533413,39.654129002496944],[8.968509660530142,39.654570470861486],[8.968497836237745,39.65493988891165],[8.968567607757315,39.65530932814579],[8.967937588231191,39.65652554175135],[8.96789887395511,39.65657434996864],[8.967144449068742,39.657525459392254],[8.966514893168668,39.65768746474885]]]}}]}
