{"type":"FeatureCollection","metadata":{"code":"118040","referenceDate":"2026-01-01","sourceDbfExportDate":"2026-02-18","upstreamArchiveUrl":"https://www.istat.it/storage/cartografia/confini_amministrativi/non_generalizzati/2026/Limiti01012026.zip","sourceManifestSha256":"70ac8256c4785dc6ed2814c32b6965ae76f9161b51abaa1660059e1c6cbd8ca6","license":"https://creativecommons.org/licenses/by/4.0/","attribution":"Istat, Confini delle unità amministrative a fini statistici al 1° gennaio 2026, versione non generalizzata.","modifications":["Converted from WGS 84 / UTM zone 32N (EPSG:32632) to RFC 7946 WGS 84 geographic coordinates.","Converted from shapefile to per-municipality GeoJSON without geometry simplification."]},"features":[{"type":"Feature","id":"118040","properties":{"code":"118040","name":"Sadali","alternativeName":null,"regionCode":"20","regionName":"Sardegna","territorialUnitCode":"318","territorialUnitName":"Cagliari"},"geometry":{"type":"Polygon","coordinates":[[[9.269607718363773,39.85188930258204],[9.26909337139242,39.851890496833605],[9.26866078263236,39.85187347945513],[9.268298436814723,39.85188332807379],[9.267982430765215,39.85178494922972],[9.2676780791993,39.85167753261425],[9.26736193398279,39.85154311232944],[9.266729577499447,39.851256250180604],[9.266424916721096,39.85106774081768],[9.266167016072234,39.8508791242698],[9.265768390145414,39.85057370028981],[9.265323149614701,39.85030442071797],[9.264866778281243,39.85017932424087],[9.264305202133846,39.85005446570617],[9.263872488000827,39.85000139156248],[9.262808549510329,39.84994974663166],[9.261931948486366,39.84997875928098],[9.261183897905212,39.84999846593292],[9.260693011799438,39.85001759014095],[9.260365538662064,39.84997327548393],[9.260049211458862,39.84978477639621],[9.259814643877688,39.849578073313246],[9.259463217966774,39.8493806411937],[9.259182133363545,39.84923711009327],[9.258818583007166,39.84892257371254],[9.25838473048996,39.84856314266598],[9.258091591129702,39.84832052639742],[9.257809772264933,39.84797877486327],[9.257434242871641,39.84758317136931],[9.257094119684814,39.84727758661228],[9.256777545269964,39.847016999744014],[9.25618060881569,39.84680208068021],[9.255876297522182,39.84669463288003],[9.255524932141702,39.84650619769771],[9.254939992760358,39.84637233603406],[9.254589395807374,39.84639112512028],[9.254291697482527,39.84655323862398],[9.253959098067487,39.84663577643696],[9.25344465831246,39.846600862267195],[9.252648332699941,39.846197150771864],[9.252132809264753,39.845864904044596],[9.251687421957948,39.84553250286131],[9.251288890978879,39.8452270285448],[9.2508435774375,39.844912643975654],[9.250609119536099,39.84472394188381],[9.250397809755693,39.84447211914216],[9.249952733843887,39.844220799901755],[9.249806276877097,39.84413466051492],[9.249601299338998,39.844005317628046],[9.249226619303016,39.84382592434393],[9.24887561194471,39.84372756753898],[9.248384279836689,39.84361149193331],[9.247940059356926,39.84359442210991],[9.247507495132409,39.84356831568602],[9.247431539657601,39.843568582226446],[9.24738676463903,39.843565664760234],[9.247336200007124,39.84356168292154],[9.247133437771293,39.84356010309262],[9.246736067041743,39.84356995894201],[9.24619872739,39.84366119993907],[9.246013150778207,39.84376057872678],[9.245929698094136,39.84380016734532],[9.245872064847253,39.843833082416346],[9.245544983452142,39.84388783445152],[9.245124234846601,39.843897734259635],[9.24504081787022,39.8438936325213],[9.244527936766398,39.843844932476905],[9.244072154826876,39.84386391233846],[9.243300406394818,39.843775433109],[9.242820771621572,39.84365930849948],[9.242341075109078,39.84352516286873],[9.241791314621487,39.84340918046186],[9.241652819814977,39.84340733365204],[9.24120686805991,39.843401387059274],[9.24065723625895,39.84332143913647],[9.24016607765563,39.8432503767036],[9.239663357021852,39.84321537710869],[9.23932433611839,39.8431980569143],[9.23857600774212,39.8431185088515],[9.238424353307837,39.843115557192334],[9.238178577095972,39.84311031544484],[9.237854188982942,39.843114103854646],[9.237767288223267,39.84311043560766],[9.23771832840604,39.84310450192144],[9.237395308966704,39.84306687072366],[9.23724155355641,39.843068121393955],[9.23698622022882,39.843067707120674],[9.236647509982461,39.84314047790201],[9.23643789378683,39.84336615523184],[9.236005982908024,39.84352921347788],[9.235456479096108,39.84348528078428],[9.235272906046541,39.84341410904917],[9.235185439516835,39.843380349207855],[9.235097605378318,39.84334741896835],[9.23504683600871,39.84332393177187],[9.234601853868192,39.84308156337266],[9.234476125138746,39.84305816621691],[9.234075546384851,39.84298351701624],[9.233760270008824,39.843074252154665],[9.233316300293819,39.843129206092875],[9.232685288345422,39.84317552269894],[9.232276441695257,39.843248422274],[9.231937452694527,39.84324009046123],[9.231598341521234,39.84319571776586],[9.231001787814346,39.84306175844103],[9.230439909767695,39.84281059672055],[9.230170449952908,39.84262192181497],[9.229760463943888,39.84235243615348],[9.229327643152445,39.84224517301207],[9.228918320876511,39.84217390203104],[9.228029371135817,39.84197743282294],[9.227491007828203,39.84176225068091],[9.226987770237125,39.84156501738319],[9.226589846306467,39.84140361639861],[9.226332179254927,39.84124193959757],[9.226132656652892,39.840990049419716],[9.225886355438723,39.84072924083949],[9.22560528726899,39.840558597923916],[9.225300815304205,39.84037899063595],[9.225089316987008,39.84003702238239],[9.225018191454804,39.839730820803],[9.224970176216166,39.83934348578706],[9.224979952862636,39.838757818655566],[9.224849833167358,39.83828054229052],[9.224497977905402,39.83790280549708],[9.224170233607916,39.83775026940713],[9.223807429725957,39.83759780002507],[9.223386189405558,39.83744544293671],[9.223253535134676,39.83739906409808],[9.223039619144668,39.83732367224362],[9.222847963301076,39.83725726800476],[9.222309333434161,39.83694295251748],[9.22205085048082,39.83651997901425],[9.222143197595098,39.836159382380124],[9.222300314928845,39.836060797148406],[9.222504774928126,39.83593342932426],[9.222649268472072,39.83588424198033],[9.223170207002498,39.835706901851836],[9.223508924384193,39.83564318037778],[9.223800601640718,39.835489448197784],[9.224022068851346,39.835308821633205],[9.224005545367584,39.8352349837649],[9.22391559957822,39.83491258778465],[9.22345899468862,39.83466118859541],[9.223154408613642,39.834436525441504],[9.223271555468337,39.83407139668294],[9.223151580419229,39.833562563311496],[9.22262416913292,39.833095057524446],[9.22227264419477,39.83280741258879],[9.221909782392656,39.8326279079741],[9.22148851993356,39.832457522873156],[9.221149150578196,39.83231401032207],[9.220774493601521,39.832098484409386],[9.220505073321705,39.83190077741994],[9.219966839721362,39.83169456970735],[9.219546649014523,39.83185754475428],[9.21932532552953,39.83208321377661],[9.218986849410502,39.83221900212806],[9.218682717233945,39.832129476152026],[9.218599827789225,39.83178725304988],[9.21854005376807,39.83136389674573],[9.218387390600615,39.831129924602955],[9.218024262865418,39.83086030772216],[9.217602622768073,39.83056377018257],[9.217430032771803,39.83023053969796],[9.217355056575064,39.82987947540702],[9.217272260452697,39.82956428121137],[9.217158479925784,39.82948601393212],[9.217062027903387,39.82941966596263],[9.216932631855512,39.82933065705072],[9.21660542605949,39.82933126838356],[9.216290929263936,39.82922394254599],[9.216242766750195,39.82920580497534],[9.216276214270819,39.82869217383751],[9.21628705254136,39.82842185368126],[9.21630951421711,39.82813350343658],[9.216168557375019,39.82789949559393],[9.21613494058683,39.82785916972932],[9.21607930245874,39.82779999347678],[9.216020085972819,39.82773289861077],[9.215963620887312,39.82766744022521],[9.215883355130824,39.827609710779605],[9.215582781348228,39.82742305593164],[9.215408623792149,39.827390455740975],[9.215311286324074,39.82737551753511],[9.215228227268991,39.82736455953521],[9.214751322017904,39.82720552817267],[9.214687335152474,39.827158789768994],[9.214494816200546,39.82703764246699],[9.214412396315323,39.82694755634358],[9.214357355926795,39.82689462933002],[9.214213440309688,39.826740832990104],[9.214048836972541,39.8264167772568],[9.214071313200998,39.82612841649955],[9.21401190747283,39.82581317569719],[9.213911332403367,39.825613303527994],[9.213891627350133,39.825575654365004],[9.213867877257652,39.82554116077085],[9.213817660841856,39.825469337699886],[9.213636108194814,39.82521019941683],[9.213545421656884,39.825093236430035],[9.213378002514286,39.82487730470367],[9.213225525755677,39.82469329946236],[9.213184177402743,39.82464340201915],[9.213158078050519,39.824611924654775],[9.212990835421031,39.82422910038561],[9.2126393861664,39.824208559648554],[9.212370969590873,39.82419439278683],[9.212055245442182,39.824120499354954],[9.2117979875406,39.824060290058675],[9.211470540788255,39.823974166345394],[9.21142376358148,39.82396186275184],[9.210967689995522,39.82384556295704],[9.210885825496357,39.82382277845862],[9.210584577002347,39.82374057355376],[9.210301051798185,39.82365215753956],[9.21011391773543,39.82359483214736],[9.209739286606888,39.82336125002667],[9.209715830132488,39.82333246201297],[9.209693223426655,39.82329760417821],[9.2096539439339,39.8232564018442],[9.209615883210875,39.8232105760311],[9.209536253097545,39.82311206322913],[9.209446069759675,39.82300138060156],[9.209294657081584,39.822694167232044],[9.209265505881852,39.822634982217046],[9.209210926311302,39.82252427301887],[9.209322917290711,39.82243928358221],[9.20937762593848,39.82239806021336],[9.20955760020542,39.82226186526316],[9.209648605628685,39.822193071166126],[9.209712254237811,39.82214501626785],[9.209837275561387,39.822102110435445],[9.210109072878803,39.822009111285325],[9.210330476829716,39.82181049041718],[9.210539921007888,39.8215217910246],[9.210567382567092,39.821431844117164],[9.210643985107035,39.8211611966318],[9.210651555774955,39.82097947408808],[9.210654871909934,39.820899886616054],[9.210661637633844,39.82071018710681],[9.210672162571209,39.82065298828257],[9.210679745022563,39.82059033830043],[9.210682361896897,39.82053087518589],[9.210637136900246,39.82026648015418],[9.210631456863677,39.82021245616261],[9.210559296962959,39.820149366161885],[9.210362097218166,39.8199741968351],[9.210332570326681,39.81994653988614],[9.210298661163929,39.81991676449518],[9.210222373479073,39.81987927667595],[9.210120247254657,39.81982887821533],[9.209974515051512,39.819756682128194],[9.209938652582707,39.81973883860117],[9.20988008445739,39.81969395726335],[9.209833461108145,39.819658198617674],[9.20975033106126,39.819594411644424],[9.209704349633476,39.8195591401317],[9.209660657876546,39.819525619625416],[9.209587170535823,39.81946927815286],[9.209365252077486,39.819244383712366],[9.209294220711774,39.819172431270644],[9.209142397901367,39.818857953408944],[9.209137706610937,39.81879433632369],[9.20914085118644,39.81868613047299],[9.209140359703126,39.81852398875734],[9.20927985813982,39.81828947708365],[9.209571220398928,39.81804568096439],[9.210142830985873,39.81774731733096],[9.210679824803893,39.81759317314766],[9.211193146039465,39.8173399605287],[9.211303555029385,39.817239440422355],[9.211437736248374,39.81711727343185],[9.211659771903943,39.816914964503525],[9.211711708484707,39.81684418839902],[9.211803647175175,39.816718944519565],[9.21190369759007,39.8165826393959],[9.21194353923401,39.81652846021069],[9.212007378375064,39.81644157923888],[9.212031141078203,39.81640926171961],[9.212062372710701,39.81636687980329],[9.212182787232003,39.81620289158907],[9.212502364922537,39.815670937368644],[9.21252888333143,39.81562117118379],[9.21254578998205,39.815571565859806],[9.21256189031927,39.81551433858208],[9.212573595154554,39.81547491786484],[9.21258279464312,39.815444866812655],[9.212615808327632,39.81533305701234],[9.212652097482607,39.81518505851986],[9.212753867107397,39.81488231618272],[9.212785921656012,39.81476919531354],[9.212814220788232,39.814626078654165],[9.21287749869495,39.81428471658243],[9.21290092368268,39.81421033683084],[9.212915132397896,39.81415328595549],[9.21292929294935,39.81409577925615],[9.212994581829323,39.8138316793563],[9.213044439693181,39.81363524012052],[9.213056667922512,39.813585407231415],[9.21306890200104,39.81353558243892],[9.213105800146344,39.813381481915094],[9.213154892068955,39.813182758165865],[9.213191008948405,39.81304175069159],[9.213221001654675,39.81293375568803],[9.213246073490973,39.812833015627376],[9.213293122273303,39.81264181266903],[9.21330502938623,39.81261482900677],[9.21357186262581,39.81201068868091],[9.213694127924331,39.81186091959832],[9.213769578873427,39.81176896154934],[9.213874480024064,39.81164071060946],[9.213941244372336,39.81157747098376],[9.214126131610293,39.81140927205959],[9.21418891312748,39.81134276267082],[9.214212159641901,39.811309519394776],[9.214421617307037,39.81100899936258],[9.214522344898095,39.81083514557702],[9.214554174520352,39.81077897371189],[9.214624796433098,39.810670700446884],[9.214646205681964,39.8106343628109],[9.214863179839252,39.810242330611466],[9.215212930217927,39.81000742198647],[9.215261550745966,39.80999737745484],[9.215328711620021,39.80998351155919],[9.215664801477434,39.80991407464791],[9.21578501442651,39.80988922929163],[9.216006616851574,39.80996722366251],[9.21608909997064,39.80999678355323],[9.216175860012227,39.81010944896707],[9.216220815381806,39.810164230329804],[9.216265588675695,39.81022240070758],[9.216300235079203,39.81026669098517],[9.21650725136975,39.810444637948756],[9.2165930927154,39.81051842803394],[9.216686347109562,39.810535678533384],[9.216740043691962,39.81054562179073],[9.21697900311967,39.810590180580085],[9.217562558483777,39.81045354737125],[9.218123161606522,39.81033572508751],[9.219126439710784,39.80994604426447],[9.219628105036858,39.80972885552725],[9.219989604165152,39.80952093962339],[9.220355482526507,39.8093493762834],[9.220491206106217,39.80928572708781],[9.220712568242197,39.80909609619891],[9.22082375679623,39.808895674183375],[9.22084384267664,39.80886134265909],[9.220864403727372,39.80882144379391],[9.220779498302557,39.80848075460786],[9.220677985167896,39.80843288068445],[9.220630319669471,39.80840559777187],[9.220126369822804,39.80815742229406],[9.220058319245746,39.80814090522712],[9.219975939612834,39.80812019135502],[9.21993350827588,39.80810938129008],[9.219819545445583,39.80808179209798],[9.219733522295169,39.80800092818855],[9.219680687425857,39.80795548492434],[9.219481669099682,39.80776494853065],[9.219375643183103,39.807530880362684],[9.21946820821477,39.807206353760876],[9.219514076452189,39.80693596605489],[9.21962957979612,39.80652128686459],[9.219719049304755,39.80636571952233],[9.219780615658545,39.80625970911289],[9.220048583448651,39.8060339507443],[9.220233970456336,39.80555606859298],[9.220389057216277,39.80459174448582],[9.220430445163023,39.80433645581849],[9.220531800973902,39.80370844334121],[9.220482541979944,39.80291565469241],[9.220483948720435,39.80261216218111],[9.220480527514498,39.802574954272096],[9.220480554135492,39.80229396888921],[9.220689349683898,39.801834061433325],[9.220898719035354,39.801554351774456],[9.22103535892923,39.80136480740254],[9.22111968253389,39.80124758753038],[9.221259076679686,39.801004050916134],[9.221398152019377,39.80066140452087],[9.221536647769064,39.800138558809145],[9.221559907349565,39.79996423740085],[9.221570925038248,39.799881272064475],[9.221575063639548,39.79984923955486],[9.221605085704077,39.79962485589711],[9.221666746472422,39.79939129086361],[9.221684104904009,39.799317582089564],[9.221698233390955,39.79926202583113],[9.221731983763236,39.79912906141892],[9.221777034570147,39.799020230585086],[9.221807516403043,39.79894909431954],[9.22195220942338,39.79859704877893],[9.222207937769362,39.798209128479485],[9.222393696502415,39.79785738122821],[9.22248654389088,39.79766582140124],[9.222516183325295,39.79760263886864],[9.222558165584328,39.797516955145134],[9.222602553150745,39.797424499300575],[9.222787364549527,39.79691906779978],[9.222795332872185,39.79688389956925],[9.222811517147164,39.79684759740912],[9.222828183515114,39.79680432590394],[9.222843029073282,39.79676510072768],[9.222855278442017,39.79673251828107],[9.222862780030695,39.79669426137538],[9.222873660974262,39.79660974008735],[9.222892679404975,39.7965037753296],[9.222916918331203,39.796367585142285],[9.222938595026102,39.796253998121024],[9.222941165602801,39.79621447304685],[9.222941016535811,39.79610752425076],[9.222955972799873,39.795798777665865],[9.222970538972904,39.79563079494404],[9.222934292650367,39.79546225931139],[9.222908812047805,39.795342871150716],[9.222899208496386,39.79529764172874],[9.222874630340998,39.79521716378414],[9.222816604838536,39.795027444812526],[9.22278275232183,39.79495371069859],[9.222754335320378,39.7948921198779],[9.22274220355268,39.79486584085088],[9.222675598278808,39.79472135099861],[9.222533873212468,39.79444779568627],[9.222479182307167,39.79427242142989],[9.222464480428288,39.79422453474439],[9.222455402025266,39.79419497735839],[9.222391883984393,39.79400409374934],[9.22237590603923,39.79390810541059],[9.222368429095596,39.793877472743986],[9.222360225706105,39.79383960004185],[9.222333540493734,39.79368585126303],[9.222295023561882,39.79353863764778],[9.222288425134803,39.79350077988412],[9.22228190959524,39.793474881984245],[9.222272462090112,39.793431838049635],[9.222268742413775,39.79339059327507],[9.222265948830241,39.79335656472753],[9.222264163539133,39.7933277123603],[9.222260731308788,39.793295936662595],[9.222258030990881,39.793265843552945],[9.222254616064113,39.793226014582785],[9.222249743254837,39.79318103371879],[9.2222599070432,39.79314289516866],[9.222342638652771,39.79288394011145],[9.222597124063691,39.79211759888156],[9.2227945331098,39.791738853804986],[9.223015234227192,39.79138698043037],[9.223446121574161,39.790998719308234],[9.223842083723339,39.79064656530223],[9.224237718882966,39.790195299270096],[9.224493549904357,39.78985242289873],[9.224714283155544,39.78949159367529],[9.22493168426253,39.78927598204835],[9.225005436656966,39.78920248770122],[9.22514588360696,39.789087152490275],[9.225214367778555,39.78903142807434],[9.22538971224856,39.7888865932825],[9.225797654321914,39.78863351874079],[9.226193884833963,39.788371456365056],[9.22660170384419,39.7880823387385],[9.226680778917878,39.78798075107879],[9.226917788738465,39.78767625759071],[9.227058391977916,39.78749562338723],[9.22712505317632,39.787409981488246],[9.227275209751925,39.787222209420605],[9.227313142959797,39.78717181449882],[9.227392595310194,39.787084000275115],[9.227683542183266,39.78677375284187],[9.227942999821888,39.78633381083933],[9.22854991997489,39.78542280735385],[9.228586650002407,39.78537396411268],[9.22862156499218,39.78531943634358],[9.228845292865417,39.78492440689683],[9.22891340689388,39.7847767479849],[9.229001807883135,39.78458626622204],[9.229053987341834,39.78447353758054],[9.229156132866349,39.783581340639344],[9.22915451991098,39.78353516692323],[9.229148116148743,39.783393119595495],[9.22913748685824,39.78316681519076],[9.22913465448475,39.78310578347499],[9.229118348929903,39.78275248980433],[9.229105659530449,39.7827162553958],[9.228948072955097,39.78226625366268],[9.228861815357952,39.782027012045596],[9.22884943151315,39.78197788080337],[9.228789951833837,39.781818894502656],[9.228540999465691,39.781203898507805],[9.228069546459727,39.779889357507074],[9.22768210981111,39.77925941339361],[9.227353214404257,39.778674404822965],[9.227187835597858,39.77809808452022],[9.22724468018134,39.777629449759566],[9.227395089612953,39.77720568233671],[9.22776736101845,39.776781478598444],[9.228232834635401,39.7762940212281],[9.228628120815706,39.77577065878116],[9.2293382249264,39.77511152299218],[9.229709872980886,39.77450711310641],[9.229801788625153,39.77405642768638],[9.229765260861743,39.7736059965057],[9.2296817581253,39.77307456786057],[9.229505386521394,39.77270550357233],[9.229340841493393,39.77238146634431],[9.228883616896466,39.77182374444055],[9.228629590167639,39.77146592243698],[9.228571609432466,39.77138830430499],[9.228523559505081,39.7713159897845],[9.228495665000674,39.77126127022313],[9.228475875649178,39.771220869842324],[9.228402392273278,39.77106784648925],[9.228178999982214,39.77059976185073],[9.227932497649777,39.770203803312086],[9.227662854045578,39.769870959752986],[9.227393094470736,39.76950207517707],[9.227252066791472,39.76922303946401],[9.227087451873873,39.76887196851658],[9.226957629080822,39.76844874807956],[9.226956209018562,39.76801626720776],[9.22698904518117,39.767349457157415],[9.227081235676454,39.76697986326736],[9.227289880460235,39.766519941558556],[9.227591450178602,39.76591567479445],[9.227928010435939,39.765302328326115],[9.22797344346307,39.76521240604547],[9.228183196209477,39.764797262703325],[9.228427179628321,39.76443637923485],[9.228764619792074,39.76409333138929],[9.2290789158017,39.76381339842905],[9.229427903777905,39.763434286100264],[9.22976530414881,39.763082225214795],[9.230067706886528,39.76273924286482],[9.230545976694074,39.76262116271381],[9.23102469532463,39.762638231188205],[9.231455902034085,39.76241211993815],[9.23166501845714,39.76210535912001],[9.231931990868919,39.76164531229013],[9.232303574650043,39.76104990306992],[9.232582002124241,39.760526759704646],[9.232732340928225,39.76010298431848],[9.232870822778173,39.75962517151438],[9.233009728994894,39.75927349995739],[9.23338074341994,39.75851590613307],[9.233647629758195,39.75803783403475],[9.233903112876423,39.757640875767365],[9.234427119811778,39.75725238417291],[9.235113846182815,39.75665632955182],[9.235975417535778,39.7559878341462],[9.23678972300378,39.755157246551896],[9.237324286042824,39.754453366925766],[9.238021640548201,39.75356894941813],[9.23832315356412,39.7529916841938],[9.238450468938588,39.75267606935268],[9.238472820791412,39.752387699664055],[9.238307972155791,39.751973573781775],[9.237898369029763,39.751668070712164],[9.237547506064578,39.75147056719583],[9.237277951599568,39.751155764143185],[9.23731741388873,39.750750229122104],[9.2371232103641,39.75028210037413],[9.237016736470633,39.74986785323554],[9.23698085559238,39.749615643292394],[9.236991168561659,39.749219177958445],[9.23717653614666,39.74881334397562],[9.237606800967392,39.74834393828396],[9.238037432039206,39.74798265239006],[9.238526233043624,39.747567183374585],[9.238921620330219,39.74714289529799],[9.239212205044783,39.746790902426454],[9.239409599314435,39.74649316214375],[9.239617164549339,39.74576291437904],[9.23957983981091,39.745096243130476],[9.239530814162253,39.74442058575052],[9.239412538772688,39.74397032399721],[9.239329592239617,39.74361009023437],[9.239537774923502,39.74306004385936],[9.239781841457042,39.74276220644739],[9.240084418724784,39.742509297560424],[9.24043389685988,39.74231936207416],[9.240841887277915,39.74217435420021],[9.241463752836268,39.742281183732906],[9.242641551228362,39.74282834491323],[9.243128165837328,39.74305434838074],[9.2433197865848,39.743143810905934],[9.243380102348354,39.7431716223558],[9.243656736679942,39.743299176827385],[9.243793019669708,39.7433635568136],[9.243857363944016,39.743393434599824],[9.243974283840812,39.74345175424791],[9.244595022178665,39.74376399709905],[9.245311320806252,39.74412430047499],[9.24589183104323,39.744416296170584],[9.246109327100498,39.74447522319828],[9.246452882466603,39.744571706112815],[9.246943201668023,39.74467535704948],[9.25115690847424,39.74455454638258],[9.251240224356097,39.74455377772698],[9.251354631125313,39.74454875736523],[9.254010133016099,39.744529529375434],[9.254154962717184,39.74452536682777],[9.254272450220647,39.744524382418426],[9.254857970447945,39.74445653026207],[9.256290793081355,39.744294691043045],[9.256465097559445,39.74408707363256],[9.25668575160758,39.743789251621266],[9.256930149395423,39.7435994988571],[9.257431515264333,39.743463236215376],[9.257828409467622,39.74348037574856],[9.258260317065867,39.74349743603343],[9.258469357418532,39.743217656820434],[9.25833969454677,39.74287556197096],[9.258280362297974,39.74261440037877],[9.258278545911153,39.74212785790216],[9.258311541163014,39.741587177697255],[9.2582868534248,39.741226827774504],[9.258168933494133,39.74090272596264],[9.258038470027726,39.7403443887448],[9.258014153783112,39.74008314906042],[9.258316383377094,39.73975811275275],[9.25857209540722,39.73947823022447],[9.25887411748159,39.7390991317439],[9.259141259280575,39.73875615109578],[9.259466413566019,39.73832293913342],[9.259792240357987,39.738069926806396],[9.26019975708323,39.73781673048639],[9.260607644102878,39.73766264403635],[9.260934109161765,39.737580818946824],[9.261295821777344,39.73756198587117],[9.26197260105254,39.737533430004675],[9.262381507372943,39.737649638150295],[9.26309466757082,39.73798139856248],[9.263375786630052,39.738251064213415],[9.263460123263378,39.73838033670401],[9.263575350882592,39.738556956037215],[9.263868454066275,39.738907684082015],[9.264056284068591,39.73919558132848],[9.264131395146588,39.739440152481876],[9.264174470563793,39.73958274705993],[9.264246008212885,39.73997902993001],[9.264375523773552,39.74027606861615],[9.264645606574744,39.74070793871056],[9.264868801585912,39.741085854901954],[9.26500001178472,39.7418243845586],[9.265014823689524,39.74264427143342],[9.26506351112422,39.74316674653936],[9.26501782649007,39.743428144411],[9.264738852088982,39.743726114358566],[9.264612190030126,39.74417690875472],[9.264684149932076,39.74468131136696],[9.264697786694557,39.74519485617618],[9.264817227768678,39.745906382703794],[9.264830173208818,39.74648596727881],[9.264831157937346,39.746534948876615],[9.264996446418408,39.746987186334245],[9.265079150846365,39.7472482908978],[9.2649992768825,39.7477260091288],[9.264790041363934,39.74795173924844],[9.264462548575695,39.74829625203194],[9.264406410862954,39.748358068093964],[9.26406963721906,39.748809339947094],[9.264043643459836,39.74885418776396],[9.264003361230483,39.74891336361805],[9.263967325318108,39.74897129991252],[9.263686858817284,39.749440917922264],[9.263610669620721,39.74954778135915],[9.263178170113745,39.75016860151452],[9.263120315411784,39.750224996705],[9.263053340623602,39.75028964873453],[9.262986361051558,39.75035430343872],[9.262919382514829,39.75041895629926],[9.262456764484936,39.750858198602955],[9.262385194018231,39.75093053459684],[9.262199729852288,39.751273337556455],[9.262025835438495,39.751589083567545],[9.261886820421404,39.75186870992697],[9.26171316059985,39.7522475261128],[9.261621652948708,39.75274328820848],[9.261541611485889,39.753184963335315],[9.261461808635481,39.75368970812227],[9.26135814617665,39.75405935580677],[9.261254211475459,39.754356922641975],[9.261115255876522,39.75465456905598],[9.260918681215495,39.75515056580097],[9.260710259234763,39.75560153885197],[9.260594781732012,39.75593517161215],[9.260353981650058,39.75708900410516],[9.260078422920582,39.75831499416256],[9.259848601898925,39.759288599135736],[9.259581215720205,39.759586530017856],[9.259243680558942,39.75985758738799],[9.258790009485798,39.760291083828164],[9.258174775744935,39.76122950231267],[9.25781495323951,39.76178892737468],[9.257607264555899,39.76244712544773],[9.257410675225652,39.7629521258209],[9.257409424391772,39.76300844206699],[9.257400441833992,39.76333958248912],[9.257530038295837,39.76365464773173],[9.25766245803274,39.76472655312053],[9.257600682449686,39.76515043230464],[9.257560001112038,39.76542956699007],[9.257327976015619,39.765826525589794],[9.257282549432398,39.766169009323264],[9.257423792516166,39.766475038558724],[9.257716379038607,39.76666360061563],[9.257997091150287,39.76679812832663],[9.259568291987199,39.7669194076532],[9.259699297652936,39.766929518622774],[9.26276204944893,39.76716586151119],[9.262833232724658,39.767463033423915],[9.262910916923985,39.767741604419555],[9.262915148429034,39.76777666322903],[9.262929967480739,39.76781419206307],[9.26319935530593,39.76856143268156],[9.263457213967706,39.76882214008565],[9.263668647625657,39.76915503263732],[9.263787123639236,39.769605267066176],[9.263788499138045,39.76996566610081],[9.26374351572964,39.77041627189952],[9.263628715890617,39.77093010724524],[9.263560892759308,39.77151591599847],[9.263550316056154,39.771804261832465],[9.263481290339106,39.77207472097362],[9.263401101698241,39.77248035569534],[9.26347225896914,39.772768516854896],[9.263543450028711,39.77306568711721],[9.263475110073996,39.773516345608094],[9.263054895999046,39.77355333933475],[9.262622970687662,39.77358134700124],[9.262156186305868,39.773654483396534],[9.26193539177953,39.77393429348575],[9.261808691294078,39.774394092773484],[9.26142469397307,39.774746350987115],[9.261180166034997,39.77492710335139],[9.26084269861688,39.77523420421461],[9.261054479875988,39.77565720082541],[9.261336222085559,39.776053010001746],[9.261243760249103,39.776305499226766],[9.261116335896755,39.776576088201814],[9.260930491097179,39.77683779824945],[9.260535444103537,39.77736126895576],[9.260255737253294,39.777506057738],[9.260081631772286,39.77778575942831],[9.260094869151102,39.77820019312575],[9.260213304966467,39.77864142046762],[9.260354960264594,39.779046555046754],[9.260625102848813,39.77946041108718],[9.260953296367312,39.779784035566536],[9.261225142737556,39.77987465156315],[9.261342086207478,39.77991342106445],[9.261382550231485,39.77992813538289],[9.261420826901206,39.77993911000477],[9.261549027586938,39.77998057139418],[9.26159637745062,39.779998830021405],[9.26176367888875,39.77998388882849],[9.261867971365522,39.779978026728834],[9.261999359857068,39.779966067484544],[9.262518490250606,39.77988862635653],[9.262879306941002,39.77991970729881],[9.262985166209301,39.77992576735347],[9.263093953187278,39.77993031778531],[9.263196674230315,39.77993319157157],[9.263230975394249,39.77993447971355],[9.263298904108817,39.77994139497116],[9.263399487932803,39.779951561719386],[9.263962523321851,39.780032071052176],[9.264411349262554,39.78017265164215],[9.264727713542152,39.780451241699424],[9.264842036755153,39.78052373224341],[9.264925798405523,39.780573742795696],[9.265009423900567,39.78062415004346],[9.26504138646385,39.78064220452928],[9.265096134947939,39.78066820435],[9.265675401152818,39.78091759914515],[9.26606142329759,39.78108790632974],[9.266564884943298,39.78142913222908],[9.267067621305799,39.781581147661825],[9.267086522622817,39.78178155061805],[9.267104154002453,39.78196849626158],[9.26711708606908,39.78229282827636],[9.267083584706308,39.782689347228185],[9.266968058648251,39.78301397477434],[9.266806027589087,39.78339276984643],[9.266737142456206,39.78369926964664],[9.266948810728875,39.78407720537398],[9.267206637170469,39.78431087338701],[9.267698765036322,39.78473321132623],[9.267794042379169,39.7852105242691],[9.26770197736314,39.78556212862414],[9.267447039932055,39.786076288672334],[9.267132938514424,39.78639236353106],[9.266700795549403,39.786384347322794],[9.2663271850921,39.78641223566715],[9.266012036069764,39.78645800905654],[9.265394142444647,39.78673873467069],[9.265114546308682,39.78691957517358],[9.264834879613156,39.78708239402451],[9.264473183733351,39.787173320030846],[9.264029700408402,39.78728593816112],[9.263901198202198,39.7872936079278],[9.263364219617722,39.78731099281646],[9.262335804308016,39.78713312065694],[9.261844921501874,39.78703511886386],[9.261540865453863,39.786927683983855],[9.261506916425244,39.78687656409725],[9.261466405552103,39.78681661915748],[9.261317709598943,39.786594815016535],[9.261199662829503,39.78626170907854],[9.260941950258063,39.78605505788712],[9.260556354631364,39.786001863529265],[9.260241203569931,39.78604762125715],[9.260009057478182,39.78642656389298],[9.260232511992056,39.78684052488591],[9.260489986377914,39.78698410823513],[9.260596611368692,39.78705101225493],[9.260664501635729,39.78709361279556],[9.26074753102196,39.78714571018472],[9.261005177840781,39.78733434167898],[9.26123960459378,39.78755906533303],[9.26160274002399,39.787846569256295],[9.262152842617402,39.788160679277354],[9.262936804434858,39.788546337973],[9.263708648653083,39.78881488738606],[9.264842583582503,39.789091616892236],[9.266408550092894,39.78934031307941],[9.26726168312926,39.78948251238533],[9.267834274484276,39.789562282426196],[9.26879287472293,39.789794327230894],[9.269318789571168,39.78988320815184],[9.269716233498096,39.78997238534088],[9.270288972726618,39.79008818335943],[9.270710342778482,39.790321462291324],[9.271038175613098,39.790527927844884],[9.271565195975286,39.790896107606436],[9.27215118759668,39.791408307516065],[9.27285366376802,39.791839139615846],[9.273826171125213,39.792620722067674],[9.274821988530364,39.7933842208291],[9.275372555590817,39.793788366829006],[9.275993458854424,39.79425541365504],[9.276037926471343,39.79429082211737],[9.276602726512907,39.79473149495054],[9.277130641439534,39.79530687753506],[9.278163173242866,39.79646669854559],[9.27824525981087,39.79656919257347],[9.278597634258832,39.79703328813007],[9.27889351842621,39.79744554810145],[9.279020494663841,39.79761792411587],[9.279396750075419,39.7982297001055],[9.27987850215475,39.79893132137799],[9.280336683880261,39.79957893692544],[9.280414167177403,39.79969214266837],[9.28082668737728,39.8002772778956],[9.281155329021209,39.800923165377434],[9.28151182032463,39.801306016632374],[9.281760251776609,39.80141082185731],[9.281804362918601,39.801431446965964],[9.282260257463815,39.801511428874555],[9.282703882657952,39.80144727920789],[9.283088991278753,39.8013562394355],[9.283508882296706,39.80120204456528],[9.283964037250584,39.80110182154083],[9.28453622397936,39.80105536948255],[9.284980997012923,39.8012705184606],[9.285067874964694,39.80154421276889],[9.285088656589558,39.80188293575206],[9.285134247145338,39.80218677555524],[9.285136797036893,39.802225198227966],[9.285192522255027,39.80265894849811],[9.285210546284569,39.802789152258086],[9.285233224794034,39.802945762154344],[9.28529345668292,39.803387104857194],[9.285376639394533,39.803729281884294],[9.28541384598735,39.80425177187583],[9.285578320413444,39.80447661759751],[9.285731263315867,39.80473753091773],[9.286049357184973,39.805385468022386],[9.286472294722737,39.805961065612024],[9.286825035691802,39.806509804877884],[9.287364807200385,39.807085110236294],[9.287776009945016,39.807642711778314],[9.288257160675848,39.808164098636354],[9.288702933336285,39.80860448074896],[9.28913684046399,39.808999840278],[9.289535592658098,39.80936825654055],[9.289770451971537,39.80965599009533],[9.290087584146184,39.810060648520135],[9.290333789730088,39.81026726273284],[9.290591832448097,39.8105098870791],[9.290838458803526,39.8108156090902],[9.291108909113081,39.81122939080231],[9.2915436458731,39.81181394971301],[9.292037720428665,39.81261459756887],[9.29228562006137,39.81321764377621],[9.292403788316738,39.81353269588337],[9.292381948770043,39.81389315108905],[9.292427233017929,39.814360562359845],[9.292430820203817,39.81439758741345],[9.292493058147322,39.81455961091258],[9.2925772448313,39.81476481745752],[9.29260555279664,39.81483365058653],[9.292679395360903,39.814976303691964],[9.292694231108204,39.8150096035277],[9.292725769568904,39.815072593554014],[9.292861382941515,39.81545968253076],[9.29291499716118,39.815612716567635],[9.292924128261205,39.8159100248796],[9.292928554955504,39.81605417299451],[9.292871722991704,39.8163606569642],[9.292860021851357,39.81642375607075],[9.292813849894381,39.81665401945393],[9.292768501519015,39.81688349595503],[9.292748460772119,39.81766741598005],[9.292803518183407,39.81821909759967],[9.292821584125255,39.81837902120192],[9.292849885280464,39.818613209647125],[9.292904310862298,39.81906357185586],[9.292918461118928,39.819180666057115],[9.292938003165984,39.819359264649336],[9.292955147310767,39.819524843439304],[9.292991434873617,39.819856231111295],[9.293001346660862,39.81996432592682],[9.293042645730969,39.8204147211106],[9.293064947087212,39.820657934633424],[9.293081331535328,39.820865122845106],[9.293101990940794,39.821126359708636],[9.29309217796078,39.82125200726093],[9.293035327978599,39.82193742714945],[9.29301605088647,39.822506188027205],[9.29300417834815,39.822856523653],[9.292972109605985,39.823559383675516],[9.292916362861854,39.82419022294071],[9.292721618898948,39.82510973281098],[9.292653571754514,39.82559644376752],[9.292550239401608,39.826029183304094],[9.292477856464256,39.82627348775991],[9.292450654720568,39.82637598350331],[9.292435067522652,39.826425912351326],[9.292400444570543,39.826552767440454],[9.29236091387289,39.826712785566734],[9.292347947344922,39.826747761021956],[9.29227399221694,39.82702097893387],[9.292171227885078,39.82758886645652],[9.292208573885263,39.828129370895404],[9.292190165605229,39.8293007145636],[9.291829047772016,39.82957192306879],[9.291662678597607,39.82967665884462],[9.29156674066814,39.829737024025135],[9.291514367681293,39.829770929790485],[9.291176503893237,39.83001504767776],[9.290873960825989,39.83032214545033],[9.290643777918023,39.830782921219395],[9.290627402613257,39.830814705531715],[9.290592281823917,39.8308740787013],[9.290363719601537,39.83126046198443],[9.290078661229696,39.83158736119279],[9.289898546101321,39.83180222521163],[9.289270282934217,39.8324705302779],[9.28844420712088,39.83334655391305],[9.287689088058226,39.834078236777],[9.286366536358457,39.836775488795276],[9.286192239184556,39.83701918807776],[9.285596492880797,39.837092736447566],[9.284863015387488,39.83714227220074],[9.284194404799344,39.83718627986072],[9.283738604539545,39.837187395500536],[9.283376190212266,39.83716125117606],[9.282815649270825,39.83727073851765],[9.282593070738168,39.83744211478785],[9.282384449855398,39.837596184415396],[9.282046985505028,39.83793033700703],[9.281803208312091,39.83833637829378],[9.281572956764512,39.83919288342058],[9.28130701130082,39.83989630577183],[9.280947631021602,39.84061797380426],[9.280564428446674,39.84123157788696],[9.280261752404577,39.8415296386883],[9.279806983766203,39.841792024593154],[9.279363899770944,39.84205438147146],[9.279261548219205,39.842253433295205],[9.27922631021728,39.8423286869866],[9.279168888250945,39.84296485662772],[9.279172058029655,39.84377584879919],[9.278980728759604,39.8445362858733],[9.278953593952924,39.84464122602198],[9.27893088108083,39.84468786336794],[9.278666653483238,39.845234750068016],[9.278629049618822,39.84531775243987],[9.278519508910774,39.845430729085656],[9.278396223706736,39.84555257023643],[9.278093046840192,39.845733496977516],[9.277604787190404,39.845926434833615],[9.277507325939478,39.84596781228627],[9.27741001978051,39.846009417239635],[9.27732256544597,39.846047379234115],[9.277010016307731,39.84613877941921],[9.276947211747068,39.84616117241373],[9.276809178345333,39.84620508514237],[9.276106871378905,39.84636845537101],[9.275781508253953,39.84644179061459],[9.275361468906423,39.8466319979748],[9.274965164494064,39.84691224598229],[9.27455734616088,39.84723757088891],[9.274210414350485,39.847647024783264],[9.27418506055757,39.84767993885261],[9.274117256482834,39.84826574506049],[9.274073831851448,39.84910377322515],[9.274052495343653,39.84961739111492],[9.273389029214378,39.85033074170714],[9.273109411500476,39.85056565898999],[9.272906074280721,39.850749227377776],[9.272864786982728,39.850782473253055],[9.272490582201073,39.85074731367062],[9.27239787198427,39.850776488697484],[9.272000227568267,39.850901632931674],[9.27142804442134,39.85105614250841],[9.270984266721035,39.8511652993002],[9.270622952205127,39.85143644144447],[9.270296314206899,39.85160839148539],[9.26995798481501,39.85178036871194],[9.269607718363773,39.85188930258204]]]}}]}
